{"type":"FeatureCollection","features":[{"type":"Feature","geometry":{"type":"Point","coordinates":[4.851044,52.395109]},"properties":{"name":"Amsterdam, Isolatorweg","original_ids":"[32117, 3462]","id":0,"layer":"stop"}},{"type":"Feature","geometry":{"type":"Point","coordinates":[4.838781,52.388806]},"properties":{"name":"Amsterdam, Station Sloterdijk","original_ids":"[42532, 2090]","id":1,"layer":"stop"}},{"type":"Feature","geometry":{"type":"Point","coordinates":[4.838088,52.37951]},"properties":{"name":"Amsterdam, Burg.de Vlugtlaan","original_ids":"[36509, 7867]","id":2,"layer":"stop"}},{"type":"Feature","geometry":{"type":"Point","coordinates":[4.834922,52.371963]},"properties":{"name":"Amsterdam, Jan v.Galenstraat","original_ids":"[6479, 22928]","id":3,"layer":"stop"}},{"type":"Feature","geometry":{"type":"Point","coordinates":[4.833853,52.364678]},"properties":{"name":"Amsterdam, Postjesweg","original_ids":"[11211, 8160]","id":4,"layer":"stop"}},{"type":"Feature","geometry":{"type":"Point","coordinates":[4.834263,52.357661]},"properties":{"name":"Amsterdam, Station Lelylaan","original_ids":"[24551, 38125]","id":5,"layer":"stop"}},{"type":"Feature","geometry":{"type":"Point","coordinates":[4.834209,52.352555]},"properties":{"name":"Amsterdam, Heemstedestraat","original_ids":"[12536, 38124]","id":6,"layer":"stop"}},{"type":"Feature","geometry":{"type":"Point","coordinates":[4.834391,52.346265]},"properties":{"name":"Amsterdam, Henk Sneevlietweg","original_ids":"[18577, 10933]","id":7,"layer":"stop"}},{"type":"Feature","geometry":{"type":"Point","coordinates":[4.857981,52.338365]},"properties":{"name":"Amsterdam, Amstelveenseweg","original_ids":"[30509, 478]","id":8,"layer":"stop"}},{"type":"Feature","geometry":{"type":"Point","coordinates":[4.875096,52.339078]},"properties":{"name":"Amsterdam, Station Zuid","original_ids":"[13913, 37868, 36521]","id":9,"layer":"stop"}},{"type":"Feature","geometry":{"type":"Point","coordinates":[4.889817,52.337397]},"properties":{"name":"Amsterdam, Station RAI","original_ids":"[9590, 27601]","id":10,"layer":"stop"}},{"type":"Feature","geometry":{"type":"Point","coordinates":[4.918151,52.331797]},"properties":{"name":"Amsterdam, Overamstel","original_ids":"[16934, 27600, 21553]","id":11,"layer":"stop"}},{"type":"Feature","geometry":{"type":"Point","coordinates":[4.920894,52.340184]},"properties":{"name":"Amsterdam, Spaklerweg","original_ids":"[46787, 3491, 13921, 30516]","id":12,"layer":"stop"}},{"type":"Feature","geometry":{"type":"Point","coordinates":[4.91757,52.346489]},"properties":{"name":"Amsterdam, Amstelstation","original_ids":"[36531, 42555]","id":13,"layer":"stop"}},{"type":"Feature","geometry":{"type":"Point","coordinates":[4.912232,52.354341]},"properties":{"name":"Amsterdam, Wibautstraat","original_ids":"[45447, 7881]","id":14,"layer":"stop"}},{"type":"Feature","geometry":{"type":"Point","coordinates":[4.908033,52.361227]},"properties":{"name":"Amsterdam, Weesperplein","original_ids":"[12558, 45446]","id":15,"layer":"stop"}},{"type":"Feature","geometry":{"type":"Point","coordinates":[4.903052,52.367004]},"properties":{"name":"Amsterdam, Waterlooplein","original_ids":"[41159, 492]","id":16,"layer":"stop"}},{"type":"Feature","geometry":{"type":"Point","coordinates":[4.901295,52.371931]},"properties":{"name":"Amsterdam, Nieuwmarkt","original_ids":"[41158, 21561]","id":17,"layer":"stop"}},{"type":"Feature","geometry":{"type":"Point","coordinates":[4.901133,52.377359]},"properties":{"name":"Amsterdam, Centraal Station","original_ids":"[39538, 47050, 17212, 44128]","id":18,"layer":"stop"}},{"type":"Feature","geometry":{"type":"Point","coordinates":[4.891476,52.341242]},"properties":{"name":"Amsterdam, Europaplein","original_ids":"[40874, 33532]","id":19,"layer":"stop"}},{"type":"Feature","geometry":{"type":"Point","coordinates":[4.89093,52.353337]},"properties":{"name":"Amsterdam, De Pijp","original_ids":"[5110, 8177]","id":20,"layer":"stop"}},{"type":"Feature","geometry":{"type":"Point","coordinates":[4.890955,52.360303]},"properties":{"name":"Amsterdam, Vijzelgracht","original_ids":"[41160, 42557]","id":21,"layer":"stop"}},{"type":"Feature","geometry":{"type":"Point","coordinates":[4.892421,52.369737]},"properties":{"name":"Amsterdam, Rokin","original_ids":"[38143, 30518]","id":22,"layer":"stop"}},{"type":"Feature","geometry":{"type":"Point","coordinates":[4.919774,52.389459]},"properties":{"name":"Amsterdam, Noorderpark","original_ids":"[29154, 6508]","id":23,"layer":"stop"}},{"type":"Feature","geometry":{"type":"Point","coordinates":[4.932368,52.40192]},"properties":{"name":"Amsterdam, Noord","original_ids":"[52030, 38142]","id":24,"layer":"stop"}},{"type":"Feature","geometry":{"type":"Point","coordinates":[4.930323,52.3294]},"properties":{"name":"Amsterdam, Van der Madeweg","original_ids":"[27610, 45445, 39537, 9597]","id":25,"layer":"stop"}},{"type":"Feature","geometry":{"type":"Point","coordinates":[4.946647,52.326792]},"properties":{"name":"Amsterdam, Venserpolder","original_ids":"[9598, 15517]","id":26,"layer":"stop"}},{"type":"Feature","geometry":{"type":"Point","coordinates":[4.95713,52.330426]},"properties":{"name":"Diemen, Station Diemen-Zuid","original_ids":"[20245, 20244]","id":27,"layer":"stop"}},{"type":"Feature","geometry":{"type":"Point","coordinates":[4.966934,52.328439]},"properties":{"name":"Amsterdam, Verrijn Stuartweg","original_ids":"[29153, 11226]","id":28,"layer":"stop"}},{"type":"Feature","geometry":{"type":"Point","coordinates":[4.973231,52.323311]},"properties":{"name":"Amsterdam, Station Ganzenhoef","original_ids":"[2125, 30517]","id":29,"layer":"stop"}},{"type":"Feature","geometry":{"type":"Point","coordinates":[4.979632,52.316323]},"properties":{"name":"Amsterdam, Kraaienneststation","original_ids":"[12559, 27611]","id":30,"layer":"stop"}},{"type":"Feature","geometry":{"type":"Point","coordinates":[4.984488,52.311225]},"properties":{"name":"Amsterdam, Gaasperplas","original_ids":"[35204, 2126]","id":31,"layer":"stop"}},{"type":"Feature","geometry":{"type":"Point","coordinates":[4.988478,52.296391]},"properties":{"name":"Amsterdam, Gein","original_ids":"[4866, 45448]","id":32,"layer":"stop"}},{"type":"Feature","geometry":{"type":"Point","coordinates":[4.973636,52.295585]},"properties":{"name":"Amsterdam, Reigersbos","original_ids":"[19973, 15516]","id":33,"layer":"stop"}},{"type":"Feature","geometry":{"type":"Point","coordinates":[4.959873,52.298403]},"properties":{"name":"Amsterdam, Station Holendrecht","original_ids":"[19972, 6507]","id":34,"layer":"stop"}},{"type":"Feature","geometry":{"type":"Point","coordinates":[4.952079,52.306931]},"properties":{"name":"Amsterdam, Bullewijk","original_ids":"[22943, 24573]","id":35,"layer":"stop"}},{"type":"Feature","geometry":{"type":"Point","coordinates":[4.946935,52.312611]},"properties":{"name":"Amsterdam, Station Bijlmer ArenA","original_ids":"[42556, 36532]","id":36,"layer":"stop"}},{"type":"Feature","geometry":{"type":"Point","coordinates":[4.94136,52.318665]},"properties":{"name":"Amsterdam, Strandvliet","original_ids":"[21562, 493]","id":37,"layer":"stop"}},{"type":"Feature","geometry":{"type":"Point","coordinates":[4.936262,52.323895]},"properties":{"name":"Duivendrecht, Station Duivendrecht","original_ids":"[5109, 33531]","id":38,"layer":"stop"}},{"type":"Feature","properties":{"shape_id":"{\"1035465\": 38, \"981862\": 47, \"1035464\": 3, \"981850\": 31, \"981852\": 61, \"981858\": 4}","direction_id":"{\"0\": 184}","headsign":"{\"Centraal Station\": 92, \"Gein\": 92}","duration_avg":87.0,"n_vehicles":184,"d":1089,"route_I_counts":"{\"1\": 92, \"4\": 92}","source":0,"target":1,"layer":"L","from":"Amsterdam, Isolatorweg","to":"Amsterdam, Station Sloterdijk"},"geometry":{"type":"LineString","coordinates":[[4.851044,52.395109],[4.838781,52.388806]]}},{"type":"Feature","properties":{"shape_id":"{\"1035464\": 3, \"1035465\": 38, \"981850\": 31, \"981852\": 61, \"981858\": 4, \"981862\": 46}","direction_id":"{\"0\": 183}","headsign":"{\"Centraal Station\": 91, \"Gein\": 92}","duration_avg":79.0,"n_vehicles":183,"d":1035,"route_I_counts":"{\"1\": 91, \"4\": 92}","source":1,"target":2,"layer":"L","from":"Amsterdam, Station Sloterdijk","to":"Amsterdam, Burg.de Vlugtlaan"},"geometry":{"type":"LineString","coordinates":[[4.838781,52.388806],[4.838088,52.37951]]}},{"type":"Feature","properties":{"duration_avg":125.58520315342632,"n_vehicles":182,"d":1041,"route_I_counts":"{\"1\": 91, \"4\": 91}","shape_id":"{\"1035466\": 42, \"981853\": 2, \"981857\": 4, \"981861\": 49, \"981851\": 37, \"981855\": 48}","direction_id":"{\"1\": 182}","headsign":"{\"Isolatorweg\": 182}","source":1,"target":0,"layer":"L","from":"Amsterdam, Station Sloterdijk","to":"Amsterdam, Isolatorweg"},"geometry":{"type":"LineString","coordinates":[[4.838781,52.388806],[4.851044,52.395109]]}},{"type":"Feature","properties":{"shape_id":"{\"1035464\": 3, \"1035465\": 38, \"981850\": 31, \"981852\": 61, \"981858\": 4, \"981862\": 46}","direction_id":"{\"0\": 183}","headsign":"{\"Centraal Station\": 91, \"Gein\": 92}","duration_avg":69.0,"n_vehicles":183,"d":867,"route_I_counts":"{\"1\": 91, \"4\": 92}","source":2,"target":3,"layer":"L","from":"Amsterdam, Burg.de Vlugtlaan","to":"Amsterdam, Jan v.Galenstraat"},"geometry":{"type":"LineString","coordinates":[[4.838088,52.37951],[4.834922,52.371963]]}},{"type":"Feature","properties":{"duration_avg":79.0,"n_vehicles":182,"d":1038,"route_I_counts":"{\"1\": 91, \"4\": 91}","shape_id":"{\"1035466\": 42, \"981851\": 37, \"981853\": 2, \"981855\": 48, \"981857\": 4, \"981861\": 49}","direction_id":"{\"1\": 182}","headsign":"{\"Isolatorweg\": 182}","source":2,"target":1,"layer":"L","from":"Amsterdam, Burg.de Vlugtlaan","to":"Amsterdam, Station Sloterdijk"},"geometry":{"type":"LineString","coordinates":[[4.838088,52.37951],[4.838781,52.388806]]}},{"type":"Feature","properties":{"shape_id":"{\"1035464\": 3, \"1035465\": 38, \"981850\": 31, \"981852\": 61, \"981858\": 4, \"981862\": 46}","direction_id":"{\"0\": 183}","headsign":"{\"Centraal Station\": 91, \"Gein\": 92}","duration_avg":67.0,"n_vehicles":183,"d":814,"route_I_counts":"{\"1\": 91, \"4\": 92}","source":3,"target":4,"layer":"L","from":"Amsterdam, Jan v.Galenstraat","to":"Amsterdam, Postjesweg"},"geometry":{"type":"LineString","coordinates":[[4.834922,52.371963],[4.833853,52.364678]]}},{"type":"Feature","properties":{"duration_avg":70.0,"n_vehicles":183,"d":865,"route_I_counts":"{\"1\": 92, \"4\": 91}","shape_id":"{\"1035466\": 43, \"981851\": 37, \"981853\": 2, \"981855\": 48, \"981857\": 4, \"981861\": 49}","direction_id":"{\"1\": 183}","headsign":"{\"Isolatorweg\": 183}","source":3,"target":2,"layer":"L","from":"Amsterdam, Jan v.Galenstraat","to":"Amsterdam, Burg.de Vlugtlaan"},"geometry":{"type":"LineString","coordinates":[[4.834922,52.371963],[4.838088,52.37951]]}},{"type":"Feature","properties":{"shape_id":"{\"1035464\": 3, \"1035465\": 38, \"981850\": 31, \"981852\": 61, \"981858\": 4, \"981862\": 46}","direction_id":"{\"0\": 183}","headsign":"{\"Centraal Station\": 91, \"Gein\": 92}","duration_avg":65.0,"n_vehicles":183,"d":781,"route_I_counts":"{\"1\": 91, \"4\": 92}","source":4,"target":5,"layer":"L","from":"Amsterdam, Postjesweg","to":"Amsterdam, Station Lelylaan"},"geometry":{"type":"LineString","coordinates":[[4.833853,52.364678],[4.834263,52.357661]]}},{"type":"Feature","properties":{"duration_avg":67.0,"n_vehicles":183,"d":829,"route_I_counts":"{\"1\": 92, \"4\": 91}","shape_id":"{\"1035466\": 43, \"981851\": 37, \"981853\": 2, \"981855\": 48, \"981857\": 4, \"981861\": 49}","direction_id":"{\"1\": 183}","headsign":"{\"Isolatorweg\": 183}","source":4,"target":3,"layer":"L","from":"Amsterdam, Postjesweg","to":"Amsterdam, Jan v.Galenstraat"},"geometry":{"type":"LineString","coordinates":[[4.833853,52.364678],[4.834922,52.371963]]}},{"type":"Feature","properties":{"shape_id":"{\"1035464\": 3, \"1035465\": 38, \"981850\": 31, \"981852\": 61, \"981858\": 4, \"981862\": 46}","direction_id":"{\"0\": 183}","headsign":"{\"Centraal Station\": 91, \"Gein\": 92}","duration_avg":54.0,"n_vehicles":183,"d":568,"route_I_counts":"{\"1\": 91, \"4\": 92}","source":5,"target":6,"layer":"L","from":"Amsterdam, Station Lelylaan","to":"Amsterdam, Heemstedestraat"},"geometry":{"type":"LineString","coordinates":[[4.834263,52.357661],[4.834209,52.352555]]}},{"type":"Feature","properties":{"duration_avg":67.0,"n_vehicles":183,"d":766,"route_I_counts":"{\"1\": 92, \"4\": 91}","shape_id":"{\"1035466\": 43, \"981851\": 37, \"981853\": 2, \"981855\": 48, \"981857\": 4, \"981861\": 49}","direction_id":"{\"1\": 183}","headsign":"{\"Isolatorweg\": 183}","source":5,"target":4,"layer":"L","from":"Amsterdam, Station Lelylaan","to":"Amsterdam, Postjesweg"},"geometry":{"type":"LineString","coordinates":[[4.834263,52.357661],[4.833853,52.364678]]}},{"type":"Feature","properties":{"shape_id":"{\"1035464\": 3, \"1035465\": 38, \"981850\": 31, \"981852\": 60, \"981858\": 4, \"981862\": 46}","direction_id":"{\"0\": 182}","headsign":"{\"Centraal Station\": 91, \"Gein\": 91}","duration_avg":61.0,"n_vehicles":182,"d":700,"route_I_counts":"{\"1\": 91, \"4\": 91}","source":6,"target":7,"layer":"L","from":"Amsterdam, Heemstedestraat","to":"Amsterdam, Henk Sneevlietweg"},"geometry":{"type":"LineString","coordinates":[[4.834209,52.352555],[4.834391,52.346265]]}},{"type":"Feature","properties":{"duration_avg":54.0,"n_vehicles":183,"d":566,"route_I_counts":"{\"1\": 92, \"4\": 91}","shape_id":"{\"1035466\": 43, \"981851\": 37, \"981853\": 2, \"981855\": 48, \"981857\": 4, \"981861\": 49}","direction_id":"{\"1\": 183}","headsign":"{\"Isolatorweg\": 183}","source":6,"target":5,"layer":"L","from":"Amsterdam, Heemstedestraat","to":"Amsterdam, Station Lelylaan"},"geometry":{"type":"LineString","coordinates":[[4.834209,52.352555],[4.834263,52.357661]]}},{"type":"Feature","properties":{"shape_id":"{\"1035464\": 3, \"1035465\": 38, \"981850\": 31, \"981852\": 60, \"981858\": 4, \"981862\": 46}","direction_id":"{\"0\": 182}","headsign":"{\"Centraal Station\": 91, \"Gein\": 91}","duration_avg":141.0,"n_vehicles":182,"d":1829,"route_I_counts":"{\"1\": 91, \"4\": 91}","source":7,"target":8,"layer":"L","from":"Amsterdam, Henk Sneevlietweg","to":"Amsterdam, Amstelveenseweg"},"geometry":{"type":"LineString","coordinates":[[4.834391,52.346265],[4.857981,52.338365]]}},{"type":"Feature","properties":{"duration_avg":61.0,"n_vehicles":183,"d":700,"route_I_counts":"{\"1\": 92, \"4\": 91}","shape_id":"{\"1035466\": 43, \"981851\": 37, \"981853\": 2, \"981855\": 48, \"981857\": 4, \"981861\": 49}","direction_id":"{\"1\": 183}","headsign":"{\"Isolatorweg\": 183}","source":7,"target":6,"layer":"L","from":"Amsterdam, Henk Sneevlietweg","to":"Amsterdam, Heemstedestraat"},"geometry":{"type":"LineString","coordinates":[[4.834391,52.346265],[4.834209,52.352555]]}},{"type":"Feature","properties":{"shape_id":"{\"1035464\": 3, \"1035465\": 37, \"981850\": 31, \"981852\": 60, \"981858\": 4, \"981862\": 46}","direction_id":"{\"0\": 181}","headsign":"{\"Centraal Station\": 90, \"Gein\": 91}","duration_avg":86.0,"n_vehicles":181,"d":1166,"route_I_counts":"{\"1\": 90, \"4\": 91}","source":8,"target":9,"layer":"L","from":"Amsterdam, Amstelveenseweg","to":"Amsterdam, Station Zuid"},"geometry":{"type":"LineString","coordinates":[[4.857981,52.338365],[4.875096,52.339078]]}},{"type":"Feature","properties":{"duration_avg":141.0,"n_vehicles":184,"d":1797,"route_I_counts":"{\"1\": 92, \"4\": 92}","shape_id":"{\"1035466\": 43, \"981851\": 37, \"981853\": 2, \"981855\": 49, \"981857\": 4, \"981861\": 49}","direction_id":"{\"1\": 184}","headsign":"{\"Isolatorweg\": 184}","source":8,"target":7,"layer":"L","from":"Amsterdam, Amstelveenseweg","to":"Amsterdam, Henk Sneevlietweg"},"geometry":{"type":"LineString","coordinates":[[4.857981,52.338365],[4.834391,52.346265]]}},{"type":"Feature","properties":{"shape_id":"{\"1035464\": 3, \"1035465\": 37, \"981850\": 31, \"981852\": 60, \"981858\": 4, \"981862\": 46}","direction_id":"{\"0\": 181}","headsign":"{\"Centraal Station\": 90, \"Gein\": 91}","duration_avg":79.0,"n_vehicles":181,"d":1018,"route_I_counts":"{\"1\": 90, \"4\": 91}","source":9,"target":10,"layer":"L","from":"Amsterdam, Station Zuid","to":"Amsterdam, Station RAI"},"geometry":{"type":"LineString","coordinates":[[4.875096,52.339078],[4.889817,52.337397]]}},{"type":"Feature","properties":{"duration_avg":84.0,"n_vehicles":179,"d":1130,"route_I_counts":"{\"1\": 89, \"4\": 90}","shape_id":"{\"1035466\": 40, \"981851\": 35, \"981853\": 2, \"981855\": 49, \"981857\": 4, \"981861\": 49}","direction_id":"{\"1\": 179}","headsign":"{\"Isolatorweg\": 179}","source":9,"target":8,"layer":"L","from":"Amsterdam, Station Zuid","to":"Amsterdam, Amstelveenseweg"},"geometry":{"type":"LineString","coordinates":[[4.875096,52.339078],[4.857981,52.338365]]}},{"type":"Feature","properties":{"duration_avg":123.0,"n_vehicles":139,"d":1201,"route_I_counts":"{\"2\": 139}","shape_id":"{\"989243\": 70, \"989244\": 69}","direction_id":"{\"1\": 139}","headsign":"{\"Noord\": 139}","source":9,"target":19,"layer":"L","from":"Amsterdam, Station Zuid","to":"Amsterdam, Europaplein"},"geometry":{"type":"LineString","coordinates":[[4.875096,52.339078],[4.891476,52.341242]]}},{"type":"Feature","properties":{"shape_id":"{\"1035464\": 3, \"1035465\": 37, \"981850\": 31, \"981852\": 60, \"981858\": 4, \"981862\": 46}","direction_id":"{\"0\": 181}","headsign":"{\"Centraal Station\": 90, \"Gein\": 91}","duration_avg":138.0,"n_vehicles":181,"d":2025,"route_I_counts":"{\"1\": 90, \"4\": 91}","source":10,"target":11,"layer":"L","from":"Amsterdam, Station RAI","to":"Amsterdam, Overamstel"},"geometry":{"type":"LineString","coordinates":[[4.889817,52.337397],[4.918151,52.331797]]}},{"type":"Feature","properties":{"duration_avg":84.0,"n_vehicles":179,"d":1063,"route_I_counts":"{\"1\": 89, \"4\": 90}","shape_id":"{\"1035466\": 40, \"981851\": 35, \"981853\": 2, \"981855\": 49, \"981857\": 4, \"981861\": 49}","direction_id":"{\"1\": 179}","headsign":"{\"Isolatorweg\": 179}","source":10,"target":9,"layer":"L","from":"Amsterdam, Station RAI","to":"Amsterdam, Station Zuid"},"geometry":{"type":"LineString","coordinates":[[4.889817,52.337397],[4.875096,52.339078]]}},{"type":"Feature","properties":{"shape_id":"{\"1035464\": 3, \"1035465\": 37, \"981858\": 4, \"981862\": 46}","direction_id":"{\"0\": 90}","headsign":"{\"Centraal Station\": 90}","duration_avg":87.0,"n_vehicles":90,"d":952,"route_I_counts":"{\"1\": 90}","source":11,"target":12,"layer":"L","from":"Amsterdam, Overamstel","to":"Amsterdam, Spaklerweg"},"geometry":{"type":"LineString","coordinates":[[4.918151,52.331797],[4.920894,52.340184]]}},{"type":"Feature","properties":{"duration_avg":138.0,"n_vehicles":180,"d":2034,"route_I_counts":"{\"1\": 90, \"4\": 90}","shape_id":"{\"1035466\": 40, \"981861\": 50, \"981851\": 35, \"981853\": 2, \"981855\": 49, \"981857\": 4}","direction_id":"{\"1\": 180}","headsign":"{\"Isolatorweg\": 180}","source":11,"target":10,"layer":"L","from":"Amsterdam, Overamstel","to":"Amsterdam, Station RAI"},"geometry":{"type":"LineString","coordinates":[[4.918151,52.331797],[4.889817,52.337397]]}},{"type":"Feature","properties":{"duration_avg":90.0,"n_vehicles":91,"d":878,"route_I_counts":"{\"4\": 91}","shape_id":"{\"981850\": 31, \"981852\": 60}","direction_id":"{\"0\": 91}","headsign":"{\"Gein\": 91}","source":11,"target":25,"layer":"L","from":"Amsterdam, Overamstel","to":"Amsterdam, Van der Madeweg"},"geometry":{"type":"LineString","coordinates":[[4.918151,52.331797],[4.930323,52.3294]]}},{"type":"Feature","properties":{"shape_id":"{\"1035464\": 4, \"1035465\": 37, \"981858\": 5, \"981862\": 46, \"1035469\": 41, \"1035470\": 31, \"972647\": 13, \"972649\": 38, \"981865\": 2, \"981867\": 48, \"981870\": 10}","direction_id":"{\"0\": 275}","headsign":"{\"Centraal Station\": 275}","duration_avg":58.5,"n_vehicles":275,"d":737,"route_I_counts":"{\"1\": 92, \"3\": 91, \"5\": 92}","source":12,"target":13,"layer":"L","from":"Amsterdam, Spaklerweg","to":"Amsterdam, Amstelstation"},"geometry":{"type":"LineString","coordinates":[[4.920894,52.340184],[4.91757,52.346489]]}},{"type":"Feature","properties":{"duration_avg":98.0,"n_vehicles":90,"d":961,"route_I_counts":"{\"1\": 90}","shape_id":"{\"1035466\": 40, \"981861\": 50}","direction_id":"{\"1\": 90}","headsign":"{\"Isolatorweg\": 90}","source":12,"target":11,"layer":"L","from":"Amsterdam, Spaklerweg","to":"Amsterdam, Overamstel"},"geometry":{"type":"LineString","coordinates":[[4.920894,52.340184],[4.918151,52.331797]]}},{"type":"Feature","properties":{"duration_avg":91.5,"n_vehicles":180,"d":1330,"route_I_counts":"{\"3\": 90, \"5\": 90}","shape_id":"{\"1035468\": 2, \"972646\": 50, \"972654\": 38, \"1035471\": 40, \"981871\": 23, \"981872\": 27}","direction_id":"{\"1\": 180}","headsign":"{\"Gaasperplas\": 90, \"Gein\": 90}","source":12,"target":25,"layer":"L","from":"Amsterdam, Spaklerweg","to":"Amsterdam, Van der Madeweg"},"geometry":{"type":"LineString","coordinates":[[4.920894,52.340184],[4.930323,52.3294]]}},{"type":"Feature","properties":{"shape_id":"{\"1035464\": 4, \"1035465\": 37, \"1035469\": 41, \"1035470\": 31, \"972647\": 13, \"972649\": 38, \"981858\": 5, \"981862\": 46, \"981865\": 2, \"981867\": 48, \"981870\": 10}","direction_id":"{\"0\": 275}","headsign":"{\"Centraal Station\": 275}","duration_avg":75.0,"n_vehicles":275,"d":946,"route_I_counts":"{\"1\": 92, \"3\": 91, \"5\": 92}","source":13,"target":14,"layer":"L","from":"Amsterdam, Amstelstation","to":"Amsterdam, Wibautstraat"},"geometry":{"type":"LineString","coordinates":[[4.91757,52.346489],[4.912232,52.354341]]}},{"type":"Feature","properties":{"duration_avg":57.0,"n_vehicles":270,"d":769,"route_I_counts":"{\"1\": 90, \"3\": 90, \"5\": 90}","shape_id":"{\"1035466\": 40, \"981861\": 50, \"1035468\": 2, \"1035471\": 40, \"972646\": 50, \"972654\": 38, \"981871\": 23, \"981872\": 27}","direction_id":"{\"1\": 270}","headsign":"{\"Isolatorweg\": 90, \"Gaasperplas\": 90, \"Gein\": 90}","source":13,"target":12,"layer":"L","from":"Amsterdam, Amstelstation","to":"Amsterdam, Spaklerweg"},"geometry":{"type":"LineString","coordinates":[[4.91757,52.346489],[4.920894,52.340184]]}},{"type":"Feature","properties":{"shape_id":"{\"1035464\": 4, \"1035465\": 37, \"1035469\": 41, \"1035470\": 31, \"972647\": 13, \"972649\": 38, \"981858\": 5, \"981862\": 46, \"981865\": 2, \"981867\": 48, \"981870\": 10}","direction_id":"{\"0\": 275}","headsign":"{\"Centraal Station\": 275}","duration_avg":68.0,"n_vehicles":275,"d":817,"route_I_counts":"{\"1\": 92, \"3\": 91, \"5\": 92}","source":14,"target":15,"layer":"L","from":"Amsterdam, Wibautstraat","to":"Amsterdam, Weesperplein"},"geometry":{"type":"LineString","coordinates":[[4.912232,52.354341],[4.908033,52.361227]]}},{"type":"Feature","properties":{"duration_avg":75.0,"n_vehicles":270,"d":946,"route_I_counts":"{\"1\": 90, \"3\": 90, \"5\": 90}","shape_id":"{\"1035466\": 40, \"1035468\": 2, \"1035471\": 40, \"972646\": 50, \"972654\": 38, \"981861\": 50, \"981871\": 23, \"981872\": 27}","direction_id":"{\"1\": 270}","headsign":"{\"Gaasperplas\": 90, \"Gein\": 90, \"Isolatorweg\": 90}","source":14,"target":13,"layer":"L","from":"Amsterdam, Wibautstraat","to":"Amsterdam, Amstelstation"},"geometry":{"type":"LineString","coordinates":[[4.912232,52.354341],[4.91757,52.346489]]}},{"type":"Feature","properties":{"shape_id":"{\"1035464\": 4, \"1035465\": 37, \"1035469\": 41, \"1035470\": 31, \"972647\": 13, \"972649\": 38, \"981858\": 5, \"981862\": 45, \"981865\": 2, \"981867\": 48, \"981870\": 10}","direction_id":"{\"0\": 274}","headsign":"{\"Centraal Station\": 274}","duration_avg":61.0,"n_vehicles":274,"d":726,"route_I_counts":"{\"1\": 91, \"3\": 91, \"5\": 92}","source":15,"target":16,"layer":"L","from":"Amsterdam, Weesperplein","to":"Amsterdam, Waterlooplein"},"geometry":{"type":"LineString","coordinates":[[4.908033,52.361227],[4.903052,52.367004]]}},{"type":"Feature","properties":{"duration_avg":69.0,"n_vehicles":271,"d":819,"route_I_counts":"{\"1\": 90, \"3\": 90, \"5\": 91}","shape_id":"{\"1035466\": 40, \"1035468\": 2, \"1035471\": 41, \"972646\": 50, \"972654\": 38, \"981861\": 50, \"981871\": 23, \"981872\": 27}","direction_id":"{\"1\": 271}","headsign":"{\"Gaasperplas\": 90, \"Gein\": 91, \"Isolatorweg\": 90}","source":15,"target":14,"layer":"L","from":"Amsterdam, Weesperplein","to":"Amsterdam, Wibautstraat"},"geometry":{"type":"LineString","coordinates":[[4.908033,52.361227],[4.912232,52.354341]]}},{"type":"Feature","properties":{"shape_id":"{\"1035464\": 4, \"1035465\": 37, \"1035469\": 41, \"1035470\": 31, \"972647\": 13, \"972649\": 38, \"981858\": 5, \"981862\": 45, \"981865\": 2, \"981867\": 48, \"981870\": 10}","direction_id":"{\"0\": 274}","headsign":"{\"Centraal Station\": 274}","duration_avg":54.0,"n_vehicles":274,"d":561,"route_I_counts":"{\"1\": 91, \"3\": 91, \"5\": 92}","source":16,"target":17,"layer":"L","from":"Amsterdam, Waterlooplein","to":"Amsterdam, Nieuwmarkt"},"geometry":{"type":"LineString","coordinates":[[4.903052,52.367004],[4.901295,52.371931]]}},{"type":"Feature","properties":{"duration_avg":62.0,"n_vehicles":271,"d":724,"route_I_counts":"{\"1\": 90, \"3\": 90, \"5\": 91}","shape_id":"{\"1035466\": 40, \"1035468\": 2, \"1035471\": 41, \"972646\": 50, \"972654\": 38, \"981861\": 50, \"981871\": 23, \"981872\": 27}","direction_id":"{\"1\": 271}","headsign":"{\"Gaasperplas\": 90, \"Gein\": 91, \"Isolatorweg\": 90}","source":16,"target":15,"layer":"L","from":"Amsterdam, Waterlooplein","to":"Amsterdam, Weesperplein"},"geometry":{"type":"LineString","coordinates":[[4.903052,52.367004],[4.908033,52.361227]]}},{"type":"Feature","properties":{"shape_id":"{\"1035464\": 4, \"1035465\": 37, \"972647\": 13, \"972649\": 38, \"981865\": 2, \"981867\": 47, \"1035469\": 41, \"1035470\": 31, \"981858\": 5, \"981862\": 45, \"981870\": 10}","direction_id":"{\"0\": 273}","headsign":"{\"Centraal Station\": 273}","duration_avg":99.30996131528046,"n_vehicles":273,"d":604,"route_I_counts":"{\"1\": 91, \"3\": 90, \"5\": 92}","source":17,"target":18,"layer":"L","from":"Amsterdam, Nieuwmarkt","to":"Amsterdam, Centraal Station"},"geometry":{"type":"LineString","coordinates":[[4.901295,52.371931],[4.901133,52.377359]]}},{"type":"Feature","properties":{"duration_avg":55.0,"n_vehicles":272,"d":565,"route_I_counts":"{\"1\": 91, \"3\": 90, \"5\": 91}","shape_id":"{\"1035466\": 41, \"1035468\": 2, \"1035471\": 41, \"972646\": 50, \"972654\": 38, \"981861\": 50, \"981871\": 23, \"981872\": 27}","direction_id":"{\"1\": 272}","headsign":"{\"Gaasperplas\": 90, \"Gein\": 91, \"Isolatorweg\": 91}","source":17,"target":16,"layer":"L","from":"Amsterdam, Nieuwmarkt","to":"Amsterdam, Waterlooplein"},"geometry":{"type":"LineString","coordinates":[[4.901295,52.371931],[4.903052,52.367004]]}},{"type":"Feature","properties":{"duration_avg":106.0,"n_vehicles":138,"d":1839,"route_I_counts":"{\"2\": 138}","shape_id":"{\"989243\": 69, \"989244\": 69}","direction_id":"{\"1\": 138}","headsign":"{\"Noord\": 138}","source":18,"target":23,"layer":"L","from":"Amsterdam, Centraal Station","to":"Amsterdam, Noorderpark"},"geometry":{"type":"LineString","coordinates":[[4.901133,52.377359],[4.919774,52.389459]]}},{"type":"Feature","properties":{"duration_avg":80.0,"n_vehicles":272,"d":603,"route_I_counts":"{\"1\": 91, \"3\": 90, \"5\": 91}","shape_id":"{\"1035466\": 41, \"972646\": 50, \"981871\": 23, \"981872\": 27, \"1035468\": 2, \"1035471\": 41, \"972654\": 38, \"981861\": 50}","direction_id":"{\"1\": 272}","headsign":"{\"Gaasperplas\": 90, \"Gein\": 91, \"Isolatorweg\": 91}","source":18,"target":17,"layer":"L","from":"Amsterdam, Centraal Station","to":"Amsterdam, Nieuwmarkt"},"geometry":{"type":"LineString","coordinates":[[4.901133,52.377359],[4.901295,52.371931]]}},{"type":"Feature","properties":{"duration_avg":86.0,"n_vehicles":140,"d":1083,"route_I_counts":"{\"2\": 140}","shape_id":"{\"989241\": 72, \"989242\": 68}","direction_id":"{\"0\": 140}","headsign":"{\"Station Zuid\": 140}","source":18,"target":22,"layer":"L","from":"Amsterdam, Centraal Station","to":"Amsterdam, Rokin"},"geometry":{"type":"LineString","coordinates":[[4.901133,52.377359],[4.892421,52.369737]]}},{"type":"Feature","properties":{"shape_id":"{\"989243\": 70, \"989244\": 69}","direction_id":"{\"1\": 139}","headsign":"{\"Noord\": 139}","duration_avg":102.0,"n_vehicles":139,"d":1346,"route_I_counts":"{\"2\": 139}","source":19,"target":20,"layer":"L","from":"Amsterdam, Europaplein","to":"Amsterdam, De Pijp"},"geometry":{"type":"LineString","coordinates":[[4.891476,52.341242],[4.89093,52.353337]]}},{"type":"Feature","properties":{"duration_avg":138.0,"n_vehicles":139,"d":1209,"route_I_counts":"{\"2\": 139}","shape_id":"{\"989241\": 71, \"989242\": 68}","direction_id":"{\"0\": 139}","headsign":"{\"Station Zuid\": 139}","source":19,"target":9,"layer":"L","from":"Amsterdam, Europaplein","to":"Amsterdam, Station Zuid"},"geometry":{"type":"LineString","coordinates":[[4.891476,52.341242],[4.875096,52.339078]]}},{"type":"Feature","properties":{"shape_id":"{\"989243\": 70, \"989244\": 69}","direction_id":"{\"1\": 139}","headsign":"{\"Noord\": 139}","duration_avg":72.0,"n_vehicles":139,"d":775,"route_I_counts":"{\"2\": 139}","source":20,"target":21,"layer":"L","from":"Amsterdam, De Pijp","to":"Amsterdam, Vijzelgracht"},"geometry":{"type":"LineString","coordinates":[[4.89093,52.353337],[4.890955,52.360303]]}},{"type":"Feature","properties":{"duration_avg":100.0,"n_vehicles":139,"d":1236,"route_I_counts":"{\"2\": 139}","shape_id":"{\"989241\": 71, \"989242\": 68}","direction_id":"{\"0\": 139}","headsign":"{\"Station Zuid\": 139}","source":20,"target":19,"layer":"L","from":"Amsterdam, De Pijp","to":"Amsterdam, Europaplein"},"geometry":{"type":"LineString","coordinates":[[4.89093,52.353337],[4.891476,52.341242]]}},{"type":"Feature","properties":{"shape_id":"{\"989243\": 69, \"989244\": 69}","direction_id":"{\"1\": 138}","headsign":"{\"Noord\": 138}","duration_avg":93.0,"n_vehicles":138,"d":1054,"route_I_counts":"{\"2\": 138}","source":21,"target":22,"layer":"L","from":"Amsterdam, Vijzelgracht","to":"Amsterdam, Rokin"},"geometry":{"type":"LineString","coordinates":[[4.890955,52.360303],[4.892421,52.369737]]}},{"type":"Feature","properties":{"duration_avg":67.0,"n_vehicles":139,"d":761,"route_I_counts":"{\"2\": 139}","shape_id":"{\"989241\": 71, \"989242\": 68}","direction_id":"{\"0\": 139}","headsign":"{\"Station Zuid\": 139}","source":21,"target":20,"layer":"L","from":"Amsterdam, Vijzelgracht","to":"Amsterdam, De Pijp"},"geometry":{"type":"LineString","coordinates":[[4.890955,52.360303],[4.89093,52.353337]]}},{"type":"Feature","properties":{"duration_avg":85.0,"n_vehicles":138,"d":1072,"route_I_counts":"{\"2\": 138}","shape_id":"{\"989243\": 69, \"989244\": 69}","direction_id":"{\"1\": 138}","headsign":"{\"Noord\": 138}","source":22,"target":18,"layer":"L","from":"Amsterdam, Rokin","to":"Amsterdam, Centraal Station"},"geometry":{"type":"LineString","coordinates":[[4.892421,52.369737],[4.901133,52.377359]]}},{"type":"Feature","properties":{"duration_avg":93.0,"n_vehicles":140,"d":1060,"route_I_counts":"{\"2\": 140}","shape_id":"{\"989241\": 72, \"989242\": 68}","direction_id":"{\"0\": 140}","headsign":"{\"Station Zuid\": 140}","source":22,"target":21,"layer":"L","from":"Amsterdam, Rokin","to":"Amsterdam, Vijzelgracht"},"geometry":{"type":"LineString","coordinates":[[4.892421,52.369737],[4.890955,52.360303]]}},{"type":"Feature","properties":{"shape_id":"{\"989244\": 68, \"989243\": 69}","direction_id":"{\"1\": 137}","headsign":"{\"Noord\": 137}","duration_avg":121.0,"n_vehicles":137,"d":1629,"route_I_counts":"{\"2\": 137}","source":23,"target":24,"layer":"L","from":"Amsterdam, Noorderpark","to":"Amsterdam, Noord"},"geometry":{"type":"LineString","coordinates":[[4.919774,52.389459],[4.932368,52.40192]]}},{"type":"Feature","properties":{"duration_avg":107.0,"n_vehicles":140,"d":1717,"route_I_counts":"{\"2\": 140}","shape_id":"{\"989241\": 72, \"989242\": 68}","direction_id":"{\"0\": 140}","headsign":"{\"Station Zuid\": 140}","source":23,"target":18,"layer":"L","from":"Amsterdam, Noorderpark","to":"Amsterdam, Centraal Station"},"geometry":{"type":"LineString","coordinates":[[4.919774,52.389459],[4.901133,52.377359]]}},{"type":"Feature","properties":{"duration_avg":116.0,"n_vehicles":140,"d":1783,"route_I_counts":"{\"2\": 140}","shape_id":"{\"989242\": 68, \"989241\": 72}","direction_id":"{\"0\": 140}","headsign":"{\"Station Zuid\": 140}","source":24,"target":23,"layer":"L","from":"Amsterdam, Noord","to":"Amsterdam, Noorderpark"},"geometry":{"type":"LineString","coordinates":[[4.932368,52.40192],[4.919774,52.389459]]}},{"type":"Feature","properties":{"shape_id":"{\"1035468\": 2, \"972646\": 49, \"972654\": 38}","direction_id":"{\"1\": 89}","headsign":"{\"Gaasperplas\": 89}","duration_avg":111.0,"n_vehicles":89,"d":1147,"route_I_counts":"{\"3\": 89}","source":25,"target":26,"layer":"L","from":"Amsterdam, Van der Madeweg","to":"Amsterdam, Venserpolder"},"geometry":{"type":"LineString","coordinates":[[4.930323,52.3294],[4.946647,52.326792]]}},{"type":"Feature","properties":{"duration_avg":96.0,"n_vehicles":181,"d":1311,"route_I_counts":"{\"3\": 90, \"5\": 91}","shape_id":"{\"1035469\": 40, \"981865\": 2, \"981867\": 48, \"1035470\": 31, \"972647\": 14, \"972649\": 37, \"981870\": 9}","direction_id":"{\"0\": 181}","headsign":"{\"Centraal Station\": 181}","source":25,"target":12,"layer":"L","from":"Amsterdam, Van der Madeweg","to":"Amsterdam, Spaklerweg"},"geometry":{"type":"LineString","coordinates":[[4.930323,52.3294],[4.920894,52.340184]]}},{"type":"Feature","properties":{"duration_avg":98.0,"n_vehicles":90,"d":913,"route_I_counts":"{\"4\": 90}","shape_id":"{\"981851\": 35, \"981853\": 2, \"981855\": 49, \"981857\": 4}","direction_id":"{\"1\": 90}","headsign":"{\"Isolatorweg\": 90}","source":25,"target":11,"layer":"L","from":"Amsterdam, Van der Madeweg","to":"Amsterdam, Overamstel"},"geometry":{"type":"LineString","coordinates":[[4.930323,52.3294],[4.918151,52.331797]]}},{"type":"Feature","properties":{"duration_avg":71.0,"n_vehicles":191,"d":813,"route_I_counts":"{\"4\": 100, \"5\": 91}","shape_id":"{\"972633\": 7, \"972634\": 3, \"992615\": 1, \"1035471\": 40, \"981850\": 31, \"981852\": 59, \"981871\": 23, \"981872\": 27}","direction_id":"{\"0\": 100, \"1\": 91}","headsign":"{\"Gein\": 191}","source":25,"target":38,"layer":"L","from":"Amsterdam, Van der Madeweg","to":"Duivendrecht, Station Duivendrecht"},"geometry":{"type":"LineString","coordinates":[[4.930323,52.3294],[4.936262,52.323895]]}},{"type":"Feature","properties":{"shape_id":"{\"1035468\": 2, \"972646\": 49, \"972654\": 38}","direction_id":"{\"1\": 89}","headsign":"{\"Gaasperplas\": 89}","duration_avg":54.0,"n_vehicles":89,"d":819,"route_I_counts":"{\"3\": 89}","source":26,"target":27,"layer":"L","from":"Amsterdam, Venserpolder","to":"Diemen, Station Diemen-Zuid"},"geometry":{"type":"LineString","coordinates":[[4.946647,52.326792],[4.95713,52.330426]]}},{"type":"Feature","properties":{"duration_avg":117.0,"n_vehicles":90,"d":1134,"route_I_counts":"{\"3\": 90}","shape_id":"{\"1035469\": 40, \"981865\": 2, \"981867\": 48}","direction_id":"{\"0\": 90}","headsign":"{\"Centraal Station\": 90}","source":26,"target":25,"layer":"L","from":"Amsterdam, Venserpolder","to":"Amsterdam, Van der Madeweg"},"geometry":{"type":"LineString","coordinates":[[4.946647,52.326792],[4.930323,52.3294]]}},{"type":"Feature","properties":{"shape_id":"{\"1035468\": 2, \"972646\": 49, \"972654\": 38}","direction_id":"{\"1\": 89}","headsign":"{\"Gaasperplas\": 89}","duration_avg":59.0,"n_vehicles":89,"d":702,"route_I_counts":"{\"3\": 89}","source":27,"target":28,"layer":"L","from":"Diemen, Station Diemen-Zuid","to":"Amsterdam, Verrijn Stuartweg"},"geometry":{"type":"LineString","coordinates":[[4.95713,52.330426],[4.966934,52.328439]]}},{"type":"Feature","properties":{"duration_avg":66.0,"n_vehicles":91,"d":786,"route_I_counts":"{\"3\": 91}","shape_id":"{\"1035469\": 41, \"981865\": 2, \"981867\": 48}","direction_id":"{\"0\": 91}","headsign":"{\"Centraal Station\": 91}","source":27,"target":26,"layer":"L","from":"Diemen, Station Diemen-Zuid","to":"Amsterdam, Venserpolder"},"geometry":{"type":"LineString","coordinates":[[4.95713,52.330426],[4.946647,52.326792]]}},{"type":"Feature","properties":{"shape_id":"{\"1035468\": 2, \"972646\": 49, \"972654\": 38}","direction_id":"{\"1\": 89}","headsign":"{\"Gaasperplas\": 89}","duration_avg":55.0,"n_vehicles":89,"d":713,"route_I_counts":"{\"3\": 89}","source":28,"target":29,"layer":"L","from":"Amsterdam, Verrijn Stuartweg","to":"Amsterdam, Station Ganzenhoef"},"geometry":{"type":"LineString","coordinates":[[4.966934,52.328439],[4.973231,52.323311]]}},{"type":"Feature","properties":{"duration_avg":66.0,"n_vehicles":91,"d":727,"route_I_counts":"{\"3\": 91}","shape_id":"{\"1035469\": 41, \"981865\": 2, \"981867\": 48}","direction_id":"{\"0\": 91}","headsign":"{\"Centraal Station\": 91}","source":28,"target":27,"layer":"L","from":"Amsterdam, Verrijn Stuartweg","to":"Diemen, Station Diemen-Zuid"},"geometry":{"type":"LineString","coordinates":[[4.966934,52.328439],[4.95713,52.330426]]}},{"type":"Feature","properties":{"shape_id":"{\"1035468\": 2, \"972646\": 49, \"972654\": 38}","direction_id":"{\"1\": 89}","headsign":"{\"Gaasperplas\": 89}","duration_avg":79.0,"n_vehicles":89,"d":891,"route_I_counts":"{\"3\": 89}","source":29,"target":30,"layer":"L","from":"Amsterdam, Station Ganzenhoef","to":"Amsterdam, Kraaienneststation"},"geometry":{"type":"LineString","coordinates":[[4.973231,52.323311],[4.979632,52.316323]]}},{"type":"Feature","properties":{"duration_avg":55.0,"n_vehicles":91,"d":688,"route_I_counts":"{\"3\": 91}","shape_id":"{\"1035469\": 41, \"981865\": 2, \"981867\": 48}","direction_id":"{\"0\": 91}","headsign":"{\"Centraal Station\": 91}","source":29,"target":28,"layer":"L","from":"Amsterdam, Station Ganzenhoef","to":"Amsterdam, Verrijn Stuartweg"},"geometry":{"type":"LineString","coordinates":[[4.973231,52.323311],[4.966934,52.328439]]}},{"type":"Feature","properties":{"shape_id":"{\"972646\": 49, \"972654\": 38, \"1035468\": 2}","direction_id":"{\"1\": 89}","headsign":"{\"Gaasperplas\": 89}","duration_avg":91.17241379310344,"n_vehicles":89,"d":656,"route_I_counts":"{\"3\": 89}","source":30,"target":31,"layer":"L","from":"Amsterdam, Kraaienneststation","to":"Amsterdam, Gaasperplas"},"geometry":{"type":"LineString","coordinates":[[4.979632,52.316323],[4.984488,52.311225]]}},{"type":"Feature","properties":{"duration_avg":74.0,"n_vehicles":91,"d":913,"route_I_counts":"{\"3\": 91}","shape_id":"{\"1035469\": 41, \"981865\": 2, \"981867\": 48}","direction_id":"{\"0\": 91}","headsign":"{\"Centraal Station\": 91}","source":30,"target":29,"layer":"L","from":"Amsterdam, Kraaienneststation","to":"Amsterdam, Station Ganzenhoef"},"geometry":{"type":"LineString","coordinates":[[4.979632,52.316323],[4.973231,52.323311]]}},{"type":"Feature","properties":{"duration_avg":60.0,"n_vehicles":91,"d":712,"route_I_counts":"{\"3\": 91}","shape_id":"{\"1035469\": 41, \"981867\": 48, \"981865\": 2}","direction_id":"{\"0\": 91}","headsign":"{\"Centraal Station\": 91}","source":31,"target":30,"layer":"L","from":"Amsterdam, Gaasperplas","to":"Amsterdam, Kraaienneststation"},"geometry":{"type":"LineString","coordinates":[[4.984488,52.311225],[4.979632,52.316323]]}},{"type":"Feature","properties":{"shape_id":"{\"972649\": 37, \"981855\": 50, \"981857\": 4, \"981870\": 9, \"1035470\": 31, \"972647\": 14, \"981851\": 35, \"981853\": 2}","direction_id":"{\"0\": 91, \"1\": 91}","headsign":"{\"Centraal Station\": 91, \"Isolatorweg\": 91}","duration_avg":78.0,"n_vehicles":182,"d":1014,"route_I_counts":"{\"4\": 91, \"5\": 91}","source":32,"target":33,"layer":"L","from":"Amsterdam, Gein","to":"Amsterdam, Reigersbos"},"geometry":{"type":"LineString","coordinates":[[4.988478,52.296391],[4.973636,52.295585]]}},{"type":"Feature","properties":{"shape_id":"{\"1035470\": 31, \"972647\": 14, \"972649\": 37, \"981851\": 35, \"981853\": 2, \"981855\": 50, \"981857\": 4, \"981870\": 9}","direction_id":"{\"0\": 91, \"1\": 91}","headsign":"{\"Centraal Station\": 91, \"Isolatorweg\": 91}","duration_avg":86.0,"n_vehicles":182,"d":988,"route_I_counts":"{\"4\": 91, \"5\": 91}","source":33,"target":34,"layer":"L","from":"Amsterdam, Reigersbos","to":"Amsterdam, Station Holendrecht"},"geometry":{"type":"LineString","coordinates":[[4.973636,52.295585],[4.959873,52.298403]]}},{"type":"Feature","properties":{"duration_avg":101.11736566915118,"n_vehicles":190,"d":939,"route_I_counts":"{\"4\": 100, \"5\": 90}","shape_id":"{\"972634\": 3, \"981852\": 59, \"981872\": 27, \"1035471\": 40, \"972633\": 7, \"981850\": 31, \"981871\": 22, \"992615\": 1}","direction_id":"{\"0\": 100, \"1\": 90}","headsign":"{\"Gein\": 190}","source":33,"target":32,"layer":"L","from":"Amsterdam, Reigersbos","to":"Amsterdam, Gein"},"geometry":{"type":"LineString","coordinates":[[4.973636,52.295585],[4.988478,52.296391]]}},{"type":"Feature","properties":{"shape_id":"{\"1035470\": 31, \"972647\": 14, \"972649\": 37, \"981851\": 35, \"981853\": 2, \"981855\": 50, \"981857\": 4, \"981870\": 9}","direction_id":"{\"0\": 91, \"1\": 91}","headsign":"{\"Centraal Station\": 91, \"Isolatorweg\": 91}","duration_avg":82.0,"n_vehicles":182,"d":1087,"route_I_counts":"{\"4\": 91, \"5\": 91}","source":34,"target":35,"layer":"L","from":"Amsterdam, Station Holendrecht","to":"Amsterdam, Bullewijk"},"geometry":{"type":"LineString","coordinates":[[4.959873,52.298403],[4.952079,52.306931]]}},{"type":"Feature","properties":{"duration_avg":86.0,"n_vehicles":190,"d":1016,"route_I_counts":"{\"4\": 100, \"5\": 90}","shape_id":"{\"1035471\": 40, \"972633\": 7, \"972634\": 3, \"981850\": 31, \"981852\": 59, \"981871\": 22, \"981872\": 27, \"992615\": 1}","direction_id":"{\"0\": 100, \"1\": 90}","headsign":"{\"Gein\": 190}","source":34,"target":33,"layer":"L","from":"Amsterdam, Station Holendrecht","to":"Amsterdam, Reigersbos"},"geometry":{"type":"LineString","coordinates":[[4.959873,52.298403],[4.973636,52.295585]]}},{"type":"Feature","properties":{"shape_id":"{\"1035470\": 31, \"972647\": 14, \"972649\": 37, \"981851\": 35, \"981853\": 2, \"981855\": 50, \"981857\": 4, \"981870\": 9}","direction_id":"{\"0\": 91, \"1\": 91}","headsign":"{\"Centraal Station\": 91, \"Isolatorweg\": 91}","duration_avg":54.0,"n_vehicles":182,"d":722,"route_I_counts":"{\"4\": 91, \"5\": 91}","source":35,"target":36,"layer":"L","from":"Amsterdam, Bullewijk","to":"Amsterdam, Station Bijlmer ArenA"},"geometry":{"type":"LineString","coordinates":[[4.952079,52.306931],[4.946935,52.312611]]}},{"type":"Feature","properties":{"duration_avg":81.0,"n_vehicles":191,"d":1099,"route_I_counts":"{\"4\": 100, \"5\": 91}","shape_id":"{\"1035471\": 40, \"972633\": 7, \"972634\": 3, \"981850\": 31, \"981852\": 59, \"981871\": 23, \"981872\": 27, \"992615\": 1}","direction_id":"{\"0\": 100, \"1\": 91}","headsign":"{\"Gein\": 191}","source":35,"target":34,"layer":"L","from":"Amsterdam, Bullewijk","to":"Amsterdam, Station Holendrecht"},"geometry":{"type":"LineString","coordinates":[[4.952079,52.306931],[4.959873,52.298403]]}},{"type":"Feature","properties":{"shape_id":"{\"1035470\": 31, \"972647\": 14, \"972649\": 37, \"981851\": 35, \"981853\": 2, \"981855\": 50, \"981857\": 4, \"981870\": 9}","direction_id":"{\"0\": 91, \"1\": 91}","headsign":"{\"Centraal Station\": 91, \"Isolatorweg\": 91}","duration_avg":72.0,"n_vehicles":182,"d":773,"route_I_counts":"{\"4\": 91, \"5\": 91}","source":36,"target":37,"layer":"L","from":"Amsterdam, Station Bijlmer ArenA","to":"Amsterdam, Strandvliet"},"geometry":{"type":"LineString","coordinates":[[4.946935,52.312611],[4.94136,52.318665]]}},{"type":"Feature","properties":{"duration_avg":54.0,"n_vehicles":191,"d":707,"route_I_counts":"{\"4\": 100, \"5\": 91}","shape_id":"{\"1035471\": 40, \"972633\": 7, \"972634\": 3, \"981850\": 31, \"981852\": 59, \"981871\": 23, \"981872\": 27, \"992615\": 1}","direction_id":"{\"0\": 100, \"1\": 91}","headsign":"{\"Gein\": 191}","source":36,"target":35,"layer":"L","from":"Amsterdam, Station Bijlmer ArenA","to":"Amsterdam, Bullewijk"},"geometry":{"type":"LineString","coordinates":[[4.946935,52.312611],[4.952079,52.306931]]}},{"type":"Feature","properties":{"shape_id":"{\"1035470\": 31, \"972647\": 14, \"972649\": 37, \"981851\": 35, \"981853\": 2, \"981855\": 50, \"981857\": 4, \"981870\": 9}","direction_id":"{\"0\": 91, \"1\": 91}","headsign":"{\"Centraal Station\": 91, \"Isolatorweg\": 91}","duration_avg":58.0,"n_vehicles":182,"d":677,"route_I_counts":"{\"4\": 91, \"5\": 91}","source":37,"target":38,"layer":"L","from":"Amsterdam, Strandvliet","to":"Duivendrecht, Station Duivendrecht"},"geometry":{"type":"LineString","coordinates":[[4.94136,52.318665],[4.936262,52.323895]]}},{"type":"Feature","properties":{"duration_avg":72.0,"n_vehicles":191,"d":800,"route_I_counts":"{\"4\": 100, \"5\": 91}","shape_id":"{\"1035471\": 40, \"972633\": 7, \"972634\": 3, \"981850\": 31, \"981852\": 59, \"981871\": 23, \"981872\": 27, \"992615\": 1}","direction_id":"{\"0\": 100, \"1\": 91}","headsign":"{\"Gein\": 191}","source":37,"target":36,"layer":"L","from":"Amsterdam, Strandvliet","to":"Amsterdam, Station Bijlmer ArenA"},"geometry":{"type":"LineString","coordinates":[[4.94136,52.318665],[4.946935,52.312611]]}},{"type":"Feature","properties":{"duration_avg":71.0,"n_vehicles":181,"d":781,"route_I_counts":"{\"4\": 90, \"5\": 91}","shape_id":"{\"1035470\": 31, \"972647\": 14, \"972649\": 37, \"981851\": 35, \"981853\": 2, \"981855\": 49, \"981857\": 4, \"981870\": 9}","direction_id":"{\"0\": 91, \"1\": 90}","headsign":"{\"Centraal Station\": 91, \"Isolatorweg\": 90}","source":38,"target":25,"layer":"L","from":"Duivendrecht, Station Duivendrecht","to":"Amsterdam, Van der Madeweg"},"geometry":{"type":"LineString","coordinates":[[4.936262,52.323895],[4.930323,52.3294]]}},{"type":"Feature","properties":{"duration_avg":58.0,"n_vehicles":191,"d":643,"route_I_counts":"{\"4\": 100, \"5\": 91}","shape_id":"{\"1035471\": 40, \"972633\": 7, \"972634\": 3, \"981850\": 31, \"981852\": 59, \"981871\": 23, \"981872\": 27, \"992615\": 1}","direction_id":"{\"0\": 100, \"1\": 91}","headsign":"{\"Gein\": 191}","source":38,"target":37,"layer":"L","from":"Duivendrecht, Station Duivendrecht","to":"Amsterdam, Strandvliet"},"geometry":{"type":"LineString","coordinates":[[4.936262,52.323895],[4.94136,52.318665]]}}]}