{"type":"FeatureCollection","features":[{"type":"Feature","geometry":{"type":"Point","coordinates":[23.722422,37.998641]},"properties":{"name":"ΣΤ.ΑΤΤΙΚΗΣ","original_ids":"[1207]","id":0,"layer":"stop"}},{"type":"Feature","geometry":{"type":"Point","coordinates":[23.721092,37.991914]},"properties":{"name":"ΣΤ.ΛΑΡΙΣΗΣ","original_ids":"[537]","id":1,"layer":"stop"}},{"type":"Feature","geometry":{"type":"Point","coordinates":[23.72107,37.985794]},"properties":{"name":"ΣΤ.ΜΕΤΑΞΟΥΡΓΕΙΟΥ","original_ids":"[539]","id":2,"layer":"stop"}},{"type":"Feature","geometry":{"type":"Point","coordinates":[23.728113,37.984134]},"properties":{"name":"ΣΤ.ΟΜΟΝΟΙΑΣ","original_ids":"[1203]","id":3,"layer":"stop"}},{"type":"Feature","geometry":{"type":"Point","coordinates":[23.732795,37.980513]},"properties":{"name":"ΣΤ.ΠΑΝΕΠΙΣΤΗΜΙΟ","original_ids":"[545]","id":4,"layer":"stop"}},{"type":"Feature","geometry":{"type":"Point","coordinates":[23.735684,37.975085]},"properties":{"name":"ΣΤ.ΣΥΝΤΑΓΜΑΤΟΣ","original_ids":"[546]","id":5,"layer":"stop"}},{"type":"Feature","geometry":{"type":"Point","coordinates":[23.729605,37.968744]},"properties":{"name":"ΣΤ.ΑΚΡΟΠΟΛΗ","original_ids":"[439]","id":6,"layer":"stop"}},{"type":"Feature","geometry":{"type":"Point","coordinates":[23.726672,37.964519]},"properties":{"name":"ΣΤ.ΣΥΓΓΡΟΥ-ΦΙΞ","original_ids":"[441]","id":7,"layer":"stop"}},{"type":"Feature","geometry":{"type":"Point","coordinates":[23.728598,37.957701]},"properties":{"name":"ΣΤ.ΝΕΟΣ ΚΟΣΜΟΣ","original_ids":"[450]","id":8,"layer":"stop"}},{"type":"Feature","geometry":{"type":"Point","coordinates":[23.73418,37.95647]},"properties":{"name":"ΣΤ.ΑΓ.ΙΩΑΝΝΗΣ","original_ids":"[460]","id":9,"layer":"stop"}},{"type":"Feature","geometry":{"type":"Point","coordinates":[23.737802,37.949493]},"properties":{"name":"ΣΤ.ΔΑΦΝΗΣ","original_ids":"[262]","id":10,"layer":"stop"}},{"type":"Feature","geometry":{"type":"Point","coordinates":[23.740767,37.941388]},"properties":{"name":"ΣΤ.ΑΓ.ΔΗΜΗΤΡΙΟΣ-ΑΛ.ΠΑ/ΛΗΣ","original_ids":"[263]","id":11,"layer":"stop"}},{"type":"Feature","geometry":{"type":"Point","coordinates":[23.744426,37.929805]},"properties":{"name":"ΣΤ.ΗΛΙΟΥΠΟΛΗ","original_ids":"[3234]","id":12,"layer":"stop"}},{"type":"Feature","geometry":{"type":"Point","coordinates":[23.744387,37.918232]},"properties":{"name":"ΣΤ.ΑΛΙΜΟΣ","original_ids":"[1599]","id":13,"layer":"stop"}},{"type":"Feature","geometry":{"type":"Point","coordinates":[23.745906,37.903058]},"properties":{"name":"ΣΤ.ΑΡΓΥΡΟΥΠΟΛΗ","original_ids":"[1961]","id":14,"layer":"stop"}},{"type":"Feature","geometry":{"type":"Point","coordinates":[23.747466,37.892615]},"properties":{"name":"ΣΤ.ΕΛΛΗΝΙΚΟ","original_ids":"[6771]","id":15,"layer":"stop"}},{"type":"Feature","geometry":{"type":"Point","coordinates":[23.691001,38.017093]},"properties":{"name":"ΣΤ.ΑΝΘΟΥΠΟΛΗ","original_ids":"[5747]","id":16,"layer":"stop"}},{"type":"Feature","geometry":{"type":"Point","coordinates":[23.695746,38.012941]},"properties":{"name":"ΣΤ.ΠΕΡΙΣΤΕΡΙ","original_ids":"[5744]","id":17,"layer":"stop"}},{"type":"Feature","geometry":{"type":"Point","coordinates":[23.699657,38.00639]},"properties":{"name":"ΣΤ.ΑΓ.ΑΝΤΩΝΙΟΣ","original_ids":"[5640]","id":18,"layer":"stop"}},{"type":"Feature","geometry":{"type":"Point","coordinates":[23.71359,38.002783]},"properties":{"name":"ΣΤ.ΣΕΠΟΛΙΩΝ","original_ids":"[438]","id":19,"layer":"stop"}},{"type":"Feature","geometry":{"type":"Point","coordinates":[23.944702,37.936802]},"properties":{"name":"ΣΤ.ΑΕΡΟΔΡΟΜΙΟΥ","original_ids":"[5881]","id":20,"layer":"stop"}},{"type":"Feature","geometry":{"type":"Point","coordinates":[23.895733,37.91284]},"properties":{"name":"ΣΤ.ΚΟΡΩΠΙ","original_ids":"[4115]","id":21,"layer":"stop"}},{"type":"Feature","geometry":{"type":"Point","coordinates":[23.869876,37.983475]},"properties":{"name":"ΣΤ.ΚΑΝΤΖΑ","original_ids":"[7171]","id":22,"layer":"stop"}},{"type":"Feature","geometry":{"type":"Point","coordinates":[23.86929,38.005457]},"properties":{"name":"ΣΤ.ΠΑΛΛΗΝΗ","original_ids":"[7135]","id":23,"layer":"stop"}},{"type":"Feature","geometry":{"type":"Point","coordinates":[23.833596,38.023897]},"properties":{"name":"ΣΤ.ΔΟΥΚ.ΠΛΑΚΕΝΤΙΑΣ","original_ids":"[6242]","id":24,"layer":"stop"}},{"type":"Feature","geometry":{"type":"Point","coordinates":[23.820316,38.021597]},"properties":{"name":"ΣΤ.ΧΑΛΑΝΔΡΙ","original_ids":"[6243]","id":25,"layer":"stop"}},{"type":"Feature","geometry":{"type":"Point","coordinates":[23.812318,38.017313]},"properties":{"name":"ΣΤ.ΑΓ.ΠΑΡΑΣΚΕΥΗ","original_ids":"[6261]","id":26,"layer":"stop"}},{"type":"Feature","geometry":{"type":"Point","coordinates":[23.805698,38.009154]},"properties":{"name":"ΣΤ.ΝΟΜΙΣΜΑΤΟΚΟΠΕΙΟ","original_ids":"[6278]","id":27,"layer":"stop"}},{"type":"Feature","geometry":{"type":"Point","coordinates":[23.794842,38.004936]},"properties":{"name":"ΣΤ.ΧΟΛΑΡΓΟΣ","original_ids":"[6322]","id":28,"layer":"stop"}},{"type":"Feature","geometry":{"type":"Point","coordinates":[23.785756,37.99999]},"properties":{"name":"ΣΤ.ΕΘΝ.ΑΜΥΝΑΣ","original_ids":"[7250]","id":29,"layer":"stop"}},{"type":"Feature","geometry":{"type":"Point","coordinates":[23.776152,37.993167]},"properties":{"name":"ΣΤ.ΚΑΤΕΧΑΚΗ","original_ids":"[598]","id":30,"layer":"stop"}},{"type":"Feature","geometry":{"type":"Point","coordinates":[23.763419,37.99316]},"properties":{"name":"ΣΤ.ΠΑΝΟΡΜΟΥ","original_ids":"[588]","id":31,"layer":"stop"}},{"type":"Feature","geometry":{"type":"Point","coordinates":[23.757232,37.98728]},"properties":{"name":"ΣΤ.ΑΜΠΕΛΟΚΗΠΩΝ","original_ids":"[587]","id":32,"layer":"stop"}},{"type":"Feature","geometry":{"type":"Point","coordinates":[23.752797,37.978691]},"properties":{"name":"ΣΤ.ΜΕΓ.ΜΟΥΣΙΚΗΣ","original_ids":"[579]","id":33,"layer":"stop"}},{"type":"Feature","geometry":{"type":"Point","coordinates":[23.74718,37.9762]},"properties":{"name":"ΣΤ.ΕΥΑΓΓΕΛΙΣΜΟΥ","original_ids":"[572]","id":34,"layer":"stop"}},{"type":"Feature","geometry":{"type":"Point","coordinates":[23.725852,37.976675]},"properties":{"name":"ΣΤ.ΜΟΝΑΣΤΗΡΑΚΙ","original_ids":"[1200]","id":35,"layer":"stop"}},{"type":"Feature","geometry":{"type":"Point","coordinates":[23.711623,37.97866]},"properties":{"name":"ΣΤ.ΚΕΡΑΜΕΙΚΟΥ","original_ids":"[463]","id":36,"layer":"stop"}},{"type":"Feature","geometry":{"type":"Point","coordinates":[23.693355,37.987834]},"properties":{"name":"ΣΤ.ΕΛΑΙΩΝΑΣ","original_ids":"[1482]","id":37,"layer":"stop"}},{"type":"Feature","geometry":{"type":"Point","coordinates":[23.682088,37.991599]},"properties":{"name":"ΣΤ.ΑΙΓΑΛΕΩ","original_ids":"[1487]","id":38,"layer":"stop"}},{"type":"Feature","geometry":{"type":"Point","coordinates":[23.667371,37.997254]},"properties":{"name":"ΣΤ.ΑΓ.ΜΑΡΙΝΑ","original_ids":"[62]","id":39,"layer":"stop"}},{"type":"Feature","geometry":{"type":"Point","coordinates":[23.642975,37.947972]},"properties":{"name":"ΣΤ.ΠΕΙΡΑΙΑ","original_ids":"[5127]","id":40,"layer":"stop"}},{"type":"Feature","geometry":{"type":"Point","coordinates":[23.66391,37.944465]},"properties":{"name":"ΣΤ.Ν.ΦΑΛΗΡΟΥ","original_ids":"[5106]","id":41,"layer":"stop"}},{"type":"Feature","geometry":{"type":"Point","coordinates":[23.680173,37.955317]},"properties":{"name":"ΣΤ.ΜΟΣΧΑΤΟΥ","original_ids":"[4337]","id":42,"layer":"stop"}},{"type":"Feature","geometry":{"type":"Point","coordinates":[23.697191,37.960508]},"properties":{"name":"ΣΤ.ΚΑΛΛΙΘΕΑΣ","original_ids":"[3380]","id":43,"layer":"stop"}},{"type":"Feature","geometry":{"type":"Point","coordinates":[23.703286,37.96238]},"properties":{"name":"ΣΤ.ΕΛ.ΒΕΝΙΖΕΛΟΥ","original_ids":"[3384]","id":44,"layer":"stop"}},{"type":"Feature","geometry":{"type":"Point","coordinates":[23.70892,37.96819]},"properties":{"name":"ΣΤ.ΚΑΤΩ ΠΕΤΡΑΛΩΝΩΝ","original_ids":"[1197]","id":45,"layer":"stop"}},{"type":"Feature","geometry":{"type":"Point","coordinates":[23.720523,37.976699]},"properties":{"name":"ΣΤ.ΘΗΣΕΙΟΥ","original_ids":"[1198]","id":46,"layer":"stop"}},{"type":"Feature","geometry":{"type":"Point","coordinates":[23.730233,37.993116]},"properties":{"name":"ΣΤ.ΒΙΚΤΩΡΙΑΣ","original_ids":"[1205]","id":47,"layer":"stop"}},{"type":"Feature","geometry":{"type":"Point","coordinates":[23.727744,38.006936]},"properties":{"name":"ΣΤ.ΑΓ.ΝΙΚΟΛΑΟΥ","original_ids":"[1212]","id":48,"layer":"stop"}},{"type":"Feature","geometry":{"type":"Point","coordinates":[23.728819,38.012094]},"properties":{"name":"ΣΤ.ΚΑΤΩ ΠΑΤΗΣΙΩΝ","original_ids":"[1213]","id":49,"layer":"stop"}},{"type":"Feature","geometry":{"type":"Point","coordinates":[23.732023,38.020546]},"properties":{"name":"ΣΤ.ΑΓ.ΕΛΕΥΘΕΡΙΟΥ","original_ids":"[1216]","id":50,"layer":"stop"}},{"type":"Feature","geometry":{"type":"Point","coordinates":[23.735965,38.023782]},"properties":{"name":"ΣΤ.ΑΝΩ ΠΑΤΗΣΙΩΝ","original_ids":"[1219]","id":51,"layer":"stop"}},{"type":"Feature","geometry":{"type":"Point","coordinates":[23.744696,38.032714]},"properties":{"name":"ΣΤ.ΠΕΡΙΣΣΟΥ","original_ids":"[4378]","id":52,"layer":"stop"}},{"type":"Feature","geometry":{"type":"Point","coordinates":[23.750014,38.037034]},"properties":{"name":"ΣΤ.ΠΕΥΚΑΚΙΩΝ","original_ids":"[4395]","id":53,"layer":"stop"}},{"type":"Feature","geometry":{"type":"Point","coordinates":[23.755047,38.041551]},"properties":{"name":"ΣΤ.Ν.ΙΩΝΙΑΣ","original_ids":"[4396]","id":54,"layer":"stop"}},{"type":"Feature","geometry":{"type":"Point","coordinates":[23.766143,38.046251]},"properties":{"name":"ΣΤ.Ν.ΗΡΑΚΛΕΙΟΥ","original_ids":"[3280]","id":55,"layer":"stop"}},{"type":"Feature","geometry":{"type":"Point","coordinates":[23.782722,38.043732]},"properties":{"name":"ΣΤ.ΕΙΡΗΝΗΣ","original_ids":"[1660]","id":56,"layer":"stop"}},{"type":"Feature","geometry":{"type":"Point","coordinates":[23.792862,38.044805]},"properties":{"name":"ΣΤ.ΝΕΡΑΤΖΙΩΤΙΣΣΑ","original_ids":"[1673]","id":57,"layer":"stop"}},{"type":"Feature","geometry":{"type":"Point","coordinates":[23.80514,38.05629]},"properties":{"name":"ΣΤ.ΑΜΑΡΟΥΣΙΟΥ","original_ids":"[1661]","id":58,"layer":"stop"}},{"type":"Feature","geometry":{"type":"Point","coordinates":[23.80402,38.065779]},"properties":{"name":"ΣΤ.ΚΑΤ","original_ids":"[3730]","id":59,"layer":"stop"}},{"type":"Feature","geometry":{"type":"Point","coordinates":[23.808195,38.0736]},"properties":{"name":"ΣΤ.ΚΗΦΙΣΙΑΣ","original_ids":"[3729]","id":60,"layer":"stop"}},{"type":"Feature","properties":{"shape_id":"{}","direction_id":"{\"0\": 226}","headsign":"{\"ΑΝΘΟΥΠΟΛΗ - ΣΤ.ΕΛΛΗΝΙΚΟ\": 226}","duration_avg":60.0,"n_vehicles":226,"d":757,"route_I_counts":"{\"4\": 226}","source":0,"target":1,"layer":"L","from":"ΣΤ.ΑΤΤΙΚΗΣ","to":"ΣΤ.ΛΑΡΙΣΗΣ"},"geometry":{"type":"LineString","coordinates":[[23.722422,37.998641],[23.721092,37.991914]]}},{"type":"Feature","properties":{"shape_id":"{}","direction_id":"{\"1\": 221}","headsign":"{\"ΣΤ.ΕΛΛΗΝΙΚΟ - ΑΝΘΟΥΠΟΛΗ\": 221}","duration_avg":120.0,"n_vehicles":221,"d":901,"route_I_counts":"{\"4\": 221}","source":0,"target":19,"layer":"L","from":"ΣΤ.ΑΤΤΙΚΗΣ","to":"ΣΤ.ΣΕΠΟΛΙΩΝ"},"geometry":{"type":"LineString","coordinates":[[23.722422,37.998641],[23.71359,38.002783]]}},{"type":"Feature","properties":{"shape_id":"{}","direction_id":"{\"0\": 186}","headsign":"{\"ΠΕΙΡΑΙΑΣ - ΚΗΦΙΣΙΑ\": 186}","duration_avg":120.0,"n_vehicles":186,"d":1034,"route_I_counts":"{\"6\": 186}","source":0,"target":48,"layer":"L","from":"ΣΤ.ΑΤΤΙΚΗΣ","to":"ΣΤ.ΑΓ.ΝΙΚΟΛΑΟΥ"},"geometry":{"type":"LineString","coordinates":[[23.722422,37.998641],[23.727744,38.006936]]}},{"type":"Feature","properties":{"shape_id":"{}","direction_id":"{\"1\": 185}","headsign":"{\"ΚΗΦΙΣΙΑ - ΠΕΙΡΑΙΑΣ\": 185}","duration_avg":120.0,"n_vehicles":185,"d":920,"route_I_counts":"{\"6\": 185}","source":0,"target":47,"layer":"L","from":"ΣΤ.ΑΤΤΙΚΗΣ","to":"ΣΤ.ΒΙΚΤΩΡΙΑΣ"},"geometry":{"type":"LineString","coordinates":[[23.722422,37.998641],[23.730233,37.993116]]}},{"type":"Feature","properties":{"shape_id":"{}","direction_id":"{\"0\": 226}","headsign":"{\"ΑΝΘΟΥΠΟΛΗ - ΣΤ.ΕΛΛΗΝΙΚΟ\": 226}","duration_avg":60.0,"n_vehicles":226,"d":681,"route_I_counts":"{\"4\": 226}","source":1,"target":2,"layer":"L","from":"ΣΤ.ΛΑΡΙΣΗΣ","to":"ΣΤ.ΜΕΤΑΞΟΥΡΓΕΙΟΥ"},"geometry":{"type":"LineString","coordinates":[[23.721092,37.991914],[23.72107,37.985794]]}},{"type":"Feature","properties":{"shape_id":"{}","direction_id":"{\"1\": 221}","headsign":"{\"ΣΤ.ΕΛΛΗΝΙΚΟ - ΑΝΘΟΥΠΟΛΗ\": 221}","duration_avg":120.0,"n_vehicles":221,"d":757,"route_I_counts":"{\"4\": 221}","source":1,"target":0,"layer":"L","from":"ΣΤ.ΛΑΡΙΣΗΣ","to":"ΣΤ.ΑΤΤΙΚΗΣ"},"geometry":{"type":"LineString","coordinates":[[23.721092,37.991914],[23.722422,37.998641]]}},{"type":"Feature","properties":{"shape_id":"{}","direction_id":"{\"0\": 225}","headsign":"{\"ΑΝΘΟΥΠΟΛΗ - ΣΤ.ΕΛΛΗΝΙΚΟ\": 225}","duration_avg":120.0,"n_vehicles":225,"d":645,"route_I_counts":"{\"4\": 225}","source":2,"target":3,"layer":"L","from":"ΣΤ.ΜΕΤΑΞΟΥΡΓΕΙΟΥ","to":"ΣΤ.ΟΜΟΝΟΙΑΣ"},"geometry":{"type":"LineString","coordinates":[[23.72107,37.985794],[23.728113,37.984134]]}},{"type":"Feature","properties":{"shape_id":"{}","direction_id":"{\"1\": 222}","headsign":"{\"ΣΤ.ΕΛΛΗΝΙΚΟ - ΑΝΘΟΥΠΟΛΗ\": 222}","duration_avg":60.0,"n_vehicles":222,"d":681,"route_I_counts":"{\"4\": 222}","source":2,"target":1,"layer":"L","from":"ΣΤ.ΜΕΤΑΞΟΥΡΓΕΙΟΥ","to":"ΣΤ.ΛΑΡΙΣΗΣ"},"geometry":{"type":"LineString","coordinates":[[23.72107,37.985794],[23.721092,37.991914]]}},{"type":"Feature","properties":{"shape_id":"{}","direction_id":"{\"0\": 225}","headsign":"{\"ΑΝΘΟΥΠΟΛΗ - ΣΤ.ΕΛΛΗΝΙΚΟ\": 225}","duration_avg":60.0,"n_vehicles":225,"d":575,"route_I_counts":"{\"4\": 225}","source":3,"target":4,"layer":"L","from":"ΣΤ.ΟΜΟΝΟΙΑΣ","to":"ΣΤ.ΠΑΝΕΠΙΣΤΗΜΙΟ"},"geometry":{"type":"LineString","coordinates":[[23.728113,37.984134],[23.732795,37.980513]]}},{"type":"Feature","properties":{"shape_id":"{}","direction_id":"{\"1\": 222}","headsign":"{\"ΣΤ.ΕΛΛΗΝΙΚΟ - ΑΝΘΟΥΠΟΛΗ\": 222}","duration_avg":60.0,"n_vehicles":222,"d":645,"route_I_counts":"{\"4\": 222}","source":3,"target":2,"layer":"L","from":"ΣΤ.ΟΜΟΝΟΙΑΣ","to":"ΣΤ.ΜΕΤΑΞΟΥΡΓΕΙΟΥ"},"geometry":{"type":"LineString","coordinates":[[23.728113,37.984134],[23.72107,37.985794]]}},{"type":"Feature","properties":{"shape_id":"{}","direction_id":"{\"0\": 187}","headsign":"{\"ΠΕΙΡΑΙΑΣ - ΚΗΦΙΣΙΑ\": 187}","duration_avg":120.0,"n_vehicles":187,"d":1016,"route_I_counts":"{\"6\": 187}","source":3,"target":47,"layer":"L","from":"ΣΤ.ΟΜΟΝΟΙΑΣ","to":"ΣΤ.ΒΙΚΤΩΡΙΑΣ"},"geometry":{"type":"LineString","coordinates":[[23.728113,37.984134],[23.730233,37.993116]]}},{"type":"Feature","properties":{"shape_id":"{}","direction_id":"{\"1\": 185}","headsign":"{\"ΚΗΦΙΣΙΑ - ΠΕΙΡΑΙΑΣ\": 185}","duration_avg":120.0,"n_vehicles":185,"d":853,"route_I_counts":"{\"6\": 185}","source":3,"target":35,"layer":"L","from":"ΣΤ.ΟΜΟΝΟΙΑΣ","to":"ΣΤ.ΜΟΝΑΣΤΗΡΑΚΙ"},"geometry":{"type":"LineString","coordinates":[[23.728113,37.984134],[23.725852,37.976675]]}},{"type":"Feature","properties":{"shape_id":"{}","direction_id":"{\"0\": 225}","headsign":"{\"ΑΝΘΟΥΠΟΛΗ - ΣΤ.ΕΛΛΗΝΙΚΟ\": 225}","duration_avg":120.0,"n_vehicles":225,"d":655,"route_I_counts":"{\"4\": 225}","source":4,"target":5,"layer":"L","from":"ΣΤ.ΠΑΝΕΠΙΣΤΗΜΙΟ","to":"ΣΤ.ΣΥΝΤΑΓΜΑΤΟΣ"},"geometry":{"type":"LineString","coordinates":[[23.732795,37.980513],[23.735684,37.975085]]}},{"type":"Feature","properties":{"shape_id":"{}","direction_id":"{\"1\": 222}","headsign":"{\"ΣΤ.ΕΛΛΗΝΙΚΟ - ΑΝΘΟΥΠΟΛΗ\": 222}","duration_avg":60.0,"n_vehicles":222,"d":575,"route_I_counts":"{\"4\": 222}","source":4,"target":3,"layer":"L","from":"ΣΤ.ΠΑΝΕΠΙΣΤΗΜΙΟ","to":"ΣΤ.ΟΜΟΝΟΙΑΣ"},"geometry":{"type":"LineString","coordinates":[[23.732795,37.980513],[23.728113,37.984134]]}},{"type":"Feature","properties":{"shape_id":"{}","direction_id":"{\"0\": 225}","headsign":"{\"ΑΝΘΟΥΠΟΛΗ - ΣΤ.ΕΛΛΗΝΙΚΟ\": 225}","duration_avg":60.0,"n_vehicles":225,"d":884,"route_I_counts":"{\"4\": 225}","source":5,"target":6,"layer":"L","from":"ΣΤ.ΣΥΝΤΑΓΜΑΤΟΣ","to":"ΣΤ.ΑΚΡΟΠΟΛΗ"},"geometry":{"type":"LineString","coordinates":[[23.735684,37.975085],[23.729605,37.968744]]}},{"type":"Feature","properties":{"shape_id":"{}","direction_id":"{\"1\": 222}","headsign":"{\"ΣΤ.ΕΛΛΗΝΙΚΟ - ΑΝΘΟΥΠΟΛΗ\": 222}","duration_avg":120.0,"n_vehicles":222,"d":655,"route_I_counts":"{\"4\": 222}","source":5,"target":4,"layer":"L","from":"ΣΤ.ΣΥΝΤΑΓΜΑΤΟΣ","to":"ΣΤ.ΠΑΝΕΠΙΣΤΗΜΙΟ"},"geometry":{"type":"LineString","coordinates":[[23.735684,37.975085],[23.732795,37.980513]]}},{"type":"Feature","properties":{"shape_id":"{}","direction_id":"{\"1\": 209}","headsign":"{\"ΑΕΡΟΔΡΟΜΙΟ -  ΔΟΥΚ. ΠΛΑΚΕΝΤΙΑΣ  - ΑΓΙΑ ΜΑΡΙΝΑ\": 209}","duration_avg":120.0,"n_vehicles":209,"d":880,"route_I_counts":"{\"5\": 209}","source":5,"target":35,"layer":"L","from":"ΣΤ.ΣΥΝΤΑΓΜΑΤΟΣ","to":"ΣΤ.ΜΟΝΑΣΤΗΡΑΚΙ"},"geometry":{"type":"LineString","coordinates":[[23.735684,37.975085],[23.725852,37.976675]]}},{"type":"Feature","properties":{"shape_id":"{}","direction_id":"{\"0\": 214}","headsign":"{\"ΑΓΙΑ ΜΑΡΙΝΑ - ΔΟΥΚ. ΠΛΑΚΕΝΤΙΑΣ - ΑΕΡΟΔΡΟΜΙΟ\": 214}","duration_avg":120.0,"n_vehicles":214,"d":1016,"route_I_counts":"{\"5\": 214}","source":5,"target":34,"layer":"L","from":"ΣΤ.ΣΥΝΤΑΓΜΑΤΟΣ","to":"ΣΤ.ΕΥΑΓΓΕΛΙΣΜΟΥ"},"geometry":{"type":"LineString","coordinates":[[23.735684,37.975085],[23.74718,37.9762]]}},{"type":"Feature","properties":{"shape_id":"{}","direction_id":"{\"0\": 225}","headsign":"{\"ΑΝΘΟΥΠΟΛΗ - ΣΤ.ΕΛΛΗΝΙΚΟ\": 225}","duration_avg":120.0,"n_vehicles":225,"d":536,"route_I_counts":"{\"4\": 225}","source":6,"target":7,"layer":"L","from":"ΣΤ.ΑΚΡΟΠΟΛΗ","to":"ΣΤ.ΣΥΓΓΡΟΥ-ΦΙΞ"},"geometry":{"type":"LineString","coordinates":[[23.729605,37.968744],[23.726672,37.964519]]}},{"type":"Feature","properties":{"shape_id":"{}","direction_id":"{\"1\": 222}","headsign":"{\"ΣΤ.ΕΛΛΗΝΙΚΟ - ΑΝΘΟΥΠΟΛΗ\": 222}","duration_avg":120.0,"n_vehicles":222,"d":884,"route_I_counts":"{\"4\": 222}","source":6,"target":5,"layer":"L","from":"ΣΤ.ΑΚΡΟΠΟΛΗ","to":"ΣΤ.ΣΥΝΤΑΓΜΑΤΟΣ"},"geometry":{"type":"LineString","coordinates":[[23.729605,37.968744],[23.735684,37.975085]]}},{"type":"Feature","properties":{"shape_id":"{}","direction_id":"{\"0\": 224}","headsign":"{\"ΑΝΘΟΥΠΟΛΗ - ΣΤ.ΕΛΛΗΝΙΚΟ\": 224}","duration_avg":60.0,"n_vehicles":224,"d":777,"route_I_counts":"{\"4\": 224}","source":7,"target":8,"layer":"L","from":"ΣΤ.ΣΥΓΓΡΟΥ-ΦΙΞ","to":"ΣΤ.ΝΕΟΣ ΚΟΣΜΟΣ"},"geometry":{"type":"LineString","coordinates":[[23.726672,37.964519],[23.728598,37.957701]]}},{"type":"Feature","properties":{"shape_id":"{}","direction_id":"{\"1\": 223}","headsign":"{\"ΣΤ.ΕΛΛΗΝΙΚΟ - ΑΝΘΟΥΠΟΛΗ\": 223}","duration_avg":60.0,"n_vehicles":223,"d":536,"route_I_counts":"{\"4\": 223}","source":7,"target":6,"layer":"L","from":"ΣΤ.ΣΥΓΓΡΟΥ-ΦΙΞ","to":"ΣΤ.ΑΚΡΟΠΟΛΗ"},"geometry":{"type":"LineString","coordinates":[[23.726672,37.964519],[23.729605,37.968744]]}},{"type":"Feature","properties":{"shape_id":"{}","direction_id":"{\"0\": 224}","headsign":"{\"ΑΝΘΟΥΠΟΛΗ - ΣΤ.ΕΛΛΗΝΙΚΟ\": 224}","duration_avg":120.0,"n_vehicles":224,"d":508,"route_I_counts":"{\"4\": 224}","source":8,"target":9,"layer":"L","from":"ΣΤ.ΝΕΟΣ ΚΟΣΜΟΣ","to":"ΣΤ.ΑΓ.ΙΩΑΝΝΗΣ"},"geometry":{"type":"LineString","coordinates":[[23.728598,37.957701],[23.73418,37.95647]]}},{"type":"Feature","properties":{"shape_id":"{}","direction_id":"{\"1\": 223}","headsign":"{\"ΣΤ.ΕΛΛΗΝΙΚΟ - ΑΝΘΟΥΠΟΛΗ\": 223}","duration_avg":120.0,"n_vehicles":223,"d":777,"route_I_counts":"{\"4\": 223}","source":8,"target":7,"layer":"L","from":"ΣΤ.ΝΕΟΣ ΚΟΣΜΟΣ","to":"ΣΤ.ΣΥΓΓΡΟΥ-ΦΙΞ"},"geometry":{"type":"LineString","coordinates":[[23.728598,37.957701],[23.726672,37.964519]]}},{"type":"Feature","properties":{"shape_id":"{}","direction_id":"{\"0\": 224}","headsign":"{\"ΑΝΘΟΥΠΟΛΗ - ΣΤ.ΕΛΛΗΝΙΚΟ\": 224}","duration_avg":120.0,"n_vehicles":224,"d":839,"route_I_counts":"{\"4\": 224}","source":9,"target":10,"layer":"L","from":"ΣΤ.ΑΓ.ΙΩΑΝΝΗΣ","to":"ΣΤ.ΔΑΦΝΗΣ"},"geometry":{"type":"LineString","coordinates":[[23.73418,37.95647],[23.737802,37.949493]]}},{"type":"Feature","properties":{"shape_id":"{}","direction_id":"{\"1\": 223}","headsign":"{\"ΣΤ.ΕΛΛΗΝΙΚΟ - ΑΝΘΟΥΠΟΛΗ\": 223}","duration_avg":60.0,"n_vehicles":223,"d":508,"route_I_counts":"{\"4\": 223}","source":9,"target":8,"layer":"L","from":"ΣΤ.ΑΓ.ΙΩΑΝΝΗΣ","to":"ΣΤ.ΝΕΟΣ ΚΟΣΜΟΣ"},"geometry":{"type":"LineString","coordinates":[[23.73418,37.95647],[23.728598,37.957701]]}},{"type":"Feature","properties":{"shape_id":"{}","direction_id":"{\"0\": 224}","headsign":"{\"ΑΝΘΟΥΠΟΛΗ - ΣΤ.ΕΛΛΗΝΙΚΟ\": 224}","duration_avg":120.0,"n_vehicles":224,"d":939,"route_I_counts":"{\"4\": 224}","source":10,"target":11,"layer":"L","from":"ΣΤ.ΔΑΦΝΗΣ","to":"ΣΤ.ΑΓ.ΔΗΜΗΤΡΙΟΣ-ΑΛ.ΠΑ/ΛΗΣ"},"geometry":{"type":"LineString","coordinates":[[23.737802,37.949493],[23.740767,37.941388]]}},{"type":"Feature","properties":{"shape_id":"{}","direction_id":"{\"1\": 223}","headsign":"{\"ΣΤ.ΕΛΛΗΝΙΚΟ - ΑΝΘΟΥΠΟΛΗ\": 223}","duration_avg":120.0,"n_vehicles":223,"d":839,"route_I_counts":"{\"4\": 223}","source":10,"target":9,"layer":"L","from":"ΣΤ.ΔΑΦΝΗΣ","to":"ΣΤ.ΑΓ.ΙΩΑΝΝΗΣ"},"geometry":{"type":"LineString","coordinates":[[23.737802,37.949493],[23.73418,37.95647]]}},{"type":"Feature","properties":{"shape_id":"{}","direction_id":"{\"0\": 118}","headsign":"{\"ΑΝΘΟΥΠΟΛΗ - ΣΤ.ΕΛΛΗΝΙΚΟ\": 118}","duration_avg":120.0,"n_vehicles":118,"d":1328,"route_I_counts":"{\"4\": 118}","source":11,"target":12,"layer":"L","from":"ΣΤ.ΑΓ.ΔΗΜΗΤΡΙΟΣ-ΑΛ.ΠΑ/ΛΗΣ","to":"ΣΤ.ΗΛΙΟΥΠΟΛΗ"},"geometry":{"type":"LineString","coordinates":[[23.740767,37.941388],[23.744426,37.929805]]}},{"type":"Feature","properties":{"shape_id":"{}","direction_id":"{\"1\": 224}","headsign":"{\"ΣΤ.ΕΛΛΗΝΙΚΟ - ΑΝΘΟΥΠΟΛΗ\": 224}","duration_avg":60.0,"n_vehicles":224,"d":939,"route_I_counts":"{\"4\": 224}","source":11,"target":10,"layer":"L","from":"ΣΤ.ΑΓ.ΔΗΜΗΤΡΙΟΣ-ΑΛ.ΠΑ/ΛΗΣ","to":"ΣΤ.ΔΑΦΝΗΣ"},"geometry":{"type":"LineString","coordinates":[[23.740767,37.941388],[23.737802,37.949493]]}},{"type":"Feature","properties":{"shape_id":"{}","direction_id":"{\"0\": 118}","headsign":"{\"ΑΝΘΟΥΠΟΛΗ - ΣΤ.ΕΛΛΗΝΙΚΟ\": 118}","duration_avg":120.0,"n_vehicles":118,"d":1288,"route_I_counts":"{\"4\": 118}","source":12,"target":13,"layer":"L","from":"ΣΤ.ΗΛΙΟΥΠΟΛΗ","to":"ΣΤ.ΑΛΙΜΟΣ"},"geometry":{"type":"LineString","coordinates":[[23.744426,37.929805],[23.744387,37.918232]]}},{"type":"Feature","properties":{"shape_id":"{}","direction_id":"{\"1\": 119}","headsign":"{\"ΣΤ.ΕΛΛΗΝΙΚΟ - ΑΝΘΟΥΠΟΛΗ\": 119}","duration_avg":120.0,"n_vehicles":119,"d":1328,"route_I_counts":"{\"4\": 119}","source":12,"target":11,"layer":"L","from":"ΣΤ.ΗΛΙΟΥΠΟΛΗ","to":"ΣΤ.ΑΓ.ΔΗΜΗΤΡΙΟΣ-ΑΛ.ΠΑ/ΛΗΣ"},"geometry":{"type":"LineString","coordinates":[[23.744426,37.929805],[23.740767,37.941388]]}},{"type":"Feature","properties":{"shape_id":"{}","direction_id":"{\"0\": 118}","headsign":"{\"ΑΝΘΟΥΠΟΛΗ - ΣΤ.ΕΛΛΗΝΙΚΟ\": 118}","duration_avg":60.0,"n_vehicles":118,"d":1694,"route_I_counts":"{\"4\": 118}","source":13,"target":14,"layer":"L","from":"ΣΤ.ΑΛΙΜΟΣ","to":"ΣΤ.ΑΡΓΥΡΟΥΠΟΛΗ"},"geometry":{"type":"LineString","coordinates":[[23.744387,37.918232],[23.745906,37.903058]]}},{"type":"Feature","properties":{"shape_id":"{}","direction_id":"{\"1\": 119}","headsign":"{\"ΣΤ.ΕΛΛΗΝΙΚΟ - ΑΝΘΟΥΠΟΛΗ\": 119}","duration_avg":120.0,"n_vehicles":119,"d":1288,"route_I_counts":"{\"4\": 119}","source":13,"target":12,"layer":"L","from":"ΣΤ.ΑΛΙΜΟΣ","to":"ΣΤ.ΗΛΙΟΥΠΟΛΗ"},"geometry":{"type":"LineString","coordinates":[[23.744387,37.918232],[23.744426,37.929805]]}},{"type":"Feature","properties":{"shape_id":"{}","direction_id":"{\"0\": 118}","headsign":"{\"ΑΝΘΟΥΠΟΛΗ - ΣΤ.ΕΛΛΗΝΙΚΟ\": 118}","duration_avg":120.0,"n_vehicles":118,"d":1170,"route_I_counts":"{\"4\": 118}","source":14,"target":15,"layer":"L","from":"ΣΤ.ΑΡΓΥΡΟΥΠΟΛΗ","to":"ΣΤ.ΕΛΛΗΝΙΚΟ"},"geometry":{"type":"LineString","coordinates":[[23.745906,37.903058],[23.747466,37.892615]]}},{"type":"Feature","properties":{"shape_id":"{}","direction_id":"{\"1\": 119}","headsign":"{\"ΣΤ.ΕΛΛΗΝΙΚΟ - ΑΝΘΟΥΠΟΛΗ\": 119}","duration_avg":120.0,"n_vehicles":119,"d":1694,"route_I_counts":"{\"4\": 119}","source":14,"target":13,"layer":"L","from":"ΣΤ.ΑΡΓΥΡΟΥΠΟΛΗ","to":"ΣΤ.ΑΛΙΜΟΣ"},"geometry":{"type":"LineString","coordinates":[[23.745906,37.903058],[23.744387,37.918232]]}},{"type":"Feature","properties":{"shape_id":"{}","direction_id":"{\"1\": 120}","headsign":"{\"ΣΤ.ΕΛΛΗΝΙΚΟ - ΑΝΘΟΥΠΟΛΗ\": 120}","duration_avg":120.0,"n_vehicles":120,"d":1170,"route_I_counts":"{\"4\": 120}","source":15,"target":14,"layer":"L","from":"ΣΤ.ΕΛΛΗΝΙΚΟ","to":"ΣΤ.ΑΡΓΥΡΟΥΠΟΛΗ"},"geometry":{"type":"LineString","coordinates":[[23.747466,37.892615],[23.745906,37.903058]]}},{"type":"Feature","properties":{"shape_id":"{}","direction_id":"{\"0\": 217}","headsign":"{\"ΑΝΘΟΥΠΟΛΗ - ΣΤ.ΕΛΛΗΝΙΚΟ\": 217}","duration_avg":60.0,"n_vehicles":217,"d":621,"route_I_counts":"{\"4\": 217}","source":16,"target":17,"layer":"L","from":"ΣΤ.ΑΝΘΟΥΠΟΛΗ","to":"ΣΤ.ΠΕΡΙΣΤΕΡΙ"},"geometry":{"type":"LineString","coordinates":[[23.691001,38.017093],[23.695746,38.012941]]}},{"type":"Feature","properties":{"shape_id":"{}","direction_id":"{\"0\": 217}","headsign":"{\"ΑΝΘΟΥΠΟΛΗ - ΣΤ.ΕΛΛΗΝΙΚΟ\": 217}","duration_avg":60.0,"n_vehicles":217,"d":805,"route_I_counts":"{\"4\": 217}","source":17,"target":18,"layer":"L","from":"ΣΤ.ΠΕΡΙΣΤΕΡΙ","to":"ΣΤ.ΑΓ.ΑΝΤΩΝΙΟΣ"},"geometry":{"type":"LineString","coordinates":[[23.695746,38.012941],[23.699657,38.00639]]}},{"type":"Feature","properties":{"shape_id":"{}","direction_id":"{\"1\": 221}","headsign":"{\"ΣΤ.ΕΛΛΗΝΙΚΟ - ΑΝΘΟΥΠΟΛΗ\": 221}","duration_avg":60.0,"n_vehicles":221,"d":621,"route_I_counts":"{\"4\": 221}","source":17,"target":16,"layer":"L","from":"ΣΤ.ΠΕΡΙΣΤΕΡΙ","to":"ΣΤ.ΑΝΘΟΥΠΟΛΗ"},"geometry":{"type":"LineString","coordinates":[[23.695746,38.012941],[23.691001,38.017093]]}},{"type":"Feature","properties":{"shape_id":"{}","direction_id":"{\"0\": 216}","headsign":"{\"ΑΝΘΟΥΠΟΛΗ - ΣΤ.ΕΛΛΗΝΙΚΟ\": 216}","duration_avg":120.0,"n_vehicles":216,"d":1286,"route_I_counts":"{\"4\": 216}","source":18,"target":19,"layer":"L","from":"ΣΤ.ΑΓ.ΑΝΤΩΝΙΟΣ","to":"ΣΤ.ΣΕΠΟΛΙΩΝ"},"geometry":{"type":"LineString","coordinates":[[23.699657,38.00639],[23.71359,38.002783]]}},{"type":"Feature","properties":{"shape_id":"{}","direction_id":"{\"1\": 221}","headsign":"{\"ΣΤ.ΕΛΛΗΝΙΚΟ - ΑΝΘΟΥΠΟΛΗ\": 221}","duration_avg":60.0,"n_vehicles":221,"d":805,"route_I_counts":"{\"4\": 221}","source":18,"target":17,"layer":"L","from":"ΣΤ.ΑΓ.ΑΝΤΩΝΙΟΣ","to":"ΣΤ.ΠΕΡΙΣΤΕΡΙ"},"geometry":{"type":"LineString","coordinates":[[23.699657,38.00639],[23.695746,38.012941]]}},{"type":"Feature","properties":{"shape_id":"{}","direction_id":"{\"0\": 225}","headsign":"{\"ΑΝΘΟΥΠΟΛΗ - ΣΤ.ΕΛΛΗΝΙΚΟ\": 225}","duration_avg":120.0,"n_vehicles":225,"d":901,"route_I_counts":"{\"4\": 225}","source":19,"target":0,"layer":"L","from":"ΣΤ.ΣΕΠΟΛΙΩΝ","to":"ΣΤ.ΑΤΤΙΚΗΣ"},"geometry":{"type":"LineString","coordinates":[[23.71359,38.002783],[23.722422,37.998641]]}},{"type":"Feature","properties":{"shape_id":"{}","direction_id":"{\"1\": 221}","headsign":"{\"ΣΤ.ΕΛΛΗΝΙΚΟ - ΑΝΘΟΥΠΟΛΗ\": 221}","duration_avg":120.0,"n_vehicles":221,"d":1286,"route_I_counts":"{\"4\": 221}","source":19,"target":18,"layer":"L","from":"ΣΤ.ΣΕΠΟΛΙΩΝ","to":"ΣΤ.ΑΓ.ΑΝΤΩΝΙΟΣ"},"geometry":{"type":"LineString","coordinates":[[23.71359,38.002783],[23.699657,38.00639]]}},{"type":"Feature","properties":{"shape_id":"{}","direction_id":"{\"1\": 31}","headsign":"{\"ΑΕΡΟΔΡΟΜΙΟ -  ΔΟΥΚ. ΠΛΑΚΕΝΤΙΑΣ  - ΑΓΙΑ ΜΑΡΙΝΑ\": 31}","duration_avg":360.0,"n_vehicles":31,"d":5060,"route_I_counts":"{\"5\": 31}","source":20,"target":21,"layer":"L","from":"ΣΤ.ΑΕΡΟΔΡΟΜΙΟΥ","to":"ΣΤ.ΚΟΡΩΠΙ"},"geometry":{"type":"LineString","coordinates":[[23.944702,37.936802],[23.895733,37.91284]]}},{"type":"Feature","properties":{"shape_id":"{}","direction_id":"{\"1\": 31}","headsign":"{\"ΑΕΡΟΔΡΟΜΙΟ -  ΔΟΥΚ. ΠΛΑΚΕΝΤΙΑΣ  - ΑΓΙΑ ΜΑΡΙΝΑ\": 31}","duration_avg":360.0,"n_vehicles":31,"d":8184,"route_I_counts":"{\"5\": 31}","source":21,"target":22,"layer":"L","from":"ΣΤ.ΚΟΡΩΠΙ","to":"ΣΤ.ΚΑΝΤΖΑ"},"geometry":{"type":"LineString","coordinates":[[23.895733,37.91284],[23.869876,37.983475]]}},{"type":"Feature","properties":{"shape_id":"{}","direction_id":"{\"0\": 32}","headsign":"{\"ΑΓΙΑ ΜΑΡΙΝΑ - ΔΟΥΚ. ΠΛΑΚΕΝΤΙΑΣ - ΑΕΡΟΔΡΟΜΙΟ\": 32}","duration_avg":360.0,"n_vehicles":32,"d":5060,"route_I_counts":"{\"5\": 32}","source":21,"target":20,"layer":"L","from":"ΣΤ.ΚΟΡΩΠΙ","to":"ΣΤ.ΑΕΡΟΔΡΟΜΙΟΥ"},"geometry":{"type":"LineString","coordinates":[[23.895733,37.91284],[23.944702,37.936802]]}},{"type":"Feature","properties":{"shape_id":"{}","direction_id":"{\"1\": 31}","headsign":"{\"ΑΕΡΟΔΡΟΜΙΟ -  ΔΟΥΚ. ΠΛΑΚΕΝΤΙΑΣ  - ΑΓΙΑ ΜΑΡΙΝΑ\": 31}","duration_avg":300.0,"n_vehicles":31,"d":2447,"route_I_counts":"{\"5\": 31}","source":22,"target":23,"layer":"L","from":"ΣΤ.ΚΑΝΤΖΑ","to":"ΣΤ.ΠΑΛΛΗΝΗ"},"geometry":{"type":"LineString","coordinates":[[23.869876,37.983475],[23.86929,38.005457]]}},{"type":"Feature","properties":{"shape_id":"{}","direction_id":"{\"0\": 32}","headsign":"{\"ΑΓΙΑ ΜΑΡΙΝΑ - ΔΟΥΚ. ΠΛΑΚΕΝΤΙΑΣ - ΑΕΡΟΔΡΟΜΙΟ\": 32}","duration_avg":360.0,"n_vehicles":32,"d":8184,"route_I_counts":"{\"5\": 32}","source":22,"target":21,"layer":"L","from":"ΣΤ.ΚΑΝΤΖΑ","to":"ΣΤ.ΚΟΡΩΠΙ"},"geometry":{"type":"LineString","coordinates":[[23.869876,37.983475],[23.895733,37.91284]]}},{"type":"Feature","properties":{"shape_id":"{}","direction_id":"{\"1\": 31}","headsign":"{\"ΑΕΡΟΔΡΟΜΙΟ -  ΔΟΥΚ. ΠΛΑΚΕΝΤΙΑΣ  - ΑΓΙΑ ΜΑΡΙΝΑ\": 31}","duration_avg":180.0,"n_vehicles":31,"d":3743,"route_I_counts":"{\"5\": 31}","source":23,"target":24,"layer":"L","from":"ΣΤ.ΠΑΛΛΗΝΗ","to":"ΣΤ.ΔΟΥΚ.ΠΛΑΚΕΝΤΙΑΣ"},"geometry":{"type":"LineString","coordinates":[[23.86929,38.005457],[23.833596,38.023897]]}},{"type":"Feature","properties":{"shape_id":"{}","direction_id":"{\"0\": 32}","headsign":"{\"ΑΓΙΑ ΜΑΡΙΝΑ - ΔΟΥΚ. ΠΛΑΚΕΝΤΙΑΣ - ΑΕΡΟΔΡΟΜΙΟ\": 32}","duration_avg":120.0,"n_vehicles":32,"d":2447,"route_I_counts":"{\"5\": 32}","source":23,"target":22,"layer":"L","from":"ΣΤ.ΠΑΛΛΗΝΗ","to":"ΣΤ.ΚΑΝΤΖΑ"},"geometry":{"type":"LineString","coordinates":[[23.86929,38.005457],[23.869876,37.983475]]}},{"type":"Feature","properties":{"shape_id":"{}","direction_id":"{\"1\": 210}","headsign":"{\"ΑΕΡΟΔΡΟΜΙΟ -  ΔΟΥΚ. ΠΛΑΚΕΝΤΙΑΣ  - ΑΓΙΑ ΜΑΡΙΝΑ\": 210}","duration_avg":180.0,"n_vehicles":210,"d":1192,"route_I_counts":"{\"5\": 210}","source":24,"target":25,"layer":"L","from":"ΣΤ.ΔΟΥΚ.ΠΛΑΚΕΝΤΙΑΣ","to":"ΣΤ.ΧΑΛΑΝΔΡΙ"},"geometry":{"type":"LineString","coordinates":[[23.833596,38.023897],[23.820316,38.021597]]}},{"type":"Feature","properties":{"shape_id":"{}","direction_id":"{\"0\": 32}","headsign":"{\"ΑΓΙΑ ΜΑΡΙΝΑ - ΔΟΥΚ. ΠΛΑΚΕΝΤΙΑΣ - ΑΕΡΟΔΡΟΜΙΟ\": 32}","duration_avg":360.0,"n_vehicles":32,"d":3743,"route_I_counts":"{\"5\": 32}","source":24,"target":23,"layer":"L","from":"ΣΤ.ΔΟΥΚ.ΠΛΑΚΕΝΤΙΑΣ","to":"ΣΤ.ΠΑΛΛΗΝΗ"},"geometry":{"type":"LineString","coordinates":[[23.833596,38.023897],[23.86929,38.005457]]}},{"type":"Feature","properties":{"shape_id":"{}","direction_id":"{\"1\": 210}","headsign":"{\"ΑΕΡΟΔΡΟΜΙΟ -  ΔΟΥΚ. ΠΛΑΚΕΝΤΙΑΣ  - ΑΓΙΑ ΜΑΡΙΝΑ\": 210}","duration_avg":60.0,"n_vehicles":210,"d":848,"route_I_counts":"{\"5\": 210}","source":25,"target":26,"layer":"L","from":"ΣΤ.ΧΑΛΑΝΔΡΙ","to":"ΣΤ.ΑΓ.ΠΑΡΑΣΚΕΥΗ"},"geometry":{"type":"LineString","coordinates":[[23.820316,38.021597],[23.812318,38.017313]]}},{"type":"Feature","properties":{"shape_id":"{}","direction_id":"{\"0\": 212}","headsign":"{\"ΑΓΙΑ ΜΑΡΙΝΑ - ΔΟΥΚ. ΠΛΑΚΕΝΤΙΑΣ - ΑΕΡΟΔΡΟΜΙΟ\": 212}","duration_avg":120.0,"n_vehicles":212,"d":1192,"route_I_counts":"{\"5\": 212}","source":25,"target":24,"layer":"L","from":"ΣΤ.ΧΑΛΑΝΔΡΙ","to":"ΣΤ.ΔΟΥΚ.ΠΛΑΚΕΝΤΙΑΣ"},"geometry":{"type":"LineString","coordinates":[[23.820316,38.021597],[23.833596,38.023897]]}},{"type":"Feature","properties":{"shape_id":"{}","direction_id":"{\"1\": 210}","headsign":"{\"ΑΕΡΟΔΡΟΜΙΟ -  ΔΟΥΚ. ΠΛΑΚΕΝΤΙΑΣ  - ΑΓΙΑ ΜΑΡΙΝΑ\": 210}","duration_avg":120.0,"n_vehicles":210,"d":1077,"route_I_counts":"{\"5\": 210}","source":26,"target":27,"layer":"L","from":"ΣΤ.ΑΓ.ΠΑΡΑΣΚΕΥΗ","to":"ΣΤ.ΝΟΜΙΣΜΑΤΟΚΟΠΕΙΟ"},"geometry":{"type":"LineString","coordinates":[[23.812318,38.017313],[23.805698,38.009154]]}},{"type":"Feature","properties":{"shape_id":"{}","direction_id":"{\"0\": 212}","headsign":"{\"ΑΓΙΑ ΜΑΡΙΝΑ - ΔΟΥΚ. ΠΛΑΚΕΝΤΙΑΣ - ΑΕΡΟΔΡΟΜΙΟ\": 212}","duration_avg":60.0,"n_vehicles":212,"d":848,"route_I_counts":"{\"5\": 212}","source":26,"target":25,"layer":"L","from":"ΣΤ.ΑΓ.ΠΑΡΑΣΚΕΥΗ","to":"ΣΤ.ΧΑΛΑΝΔΡΙ"},"geometry":{"type":"LineString","coordinates":[[23.812318,38.017313],[23.820316,38.021597]]}},{"type":"Feature","properties":{"shape_id":"{}","direction_id":"{\"1\": 210}","headsign":"{\"ΑΕΡΟΔΡΟΜΙΟ -  ΔΟΥΚ. ΠΛΑΚΕΝΤΙΑΣ  - ΑΓΙΑ ΜΑΡΙΝΑ\": 210}","duration_avg":120.0,"n_vehicles":210,"d":1061,"route_I_counts":"{\"5\": 210}","source":27,"target":28,"layer":"L","from":"ΣΤ.ΝΟΜΙΣΜΑΤΟΚΟΠΕΙΟ","to":"ΣΤ.ΧΟΛΑΡΓΟΣ"},"geometry":{"type":"LineString","coordinates":[[23.805698,38.009154],[23.794842,38.004936]]}},{"type":"Feature","properties":{"shape_id":"{}","direction_id":"{\"0\": 212}","headsign":"{\"ΑΓΙΑ ΜΑΡΙΝΑ - ΔΟΥΚ. ΠΛΑΚΕΝΤΙΑΣ - ΑΕΡΟΔΡΟΜΙΟ\": 212}","duration_avg":120.0,"n_vehicles":212,"d":1077,"route_I_counts":"{\"5\": 212}","source":27,"target":26,"layer":"L","from":"ΣΤ.ΝΟΜΙΣΜΑΤΟΚΟΠΕΙΟ","to":"ΣΤ.ΑΓ.ΠΑΡΑΣΚΕΥΗ"},"geometry":{"type":"LineString","coordinates":[[23.805698,38.009154],[23.812318,38.017313]]}},{"type":"Feature","properties":{"shape_id":"{}","direction_id":"{\"1\": 209}","headsign":"{\"ΑΕΡΟΔΡΟΜΙΟ -  ΔΟΥΚ. ΠΛΑΚΕΝΤΙΑΣ  - ΑΓΙΑ ΜΑΡΙΝΑ\": 209}","duration_avg":120.0,"n_vehicles":209,"d":968,"route_I_counts":"{\"5\": 209}","source":28,"target":29,"layer":"L","from":"ΣΤ.ΧΟΛΑΡΓΟΣ","to":"ΣΤ.ΕΘΝ.ΑΜΥΝΑΣ"},"geometry":{"type":"LineString","coordinates":[[23.794842,38.004936],[23.785756,37.99999]]}},{"type":"Feature","properties":{"shape_id":"{}","direction_id":"{\"0\": 213}","headsign":"{\"ΑΓΙΑ ΜΑΡΙΝΑ - ΔΟΥΚ. ΠΛΑΚΕΝΤΙΑΣ - ΑΕΡΟΔΡΟΜΙΟ\": 213}","duration_avg":120.0,"n_vehicles":213,"d":1061,"route_I_counts":"{\"5\": 213}","source":28,"target":27,"layer":"L","from":"ΣΤ.ΧΟΛΑΡΓΟΣ","to":"ΣΤ.ΝΟΜΙΣΜΑΤΟΚΟΠΕΙΟ"},"geometry":{"type":"LineString","coordinates":[[23.794842,38.004936],[23.805698,38.009154]]}},{"type":"Feature","properties":{"shape_id":"{}","direction_id":"{\"1\": 210}","headsign":"{\"ΑΕΡΟΔΡΟΜΙΟ -  ΔΟΥΚ. ΠΛΑΚΕΝΤΙΑΣ  - ΑΓΙΑ ΜΑΡΙΝΑ\": 210}","duration_avg":60.0,"n_vehicles":210,"d":1134,"route_I_counts":"{\"5\": 210}","source":29,"target":30,"layer":"L","from":"ΣΤ.ΕΘΝ.ΑΜΥΝΑΣ","to":"ΣΤ.ΚΑΤΕΧΑΚΗ"},"geometry":{"type":"LineString","coordinates":[[23.785756,37.99999],[23.776152,37.993167]]}},{"type":"Feature","properties":{"shape_id":"{}","direction_id":"{\"0\": 213}","headsign":"{\"ΑΓΙΑ ΜΑΡΙΝΑ - ΔΟΥΚ. ΠΛΑΚΕΝΤΙΑΣ - ΑΕΡΟΔΡΟΜΙΟ\": 213}","duration_avg":120.0,"n_vehicles":213,"d":968,"route_I_counts":"{\"5\": 213}","source":29,"target":28,"layer":"L","from":"ΣΤ.ΕΘΝ.ΑΜΥΝΑΣ","to":"ΣΤ.ΧΟΛΑΡΓΟΣ"},"geometry":{"type":"LineString","coordinates":[[23.785756,37.99999],[23.794842,38.004936]]}},{"type":"Feature","properties":{"shape_id":"{}","direction_id":"{\"1\": 210}","headsign":"{\"ΑΕΡΟΔΡΟΜΙΟ -  ΔΟΥΚ. ΠΛΑΚΕΝΤΙΑΣ  - ΑΓΙΑ ΜΑΡΙΝΑ\": 210}","duration_avg":120.0,"n_vehicles":210,"d":1117,"route_I_counts":"{\"5\": 210}","source":30,"target":31,"layer":"L","from":"ΣΤ.ΚΑΤΕΧΑΚΗ","to":"ΣΤ.ΠΑΝΟΡΜΟΥ"},"geometry":{"type":"LineString","coordinates":[[23.776152,37.993167],[23.763419,37.99316]]}},{"type":"Feature","properties":{"shape_id":"{}","direction_id":"{\"0\": 213}","headsign":"{\"ΑΓΙΑ ΜΑΡΙΝΑ - ΔΟΥΚ. ΠΛΑΚΕΝΤΙΑΣ - ΑΕΡΟΔΡΟΜΙΟ\": 213}","duration_avg":60.0,"n_vehicles":213,"d":1134,"route_I_counts":"{\"5\": 213}","source":30,"target":29,"layer":"L","from":"ΣΤ.ΚΑΤΕΧΑΚΗ","to":"ΣΤ.ΕΘΝ.ΑΜΥΝΑΣ"},"geometry":{"type":"LineString","coordinates":[[23.776152,37.993167],[23.785756,37.99999]]}},{"type":"Feature","properties":{"shape_id":"{}","direction_id":"{\"1\": 210}","headsign":"{\"ΑΕΡΟΔΡΟΜΙΟ -  ΔΟΥΚ. ΠΛΑΚΕΝΤΙΑΣ  - ΑΓΙΑ ΜΑΡΙΝΑ\": 210}","duration_avg":120.0,"n_vehicles":210,"d":850,"route_I_counts":"{\"5\": 210}","source":31,"target":32,"layer":"L","from":"ΣΤ.ΠΑΝΟΡΜΟΥ","to":"ΣΤ.ΑΜΠΕΛΟΚΗΠΩΝ"},"geometry":{"type":"LineString","coordinates":[[23.763419,37.99316],[23.757232,37.98728]]}},{"type":"Feature","properties":{"shape_id":"{}","direction_id":"{\"0\": 213}","headsign":"{\"ΑΓΙΑ ΜΑΡΙΝΑ - ΔΟΥΚ. ΠΛΑΚΕΝΤΙΑΣ - ΑΕΡΟΔΡΟΜΙΟ\": 213}","duration_avg":120.0,"n_vehicles":213,"d":1117,"route_I_counts":"{\"5\": 213}","source":31,"target":30,"layer":"L","from":"ΣΤ.ΠΑΝΟΡΜΟΥ","to":"ΣΤ.ΚΑΤΕΧΑΚΗ"},"geometry":{"type":"LineString","coordinates":[[23.763419,37.99316],[23.776152,37.993167]]}},{"type":"Feature","properties":{"shape_id":"{}","direction_id":"{\"1\": 210}","headsign":"{\"ΑΕΡΟΔΡΟΜΙΟ -  ΔΟΥΚ. ΠΛΑΚΕΝΤΙΑΣ  - ΑΓΙΑ ΜΑΡΙΝΑ\": 210}","duration_avg":60.0,"n_vehicles":210,"d":1032,"route_I_counts":"{\"5\": 210}","source":32,"target":33,"layer":"L","from":"ΣΤ.ΑΜΠΕΛΟΚΗΠΩΝ","to":"ΣΤ.ΜΕΓ.ΜΟΥΣΙΚΗΣ"},"geometry":{"type":"LineString","coordinates":[[23.757232,37.98728],[23.752797,37.978691]]}},{"type":"Feature","properties":{"shape_id":"{}","direction_id":"{\"0\": 213}","headsign":"{\"ΑΓΙΑ ΜΑΡΙΝΑ - ΔΟΥΚ. ΠΛΑΚΕΝΤΙΑΣ - ΑΕΡΟΔΡΟΜΙΟ\": 213}","duration_avg":120.0,"n_vehicles":213,"d":850,"route_I_counts":"{\"5\": 213}","source":32,"target":31,"layer":"L","from":"ΣΤ.ΑΜΠΕΛΟΚΗΠΩΝ","to":"ΣΤ.ΠΑΝΟΡΜΟΥ"},"geometry":{"type":"LineString","coordinates":[[23.757232,37.98728],[23.763419,37.99316]]}},{"type":"Feature","properties":{"shape_id":"{}","direction_id":"{\"1\": 210}","headsign":"{\"ΑΕΡΟΔΡΟΜΙΟ -  ΔΟΥΚ. ΠΛΑΚΕΝΤΙΑΣ  - ΑΓΙΑ ΜΑΡΙΝΑ\": 210}","duration_avg":60.0,"n_vehicles":210,"d":565,"route_I_counts":"{\"5\": 210}","source":33,"target":34,"layer":"L","from":"ΣΤ.ΜΕΓ.ΜΟΥΣΙΚΗΣ","to":"ΣΤ.ΕΥΑΓΓΕΛΙΣΜΟΥ"},"geometry":{"type":"LineString","coordinates":[[23.752797,37.978691],[23.74718,37.9762]]}},{"type":"Feature","properties":{"shape_id":"{}","direction_id":"{\"0\": 214}","headsign":"{\"ΑΓΙΑ ΜΑΡΙΝΑ - ΔΟΥΚ. ΠΛΑΚΕΝΤΙΑΣ - ΑΕΡΟΔΡΟΜΙΟ\": 214}","duration_avg":120.0,"n_vehicles":214,"d":1032,"route_I_counts":"{\"5\": 214}","source":33,"target":32,"layer":"L","from":"ΣΤ.ΜΕΓ.ΜΟΥΣΙΚΗΣ","to":"ΣΤ.ΑΜΠΕΛΟΚΗΠΩΝ"},"geometry":{"type":"LineString","coordinates":[[23.752797,37.978691],[23.757232,37.98728]]}},{"type":"Feature","properties":{"shape_id":"{}","direction_id":"{\"1\": 210}","headsign":"{\"ΑΕΡΟΔΡΟΜΙΟ -  ΔΟΥΚ. ΠΛΑΚΕΝΤΙΑΣ  - ΑΓΙΑ ΜΑΡΙΝΑ\": 210}","duration_avg":180.0,"n_vehicles":210,"d":1016,"route_I_counts":"{\"5\": 210}","source":34,"target":5,"layer":"L","from":"ΣΤ.ΕΥΑΓΓΕΛΙΣΜΟΥ","to":"ΣΤ.ΣΥΝΤΑΓΜΑΤΟΣ"},"geometry":{"type":"LineString","coordinates":[[23.74718,37.9762],[23.735684,37.975085]]}},{"type":"Feature","properties":{"shape_id":"{}","direction_id":"{\"0\": 214}","headsign":"{\"ΑΓΙΑ ΜΑΡΙΝΑ - ΔΟΥΚ. ΠΛΑΚΕΝΤΙΑΣ - ΑΕΡΟΔΡΟΜΙΟ\": 214}","duration_avg":120.0,"n_vehicles":214,"d":565,"route_I_counts":"{\"5\": 214}","source":34,"target":33,"layer":"L","from":"ΣΤ.ΕΥΑΓΓΕΛΙΣΜΟΥ","to":"ΣΤ.ΜΕΓ.ΜΟΥΣΙΚΗΣ"},"geometry":{"type":"LineString","coordinates":[[23.74718,37.9762],[23.752797,37.978691]]}},{"type":"Feature","properties":{"shape_id":"{}","direction_id":"{\"1\": 209}","headsign":"{\"ΑΕΡΟΔΡΟΜΙΟ -  ΔΟΥΚ. ΠΛΑΚΕΝΤΙΑΣ  - ΑΓΙΑ ΜΑΡΙΝΑ\": 209}","duration_avg":120.0,"n_vehicles":209,"d":1267,"route_I_counts":"{\"5\": 209}","source":35,"target":36,"layer":"L","from":"ΣΤ.ΜΟΝΑΣΤΗΡΑΚΙ","to":"ΣΤ.ΚΕΡΑΜΕΙΚΟΥ"},"geometry":{"type":"LineString","coordinates":[[23.725852,37.976675],[23.711623,37.97866]]}},{"type":"Feature","properties":{"shape_id":"{}","direction_id":"{\"0\": 214}","headsign":"{\"ΑΓΙΑ ΜΑΡΙΝΑ - ΔΟΥΚ. ΠΛΑΚΕΝΤΙΑΣ - ΑΕΡΟΔΡΟΜΙΟ\": 214}","duration_avg":120.0,"n_vehicles":214,"d":880,"route_I_counts":"{\"5\": 214}","source":35,"target":5,"layer":"L","from":"ΣΤ.ΜΟΝΑΣΤΗΡΑΚΙ","to":"ΣΤ.ΣΥΝΤΑΓΜΑΤΟΣ"},"geometry":{"type":"LineString","coordinates":[[23.725852,37.976675],[23.735684,37.975085]]}},{"type":"Feature","properties":{"shape_id":"{}","direction_id":"{\"0\": 185}","headsign":"{\"ΠΕΙΡΑΙΑΣ - ΚΗΦΙΣΙΑ\": 185}","duration_avg":120.0,"n_vehicles":185,"d":853,"route_I_counts":"{\"6\": 185}","source":35,"target":3,"layer":"L","from":"ΣΤ.ΜΟΝΑΣΤΗΡΑΚΙ","to":"ΣΤ.ΟΜΟΝΟΙΑΣ"},"geometry":{"type":"LineString","coordinates":[[23.725852,37.976675],[23.728113,37.984134]]}},{"type":"Feature","properties":{"shape_id":"{}","direction_id":"{\"1\": 185}","headsign":"{\"ΚΗΦΙΣΙΑ - ΠΕΙΡΑΙΑΣ\": 185}","duration_avg":120.0,"n_vehicles":185,"d":467,"route_I_counts":"{\"6\": 185}","source":35,"target":46,"layer":"L","from":"ΣΤ.ΜΟΝΑΣΤΗΡΑΚΙ","to":"ΣΤ.ΘΗΣΕΙΟΥ"},"geometry":{"type":"LineString","coordinates":[[23.725852,37.976675],[23.720523,37.976699]]}},{"type":"Feature","properties":{"shape_id":"{}","direction_id":"{\"1\": 209}","headsign":"{\"ΑΕΡΟΔΡΟΜΙΟ -  ΔΟΥΚ. ΠΛΑΚΕΝΤΙΑΣ  - ΑΓΙΑ ΜΑΡΙΝΑ\": 209}","duration_avg":120.0,"n_vehicles":209,"d":1900,"route_I_counts":"{\"5\": 209}","source":36,"target":37,"layer":"L","from":"ΣΤ.ΚΕΡΑΜΕΙΚΟΥ","to":"ΣΤ.ΕΛΑΙΩΝΑΣ"},"geometry":{"type":"LineString","coordinates":[[23.711623,37.97866],[23.693355,37.987834]]}},{"type":"Feature","properties":{"shape_id":"{}","direction_id":"{\"0\": 213}","headsign":"{\"ΑΓΙΑ ΜΑΡΙΝΑ - ΔΟΥΚ. ΠΛΑΚΕΝΤΙΑΣ - ΑΕΡΟΔΡΟΜΙΟ\": 213}","duration_avg":120.0,"n_vehicles":213,"d":1267,"route_I_counts":"{\"5\": 213}","source":36,"target":35,"layer":"L","from":"ΣΤ.ΚΕΡΑΜΕΙΚΟΥ","to":"ΣΤ.ΜΟΝΑΣΤΗΡΑΚΙ"},"geometry":{"type":"LineString","coordinates":[[23.711623,37.97866],[23.725852,37.976675]]}},{"type":"Feature","properties":{"shape_id":"{}","direction_id":"{\"1\": 209}","headsign":"{\"ΑΕΡΟΔΡΟΜΙΟ -  ΔΟΥΚ. ΠΛΑΚΕΝΤΙΑΣ  - ΑΓΙΑ ΜΑΡΙΝΑ\": 209}","duration_avg":120.0,"n_vehicles":209,"d":1073,"route_I_counts":"{\"5\": 209}","source":37,"target":38,"layer":"L","from":"ΣΤ.ΕΛΑΙΩΝΑΣ","to":"ΣΤ.ΑΙΓΑΛΕΩ"},"geometry":{"type":"LineString","coordinates":[[23.693355,37.987834],[23.682088,37.991599]]}},{"type":"Feature","properties":{"shape_id":"{}","direction_id":"{\"0\": 213}","headsign":"{\"ΑΓΙΑ ΜΑΡΙΝΑ - ΔΟΥΚ. ΠΛΑΚΕΝΤΙΑΣ - ΑΕΡΟΔΡΟΜΙΟ\": 213}","duration_avg":120.0,"n_vehicles":213,"d":1900,"route_I_counts":"{\"5\": 213}","source":37,"target":36,"layer":"L","from":"ΣΤ.ΕΛΑΙΩΝΑΣ","to":"ΣΤ.ΚΕΡΑΜΕΙΚΟΥ"},"geometry":{"type":"LineString","coordinates":[[23.693355,37.987834],[23.711623,37.97866]]}},{"type":"Feature","properties":{"shape_id":"{}","direction_id":"{\"1\": 209}","headsign":"{\"ΑΕΡΟΔΡΟΜΙΟ -  ΔΟΥΚ. ΠΛΑΚΕΝΤΙΑΣ  - ΑΓΙΑ ΜΑΡΙΝΑ\": 209}","duration_avg":120.0,"n_vehicles":209,"d":1436,"route_I_counts":"{\"5\": 209}","source":38,"target":39,"layer":"L","from":"ΣΤ.ΑΙΓΑΛΕΩ","to":"ΣΤ.ΑΓ.ΜΑΡΙΝΑ"},"geometry":{"type":"LineString","coordinates":[[23.682088,37.991599],[23.667371,37.997254]]}},{"type":"Feature","properties":{"shape_id":"{}","direction_id":"{\"0\": 213}","headsign":"{\"ΑΓΙΑ ΜΑΡΙΝΑ - ΔΟΥΚ. ΠΛΑΚΕΝΤΙΑΣ - ΑΕΡΟΔΡΟΜΙΟ\": 213}","duration_avg":120.0,"n_vehicles":213,"d":1073,"route_I_counts":"{\"5\": 213}","source":38,"target":37,"layer":"L","from":"ΣΤ.ΑΙΓΑΛΕΩ","to":"ΣΤ.ΕΛΑΙΩΝΑΣ"},"geometry":{"type":"LineString","coordinates":[[23.682088,37.991599],[23.693355,37.987834]]}},{"type":"Feature","properties":{"shape_id":"{}","direction_id":"{\"0\": 214}","headsign":"{\"ΑΓΙΑ ΜΑΡΙΝΑ - ΔΟΥΚ. ΠΛΑΚΕΝΤΙΑΣ - ΑΕΡΟΔΡΟΜΙΟ\": 214}","duration_avg":120.0,"n_vehicles":214,"d":1436,"route_I_counts":"{\"5\": 214}","source":39,"target":38,"layer":"L","from":"ΣΤ.ΑΓ.ΜΑΡΙΝΑ","to":"ΣΤ.ΑΙΓΑΛΕΩ"},"geometry":{"type":"LineString","coordinates":[[23.667371,37.997254],[23.682088,37.991599]]}},{"type":"Feature","properties":{"shape_id":"{}","direction_id":"{\"0\": 186}","headsign":"{\"ΠΕΙΡΑΙΑΣ - ΚΗΦΙΣΙΑ\": 186}","duration_avg":120.0,"n_vehicles":186,"d":1878,"route_I_counts":"{\"6\": 186}","source":40,"target":41,"layer":"L","from":"ΣΤ.ΠΕΙΡΑΙΑ","to":"ΣΤ.Ν.ΦΑΛΗΡΟΥ"},"geometry":{"type":"LineString","coordinates":[[23.642975,37.947972],[23.66391,37.944465]]}},{"type":"Feature","properties":{"shape_id":"{}","direction_id":"{\"0\": 186}","headsign":"{\"ΠΕΙΡΑΙΑΣ - ΚΗΦΙΣΙΑ\": 186}","duration_avg":180.0,"n_vehicles":186,"d":1870,"route_I_counts":"{\"6\": 186}","source":41,"target":42,"layer":"L","from":"ΣΤ.Ν.ΦΑΛΗΡΟΥ","to":"ΣΤ.ΜΟΣΧΑΤΟΥ"},"geometry":{"type":"LineString","coordinates":[[23.66391,37.944465],[23.680173,37.955317]]}},{"type":"Feature","properties":{"shape_id":"{}","direction_id":"{\"1\": 186}","headsign":"{\"ΚΗΦΙΣΙΑ - ΠΕΙΡΑΙΑΣ\": 186}","duration_avg":120.0,"n_vehicles":186,"d":1878,"route_I_counts":"{\"6\": 186}","source":41,"target":40,"layer":"L","from":"ΣΤ.Ν.ΦΑΛΗΡΟΥ","to":"ΣΤ.ΠΕΙΡΑΙΑ"},"geometry":{"type":"LineString","coordinates":[[23.66391,37.944465],[23.642975,37.947972]]}},{"type":"Feature","properties":{"shape_id":"{}","direction_id":"{\"0\": 186}","headsign":"{\"ΠΕΙΡΑΙΑΣ - ΚΗΦΙΣΙΑ\": 186}","duration_avg":180.0,"n_vehicles":186,"d":1601,"route_I_counts":"{\"6\": 186}","source":42,"target":43,"layer":"L","from":"ΣΤ.ΜΟΣΧΑΤΟΥ","to":"ΣΤ.ΚΑΛΛΙΘΕΑΣ"},"geometry":{"type":"LineString","coordinates":[[23.680173,37.955317],[23.697191,37.960508]]}},{"type":"Feature","properties":{"shape_id":"{}","direction_id":"{\"1\": 187}","headsign":"{\"ΚΗΦΙΣΙΑ - ΠΕΙΡΑΙΑΣ\": 187}","duration_avg":180.0,"n_vehicles":187,"d":1870,"route_I_counts":"{\"6\": 187}","source":42,"target":41,"layer":"L","from":"ΣΤ.ΜΟΣΧΑΤΟΥ","to":"ΣΤ.Ν.ΦΑΛΗΡΟΥ"},"geometry":{"type":"LineString","coordinates":[[23.680173,37.955317],[23.66391,37.944465]]}},{"type":"Feature","properties":{"shape_id":"{}","direction_id":"{\"0\": 186}","headsign":"{\"ΠΕΙΡΑΙΑΣ - ΚΗΦΙΣΙΑ\": 186}","duration_avg":120.0,"n_vehicles":186,"d":574,"route_I_counts":"{\"6\": 186}","source":43,"target":44,"layer":"L","from":"ΣΤ.ΚΑΛΛΙΘΕΑΣ","to":"ΣΤ.ΕΛ.ΒΕΝΙΖΕΛΟΥ"},"geometry":{"type":"LineString","coordinates":[[23.697191,37.960508],[23.703286,37.96238]]}},{"type":"Feature","properties":{"shape_id":"{}","direction_id":"{\"1\": 187}","headsign":"{\"ΚΗΦΙΣΙΑ - ΠΕΙΡΑΙΑΣ\": 187}","duration_avg":180.0,"n_vehicles":187,"d":1601,"route_I_counts":"{\"6\": 187}","source":43,"target":42,"layer":"L","from":"ΣΤ.ΚΑΛΛΙΘΕΑΣ","to":"ΣΤ.ΜΟΣΧΑΤΟΥ"},"geometry":{"type":"LineString","coordinates":[[23.697191,37.960508],[23.680173,37.955317]]}},{"type":"Feature","properties":{"shape_id":"{}","direction_id":"{\"0\": 186}","headsign":"{\"ΠΕΙΡΑΙΑΣ - ΚΗΦΙΣΙΑ\": 186}","duration_avg":120.0,"n_vehicles":186,"d":814,"route_I_counts":"{\"6\": 186}","source":44,"target":45,"layer":"L","from":"ΣΤ.ΕΛ.ΒΕΝΙΖΕΛΟΥ","to":"ΣΤ.ΚΑΤΩ ΠΕΤΡΑΛΩΝΩΝ"},"geometry":{"type":"LineString","coordinates":[[23.703286,37.96238],[23.70892,37.96819]]}},{"type":"Feature","properties":{"shape_id":"{}","direction_id":"{\"1\": 187}","headsign":"{\"ΚΗΦΙΣΙΑ - ΠΕΙΡΑΙΑΣ\": 187}","duration_avg":120.0,"n_vehicles":187,"d":574,"route_I_counts":"{\"6\": 187}","source":44,"target":43,"layer":"L","from":"ΣΤ.ΕΛ.ΒΕΝΙΖΕΛΟΥ","to":"ΣΤ.ΚΑΛΛΙΘΕΑΣ"},"geometry":{"type":"LineString","coordinates":[[23.703286,37.96238],[23.697191,37.960508]]}},{"type":"Feature","properties":{"shape_id":"{}","direction_id":"{\"0\": 185}","headsign":"{\"ΠΕΙΡΑΙΑΣ - ΚΗΦΙΣΙΑ\": 185}","duration_avg":120.0,"n_vehicles":185,"d":1390,"route_I_counts":"{\"6\": 185}","source":45,"target":46,"layer":"L","from":"ΣΤ.ΚΑΤΩ ΠΕΤΡΑΛΩΝΩΝ","to":"ΣΤ.ΘΗΣΕΙΟΥ"},"geometry":{"type":"LineString","coordinates":[[23.70892,37.96819],[23.720523,37.976699]]}},{"type":"Feature","properties":{"shape_id":"{}","direction_id":"{\"1\": 187}","headsign":"{\"ΚΗΦΙΣΙΑ - ΠΕΙΡΑΙΑΣ\": 187}","duration_avg":120.0,"n_vehicles":187,"d":814,"route_I_counts":"{\"6\": 187}","source":45,"target":44,"layer":"L","from":"ΣΤ.ΚΑΤΩ ΠΕΤΡΑΛΩΝΩΝ","to":"ΣΤ.ΕΛ.ΒΕΝΙΖΕΛΟΥ"},"geometry":{"type":"LineString","coordinates":[[23.70892,37.96819],[23.703286,37.96238]]}},{"type":"Feature","properties":{"shape_id":"{}","direction_id":"{\"0\": 185}","headsign":"{\"ΠΕΙΡΑΙΑΣ - ΚΗΦΙΣΙΑ\": 185}","duration_avg":120.0,"n_vehicles":185,"d":467,"route_I_counts":"{\"6\": 185}","source":46,"target":35,"layer":"L","from":"ΣΤ.ΘΗΣΕΙΟΥ","to":"ΣΤ.ΜΟΝΑΣΤΗΡΑΚΙ"},"geometry":{"type":"LineString","coordinates":[[23.720523,37.976699],[23.725852,37.976675]]}},{"type":"Feature","properties":{"shape_id":"{}","direction_id":"{\"1\": 184}","headsign":"{\"ΚΗΦΙΣΙΑ - ΠΕΙΡΑΙΑΣ\": 184}","duration_avg":120.0,"n_vehicles":184,"d":1390,"route_I_counts":"{\"6\": 184}","source":46,"target":45,"layer":"L","from":"ΣΤ.ΘΗΣΕΙΟΥ","to":"ΣΤ.ΚΑΤΩ ΠΕΤΡΑΛΩΝΩΝ"},"geometry":{"type":"LineString","coordinates":[[23.720523,37.976699],[23.70892,37.96819]]}},{"type":"Feature","properties":{"shape_id":"{}","direction_id":"{\"0\": 187}","headsign":"{\"ΠΕΙΡΑΙΑΣ - ΚΗΦΙΣΙΑ\": 187}","duration_avg":120.0,"n_vehicles":187,"d":920,"route_I_counts":"{\"6\": 187}","source":47,"target":0,"layer":"L","from":"ΣΤ.ΒΙΚΤΩΡΙΑΣ","to":"ΣΤ.ΑΤΤΙΚΗΣ"},"geometry":{"type":"LineString","coordinates":[[23.730233,37.993116],[23.722422,37.998641]]}},{"type":"Feature","properties":{"shape_id":"{}","direction_id":"{\"1\": 185}","headsign":"{\"ΚΗΦΙΣΙΑ - ΠΕΙΡΑΙΑΣ\": 185}","duration_avg":120.0,"n_vehicles":185,"d":1016,"route_I_counts":"{\"6\": 185}","source":47,"target":3,"layer":"L","from":"ΣΤ.ΒΙΚΤΩΡΙΑΣ","to":"ΣΤ.ΟΜΟΝΟΙΑΣ"},"geometry":{"type":"LineString","coordinates":[[23.730233,37.993116],[23.728113,37.984134]]}},{"type":"Feature","properties":{"shape_id":"{}","direction_id":"{\"0\": 186}","headsign":"{\"ΠΕΙΡΑΙΑΣ - ΚΗΦΙΣΙΑ\": 186}","duration_avg":60.0,"n_vehicles":186,"d":581,"route_I_counts":"{\"6\": 186}","source":48,"target":49,"layer":"L","from":"ΣΤ.ΑΓ.ΝΙΚΟΛΑΟΥ","to":"ΣΤ.ΚΑΤΩ ΠΑΤΗΣΙΩΝ"},"geometry":{"type":"LineString","coordinates":[[23.727744,38.006936],[23.728819,38.012094]]}},{"type":"Feature","properties":{"shape_id":"{}","direction_id":"{\"1\": 184}","headsign":"{\"ΚΗΦΙΣΙΑ - ΠΕΙΡΑΙΑΣ\": 184}","duration_avg":120.0,"n_vehicles":184,"d":1034,"route_I_counts":"{\"6\": 184}","source":48,"target":0,"layer":"L","from":"ΣΤ.ΑΓ.ΝΙΚΟΛΑΟΥ","to":"ΣΤ.ΑΤΤΙΚΗΣ"},"geometry":{"type":"LineString","coordinates":[[23.727744,38.006936],[23.722422,37.998641]]}},{"type":"Feature","properties":{"shape_id":"{}","direction_id":"{\"0\": 186}","headsign":"{\"ΠΕΙΡΑΙΑΣ - ΚΗΦΙΣΙΑ\": 186}","duration_avg":120.0,"n_vehicles":186,"d":981,"route_I_counts":"{\"6\": 186}","source":49,"target":50,"layer":"L","from":"ΣΤ.ΚΑΤΩ ΠΑΤΗΣΙΩΝ","to":"ΣΤ.ΑΓ.ΕΛΕΥΘΕΡΙΟΥ"},"geometry":{"type":"LineString","coordinates":[[23.728819,38.012094],[23.732023,38.020546]]}},{"type":"Feature","properties":{"shape_id":"{}","direction_id":"{\"1\": 185}","headsign":"{\"ΚΗΦΙΣΙΑ - ΠΕΙΡΑΙΑΣ\": 185}","duration_avg":60.0,"n_vehicles":185,"d":581,"route_I_counts":"{\"6\": 185}","source":49,"target":48,"layer":"L","from":"ΣΤ.ΚΑΤΩ ΠΑΤΗΣΙΩΝ","to":"ΣΤ.ΑΓ.ΝΙΚΟΛΑΟΥ"},"geometry":{"type":"LineString","coordinates":[[23.728819,38.012094],[23.727744,38.006936]]}},{"type":"Feature","properties":{"shape_id":"{}","direction_id":"{\"0\": 186}","headsign":"{\"ΠΕΙΡΑΙΑΣ - ΚΗΦΙΣΙΑ\": 186}","duration_avg":120.0,"n_vehicles":186,"d":499,"route_I_counts":"{\"6\": 186}","source":50,"target":51,"layer":"L","from":"ΣΤ.ΑΓ.ΕΛΕΥΘΕΡΙΟΥ","to":"ΣΤ.ΑΝΩ ΠΑΤΗΣΙΩΝ"},"geometry":{"type":"LineString","coordinates":[[23.732023,38.020546],[23.735965,38.023782]]}},{"type":"Feature","properties":{"shape_id":"{}","direction_id":"{\"1\": 185}","headsign":"{\"ΚΗΦΙΣΙΑ - ΠΕΙΡΑΙΑΣ\": 185}","duration_avg":120.0,"n_vehicles":185,"d":981,"route_I_counts":"{\"6\": 185}","source":50,"target":49,"layer":"L","from":"ΣΤ.ΑΓ.ΕΛΕΥΘΕΡΙΟΥ","to":"ΣΤ.ΚΑΤΩ ΠΑΤΗΣΙΩΝ"},"geometry":{"type":"LineString","coordinates":[[23.732023,38.020546],[23.728819,38.012094]]}},{"type":"Feature","properties":{"shape_id":"{}","direction_id":"{\"0\": 186}","headsign":"{\"ΠΕΙΡΑΙΑΣ - ΚΗΦΙΣΙΑ\": 186}","duration_avg":180.0,"n_vehicles":186,"d":1254,"route_I_counts":"{\"6\": 186}","source":51,"target":52,"layer":"L","from":"ΣΤ.ΑΝΩ ΠΑΤΗΣΙΩΝ","to":"ΣΤ.ΠΕΡΙΣΣΟΥ"},"geometry":{"type":"LineString","coordinates":[[23.735965,38.023782],[23.744696,38.032714]]}},{"type":"Feature","properties":{"shape_id":"{}","direction_id":"{\"1\": 185}","headsign":"{\"ΚΗΦΙΣΙΑ - ΠΕΙΡΑΙΑΣ\": 185}","duration_avg":120.0,"n_vehicles":185,"d":499,"route_I_counts":"{\"6\": 185}","source":51,"target":50,"layer":"L","from":"ΣΤ.ΑΝΩ ΠΑΤΗΣΙΩΝ","to":"ΣΤ.ΑΓ.ΕΛΕΥΘΕΡΙΟΥ"},"geometry":{"type":"LineString","coordinates":[[23.735965,38.023782],[23.732023,38.020546]]}},{"type":"Feature","properties":{"shape_id":"{}","direction_id":"{\"0\": 185}","headsign":"{\"ΠΕΙΡΑΙΑΣ - ΚΗΦΙΣΙΑ\": 185}","duration_avg":120.0,"n_vehicles":185,"d":669,"route_I_counts":"{\"6\": 185}","source":52,"target":53,"layer":"L","from":"ΣΤ.ΠΕΡΙΣΣΟΥ","to":"ΣΤ.ΠΕΥΚΑΚΙΩΝ"},"geometry":{"type":"LineString","coordinates":[[23.744696,38.032714],[23.750014,38.037034]]}},{"type":"Feature","properties":{"shape_id":"{}","direction_id":"{\"1\": 184}","headsign":"{\"ΚΗΦΙΣΙΑ - ΠΕΙΡΑΙΑΣ\": 184}","duration_avg":180.0,"n_vehicles":184,"d":1254,"route_I_counts":"{\"6\": 184}","source":52,"target":51,"layer":"L","from":"ΣΤ.ΠΕΡΙΣΣΟΥ","to":"ΣΤ.ΑΝΩ ΠΑΤΗΣΙΩΝ"},"geometry":{"type":"LineString","coordinates":[[23.744696,38.032714],[23.735965,38.023782]]}},{"type":"Feature","properties":{"shape_id":"{}","direction_id":"{\"0\": 185}","headsign":"{\"ΠΕΙΡΑΙΑΣ - ΚΗΦΙΣΙΑ\": 185}","duration_avg":120.0,"n_vehicles":185,"d":669,"route_I_counts":"{\"6\": 185}","source":53,"target":54,"layer":"L","from":"ΣΤ.ΠΕΥΚΑΚΙΩΝ","to":"ΣΤ.Ν.ΙΩΝΙΑΣ"},"geometry":{"type":"LineString","coordinates":[[23.750014,38.037034],[23.755047,38.041551]]}},{"type":"Feature","properties":{"shape_id":"{}","direction_id":"{\"1\": 184}","headsign":"{\"ΚΗΦΙΣΙΑ - ΠΕΙΡΑΙΑΣ\": 184}","duration_avg":120.0,"n_vehicles":184,"d":669,"route_I_counts":"{\"6\": 184}","source":53,"target":52,"layer":"L","from":"ΣΤ.ΠΕΥΚΑΚΙΩΝ","to":"ΣΤ.ΠΕΡΙΣΣΟΥ"},"geometry":{"type":"LineString","coordinates":[[23.750014,38.037034],[23.744696,38.032714]]}},{"type":"Feature","properties":{"shape_id":"{}","direction_id":"{\"0\": 185}","headsign":"{\"ΠΕΙΡΑΙΑΣ - ΚΗΦΙΣΙΑ\": 185}","duration_avg":120.0,"n_vehicles":185,"d":1104,"route_I_counts":"{\"6\": 185}","source":54,"target":55,"layer":"L","from":"ΣΤ.Ν.ΙΩΝΙΑΣ","to":"ΣΤ.Ν.ΗΡΑΚΛΕΙΟΥ"},"geometry":{"type":"LineString","coordinates":[[23.755047,38.041551],[23.766143,38.046251]]}},{"type":"Feature","properties":{"shape_id":"{}","direction_id":"{\"1\": 185}","headsign":"{\"ΚΗΦΙΣΙΑ - ΠΕΙΡΑΙΑΣ\": 185}","duration_avg":120.0,"n_vehicles":185,"d":669,"route_I_counts":"{\"6\": 185}","source":54,"target":53,"layer":"L","from":"ΣΤ.Ν.ΙΩΝΙΑΣ","to":"ΣΤ.ΠΕΥΚΑΚΙΩΝ"},"geometry":{"type":"LineString","coordinates":[[23.755047,38.041551],[23.750014,38.037034]]}},{"type":"Feature","properties":{"shape_id":"{}","direction_id":"{\"0\": 185}","headsign":"{\"ΠΕΙΡΑΙΑΣ - ΚΗΦΙΣΙΑ\": 185}","duration_avg":120.0,"n_vehicles":185,"d":1480,"route_I_counts":"{\"6\": 185}","source":55,"target":56,"layer":"L","from":"ΣΤ.Ν.ΗΡΑΚΛΕΙΟΥ","to":"ΣΤ.ΕΙΡΗΝΗΣ"},"geometry":{"type":"LineString","coordinates":[[23.766143,38.046251],[23.782722,38.043732]]}},{"type":"Feature","properties":{"shape_id":"{}","direction_id":"{\"1\": 185}","headsign":"{\"ΚΗΦΙΣΙΑ - ΠΕΙΡΑΙΑΣ\": 185}","duration_avg":120.0,"n_vehicles":185,"d":1104,"route_I_counts":"{\"6\": 185}","source":55,"target":54,"layer":"L","from":"ΣΤ.Ν.ΗΡΑΚΛΕΙΟΥ","to":"ΣΤ.Ν.ΙΩΝΙΑΣ"},"geometry":{"type":"LineString","coordinates":[[23.766143,38.046251],[23.755047,38.041551]]}},{"type":"Feature","properties":{"shape_id":"{}","direction_id":"{\"0\": 188}","headsign":"{\"ΠΕΙΡΑΙΑΣ - ΚΗΦΙΣΙΑ\": 188}","duration_avg":120.0,"n_vehicles":188,"d":896,"route_I_counts":"{\"6\": 188}","source":56,"target":57,"layer":"L","from":"ΣΤ.ΕΙΡΗΝΗΣ","to":"ΣΤ.ΝΕΡΑΤΖΙΩΤΙΣΣΑ"},"geometry":{"type":"LineString","coordinates":[[23.782722,38.043732],[23.792862,38.044805]]}},{"type":"Feature","properties":{"shape_id":"{}","direction_id":"{\"1\": 185}","headsign":"{\"ΚΗΦΙΣΙΑ - ΠΕΙΡΑΙΑΣ\": 185}","duration_avg":120.0,"n_vehicles":185,"d":1480,"route_I_counts":"{\"6\": 185}","source":56,"target":55,"layer":"L","from":"ΣΤ.ΕΙΡΗΝΗΣ","to":"ΣΤ.Ν.ΗΡΑΚΛΕΙΟΥ"},"geometry":{"type":"LineString","coordinates":[[23.782722,38.043732],[23.766143,38.046251]]}},{"type":"Feature","properties":{"shape_id":"{}","direction_id":"{\"0\": 187}","headsign":"{\"ΠΕΙΡΑΙΑΣ - ΚΗΦΙΣΙΑ\": 187}","duration_avg":180.0,"n_vehicles":187,"d":1671,"route_I_counts":"{\"6\": 187}","source":57,"target":58,"layer":"L","from":"ΣΤ.ΝΕΡΑΤΖΙΩΤΙΣΣΑ","to":"ΣΤ.ΑΜΑΡΟΥΣΙΟΥ"},"geometry":{"type":"LineString","coordinates":[[23.792862,38.044805],[23.80514,38.05629]]}},{"type":"Feature","properties":{"shape_id":"{}","direction_id":"{\"1\": 183}","headsign":"{\"ΚΗΦΙΣΙΑ - ΠΕΙΡΑΙΑΣ\": 183}","duration_avg":120.0,"n_vehicles":183,"d":896,"route_I_counts":"{\"6\": 183}","source":57,"target":56,"layer":"L","from":"ΣΤ.ΝΕΡΑΤΖΙΩΤΙΣΣΑ","to":"ΣΤ.ΕΙΡΗΝΗΣ"},"geometry":{"type":"LineString","coordinates":[[23.792862,38.044805],[23.782722,38.043732]]}},{"type":"Feature","properties":{"shape_id":"{}","direction_id":"{\"0\": 187}","headsign":"{\"ΠΕΙΡΑΙΑΣ - ΚΗΦΙΣΙΑ\": 187}","duration_avg":120.0,"n_vehicles":187,"d":1060,"route_I_counts":"{\"6\": 187}","source":58,"target":59,"layer":"L","from":"ΣΤ.ΑΜΑΡΟΥΣΙΟΥ","to":"ΣΤ.ΚΑΤ"},"geometry":{"type":"LineString","coordinates":[[23.80514,38.05629],[23.80402,38.065779]]}},{"type":"Feature","properties":{"shape_id":"{}","direction_id":"{\"1\": 183}","headsign":"{\"ΚΗΦΙΣΙΑ - ΠΕΙΡΑΙΑΣ\": 183}","duration_avg":180.0,"n_vehicles":183,"d":1671,"route_I_counts":"{\"6\": 183}","source":58,"target":57,"layer":"L","from":"ΣΤ.ΑΜΑΡΟΥΣΙΟΥ","to":"ΣΤ.ΝΕΡΑΤΖΙΩΤΙΣΣΑ"},"geometry":{"type":"LineString","coordinates":[[23.80514,38.05629],[23.792862,38.044805]]}},{"type":"Feature","properties":{"shape_id":"{}","direction_id":"{\"0\": 186}","headsign":"{\"ΠΕΙΡΑΙΑΣ - ΚΗΦΙΣΙΑ\": 186}","duration_avg":240.0,"n_vehicles":186,"d":944,"route_I_counts":"{\"6\": 186}","source":59,"target":60,"layer":"L","from":"ΣΤ.ΚΑΤ","to":"ΣΤ.ΚΗΦΙΣΙΑΣ"},"geometry":{"type":"LineString","coordinates":[[23.80402,38.065779],[23.808195,38.0736]]}},{"type":"Feature","properties":{"shape_id":"{}","direction_id":"{\"1\": 184}","headsign":"{\"ΚΗΦΙΣΙΑ - ΠΕΙΡΑΙΑΣ\": 184}","duration_avg":120.0,"n_vehicles":184,"d":1060,"route_I_counts":"{\"6\": 184}","source":59,"target":58,"layer":"L","from":"ΣΤ.ΚΑΤ","to":"ΣΤ.ΑΜΑΡΟΥΣΙΟΥ"},"geometry":{"type":"LineString","coordinates":[[23.80402,38.065779],[23.80514,38.05629]]}},{"type":"Feature","properties":{"shape_id":"{}","direction_id":"{\"1\": 184}","headsign":"{\"ΚΗΦΙΣΙΑ - ΠΕΙΡΑΙΑΣ\": 184}","duration_avg":240.0,"n_vehicles":184,"d":944,"route_I_counts":"{\"6\": 184}","source":60,"target":59,"layer":"L","from":"ΣΤ.ΚΗΦΙΣΙΑΣ","to":"ΣΤ.ΚΑΤ"},"geometry":{"type":"LineString","coordinates":[[23.808195,38.0736],[23.80402,38.065779]]}}]}