{"type":"FeatureCollection","features":[{"type":"Feature","geometry":{"type":"Point","coordinates":[-84.469302,33.754553]},"properties":{"name":"HAMILTON E HOLMES STATION","original_ids":"[1, 4]","id":0,"layer":"stop"}},{"type":"Feature","geometry":{"type":"Point","coordinates":[-84.445329,33.753328]},"properties":{"name":"WEST LAKE STATION","original_ids":"[2, 3]","id":1,"layer":"stop"}},{"type":"Feature","geometry":{"type":"Point","coordinates":[-84.41723,33.756478]},"properties":{"name":"ASHBY STATION","original_ids":"[48, 49]","id":2,"layer":"stop"}},{"type":"Feature","geometry":{"type":"Point","coordinates":[-84.403902,33.756613]},"properties":{"name":"VINE CITY STATION","original_ids":"[46, 47]","id":3,"layer":"stop"}},{"type":"Feature","geometry":{"type":"Point","coordinates":[-84.397215,33.756179]},"properties":{"name":"GWCC-CNN CENTER STATION","original_ids":"[53, 64]","id":4,"layer":"stop"}},{"type":"Feature","geometry":{"type":"Point","coordinates":[-84.391397,33.753837]},"properties":{"name":"FIVE POINTS STATION","original_ids":"[54, 63, 68, 73]","id":5,"layer":"stop"}},{"type":"Feature","geometry":{"type":"Point","coordinates":[-84.385882,33.750143]},"properties":{"name":"GEORGIA STATE STATION","original_ids":"[20, 19]","id":6,"layer":"stop"}},{"type":"Feature","geometry":{"type":"Point","coordinates":[-84.375675,33.749951]},"properties":{"name":"KING MEMORIAL STATION","original_ids":"[55, 62]","id":7,"layer":"stop"}},{"type":"Feature","geometry":{"type":"Point","coordinates":[-84.352762,33.757451]},"properties":{"name":"INMAN PARK-REYNOLDSTOWN STATION","original_ids":"[56, 61]","id":8,"layer":"stop"}},{"type":"Feature","geometry":{"type":"Point","coordinates":[-84.340456,33.761866]},"properties":{"name":"EDGEWOOD-CANDLER PARK STATION","original_ids":"[21, 18]","id":9,"layer":"stop"}},{"type":"Feature","geometry":{"type":"Point","coordinates":[-84.312937,33.765241]},"properties":{"name":"EAST LAKE STATION","original_ids":"[15, 16]","id":10,"layer":"stop"}},{"type":"Feature","geometry":{"type":"Point","coordinates":[-84.295319,33.774681]},"properties":{"name":"DECATUR STATION","original_ids":"[22, 17]","id":11,"layer":"stop"}},{"type":"Feature","geometry":{"type":"Point","coordinates":[-84.281487,33.775554]},"properties":{"name":"AVONDALE STATION","original_ids":"[57, 60]","id":12,"layer":"stop"}},{"type":"Feature","geometry":{"type":"Point","coordinates":[-84.251607,33.772647]},"properties":{"name":"KENSINGTON STATION","original_ids":"[30, 29]","id":13,"layer":"stop"}},{"type":"Feature","geometry":{"type":"Point","coordinates":[-84.228906,33.769856]},"properties":{"name":"INDIAN CREEK STATION","original_ids":"[58, 59]","id":14,"layer":"stop"}},{"type":"Feature","geometry":{"type":"Point","coordinates":[-84.446198,33.640831]},"properties":{"name":"AIRPORT STATION","original_ids":"[65, 76, 79]","id":15,"layer":"stop"}},{"type":"Feature","geometry":{"type":"Point","coordinates":[-84.448656,33.650577]},"properties":{"name":"COLLEGE PARK STATION","original_ids":"[66, 75]","id":16,"layer":"stop"}},{"type":"Feature","geometry":{"type":"Point","coordinates":[-84.440542,33.677424]},"properties":{"name":"EAST POINT STATION","original_ids":"[23, 28]","id":17,"layer":"stop"}},{"type":"Feature","geometry":{"type":"Point","coordinates":[-84.428768,33.70088]},"properties":{"name":"LAKEWOOD-FT MCPHERSON STATION","original_ids":"[24, 27]","id":18,"layer":"stop"}},{"type":"Feature","geometry":{"type":"Point","coordinates":[-84.42503,33.7173]},"properties":{"name":"OAKLAND CITY STATION","original_ids":"[50, 51]","id":19,"layer":"stop"}},{"type":"Feature","geometry":{"type":"Point","coordinates":[-84.413653,33.736564]},"properties":{"name":"WEST END STATION","original_ids":"[25, 26]","id":20,"layer":"stop"}},{"type":"Feature","geometry":{"type":"Point","coordinates":[-84.395545,33.748938]},"properties":{"name":"GARNETT STATION","original_ids":"[67, 74]","id":21,"layer":"stop"}},{"type":"Feature","geometry":{"type":"Point","coordinates":[-84.387596,33.758189]},"properties":{"name":"PEACHTREE CENTER STATION","original_ids":"[69, 72]","id":22,"layer":"stop"}},{"type":"Feature","geometry":{"type":"Point","coordinates":[-84.387504,33.766236]},"properties":{"name":"CIVIC CENTER STATION","original_ids":"[45, 44]","id":23,"layer":"stop"}},{"type":"Feature","geometry":{"type":"Point","coordinates":[-84.387204,33.771741]},"properties":{"name":"NORTH AVENUE STATION","original_ids":"[38, 37]","id":24,"layer":"stop"}},{"type":"Feature","geometry":{"type":"Point","coordinates":[-84.386353,33.781355]},"properties":{"name":"MIDTOWN STATION","original_ids":"[14, 13]","id":25,"layer":"stop"}},{"type":"Feature","geometry":{"type":"Point","coordinates":[-84.387414,33.789669]},"properties":{"name":"ARTS CENTER STATION","original_ids":"[11, 12]","id":26,"layer":"stop"}},{"type":"Feature","geometry":{"type":"Point","coordinates":[-84.369324,33.823492]},"properties":{"name":"LINDBERGH CENTER STATION","original_ids":"[7, 6, 6379, 6381]","id":27,"layer":"stop"}},{"type":"Feature","geometry":{"type":"Point","coordinates":[-84.358235,33.845388]},"properties":{"name":"LENOX STATION","original_ids":"[34, 31]","id":28,"layer":"stop"}},{"type":"Feature","geometry":{"type":"Point","coordinates":[-84.339245,33.860329]},"properties":{"name":"BROOKHAVEN-OGLETHORPE STATION","original_ids":"[9, 10]","id":29,"layer":"stop"}},{"type":"Feature","geometry":{"type":"Point","coordinates":[-84.305556,33.887929]},"properties":{"name":"CHAMBLEE STATION","original_ids":"[70, 71]","id":30,"layer":"stop"}},{"type":"Feature","geometry":{"type":"Point","coordinates":[-84.28061,33.902787]},"properties":{"name":"DORAVILLE STATION","original_ids":"[41, 40]","id":31,"layer":"stop"}},{"type":"Feature","geometry":{"type":"Point","coordinates":[-84.428873,33.772159]},"properties":{"name":"BANKHEAD STATION","original_ids":"[35, 36]","id":32,"layer":"stop"}},{"type":"Feature","geometry":{"type":"Point","coordinates":[-84.367716,33.847944]},"properties":{"name":"BUCKHEAD STATION","original_ids":"[33, 32]","id":33,"layer":"stop"}},{"type":"Feature","geometry":{"type":"Point","coordinates":[-84.351759,33.910739]},"properties":{"name":"MEDICAL CENTER STATION","original_ids":"[43, 42]","id":34,"layer":"stop"}},{"type":"Feature","geometry":{"type":"Point","coordinates":[-84.344268,33.92113]},"properties":{"name":"DUNWOODY STATION","original_ids":"[8, 5]","id":35,"layer":"stop"}},{"type":"Feature","geometry":{"type":"Point","coordinates":[-84.351069,33.931671]},"properties":{"name":"SANDY SPRINGS STATION","original_ids":"[77, 78]","id":36,"layer":"stop"}},{"type":"Feature","geometry":{"type":"Point","coordinates":[-84.357275,33.94495]},"properties":{"name":"NORTH SPRINGS STATION","original_ids":"[6378, 52]","id":37,"layer":"stop"}},{"type":"Feature","properties":{"shape_id":"{\"96921\": 1, \"96923\": 46}","direction_id":"{\"0\": 47}","headsign":"{\"BLUE EASTBOUND TO INDIAN CREEK STATION\": 47}","duration_avg":180.0,"n_vehicles":47,"d":2222,"route_I_counts":"{\"115\": 47}","source":0,"target":1,"layer":"L","from":"HAMILTON E HOLMES STATION","to":"WEST LAKE STATION"},"geometry":{"type":"LineString","coordinates":[[-84.469302,33.754553],[-84.445329,33.753328]]}},{"type":"Feature","properties":{"shape_id":"{\"96921\": 1, \"96923\": 46}","direction_id":"{\"0\": 47}","headsign":"{\"BLUE EASTBOUND TO INDIAN CREEK STATION\": 47}","duration_avg":180.0,"n_vehicles":47,"d":2624,"route_I_counts":"{\"115\": 47}","source":1,"target":2,"layer":"L","from":"WEST LAKE STATION","to":"ASHBY STATION"},"geometry":{"type":"LineString","coordinates":[[-84.445329,33.753328],[-84.41723,33.756478]]}},{"type":"Feature","properties":{"duration_avg":180.0,"n_vehicles":46,"d":2249,"route_I_counts":"{\"115\": 46}","shape_id":"{\"96926\": 1, \"96930\": 45}","direction_id":"{\"1\": 46}","headsign":"{\"BLUE WESTBOUND TO H E HOLMES STATION\": 46}","source":1,"target":0,"layer":"L","from":"WEST LAKE STATION","to":"HAMILTON E HOLMES STATION"},"geometry":{"type":"LineString","coordinates":[[-84.445329,33.753328],[-84.469302,33.754553]]}},{"type":"Feature","properties":{"shape_id":"{\"96921\": 1, \"96923\": 46, \"96954\": 13, \"96956\": 33}","direction_id":"{\"0\": 93}","headsign":"{\"\": 46, \"BLUE EASTBOUND TO INDIAN CREEK STATION\": 47}","duration_avg":60.0,"n_vehicles":93,"d":1233,"route_I_counts":"{\"115\": 47, \"117\": 46}","source":2,"target":3,"layer":"L","from":"ASHBY STATION","to":"VINE CITY STATION"},"geometry":{"type":"LineString","coordinates":[[-84.41723,33.756478],[-84.403902,33.756613]]}},{"type":"Feature","properties":{"duration_avg":240.0,"n_vehicles":46,"d":2074,"route_I_counts":"{\"117\": 46}","shape_id":"{\"96961\": 12, \"96963\": 34}","direction_id":"{\"1\": 46}","headsign":"{\"GREEN WESTBOUND TO BANKHEAD STATION\": 46}","source":2,"target":32,"layer":"L","from":"ASHBY STATION","to":"BANKHEAD STATION"},"geometry":{"type":"LineString","coordinates":[[-84.41723,33.756478],[-84.428873,33.772159]]}},{"type":"Feature","properties":{"duration_avg":180.0,"n_vehicles":46,"d":2638,"route_I_counts":"{\"115\": 46}","shape_id":"{\"96926\": 1, \"96930\": 45}","direction_id":"{\"1\": 46}","headsign":"{\"BLUE WESTBOUND TO H E HOLMES STATION\": 46}","source":2,"target":1,"layer":"L","from":"ASHBY STATION","to":"WEST LAKE STATION"},"geometry":{"type":"LineString","coordinates":[[-84.41723,33.756478],[-84.445329,33.753328]]}},{"type":"Feature","properties":{"shape_id":"{\"96921\": 1, \"96923\": 46, \"96956\": 33}","direction_id":"{\"0\": 80}","headsign":"{\"\": 33, \"BLUE EASTBOUND TO INDIAN CREEK STATION\": 47}","duration_avg":60.0,"n_vehicles":80,"d":620,"route_I_counts":"{\"115\": 47, \"117\": 33}","source":3,"target":4,"layer":"L","from":"VINE CITY STATION","to":"GWCC-CNN CENTER STATION"},"geometry":{"type":"LineString","coordinates":[[-84.403902,33.756613],[-84.397215,33.756179]]}},{"type":"Feature","properties":{"duration_avg":60.0,"n_vehicles":92,"d":1231,"route_I_counts":"{\"115\": 46, \"117\": 46}","shape_id":"{\"96926\": 1, \"96930\": 45, \"96961\": 12, \"96963\": 34}","direction_id":"{\"1\": 92}","headsign":"{\"BLUE WESTBOUND TO H E HOLMES STATION\": 46, \"GREEN WESTBOUND TO BANKHEAD STATION\": 46}","source":3,"target":2,"layer":"L","from":"VINE CITY STATION","to":"ASHBY STATION"},"geometry":{"type":"LineString","coordinates":[[-84.403902,33.756613],[-84.41723,33.756478]]}},{"type":"Feature","properties":{"shape_id":"{\"96921\": 1, \"96923\": 46, \"96956\": 33}","direction_id":"{\"0\": 80}","headsign":"{\"\": 33, \"BLUE EASTBOUND TO INDIAN CREEK STATION\": 47}","duration_avg":60.0,"n_vehicles":80,"d":598,"route_I_counts":"{\"115\": 47, \"117\": 33}","source":4,"target":5,"layer":"L","from":"GWCC-CNN CENTER STATION","to":"FIVE POINTS STATION"},"geometry":{"type":"LineString","coordinates":[[-84.397215,33.756179],[-84.391397,33.753837]]}},{"type":"Feature","properties":{"duration_avg":60.0,"n_vehicles":80,"d":624,"route_I_counts":"{\"115\": 46, \"117\": 34}","shape_id":"{\"96926\": 1, \"96930\": 45, \"96963\": 34}","direction_id":"{\"1\": 80}","headsign":"{\"BLUE WESTBOUND TO H E HOLMES STATION\": 46, \"GREEN WESTBOUND TO BANKHEAD STATION\": 34}","source":4,"target":3,"layer":"L","from":"GWCC-CNN CENTER STATION","to":"VINE CITY STATION"},"geometry":{"type":"LineString","coordinates":[[-84.397215,33.756179],[-84.403902,33.756613]]}},{"type":"Feature","properties":{"shape_id":"{\"96919\": 1, \"96923\": 46, \"96956\": 33}","direction_id":"{\"0\": 80}","headsign":"{\"\": 33, \"BLUE EASTBOUND TO INDIAN CREEK STATION\": 47}","duration_avg":60.0,"n_vehicles":80,"d":655,"route_I_counts":"{\"115\": 47, \"117\": 33}","source":5,"target":6,"layer":"L","from":"FIVE POINTS STATION","to":"GEORGIA STATE STATION"},"geometry":{"type":"LineString","coordinates":[[-84.391397,33.753837],[-84.385882,33.750143]]}},{"type":"Feature","properties":{"duration_avg":60.0,"n_vehicles":79,"d":582,"route_I_counts":"{\"116\": 46, \"118\": 33}","shape_id":"{\"96940\": 46, \"96974\": 33}","direction_id":"{\"0\": 79}","headsign":"{\"GOLD NORTHBOUND TO DORAVILLE STATION\": 46, \"RED NORTHBOUND TO NORTH SPRINGS STATION\": 33}","source":5,"target":22,"layer":"L","from":"FIVE POINTS STATION","to":"PEACHTREE CENTER STATION"},"geometry":{"type":"LineString","coordinates":[[-84.391397,33.753837],[-84.387596,33.758189]]}},{"type":"Feature","properties":{"duration_avg":120.0,"n_vehicles":79,"d":696,"route_I_counts":"{\"116\": 46, \"118\": 33}","shape_id":"{\"96948\": 46, \"96983\": 33}","direction_id":"{\"1\": 79}","headsign":"{\"GOLD SOUTHBOUND TO AIRPORT STATION\": 46, \"RED SOUTHBOUND TO AIRPORT STATION\": 33}","source":5,"target":21,"layer":"L","from":"FIVE POINTS STATION","to":"GARNETT STATION"},"geometry":{"type":"LineString","coordinates":[[-84.391397,33.753837],[-84.395545,33.748938]]}},{"type":"Feature","properties":{"duration_avg":60.0,"n_vehicles":80,"d":551,"route_I_counts":"{\"115\": 46, \"117\": 34}","shape_id":"{\"96926\": 1, \"96930\": 45, \"96963\": 34}","direction_id":"{\"1\": 80}","headsign":"{\"BLUE WESTBOUND TO H E HOLMES STATION\": 46, \"GREEN WESTBOUND TO BANKHEAD STATION\": 34}","source":5,"target":4,"layer":"L","from":"FIVE POINTS STATION","to":"GWCC-CNN CENTER STATION"},"geometry":{"type":"LineString","coordinates":[[-84.391397,33.753837],[-84.397215,33.756179]]}},{"type":"Feature","properties":{"shape_id":"{\"96919\": 1, \"96923\": 46, \"96956\": 33}","direction_id":"{\"0\": 80}","headsign":"{\"\": 33, \"BLUE EASTBOUND TO INDIAN CREEK STATION\": 47}","duration_avg":120.0,"n_vehicles":80,"d":944,"route_I_counts":"{\"115\": 47, \"117\": 33}","source":6,"target":7,"layer":"L","from":"GEORGIA STATE STATION","to":"KING MEMORIAL STATION"},"geometry":{"type":"LineString","coordinates":[[-84.385882,33.750143],[-84.375675,33.749951]]}},{"type":"Feature","properties":{"duration_avg":60.0,"n_vehicles":80,"d":706,"route_I_counts":"{\"115\": 46, \"117\": 34}","shape_id":"{\"96927\": 1, \"96930\": 45, \"96963\": 34}","direction_id":"{\"1\": 80}","headsign":"{\"BLUE WESTBOUND TO H E HOLMES STATION\": 46, \"GREEN WESTBOUND TO BANKHEAD STATION\": 34}","source":6,"target":5,"layer":"L","from":"GEORGIA STATE STATION","to":"FIVE POINTS STATION"},"geometry":{"type":"LineString","coordinates":[[-84.385882,33.750143],[-84.391397,33.753837]]}},{"type":"Feature","properties":{"shape_id":"{\"96919\": 1, \"96923\": 46}","direction_id":"{\"0\": 47}","headsign":"{\"BLUE EASTBOUND TO INDIAN CREEK STATION\": 47}","duration_avg":180.0,"n_vehicles":47,"d":2279,"route_I_counts":"{\"115\": 47}","source":7,"target":8,"layer":"L","from":"KING MEMORIAL STATION","to":"INMAN PARK-REYNOLDSTOWN STATION"},"geometry":{"type":"LineString","coordinates":[[-84.375675,33.749951],[-84.352762,33.757451]]}},{"type":"Feature","properties":{"duration_avg":120.0,"n_vehicles":80,"d":919,"route_I_counts":"{\"115\": 46, \"117\": 34}","shape_id":"{\"96927\": 1, \"96930\": 45, \"96963\": 34}","direction_id":"{\"1\": 80}","headsign":"{\"BLUE WESTBOUND TO H E HOLMES STATION\": 46, \"GREEN WESTBOUND TO BANKHEAD STATION\": 34}","source":7,"target":6,"layer":"L","from":"KING MEMORIAL STATION","to":"GEORGIA STATE STATION"},"geometry":{"type":"LineString","coordinates":[[-84.375675,33.749951],[-84.385882,33.750143]]}},{"type":"Feature","properties":{"shape_id":"{\"96919\": 1, \"96923\": 46}","direction_id":"{\"0\": 47}","headsign":"{\"BLUE EASTBOUND TO INDIAN CREEK STATION\": 47}","duration_avg":120.0,"n_vehicles":47,"d":1240,"route_I_counts":"{\"115\": 47}","source":8,"target":9,"layer":"L","from":"INMAN PARK-REYNOLDSTOWN STATION","to":"EDGEWOOD-CANDLER PARK STATION"},"geometry":{"type":"LineString","coordinates":[[-84.352762,33.757451],[-84.340456,33.761866]]}},{"type":"Feature","properties":{"duration_avg":180.0,"n_vehicles":46,"d":2274,"route_I_counts":"{\"115\": 46}","shape_id":"{\"96927\": 1, \"96930\": 45}","direction_id":"{\"1\": 46}","headsign":"{\"BLUE WESTBOUND TO H E HOLMES STATION\": 46}","source":8,"target":7,"layer":"L","from":"INMAN PARK-REYNOLDSTOWN STATION","to":"KING MEMORIAL STATION"},"geometry":{"type":"LineString","coordinates":[[-84.352762,33.757451],[-84.375675,33.749951]]}},{"type":"Feature","properties":{"shape_id":"{\"96919\": 1, \"96923\": 46}","direction_id":"{\"0\": 47}","headsign":"{\"BLUE EASTBOUND TO INDIAN CREEK STATION\": 47}","duration_avg":180.0,"n_vehicles":47,"d":2574,"route_I_counts":"{\"115\": 47}","source":9,"target":10,"layer":"L","from":"EDGEWOOD-CANDLER PARK STATION","to":"EAST LAKE STATION"},"geometry":{"type":"LineString","coordinates":[[-84.340456,33.761866],[-84.312937,33.765241]]}},{"type":"Feature","properties":{"duration_avg":120.0,"n_vehicles":46,"d":1242,"route_I_counts":"{\"115\": 46}","shape_id":"{\"96927\": 1, \"96930\": 45}","direction_id":"{\"1\": 46}","headsign":"{\"BLUE WESTBOUND TO H E HOLMES STATION\": 46}","source":9,"target":8,"layer":"L","from":"EDGEWOOD-CANDLER PARK STATION","to":"INMAN PARK-REYNOLDSTOWN STATION"},"geometry":{"type":"LineString","coordinates":[[-84.340456,33.761866],[-84.352762,33.757451]]}},{"type":"Feature","properties":{"shape_id":"{\"96919\": 1, \"96923\": 46}","direction_id":"{\"0\": 47}","headsign":"{\"BLUE EASTBOUND TO INDIAN CREEK STATION\": 47}","duration_avg":180.0,"n_vehicles":47,"d":1939,"route_I_counts":"{\"115\": 47}","source":10,"target":11,"layer":"L","from":"EAST LAKE STATION","to":"DECATUR STATION"},"geometry":{"type":"LineString","coordinates":[[-84.312937,33.765241],[-84.295319,33.774681]]}},{"type":"Feature","properties":{"duration_avg":180.0,"n_vehicles":46,"d":2563,"route_I_counts":"{\"115\": 46}","shape_id":"{\"96927\": 1, \"96930\": 45}","direction_id":"{\"1\": 46}","headsign":"{\"BLUE WESTBOUND TO H E HOLMES STATION\": 46}","source":10,"target":9,"layer":"L","from":"EAST LAKE STATION","to":"EDGEWOOD-CANDLER PARK STATION"},"geometry":{"type":"LineString","coordinates":[[-84.312937,33.765241],[-84.340456,33.761866]]}},{"type":"Feature","properties":{"shape_id":"{\"96919\": 1, \"96923\": 46}","direction_id":"{\"0\": 47}","headsign":"{\"BLUE EASTBOUND TO INDIAN CREEK STATION\": 47}","duration_avg":240.0,"n_vehicles":47,"d":1283,"route_I_counts":"{\"115\": 47}","source":11,"target":12,"layer":"L","from":"DECATUR STATION","to":"AVONDALE STATION"},"geometry":{"type":"LineString","coordinates":[[-84.295319,33.774681],[-84.281487,33.775554]]}},{"type":"Feature","properties":{"duration_avg":180.0,"n_vehicles":46,"d":1973,"route_I_counts":"{\"115\": 46}","shape_id":"{\"96927\": 1, \"96930\": 45}","direction_id":"{\"1\": 46}","headsign":"{\"BLUE WESTBOUND TO H E HOLMES STATION\": 46}","source":11,"target":10,"layer":"L","from":"DECATUR STATION","to":"EAST LAKE STATION"},"geometry":{"type":"LineString","coordinates":[[-84.295319,33.774681],[-84.312937,33.765241]]}},{"type":"Feature","properties":{"shape_id":"{\"96919\": 1, \"96923\": 46}","direction_id":"{\"0\": 47}","headsign":"{\"BLUE EASTBOUND TO INDIAN CREEK STATION\": 47}","duration_avg":180.0,"n_vehicles":47,"d":2783,"route_I_counts":"{\"115\": 47}","source":12,"target":13,"layer":"L","from":"AVONDALE STATION","to":"KENSINGTON STATION"},"geometry":{"type":"LineString","coordinates":[[-84.281487,33.775554],[-84.251607,33.772647]]}},{"type":"Feature","properties":{"duration_avg":240.0,"n_vehicles":46,"d":1199,"route_I_counts":"{\"115\": 46}","shape_id":"{\"96927\": 1, \"96930\": 45}","direction_id":"{\"1\": 46}","headsign":"{\"BLUE WESTBOUND TO H E HOLMES STATION\": 46}","source":12,"target":11,"layer":"L","from":"AVONDALE STATION","to":"DECATUR STATION"},"geometry":{"type":"LineString","coordinates":[[-84.281487,33.775554],[-84.295319,33.774681]]}},{"type":"Feature","properties":{"shape_id":"{\"96919\": 1, \"96923\": 46}","direction_id":"{\"0\": 47}","headsign":"{\"BLUE EASTBOUND TO INDIAN CREEK STATION\": 47}","duration_avg":120.0,"n_vehicles":47,"d":2123,"route_I_counts":"{\"115\": 47}","source":13,"target":14,"layer":"L","from":"KENSINGTON STATION","to":"INDIAN CREEK STATION"},"geometry":{"type":"LineString","coordinates":[[-84.251607,33.772647],[-84.228906,33.769856]]}},{"type":"Feature","properties":{"duration_avg":180.0,"n_vehicles":46,"d":2818,"route_I_counts":"{\"115\": 46}","shape_id":"{\"96927\": 1, \"96930\": 45}","direction_id":"{\"1\": 46}","headsign":"{\"BLUE WESTBOUND TO H E HOLMES STATION\": 46}","source":13,"target":12,"layer":"L","from":"KENSINGTON STATION","to":"AVONDALE STATION"},"geometry":{"type":"LineString","coordinates":[[-84.251607,33.772647],[-84.281487,33.775554]]}},{"type":"Feature","properties":{"duration_avg":120.0,"n_vehicles":46,"d":2086,"route_I_counts":"{\"115\": 46}","shape_id":"{\"96927\": 1, \"96930\": 45}","direction_id":"{\"1\": 46}","headsign":"{\"BLUE WESTBOUND TO H E HOLMES STATION\": 46}","source":14,"target":13,"layer":"L","from":"INDIAN CREEK STATION","to":"KENSINGTON STATION"},"geometry":{"type":"LineString","coordinates":[[-84.228906,33.769856],[-84.251607,33.772647]]}},{"type":"Feature","properties":{"shape_id":"{\"96940\": 46, \"96974\": 33}","direction_id":"{\"0\": 79}","headsign":"{\"GOLD NORTHBOUND TO DORAVILLE STATION\": 46, \"RED NORTHBOUND TO NORTH SPRINGS STATION\": 33}","duration_avg":120.0,"n_vehicles":79,"d":1108,"route_I_counts":"{\"116\": 46, \"118\": 33}","source":15,"target":16,"layer":"L","from":"AIRPORT STATION","to":"COLLEGE PARK STATION"},"geometry":{"type":"LineString","coordinates":[[-84.446198,33.640831],[-84.448656,33.650577]]}},{"type":"Feature","properties":{"shape_id":"{\"96940\": 46, \"96974\": 33}","direction_id":"{\"0\": 79}","headsign":"{\"GOLD NORTHBOUND TO DORAVILLE STATION\": 46, \"RED NORTHBOUND TO NORTH SPRINGS STATION\": 33}","duration_avg":180.0,"n_vehicles":79,"d":3081,"route_I_counts":"{\"116\": 46, \"118\": 33}","source":16,"target":17,"layer":"L","from":"COLLEGE PARK STATION","to":"EAST POINT STATION"},"geometry":{"type":"LineString","coordinates":[[-84.448656,33.650577],[-84.440542,33.677424]]}},{"type":"Feature","properties":{"duration_avg":120.0,"n_vehicles":79,"d":1105,"route_I_counts":"{\"116\": 46, \"118\": 33}","shape_id":"{\"96948\": 46, \"96983\": 33}","direction_id":"{\"1\": 79}","headsign":"{\"GOLD SOUTHBOUND TO AIRPORT STATION\": 46, \"RED SOUTHBOUND TO AIRPORT STATION\": 33}","source":16,"target":15,"layer":"L","from":"COLLEGE PARK STATION","to":"AIRPORT STATION"},"geometry":{"type":"LineString","coordinates":[[-84.448656,33.650577],[-84.446198,33.640831]]}},{"type":"Feature","properties":{"shape_id":"{\"96940\": 46, \"96974\": 33}","direction_id":"{\"0\": 79}","headsign":"{\"GOLD NORTHBOUND TO DORAVILLE STATION\": 46, \"RED NORTHBOUND TO NORTH SPRINGS STATION\": 33}","duration_avg":180.0,"n_vehicles":79,"d":2829,"route_I_counts":"{\"116\": 46, \"118\": 33}","source":17,"target":18,"layer":"L","from":"EAST POINT STATION","to":"LAKEWOOD-FT MCPHERSON STATION"},"geometry":{"type":"LineString","coordinates":[[-84.440542,33.677424],[-84.428768,33.70088]]}},{"type":"Feature","properties":{"duration_avg":180.0,"n_vehicles":79,"d":3061,"route_I_counts":"{\"116\": 46, \"118\": 33}","shape_id":"{\"96948\": 46, \"96983\": 33}","direction_id":"{\"1\": 79}","headsign":"{\"GOLD SOUTHBOUND TO AIRPORT STATION\": 46, \"RED SOUTHBOUND TO AIRPORT STATION\": 33}","source":17,"target":16,"layer":"L","from":"EAST POINT STATION","to":"COLLEGE PARK STATION"},"geometry":{"type":"LineString","coordinates":[[-84.440542,33.677424],[-84.448656,33.650577]]}},{"type":"Feature","properties":{"shape_id":"{\"96940\": 46, \"96974\": 33}","direction_id":"{\"0\": 79}","headsign":"{\"GOLD NORTHBOUND TO DORAVILLE STATION\": 46, \"RED NORTHBOUND TO NORTH SPRINGS STATION\": 33}","duration_avg":120.0,"n_vehicles":79,"d":1860,"route_I_counts":"{\"116\": 46, \"118\": 33}","source":18,"target":19,"layer":"L","from":"LAKEWOOD-FT MCPHERSON STATION","to":"OAKLAND CITY STATION"},"geometry":{"type":"LineString","coordinates":[[-84.428768,33.70088],[-84.42503,33.7173]]}},{"type":"Feature","properties":{"duration_avg":180.0,"n_vehicles":79,"d":2817,"route_I_counts":"{\"116\": 46, \"118\": 33}","shape_id":"{\"96948\": 46, \"96983\": 33}","direction_id":"{\"1\": 79}","headsign":"{\"GOLD SOUTHBOUND TO AIRPORT STATION\": 46, \"RED SOUTHBOUND TO AIRPORT STATION\": 33}","source":18,"target":17,"layer":"L","from":"LAKEWOOD-FT MCPHERSON STATION","to":"EAST POINT STATION"},"geometry":{"type":"LineString","coordinates":[[-84.428768,33.70088],[-84.440542,33.677424]]}},{"type":"Feature","properties":{"shape_id":"{\"96940\": 46, \"96974\": 33}","direction_id":"{\"0\": 79}","headsign":"{\"GOLD NORTHBOUND TO DORAVILLE STATION\": 46, \"RED NORTHBOUND TO NORTH SPRINGS STATION\": 33}","duration_avg":120.0,"n_vehicles":79,"d":2389,"route_I_counts":"{\"116\": 46, \"118\": 33}","source":19,"target":20,"layer":"L","from":"OAKLAND CITY STATION","to":"WEST END STATION"},"geometry":{"type":"LineString","coordinates":[[-84.42503,33.7173],[-84.413653,33.736564]]}},{"type":"Feature","properties":{"duration_avg":120.0,"n_vehicles":79,"d":1888,"route_I_counts":"{\"116\": 46, \"118\": 33}","shape_id":"{\"96948\": 46, \"96983\": 33}","direction_id":"{\"1\": 79}","headsign":"{\"GOLD SOUTHBOUND TO AIRPORT STATION\": 46, \"RED SOUTHBOUND TO AIRPORT STATION\": 33}","source":19,"target":18,"layer":"L","from":"OAKLAND CITY STATION","to":"LAKEWOOD-FT MCPHERSON STATION"},"geometry":{"type":"LineString","coordinates":[[-84.42503,33.7173],[-84.428768,33.70088]]}},{"type":"Feature","properties":{"shape_id":"{\"96940\": 46, \"96974\": 33}","direction_id":"{\"0\": 79}","headsign":"{\"GOLD NORTHBOUND TO DORAVILLE STATION\": 46, \"RED NORTHBOUND TO NORTH SPRINGS STATION\": 33}","duration_avg":120.0,"n_vehicles":79,"d":2169,"route_I_counts":"{\"116\": 46, \"118\": 33}","source":20,"target":21,"layer":"L","from":"WEST END STATION","to":"GARNETT STATION"},"geometry":{"type":"LineString","coordinates":[[-84.413653,33.736564],[-84.395545,33.748938]]}},{"type":"Feature","properties":{"duration_avg":120.0,"n_vehicles":79,"d":2339,"route_I_counts":"{\"116\": 46, \"118\": 33}","shape_id":"{\"96948\": 46, \"96983\": 33}","direction_id":"{\"1\": 79}","headsign":"{\"GOLD SOUTHBOUND TO AIRPORT STATION\": 46, \"RED SOUTHBOUND TO AIRPORT STATION\": 33}","source":20,"target":19,"layer":"L","from":"WEST END STATION","to":"OAKLAND CITY STATION"},"geometry":{"type":"LineString","coordinates":[[-84.413653,33.736564],[-84.42503,33.7173]]}},{"type":"Feature","properties":{"duration_avg":180.0,"n_vehicles":79,"d":683,"route_I_counts":"{\"116\": 46, \"118\": 33}","shape_id":"{\"96940\": 46, \"96974\": 33}","direction_id":"{\"0\": 79}","headsign":"{\"GOLD NORTHBOUND TO DORAVILLE STATION\": 46, \"RED NORTHBOUND TO NORTH SPRINGS STATION\": 33}","source":21,"target":5,"layer":"L","from":"GARNETT STATION","to":"FIVE POINTS STATION"},"geometry":{"type":"LineString","coordinates":[[-84.395545,33.748938],[-84.391397,33.753837]]}},{"type":"Feature","properties":{"duration_avg":180.0,"n_vehicles":79,"d":2200,"route_I_counts":"{\"116\": 46, \"118\": 33}","shape_id":"{\"96948\": 46, \"96983\": 33}","direction_id":"{\"1\": 79}","headsign":"{\"GOLD SOUTHBOUND TO AIRPORT STATION\": 46, \"RED SOUTHBOUND TO AIRPORT STATION\": 33}","source":21,"target":20,"layer":"L","from":"GARNETT STATION","to":"WEST END STATION"},"geometry":{"type":"LineString","coordinates":[[-84.395545,33.748938],[-84.413653,33.736564]]}},{"type":"Feature","properties":{"shape_id":"{\"96940\": 46, \"96974\": 33}","direction_id":"{\"0\": 79}","headsign":"{\"GOLD NORTHBOUND TO DORAVILLE STATION\": 46, \"RED NORTHBOUND TO NORTH SPRINGS STATION\": 33}","duration_avg":60.0,"n_vehicles":79,"d":895,"route_I_counts":"{\"116\": 46, \"118\": 33}","source":22,"target":23,"layer":"L","from":"PEACHTREE CENTER STATION","to":"CIVIC CENTER STATION"},"geometry":{"type":"LineString","coordinates":[[-84.387596,33.758189],[-84.387504,33.766236]]}},{"type":"Feature","properties":{"duration_avg":120.0,"n_vehicles":79,"d":592,"route_I_counts":"{\"116\": 46, \"118\": 33}","shape_id":"{\"96948\": 46, \"96983\": 33}","direction_id":"{\"1\": 79}","headsign":"{\"GOLD SOUTHBOUND TO AIRPORT STATION\": 46, \"RED SOUTHBOUND TO AIRPORT STATION\": 33}","source":22,"target":5,"layer":"L","from":"PEACHTREE CENTER STATION","to":"FIVE POINTS STATION"},"geometry":{"type":"LineString","coordinates":[[-84.387596,33.758189],[-84.391397,33.753837]]}},{"type":"Feature","properties":{"shape_id":"{\"96940\": 46, \"96974\": 33}","direction_id":"{\"0\": 79}","headsign":"{\"GOLD NORTHBOUND TO DORAVILLE STATION\": 46, \"RED NORTHBOUND TO NORTH SPRINGS STATION\": 33}","duration_avg":120.0,"n_vehicles":79,"d":613,"route_I_counts":"{\"116\": 46, \"118\": 33}","source":23,"target":24,"layer":"L","from":"CIVIC CENTER STATION","to":"NORTH AVENUE STATION"},"geometry":{"type":"LineString","coordinates":[[-84.387504,33.766236],[-84.387204,33.771741]]}},{"type":"Feature","properties":{"duration_avg":60.0,"n_vehicles":79,"d":893,"route_I_counts":"{\"116\": 46, \"118\": 33}","shape_id":"{\"96948\": 46, \"96983\": 33}","direction_id":"{\"1\": 79}","headsign":"{\"GOLD SOUTHBOUND TO AIRPORT STATION\": 46, \"RED SOUTHBOUND TO AIRPORT STATION\": 33}","source":23,"target":22,"layer":"L","from":"CIVIC CENTER STATION","to":"PEACHTREE CENTER STATION"},"geometry":{"type":"LineString","coordinates":[[-84.387504,33.766236],[-84.387596,33.758189]]}},{"type":"Feature","properties":{"shape_id":"{\"96940\": 46, \"96974\": 33}","direction_id":"{\"0\": 79}","headsign":"{\"GOLD NORTHBOUND TO DORAVILLE STATION\": 46, \"RED NORTHBOUND TO NORTH SPRINGS STATION\": 33}","duration_avg":60.0,"n_vehicles":79,"d":1073,"route_I_counts":"{\"116\": 46, \"118\": 33}","source":24,"target":25,"layer":"L","from":"NORTH AVENUE STATION","to":"MIDTOWN STATION"},"geometry":{"type":"LineString","coordinates":[[-84.387204,33.771741],[-84.386353,33.781355]]}},{"type":"Feature","properties":{"duration_avg":60.0,"n_vehicles":79,"d":597,"route_I_counts":"{\"116\": 46, \"118\": 33}","shape_id":"{\"96948\": 46, \"96983\": 33}","direction_id":"{\"1\": 79}","headsign":"{\"GOLD SOUTHBOUND TO AIRPORT STATION\": 46, \"RED SOUTHBOUND TO AIRPORT STATION\": 33}","source":24,"target":23,"layer":"L","from":"NORTH AVENUE STATION","to":"CIVIC CENTER STATION"},"geometry":{"type":"LineString","coordinates":[[-84.387204,33.771741],[-84.387504,33.766236]]}},{"type":"Feature","properties":{"shape_id":"{\"96940\": 46, \"96974\": 33}","direction_id":"{\"0\": 79}","headsign":"{\"GOLD NORTHBOUND TO DORAVILLE STATION\": 46, \"RED NORTHBOUND TO NORTH SPRINGS STATION\": 33}","duration_avg":120.0,"n_vehicles":79,"d":930,"route_I_counts":"{\"116\": 46, \"118\": 33}","source":25,"target":26,"layer":"L","from":"MIDTOWN STATION","to":"ARTS CENTER STATION"},"geometry":{"type":"LineString","coordinates":[[-84.386353,33.781355],[-84.387414,33.789669]]}},{"type":"Feature","properties":{"duration_avg":60.0,"n_vehicles":79,"d":1091,"route_I_counts":"{\"116\": 46, \"118\": 33}","shape_id":"{\"96948\": 46, \"96983\": 33}","direction_id":"{\"1\": 79}","headsign":"{\"GOLD SOUTHBOUND TO AIRPORT STATION\": 46, \"RED SOUTHBOUND TO AIRPORT STATION\": 33}","source":25,"target":24,"layer":"L","from":"MIDTOWN STATION","to":"NORTH AVENUE STATION"},"geometry":{"type":"LineString","coordinates":[[-84.386353,33.781355],[-84.387204,33.771741]]}},{"type":"Feature","properties":{"shape_id":"{\"96940\": 46, \"96974\": 33}","direction_id":"{\"0\": 79}","headsign":"{\"GOLD NORTHBOUND TO DORAVILLE STATION\": 46, \"RED NORTHBOUND TO NORTH SPRINGS STATION\": 33}","duration_avg":240.0,"n_vehicles":79,"d":4120,"route_I_counts":"{\"116\": 46, \"118\": 33}","source":26,"target":27,"layer":"L","from":"ARTS CENTER STATION","to":"LINDBERGH CENTER STATION"},"geometry":{"type":"LineString","coordinates":[[-84.387414,33.789669],[-84.369324,33.823492]]}},{"type":"Feature","properties":{"duration_avg":120.0,"n_vehicles":79,"d":848,"route_I_counts":"{\"116\": 46, \"118\": 33}","shape_id":"{\"96948\": 46, \"96983\": 33}","direction_id":"{\"1\": 79}","headsign":"{\"GOLD SOUTHBOUND TO AIRPORT STATION\": 46, \"RED SOUTHBOUND TO AIRPORT STATION\": 33}","source":26,"target":25,"layer":"L","from":"ARTS CENTER STATION","to":"MIDTOWN STATION"},"geometry":{"type":"LineString","coordinates":[[-84.387414,33.789669],[-84.386353,33.781355]]}},{"type":"Feature","properties":{"shape_id":"{\"96940\": 46}","direction_id":"{\"0\": 46}","headsign":"{\"GOLD NORTHBOUND TO DORAVILLE STATION\": 46}","duration_avg":180.0,"n_vehicles":46,"d":2644,"route_I_counts":"{\"116\": 46}","source":27,"target":28,"layer":"L","from":"LINDBERGH CENTER STATION","to":"LENOX STATION"},"geometry":{"type":"LineString","coordinates":[[-84.369324,33.823492],[-84.358235,33.845388]]}},{"type":"Feature","properties":{"duration_avg":240.0,"n_vehicles":79,"d":4188,"route_I_counts":"{\"116\": 46, \"118\": 33}","shape_id":"{\"96948\": 46, \"96983\": 33}","direction_id":"{\"1\": 79}","headsign":"{\"GOLD SOUTHBOUND TO AIRPORT STATION\": 46, \"RED SOUTHBOUND TO AIRPORT STATION\": 33}","source":27,"target":26,"layer":"L","from":"LINDBERGH CENTER STATION","to":"ARTS CENTER STATION"},"geometry":{"type":"LineString","coordinates":[[-84.369324,33.823492],[-84.387414,33.789669]]}},{"type":"Feature","properties":{"duration_avg":240.0,"n_vehicles":46,"d":2724,"route_I_counts":"{\"118\": 46}","shape_id":"{\"96967\": 13, \"96974\": 33}","direction_id":"{\"0\": 46}","headsign":"{\"RED NORTHBOUND TO NORTH SPRINGS STATION\": 46}","source":27,"target":33,"layer":"L","from":"LINDBERGH CENTER STATION","to":"BUCKHEAD STATION"},"geometry":{"type":"LineString","coordinates":[[-84.369324,33.823492],[-84.367716,33.847944]]}},{"type":"Feature","properties":{"shape_id":"{\"96940\": 46}","direction_id":"{\"0\": 46}","headsign":"{\"GOLD NORTHBOUND TO DORAVILLE STATION\": 46}","duration_avg":180.0,"n_vehicles":46,"d":2418,"route_I_counts":"{\"116\": 46}","source":28,"target":29,"layer":"L","from":"LENOX STATION","to":"BROOKHAVEN-OGLETHORPE STATION"},"geometry":{"type":"LineString","coordinates":[[-84.358235,33.845388],[-84.339245,33.860329]]}},{"type":"Feature","properties":{"duration_avg":180.0,"n_vehicles":46,"d":2642,"route_I_counts":"{\"116\": 46}","shape_id":"{\"96948\": 46}","direction_id":"{\"1\": 46}","headsign":"{\"GOLD SOUTHBOUND TO AIRPORT STATION\": 46}","source":28,"target":27,"layer":"L","from":"LENOX STATION","to":"LINDBERGH CENTER STATION"},"geometry":{"type":"LineString","coordinates":[[-84.358235,33.845388],[-84.369324,33.823492]]}},{"type":"Feature","properties":{"shape_id":"{\"96940\": 46}","direction_id":"{\"0\": 46}","headsign":"{\"GOLD NORTHBOUND TO DORAVILLE STATION\": 46}","duration_avg":240.0,"n_vehicles":46,"d":4374,"route_I_counts":"{\"116\": 46}","source":29,"target":30,"layer":"L","from":"BROOKHAVEN-OGLETHORPE STATION","to":"CHAMBLEE STATION"},"geometry":{"type":"LineString","coordinates":[[-84.339245,33.860329],[-84.305556,33.887929]]}},{"type":"Feature","properties":{"duration_avg":180.0,"n_vehicles":46,"d":2398,"route_I_counts":"{\"116\": 46}","shape_id":"{\"96948\": 46}","direction_id":"{\"1\": 46}","headsign":"{\"GOLD SOUTHBOUND TO AIRPORT STATION\": 46}","source":29,"target":28,"layer":"L","from":"BROOKHAVEN-OGLETHORPE STATION","to":"LENOX STATION"},"geometry":{"type":"LineString","coordinates":[[-84.339245,33.860329],[-84.358235,33.845388]]}},{"type":"Feature","properties":{"shape_id":"{\"96940\": 46}","direction_id":"{\"0\": 46}","headsign":"{\"GOLD NORTHBOUND TO DORAVILLE STATION\": 46}","duration_avg":180.0,"n_vehicles":46,"d":2837,"route_I_counts":"{\"116\": 46}","source":30,"target":31,"layer":"L","from":"CHAMBLEE STATION","to":"DORAVILLE STATION"},"geometry":{"type":"LineString","coordinates":[[-84.305556,33.887929],[-84.28061,33.902787]]}},{"type":"Feature","properties":{"duration_avg":240.0,"n_vehicles":46,"d":4325,"route_I_counts":"{\"116\": 46}","shape_id":"{\"96948\": 46}","direction_id":"{\"1\": 46}","headsign":"{\"GOLD SOUTHBOUND TO AIRPORT STATION\": 46}","source":30,"target":29,"layer":"L","from":"CHAMBLEE STATION","to":"BROOKHAVEN-OGLETHORPE STATION"},"geometry":{"type":"LineString","coordinates":[[-84.305556,33.887929],[-84.339245,33.860329]]}},{"type":"Feature","properties":{"duration_avg":180.0,"n_vehicles":46,"d":2858,"route_I_counts":"{\"116\": 46}","shape_id":"{\"96948\": 46}","direction_id":"{\"1\": 46}","headsign":"{\"GOLD SOUTHBOUND TO AIRPORT STATION\": 46}","source":31,"target":30,"layer":"L","from":"DORAVILLE STATION","to":"CHAMBLEE STATION"},"geometry":{"type":"LineString","coordinates":[[-84.28061,33.902787],[-84.305556,33.887929]]}},{"type":"Feature","properties":{"shape_id":"{\"96954\": 13, \"96956\": 33}","direction_id":"{\"0\": 46}","headsign":"{\"\": 46}","duration_avg":240.0,"n_vehicles":46,"d":2051,"route_I_counts":"{\"117\": 46}","source":32,"target":2,"layer":"L","from":"BANKHEAD STATION","to":"ASHBY STATION"},"geometry":{"type":"LineString","coordinates":[[-84.428873,33.772159],[-84.41723,33.756478]]}},{"type":"Feature","properties":{"shape_id":"{\"96967\": 13, \"96974\": 33}","direction_id":"{\"0\": 46}","headsign":"{\"RED NORTHBOUND TO NORTH SPRINGS STATION\": 46}","duration_avg":300.0,"n_vehicles":46,"d":7144,"route_I_counts":"{\"118\": 46}","source":33,"target":34,"layer":"L","from":"BUCKHEAD STATION","to":"MEDICAL CENTER STATION"},"geometry":{"type":"LineString","coordinates":[[-84.367716,33.847944],[-84.351759,33.910739]]}},{"type":"Feature","properties":{"duration_avg":240.0,"n_vehicles":46,"d":2716,"route_I_counts":"{\"118\": 46}","shape_id":"{\"96980\": 13, \"96983\": 33}","direction_id":"{\"1\": 46}","headsign":"{\"RED SOUTHBOUND TO AIRPORT STATION\": 33, \"RED SOUTHBOUND TO LINDBERGH STATION\": 13}","source":33,"target":27,"layer":"L","from":"BUCKHEAD STATION","to":"LINDBERGH CENTER STATION"},"geometry":{"type":"LineString","coordinates":[[-84.367716,33.847944],[-84.369324,33.823492]]}},{"type":"Feature","properties":{"shape_id":"{\"96967\": 13, \"96974\": 33}","direction_id":"{\"0\": 46}","headsign":"{\"RED NORTHBOUND TO NORTH SPRINGS STATION\": 46}","duration_avg":120.0,"n_vehicles":46,"d":1347,"route_I_counts":"{\"118\": 46}","source":34,"target":35,"layer":"L","from":"MEDICAL CENTER STATION","to":"DUNWOODY STATION"},"geometry":{"type":"LineString","coordinates":[[-84.351759,33.910739],[-84.344268,33.92113]]}},{"type":"Feature","properties":{"duration_avg":300.0,"n_vehicles":46,"d":7156,"route_I_counts":"{\"118\": 46}","shape_id":"{\"96980\": 13, \"96983\": 33}","direction_id":"{\"1\": 46}","headsign":"{\"RED SOUTHBOUND TO AIRPORT STATION\": 33, \"RED SOUTHBOUND TO LINDBERGH STATION\": 13}","source":34,"target":33,"layer":"L","from":"MEDICAL CENTER STATION","to":"BUCKHEAD STATION"},"geometry":{"type":"LineString","coordinates":[[-84.351759,33.910739],[-84.367716,33.847944]]}},{"type":"Feature","properties":{"shape_id":"{\"96967\": 13, \"96974\": 33}","direction_id":"{\"0\": 46}","headsign":"{\"RED NORTHBOUND TO NORTH SPRINGS STATION\": 46}","duration_avg":120.0,"n_vehicles":46,"d":1330,"route_I_counts":"{\"118\": 46}","source":35,"target":36,"layer":"L","from":"DUNWOODY STATION","to":"SANDY SPRINGS STATION"},"geometry":{"type":"LineString","coordinates":[[-84.344268,33.92113],[-84.351069,33.931671]]}},{"type":"Feature","properties":{"duration_avg":120.0,"n_vehicles":46,"d":1329,"route_I_counts":"{\"118\": 46}","shape_id":"{\"96980\": 13, \"96983\": 33}","direction_id":"{\"1\": 46}","headsign":"{\"RED SOUTHBOUND TO AIRPORT STATION\": 33, \"RED SOUTHBOUND TO LINDBERGH STATION\": 13}","source":35,"target":34,"layer":"L","from":"DUNWOODY STATION","to":"MEDICAL CENTER STATION"},"geometry":{"type":"LineString","coordinates":[[-84.344268,33.92113],[-84.351759,33.910739]]}},{"type":"Feature","properties":{"shape_id":"{\"96967\": 13, \"96974\": 33}","direction_id":"{\"0\": 46}","headsign":"{\"RED NORTHBOUND TO NORTH SPRINGS STATION\": 46}","duration_avg":120.0,"n_vehicles":46,"d":1585,"route_I_counts":"{\"118\": 46}","source":36,"target":37,"layer":"L","from":"SANDY SPRINGS STATION","to":"NORTH SPRINGS STATION"},"geometry":{"type":"LineString","coordinates":[[-84.351069,33.931671],[-84.357275,33.94495]]}},{"type":"Feature","properties":{"duration_avg":120.0,"n_vehicles":46,"d":1344,"route_I_counts":"{\"118\": 46}","shape_id":"{\"96980\": 13, \"96983\": 33}","direction_id":"{\"1\": 46}","headsign":"{\"RED SOUTHBOUND TO AIRPORT STATION\": 33, \"RED SOUTHBOUND TO LINDBERGH STATION\": 13}","source":36,"target":35,"layer":"L","from":"SANDY SPRINGS STATION","to":"DUNWOODY STATION"},"geometry":{"type":"LineString","coordinates":[[-84.351069,33.931671],[-84.344268,33.92113]]}},{"type":"Feature","properties":{"duration_avg":120.0,"n_vehicles":46,"d":1540,"route_I_counts":"{\"118\": 46}","shape_id":"{\"96980\": 13, \"96983\": 33}","direction_id":"{\"1\": 46}","headsign":"{\"RED SOUTHBOUND TO AIRPORT STATION\": 33, \"RED SOUTHBOUND TO LINDBERGH STATION\": 13}","source":37,"target":36,"layer":"L","from":"NORTH SPRINGS STATION","to":"SANDY SPRINGS STATION"},"geometry":{"type":"LineString","coordinates":[[-84.357275,33.94495],[-84.351069,33.931671]]}}]}