{"type":"FeatureCollection","features":[{"type":"Feature","geometry":{"type":"Point","coordinates":[-76.779885,39.407372]},"properties":{"name":"OWINGS MILLS STATION (METRO)","original_ids":"[1]","id":0,"layer":"stop"}},{"type":"Feature","geometry":{"type":"Point","coordinates":[-76.743454,39.370976]},"properties":{"name":"OLD COURT STATION (METRO) sb","original_ids":"[3, 2]","id":1,"layer":"stop"}},{"type":"Feature","geometry":{"type":"Point","coordinates":[-76.720413,39.359036]},"properties":{"name":"MILFORD MILL STATION (METRO) sb","original_ids":"[5, 4]","id":2,"layer":"stop"}},{"type":"Feature","geometry":{"type":"Point","coordinates":[-76.704034,39.351609]},"properties":{"name":"REISTERSTOWN PLAZA STATION (METRO) sb","original_ids":"[7, 6]","id":3,"layer":"stop"}},{"type":"Feature","geometry":{"type":"Point","coordinates":[-76.691204,39.344504]},"properties":{"name":"ROGERS AVE STATION (METRO) sb","original_ids":"[9, 8]","id":4,"layer":"stop"}},{"type":"Feature","geometry":{"type":"Point","coordinates":[-76.671734,39.335899]},"properties":{"name":"WEST COLD SPRING STATION (METRO)","original_ids":"[11, 10]","id":5,"layer":"stop"}},{"type":"Feature","geometry":{"type":"Point","coordinates":[-76.653735,39.318333]},"properties":{"name":"MONDAWMIN STATION (METRO) sb","original_ids":"[13, 12]","id":6,"layer":"stop"}},{"type":"Feature","geometry":{"type":"Point","coordinates":[-76.642229,39.309921]},"properties":{"name":"PENN NORTH STATION (METRO) sb","original_ids":"[15, 14]","id":7,"layer":"stop"}},{"type":"Feature","geometry":{"type":"Point","coordinates":[-76.634812,39.304106]},"properties":{"name":"UPTON STATION (METRO) sb","original_ids":"[17, 16]","id":8,"layer":"stop"}},{"type":"Feature","geometry":{"type":"Point","coordinates":[-76.621616,39.300234]},"properties":{"name":"STATE CENTER (METRO) sb","original_ids":"[19, 18]","id":9,"layer":"stop"}},{"type":"Feature","geometry":{"type":"Point","coordinates":[-76.620923,39.290968]},"properties":{"name":"LEXINGTON MARKET (METRO) sb","original_ids":"[21, 20]","id":10,"layer":"stop"}},{"type":"Feature","geometry":{"type":"Point","coordinates":[-76.613089,39.289603]},"properties":{"name":"CHARLES CENTER (METRO) sb","original_ids":"[23, 22]","id":11,"layer":"stop"}},{"type":"Feature","geometry":{"type":"Point","coordinates":[-76.604697,39.290029]},"properties":{"name":"SHOT TOWER STATION (METRO) sb","original_ids":"[24, 25]","id":12,"layer":"stop"}},{"type":"Feature","geometry":{"type":"Point","coordinates":[-76.594166,39.296583]},"properties":{"name":"JOHNS HOPKINS STATION (METRO)","original_ids":"[26]","id":13,"layer":"stop"}},{"type":"Feature","properties":{"shape_id":"{\"omjh\": 84}","direction_id":"{\"0\": 84}","headsign":"{\"JOHNS HOPKINS\": 84}","duration_avg":240.0,"n_vehicles":84,"d":5122,"route_I_counts":"{\"1\": 84}","source":0,"target":1,"layer":"L","from":"OWINGS MILLS STATION (METRO)","to":"OLD COURT STATION (METRO) sb"},"geometry":{"type":"LineString","coordinates":[[-76.779885,39.407372],[-76.743454,39.370976]]}},{"type":"Feature","properties":{"shape_id":"{\"omjh\": 84}","direction_id":"{\"0\": 84}","headsign":"{\"JOHNS HOPKINS\": 84}","duration_avg":180.0,"n_vehicles":84,"d":2387,"route_I_counts":"{\"1\": 84}","source":1,"target":2,"layer":"L","from":"OLD COURT STATION (METRO) sb","to":"MILFORD MILL STATION (METRO) sb"},"geometry":{"type":"LineString","coordinates":[[-76.743454,39.370976],[-76.720413,39.359036]]}},{"type":"Feature","properties":{"duration_avg":300.0,"n_vehicles":90,"d":4996,"route_I_counts":"{\"1\": 90}","shape_id":"{\"jhom\": 88, \"rpom\": 2}","direction_id":"{\"1\": 90}","headsign":"{\"OWINGS MILLS\": 90}","source":1,"target":0,"layer":"L","from":"OLD COURT STATION (METRO) sb","to":"OWINGS MILLS STATION (METRO)"},"geometry":{"type":"LineString","coordinates":[[-76.743454,39.370976],[-76.779885,39.407372]]}},{"type":"Feature","properties":{"shape_id":"{\"omjh\": 85}","direction_id":"{\"0\": 85}","headsign":"{\"JOHNS HOPKINS\": 85}","duration_avg":120.0,"n_vehicles":85,"d":1634,"route_I_counts":"{\"1\": 85}","source":2,"target":3,"layer":"L","from":"MILFORD MILL STATION (METRO) sb","to":"REISTERSTOWN PLAZA STATION (METRO) sb"},"geometry":{"type":"LineString","coordinates":[[-76.720413,39.359036],[-76.704034,39.351609]]}},{"type":"Feature","properties":{"duration_avg":180.0,"n_vehicles":91,"d":2424,"route_I_counts":"{\"1\": 91}","shape_id":"{\"jhom\": 88, \"rpom\": 3}","direction_id":"{\"1\": 91}","headsign":"{\"OWINGS MILLS\": 91}","source":2,"target":1,"layer":"L","from":"MILFORD MILL STATION (METRO) sb","to":"OLD COURT STATION (METRO) sb"},"geometry":{"type":"LineString","coordinates":[[-76.720413,39.359036],[-76.743454,39.370976]]}},{"type":"Feature","properties":{"shape_id":"{\"omjh\": 85, \"rpjh\": 1}","direction_id":"{\"0\": 86}","headsign":"{\"JOHNS HOPKINS\": 86}","duration_avg":120.0,"n_vehicles":86,"d":1358,"route_I_counts":"{\"1\": 86}","source":3,"target":4,"layer":"L","from":"REISTERSTOWN PLAZA STATION (METRO) sb","to":"ROGERS AVE STATION (METRO) sb"},"geometry":{"type":"LineString","coordinates":[[-76.704034,39.351609],[-76.691204,39.344504]]}},{"type":"Feature","properties":{"duration_avg":120.0,"n_vehicles":90,"d":1594,"route_I_counts":"{\"1\": 90}","shape_id":"{\"jhom\": 87, \"rpom\": 3}","direction_id":"{\"1\": 90}","headsign":"{\"OWINGS MILLS\": 90}","source":3,"target":2,"layer":"L","from":"REISTERSTOWN PLAZA STATION (METRO) sb","to":"MILFORD MILL STATION (METRO) sb"},"geometry":{"type":"LineString","coordinates":[[-76.704034,39.351609],[-76.720413,39.359036]]}},{"type":"Feature","properties":{"shape_id":"{\"omjh\": 85, \"rpjh\": 1}","direction_id":"{\"0\": 86}","headsign":"{\"JOHNS HOPKINS\": 86}","duration_avg":120.0,"n_vehicles":86,"d":1930,"route_I_counts":"{\"1\": 86}","source":4,"target":5,"layer":"L","from":"ROGERS AVE STATION (METRO) sb","to":"WEST COLD SPRING STATION (METRO)"},"geometry":{"type":"LineString","coordinates":[[-76.691204,39.344504],[-76.671734,39.335899]]}},{"type":"Feature","properties":{"duration_avg":120.0,"n_vehicles":87,"d":1359,"route_I_counts":"{\"1\": 87}","shape_id":"{\"jhom\": 87}","direction_id":"{\"1\": 87}","headsign":"{\"OWINGS MILLS\": 87}","source":4,"target":3,"layer":"L","from":"ROGERS AVE STATION (METRO) sb","to":"REISTERSTOWN PLAZA STATION (METRO) sb"},"geometry":{"type":"LineString","coordinates":[[-76.691204,39.344504],[-76.704034,39.351609]]}},{"type":"Feature","properties":{"shape_id":"{\"omjh\": 85}","direction_id":"{\"0\": 85}","headsign":"{\"JOHNS HOPKINS\": 85}","duration_avg":180.0,"n_vehicles":85,"d":2495,"route_I_counts":"{\"1\": 85}","source":5,"target":6,"layer":"L","from":"WEST COLD SPRING STATION (METRO)","to":"MONDAWMIN STATION (METRO) sb"},"geometry":{"type":"LineString","coordinates":[[-76.671734,39.335899],[-76.653735,39.318333]]}},{"type":"Feature","properties":{"duration_avg":120.0,"n_vehicles":87,"d":1929,"route_I_counts":"{\"1\": 87}","shape_id":"{\"jhom\": 87}","direction_id":"{\"1\": 87}","headsign":"{\"OWINGS MILLS\": 87}","source":5,"target":4,"layer":"L","from":"WEST COLD SPRING STATION (METRO)","to":"ROGERS AVE STATION (METRO) sb"},"geometry":{"type":"LineString","coordinates":[[-76.671734,39.335899],[-76.691204,39.344504]]}},{"type":"Feature","properties":{"shape_id":"{\"omjh\": 86}","direction_id":"{\"0\": 86}","headsign":"{\"JOHNS HOPKINS\": 86}","duration_avg":120.0,"n_vehicles":86,"d":1363,"route_I_counts":"{\"1\": 86}","source":6,"target":7,"layer":"L","from":"MONDAWMIN STATION (METRO) sb","to":"PENN NORTH STATION (METRO) sb"},"geometry":{"type":"LineString","coordinates":[[-76.653735,39.318333],[-76.642229,39.309921]]}},{"type":"Feature","properties":{"duration_avg":180.0,"n_vehicles":87,"d":2639,"route_I_counts":"{\"1\": 87}","shape_id":"{\"jhom\": 87}","direction_id":"{\"1\": 87}","headsign":"{\"OWINGS MILLS\": 87}","source":6,"target":5,"layer":"L","from":"MONDAWMIN STATION (METRO) sb","to":"WEST COLD SPRING STATION (METRO)"},"geometry":{"type":"LineString","coordinates":[[-76.653735,39.318333],[-76.671734,39.335899]]}},{"type":"Feature","properties":{"shape_id":"{\"omjh\": 86}","direction_id":"{\"0\": 86}","headsign":"{\"JOHNS HOPKINS\": 86}","duration_avg":120.0,"n_vehicles":86,"d":909,"route_I_counts":"{\"1\": 86}","source":7,"target":8,"layer":"L","from":"PENN NORTH STATION (METRO) sb","to":"UPTON STATION (METRO) sb"},"geometry":{"type":"LineString","coordinates":[[-76.642229,39.309921],[-76.634812,39.304106]]}},{"type":"Feature","properties":{"duration_avg":120.0,"n_vehicles":87,"d":1214,"route_I_counts":"{\"1\": 87}","shape_id":"{\"jhom\": 87}","direction_id":"{\"1\": 87}","headsign":"{\"OWINGS MILLS\": 87}","source":7,"target":6,"layer":"L","from":"PENN NORTH STATION (METRO) sb","to":"MONDAWMIN STATION (METRO) sb"},"geometry":{"type":"LineString","coordinates":[[-76.642229,39.309921],[-76.653735,39.318333]]}},{"type":"Feature","properties":{"shape_id":"{\"omjh\": 86}","direction_id":"{\"0\": 86}","headsign":"{\"JOHNS HOPKINS\": 86}","duration_avg":120.0,"n_vehicles":86,"d":1215,"route_I_counts":"{\"1\": 86}","source":8,"target":9,"layer":"L","from":"UPTON STATION (METRO) sb","to":"STATE CENTER (METRO) sb"},"geometry":{"type":"LineString","coordinates":[[-76.634812,39.304106],[-76.621616,39.300234]]}},{"type":"Feature","properties":{"duration_avg":60.0,"n_vehicles":86,"d":919,"route_I_counts":"{\"1\": 86}","shape_id":"{\"jhom\": 86}","direction_id":"{\"1\": 86}","headsign":"{\"OWINGS MILLS\": 86}","source":8,"target":7,"layer":"L","from":"UPTON STATION (METRO) sb","to":"PENN NORTH STATION (METRO) sb"},"geometry":{"type":"LineString","coordinates":[[-76.634812,39.304106],[-76.642229,39.309921]]}},{"type":"Feature","properties":{"shape_id":"{\"omjh\": 86}","direction_id":"{\"0\": 86}","headsign":"{\"JOHNS HOPKINS\": 86}","duration_avg":60.0,"n_vehicles":86,"d":1033,"route_I_counts":"{\"1\": 86}","source":9,"target":10,"layer":"L","from":"STATE CENTER (METRO) sb","to":"LEXINGTON MARKET (METRO) sb"},"geometry":{"type":"LineString","coordinates":[[-76.621616,39.300234],[-76.620923,39.290968]]}},{"type":"Feature","properties":{"duration_avg":120.0,"n_vehicles":86,"d":1220,"route_I_counts":"{\"1\": 86}","shape_id":"{\"jhom\": 86}","direction_id":"{\"1\": 86}","headsign":"{\"OWINGS MILLS\": 86}","source":9,"target":8,"layer":"L","from":"STATE CENTER (METRO) sb","to":"UPTON STATION (METRO) sb"},"geometry":{"type":"LineString","coordinates":[[-76.621616,39.300234],[-76.634812,39.304106]]}},{"type":"Feature","properties":{"shape_id":"{\"omjh\": 86}","direction_id":"{\"0\": 86}","headsign":"{\"JOHNS HOPKINS\": 86}","duration_avg":120.0,"n_vehicles":86,"d":691,"route_I_counts":"{\"1\": 86}","source":10,"target":11,"layer":"L","from":"LEXINGTON MARKET (METRO) sb","to":"CHARLES CENTER (METRO) sb"},"geometry":{"type":"LineString","coordinates":[[-76.620923,39.290968],[-76.613089,39.289603]]}},{"type":"Feature","properties":{"duration_avg":120.0,"n_vehicles":86,"d":1003,"route_I_counts":"{\"1\": 86}","shape_id":"{\"jhom\": 86}","direction_id":"{\"1\": 86}","headsign":"{\"OWINGS MILLS\": 86}","source":10,"target":9,"layer":"L","from":"LEXINGTON MARKET (METRO) sb","to":"STATE CENTER (METRO) sb"},"geometry":{"type":"LineString","coordinates":[[-76.620923,39.290968],[-76.621616,39.300234]]}},{"type":"Feature","properties":{"shape_id":"{\"omjh\": 87}","direction_id":"{\"0\": 87}","headsign":"{\"JOHNS HOPKINS\": 87}","duration_avg":120.0,"n_vehicles":87,"d":724,"route_I_counts":"{\"1\": 87}","source":11,"target":12,"layer":"L","from":"CHARLES CENTER (METRO) sb","to":"SHOT TOWER STATION (METRO) sb"},"geometry":{"type":"LineString","coordinates":[[-76.613089,39.289603],[-76.604697,39.290029]]}},{"type":"Feature","properties":{"duration_avg":60.0,"n_vehicles":86,"d":627,"route_I_counts":"{\"1\": 86}","shape_id":"{\"jhom\": 86}","direction_id":"{\"1\": 86}","headsign":"{\"OWINGS MILLS\": 86}","source":11,"target":10,"layer":"L","from":"CHARLES CENTER (METRO) sb","to":"LEXINGTON MARKET (METRO) sb"},"geometry":{"type":"LineString","coordinates":[[-76.613089,39.289603],[-76.620923,39.290968]]}},{"type":"Feature","properties":{"shape_id":"{\"omjh\": 87}","direction_id":"{\"0\": 87}","headsign":"{\"JOHNS HOPKINS\": 87}","duration_avg":120.0,"n_vehicles":87,"d":1164,"route_I_counts":"{\"1\": 87}","source":12,"target":13,"layer":"L","from":"SHOT TOWER STATION (METRO) sb","to":"JOHNS HOPKINS STATION (METRO)"},"geometry":{"type":"LineString","coordinates":[[-76.604697,39.290029],[-76.594166,39.296583]]}},{"type":"Feature","properties":{"duration_avg":120.0,"n_vehicles":86,"d":729,"route_I_counts":"{\"1\": 86}","shape_id":"{\"jhom\": 86}","direction_id":"{\"1\": 86}","headsign":"{\"OWINGS MILLS\": 86}","source":12,"target":11,"layer":"L","from":"SHOT TOWER STATION (METRO) sb","to":"CHARLES CENTER (METRO) sb"},"geometry":{"type":"LineString","coordinates":[[-76.604697,39.290029],[-76.613089,39.289603]]}},{"type":"Feature","properties":{"duration_avg":120.0,"n_vehicles":86,"d":1289,"route_I_counts":"{\"1\": 86}","shape_id":"{\"jhom\": 86}","direction_id":"{\"1\": 86}","headsign":"{\"OWINGS MILLS\": 86}","source":13,"target":12,"layer":"L","from":"JOHNS HOPKINS STATION (METRO)","to":"SHOT TOWER STATION (METRO) sb"},"geometry":{"type":"LineString","coordinates":[[-76.594166,39.296583],[-76.604697,39.290029]]}}]}