{"type":"FeatureCollection","features":[{"type":"Feature","geometry":{"type":"Point","coordinates":[-2.89771,43.24386]},"properties":{"name":"Etxebarri","original_ids":"[150]","id":0,"layer":"stop"}},{"type":"Feature","geometry":{"type":"Point","coordinates":[-2.90573,43.247]},"properties":{"name":"Bolueta","original_ids":"[156]","id":1,"layer":"stop"}},{"type":"Feature","geometry":{"type":"Point","coordinates":[-2.91082,43.25116]},"properties":{"name":"Basarrate","original_ids":"[157]","id":2,"layer":"stop"}},{"type":"Feature","geometry":{"type":"Point","coordinates":[-2.91335,43.2543]},"properties":{"name":"Santutxu","original_ids":"[158]","id":3,"layer":"stop"}},{"type":"Feature","geometry":{"type":"Point","coordinates":[-2.92071,43.25968]},"properties":{"name":"Zazpikaleak/Casco Viejo","original_ids":"[171]","id":4,"layer":"stop"}},{"type":"Feature","geometry":{"type":"Point","coordinates":[-2.92761,43.2614]},"properties":{"name":"Abando","original_ids":"[186]","id":5,"layer":"stop"}},{"type":"Feature","geometry":{"type":"Point","coordinates":[-2.93308,43.26259]},"properties":{"name":"Moyua","original_ids":"[187]","id":6,"layer":"stop"}},{"type":"Feature","geometry":{"type":"Point","coordinates":[-2.94179,43.26127]},"properties":{"name":"Indautxu","original_ids":"[177]","id":7,"layer":"stop"}},{"type":"Feature","geometry":{"type":"Point","coordinates":[-2.94751,43.26252]},"properties":{"name":"Santimami/San Mamés","original_ids":"[151]","id":8,"layer":"stop"}},{"type":"Feature","geometry":{"type":"Point","coordinates":[-2.94954,43.27145]},"properties":{"name":"Deustu","original_ids":"[184]","id":9,"layer":"stop"}},{"type":"Feature","geometry":{"type":"Point","coordinates":[-2.95874,43.27495]},"properties":{"name":"Sarriko","original_ids":"[159]","id":10,"layer":"stop"}},{"type":"Feature","geometry":{"type":"Point","coordinates":[-2.96239,43.28068]},"properties":{"name":"San Ignazio","original_ids":"[172]","id":11,"layer":"stop"}},{"type":"Feature","geometry":{"type":"Point","coordinates":[-2.96992,43.29098]},"properties":{"name":"Lutxana","original_ids":"[188]","id":12,"layer":"stop"}},{"type":"Feature","geometry":{"type":"Point","coordinates":[-2.97437,43.30338]},"properties":{"name":"Erandio","original_ids":"[189]","id":13,"layer":"stop"}},{"type":"Feature","geometry":{"type":"Point","coordinates":[-2.98681,43.31463]},"properties":{"name":"Astrabudua","original_ids":"[166]","id":14,"layer":"stop"}},{"type":"Feature","geometry":{"type":"Point","coordinates":[-2.99168,43.31788]},"properties":{"name":"Leioa","original_ids":"[167]","id":15,"layer":"stop"}},{"type":"Feature","geometry":{"type":"Point","coordinates":[-3.00102,43.32133]},"properties":{"name":"Lamiako","original_ids":"[162]","id":16,"layer":"stop"}},{"type":"Feature","geometry":{"type":"Point","coordinates":[-3.00961,43.32595]},"properties":{"name":"Areeta","original_ids":"[163]","id":17,"layer":"stop"}},{"type":"Feature","geometry":{"type":"Point","coordinates":[-3.00735,43.33308]},"properties":{"name":"Gobela","original_ids":"[178]","id":18,"layer":"stop"}},{"type":"Feature","geometry":{"type":"Point","coordinates":[-3.00562,43.34024]},"properties":{"name":"Neguri","original_ids":"[164]","id":19,"layer":"stop"}},{"type":"Feature","geometry":{"type":"Point","coordinates":[-3.00267,43.34414]},"properties":{"name":"Aiboa","original_ids":"[173]","id":20,"layer":"stop"}},{"type":"Feature","geometry":{"type":"Point","coordinates":[-3.00935,43.35045]},"properties":{"name":"Algorta","original_ids":"[168]","id":21,"layer":"stop"}},{"type":"Feature","geometry":{"type":"Point","coordinates":[-3.01127,43.35644]},"properties":{"name":"Bidezabal","original_ids":"[179]","id":22,"layer":"stop"}},{"type":"Feature","geometry":{"type":"Point","coordinates":[-3.00699,43.3632]},"properties":{"name":"Ibarbengoa","original_ids":"[180]","id":23,"layer":"stop"}},{"type":"Feature","geometry":{"type":"Point","coordinates":[-2.99949,43.36704]},"properties":{"name":"Berango","original_ids":"[185]","id":24,"layer":"stop"}},{"type":"Feature","geometry":{"type":"Point","coordinates":[-2.99147,43.37573]},"properties":{"name":"Larrabasterra","original_ids":"[181]","id":25,"layer":"stop"}},{"type":"Feature","geometry":{"type":"Point","coordinates":[-2.97899,43.38021]},"properties":{"name":"Sopela","original_ids":"[160]","id":26,"layer":"stop"}},{"type":"Feature","geometry":{"type":"Point","coordinates":[-2.95811,43.379]},"properties":{"name":"Urduliz","original_ids":"[169]","id":27,"layer":"stop"}},{"type":"Feature","geometry":{"type":"Point","coordinates":[-2.94636,43.40134]},"properties":{"name":"Plentzia","original_ids":"[182]","id":28,"layer":"stop"}},{"type":"Feature","geometry":{"type":"Point","coordinates":[-3.03777,43.32238]},"properties":{"name":"Kabiezes","original_ids":"[154]","id":29,"layer":"stop"}},{"type":"Feature","geometry":{"type":"Point","coordinates":[-3.03421,43.32895]},"properties":{"name":"Santurtzi","original_ids":"[175]","id":30,"layer":"stop"}},{"type":"Feature","geometry":{"type":"Point","coordinates":[-3.0254,43.32198]},"properties":{"name":"Peñota","original_ids":"[155]","id":31,"layer":"stop"}},{"type":"Feature","geometry":{"type":"Point","coordinates":[-3.02076,43.31777]},"properties":{"name":"Portugalete","original_ids":"[161]","id":32,"layer":"stop"}},{"type":"Feature","geometry":{"type":"Point","coordinates":[-3.01357,43.31436]},"properties":{"name":"Abatxolo","original_ids":"[176]","id":33,"layer":"stop"}},{"type":"Feature","geometry":{"type":"Point","coordinates":[-3.00567,43.30912]},"properties":{"name":"Sestao","original_ids":"[165]","id":34,"layer":"stop"}},{"type":"Feature","geometry":{"type":"Point","coordinates":[-2.9926,43.3057]},"properties":{"name":"Urbinaga","original_ids":"[153]","id":35,"layer":"stop"}},{"type":"Feature","geometry":{"type":"Point","coordinates":[-2.99268,43.29885]},"properties":{"name":"Bagatza","original_ids":"[170]","id":36,"layer":"stop"}},{"type":"Feature","geometry":{"type":"Point","coordinates":[-2.98936,43.29563]},"properties":{"name":"Barakaldo","original_ids":"[190]","id":37,"layer":"stop"}},{"type":"Feature","geometry":{"type":"Point","coordinates":[-2.98716,43.28919]},"properties":{"name":"Ansio","original_ids":"[152]","id":38,"layer":"stop"}},{"type":"Feature","geometry":{"type":"Point","coordinates":[-2.98245,43.28301]},"properties":{"name":"Gurutzeta/Cruces","original_ids":"[174]","id":39,"layer":"stop"}},{"type":"Feature","geometry":{"type":"Point","coordinates":[-2.88203,43.23801]},"properties":{"name":"Ariz","original_ids":"[183]","id":40,"layer":"stop"}},{"type":"Feature","geometry":{"type":"Point","coordinates":[-2.8934,43.23624]},"properties":{"name":"Basauri","original_ids":"[149]","id":41,"layer":"stop"}},{"type":"Feature","properties":{"shape_id":"{}","direction_id":"{\"0\": 310}","headsign":"{\"Ibarbengoa\": 49, \"Kabiezes\": 157, \"Larrabasterra\": 38, \"Plentzia\": 53, \"Sopela\": 9, \"Urduliz\": 4}","duration_avg":73.0,"n_vehicles":310,"d":738,"route_I_counts":"{\"1\": 310}","source":0,"target":1,"layer":"L","from":"Etxebarri","to":"Bolueta"},"geometry":{"type":"LineString","coordinates":[[-2.89771,43.24386],[-2.90573,43.247]]}},{"type":"Feature","properties":{"shape_id":"{}","direction_id":"{\"1\": 159}","headsign":"{\"Basauri\": 159}","duration_avg":123.0,"n_vehicles":159,"d":1428,"route_I_counts":"{\"1\": 159}","source":0,"target":40,"layer":"L","from":"Etxebarri","to":"Ariz"},"geometry":{"type":"LineString","coordinates":[[-2.89771,43.24386],[-2.88203,43.23801]]}},{"type":"Feature","properties":{"shape_id":"{}","direction_id":"{\"0\": 310}","headsign":"{\"Ibarbengoa\": 49, \"Kabiezes\": 157, \"Larrabasterra\": 38, \"Plentzia\": 53, \"Sopela\": 9, \"Urduliz\": 4}","duration_avg":62.0,"n_vehicles":310,"d":620,"route_I_counts":"{\"1\": 310}","source":1,"target":2,"layer":"L","from":"Bolueta","to":"Basarrate"},"geometry":{"type":"LineString","coordinates":[[-2.90573,43.247],[-2.91082,43.25116]]}},{"type":"Feature","properties":{"shape_id":"{}","direction_id":"{\"1\": 310}","headsign":"{\"Basauri\": 159, \"Etxebarri\": 151}","duration_avg":71.0,"n_vehicles":310,"d":738,"route_I_counts":"{\"1\": 310}","source":1,"target":0,"layer":"L","from":"Bolueta","to":"Etxebarri"},"geometry":{"type":"LineString","coordinates":[[-2.90573,43.247],[-2.89771,43.24386]]}},{"type":"Feature","properties":{"shape_id":"{}","direction_id":"{\"0\": 310}","headsign":"{\"Ibarbengoa\": 49, \"Kabiezes\": 157, \"Larrabasterra\": 38, \"Plentzia\": 53, \"Sopela\": 9, \"Urduliz\": 4}","duration_avg":49.0,"n_vehicles":310,"d":405,"route_I_counts":"{\"1\": 310}","source":2,"target":3,"layer":"L","from":"Basarrate","to":"Santutxu"},"geometry":{"type":"LineString","coordinates":[[-2.91082,43.25116],[-2.91335,43.2543]]}},{"type":"Feature","properties":{"shape_id":"{}","direction_id":"{\"1\": 310}","headsign":"{\"Basauri\": 159, \"Etxebarri\": 151}","duration_avg":64.0,"n_vehicles":310,"d":620,"route_I_counts":"{\"1\": 310}","source":2,"target":1,"layer":"L","from":"Basarrate","to":"Bolueta"},"geometry":{"type":"LineString","coordinates":[[-2.91082,43.25116],[-2.90573,43.247]]}},{"type":"Feature","properties":{"shape_id":"{}","direction_id":"{\"0\": 310}","headsign":"{\"Ibarbengoa\": 49, \"Kabiezes\": 157, \"Larrabasterra\": 38, \"Plentzia\": 53, \"Sopela\": 9, \"Urduliz\": 4}","duration_avg":75.0,"n_vehicles":310,"d":845,"route_I_counts":"{\"1\": 310}","source":3,"target":4,"layer":"L","from":"Santutxu","to":"Zazpikaleak/Casco Viejo"},"geometry":{"type":"LineString","coordinates":[[-2.91335,43.2543],[-2.92071,43.25968]]}},{"type":"Feature","properties":{"shape_id":"{}","direction_id":"{\"1\": 310}","headsign":"{\"Basauri\": 159, \"Etxebarri\": 151}","duration_avg":48.0,"n_vehicles":310,"d":405,"route_I_counts":"{\"1\": 310}","source":3,"target":2,"layer":"L","from":"Santutxu","to":"Basarrate"},"geometry":{"type":"LineString","coordinates":[[-2.91335,43.2543],[-2.91082,43.25116]]}},{"type":"Feature","properties":{"shape_id":"{}","direction_id":"{\"0\": 310}","headsign":"{\"Ibarbengoa\": 49, \"Kabiezes\": 157, \"Larrabasterra\": 38, \"Plentzia\": 53, \"Sopela\": 9, \"Urduliz\": 4}","duration_avg":57.0,"n_vehicles":310,"d":591,"route_I_counts":"{\"1\": 310}","source":4,"target":5,"layer":"L","from":"Zazpikaleak/Casco Viejo","to":"Abando"},"geometry":{"type":"LineString","coordinates":[[-2.92071,43.25968],[-2.92761,43.2614]]}},{"type":"Feature","properties":{"shape_id":"{}","direction_id":"{\"1\": 310}","headsign":"{\"Basauri\": 159, \"Etxebarri\": 151}","duration_avg":76.0,"n_vehicles":310,"d":845,"route_I_counts":"{\"1\": 310}","source":4,"target":3,"layer":"L","from":"Zazpikaleak/Casco Viejo","to":"Santutxu"},"geometry":{"type":"LineString","coordinates":[[-2.92071,43.25968],[-2.91335,43.2543]]}},{"type":"Feature","properties":{"shape_id":"{}","direction_id":"{\"0\": 310}","headsign":"{\"Ibarbengoa\": 49, \"Kabiezes\": 157, \"Larrabasterra\": 38, \"Plentzia\": 53, \"Sopela\": 9, \"Urduliz\": 4}","duration_avg":51.0,"n_vehicles":310,"d":462,"route_I_counts":"{\"1\": 310}","source":5,"target":6,"layer":"L","from":"Abando","to":"Moyua"},"geometry":{"type":"LineString","coordinates":[[-2.92761,43.2614],[-2.93308,43.26259]]}},{"type":"Feature","properties":{"shape_id":"{}","direction_id":"{\"1\": 310}","headsign":"{\"Basauri\": 159, \"Etxebarri\": 151}","duration_avg":59.0,"n_vehicles":310,"d":591,"route_I_counts":"{\"1\": 310}","source":5,"target":4,"layer":"L","from":"Abando","to":"Zazpikaleak/Casco Viejo"},"geometry":{"type":"LineString","coordinates":[[-2.92761,43.2614],[-2.92071,43.25968]]}},{"type":"Feature","properties":{"shape_id":"{}","direction_id":"{\"0\": 310}","headsign":"{\"Ibarbengoa\": 49, \"Kabiezes\": 157, \"Larrabasterra\": 38, \"Plentzia\": 53, \"Sopela\": 9, \"Urduliz\": 4}","duration_avg":69.0,"n_vehicles":310,"d":721,"route_I_counts":"{\"1\": 310}","source":6,"target":7,"layer":"L","from":"Moyua","to":"Indautxu"},"geometry":{"type":"LineString","coordinates":[[-2.93308,43.26259],[-2.94179,43.26127]]}},{"type":"Feature","properties":{"shape_id":"{}","direction_id":"{\"1\": 310}","headsign":"{\"Basauri\": 159, \"Etxebarri\": 151}","duration_avg":50.0,"n_vehicles":310,"d":462,"route_I_counts":"{\"1\": 310}","source":6,"target":5,"layer":"L","from":"Moyua","to":"Abando"},"geometry":{"type":"LineString","coordinates":[[-2.93308,43.26259],[-2.92761,43.2614]]}},{"type":"Feature","properties":{"shape_id":"{}","direction_id":"{\"0\": 310}","headsign":"{\"Ibarbengoa\": 49, \"Kabiezes\": 157, \"Larrabasterra\": 38, \"Plentzia\": 53, \"Sopela\": 9, \"Urduliz\": 4}","duration_avg":51.0,"n_vehicles":310,"d":484,"route_I_counts":"{\"1\": 310}","source":7,"target":8,"layer":"L","from":"Indautxu","to":"Santimami/San Mamés"},"geometry":{"type":"LineString","coordinates":[[-2.94179,43.26127],[-2.94751,43.26252]]}},{"type":"Feature","properties":{"shape_id":"{}","direction_id":"{\"1\": 310}","headsign":"{\"Basauri\": 159, \"Etxebarri\": 151}","duration_avg":69.0,"n_vehicles":310,"d":721,"route_I_counts":"{\"1\": 310}","source":7,"target":6,"layer":"L","from":"Indautxu","to":"Moyua"},"geometry":{"type":"LineString","coordinates":[[-2.94179,43.26127],[-2.93308,43.26259]]}},{"type":"Feature","properties":{"shape_id":"{}","direction_id":"{\"0\": 310}","headsign":"{\"Ibarbengoa\": 49, \"Kabiezes\": 157, \"Larrabasterra\": 38, \"Plentzia\": 53, \"Sopela\": 9, \"Urduliz\": 4}","duration_avg":87.0,"n_vehicles":310,"d":1007,"route_I_counts":"{\"1\": 310}","source":8,"target":9,"layer":"L","from":"Santimami/San Mamés","to":"Deustu"},"geometry":{"type":"LineString","coordinates":[[-2.94751,43.26252],[-2.94954,43.27145]]}},{"type":"Feature","properties":{"shape_id":"{}","direction_id":"{\"1\": 310}","headsign":"{\"Basauri\": 159, \"Etxebarri\": 151}","duration_avg":52.0,"n_vehicles":310,"d":484,"route_I_counts":"{\"1\": 310}","source":8,"target":7,"layer":"L","from":"Santimami/San Mamés","to":"Indautxu"},"geometry":{"type":"LineString","coordinates":[[-2.94751,43.26252],[-2.94179,43.26127]]}},{"type":"Feature","properties":{"shape_id":"{}","direction_id":"{\"0\": 309}","headsign":"{\"Ibarbengoa\": 49, \"Kabiezes\": 157, \"Larrabasterra\": 38, \"Plentzia\": 52, \"Sopela\": 9, \"Urduliz\": 4}","duration_avg":81.0,"n_vehicles":309,"d":841,"route_I_counts":"{\"1\": 309}","source":9,"target":10,"layer":"L","from":"Deustu","to":"Sarriko"},"geometry":{"type":"LineString","coordinates":[[-2.94954,43.27145],[-2.95874,43.27495]]}},{"type":"Feature","properties":{"shape_id":"{}","direction_id":"{\"1\": 311}","headsign":"{\"Basauri\": 159, \"Etxebarri\": 152}","duration_avg":88.0,"n_vehicles":311,"d":1007,"route_I_counts":"{\"1\": 311}","source":9,"target":8,"layer":"L","from":"Deustu","to":"Santimami/San Mamés"},"geometry":{"type":"LineString","coordinates":[[-2.94954,43.27145],[-2.94751,43.26252]]}},{"type":"Feature","properties":{"shape_id":"{}","direction_id":"{\"0\": 309}","headsign":"{\"Ibarbengoa\": 49, \"Kabiezes\": 157, \"Larrabasterra\": 38, \"Plentzia\": 52, \"Sopela\": 9, \"Urduliz\": 4}","duration_avg":67.0,"n_vehicles":309,"d":703,"route_I_counts":"{\"1\": 309}","source":10,"target":11,"layer":"L","from":"Sarriko","to":"San Ignazio"},"geometry":{"type":"LineString","coordinates":[[-2.95874,43.27495],[-2.96239,43.28068]]}},{"type":"Feature","properties":{"shape_id":"{}","direction_id":"{\"1\": 311}","headsign":"{\"Basauri\": 159, \"Etxebarri\": 152}","duration_avg":81.0,"n_vehicles":311,"d":841,"route_I_counts":"{\"1\": 311}","source":10,"target":9,"layer":"L","from":"Sarriko","to":"Deustu"},"geometry":{"type":"LineString","coordinates":[[-2.95874,43.27495],[-2.94954,43.27145]]}},{"type":"Feature","properties":{"shape_id":"{}","direction_id":"{\"0\": 153}","headsign":"{\"Ibarbengoa\": 49, \"Larrabasterra\": 38, \"Plentzia\": 53, \"Sopela\": 9, \"Urduliz\": 4}","duration_avg":99.0,"n_vehicles":153,"d":1298,"route_I_counts":"{\"1\": 153}","source":11,"target":12,"layer":"L","from":"San Ignazio","to":"Lutxana"},"geometry":{"type":"LineString","coordinates":[[-2.96239,43.28068],[-2.96992,43.29098]]}},{"type":"Feature","properties":{"shape_id":"{}","direction_id":"{\"1\": 311}","headsign":"{\"Basauri\": 159, \"Etxebarri\": 152}","duration_avg":71.0,"n_vehicles":311,"d":703,"route_I_counts":"{\"1\": 311}","source":11,"target":10,"layer":"L","from":"San Ignazio","to":"Sarriko"},"geometry":{"type":"LineString","coordinates":[[-2.96239,43.28068],[-2.95874,43.27495]]}},{"type":"Feature","properties":{"shape_id":"{}","direction_id":"{\"0\": 157}","headsign":"{\"Kabiezes\": 157}","duration_avg":179.0,"n_vehicles":157,"d":1646,"route_I_counts":"{\"1\": 157}","source":11,"target":39,"layer":"L","from":"San Ignazio","to":"Gurutzeta/Cruces"},"geometry":{"type":"LineString","coordinates":[[-2.96239,43.28068],[-2.98245,43.28301]]}},{"type":"Feature","properties":{"shape_id":"{}","direction_id":"{\"0\": 153}","headsign":"{\"Ibarbengoa\": 49, \"Larrabasterra\": 38, \"Plentzia\": 53, \"Sopela\": 9, \"Urduliz\": 4}","duration_avg":114.0,"n_vehicles":153,"d":1426,"route_I_counts":"{\"1\": 153}","source":12,"target":13,"layer":"L","from":"Lutxana","to":"Erandio"},"geometry":{"type":"LineString","coordinates":[[-2.96992,43.29098],[-2.97437,43.30338]]}},{"type":"Feature","properties":{"shape_id":"{}","direction_id":"{\"1\": 154}","headsign":"{\"Basauri\": 4, \"Etxebarri\": 150}","duration_avg":105.0,"n_vehicles":154,"d":1298,"route_I_counts":"{\"1\": 154}","source":12,"target":11,"layer":"L","from":"Lutxana","to":"San Ignazio"},"geometry":{"type":"LineString","coordinates":[[-2.96992,43.29098],[-2.96239,43.28068]]}},{"type":"Feature","properties":{"shape_id":"{}","direction_id":"{\"0\": 153}","headsign":"{\"Ibarbengoa\": 49, \"Larrabasterra\": 38, \"Plentzia\": 53, \"Sopela\": 9, \"Urduliz\": 4}","duration_avg":104.0,"n_vehicles":153,"d":1607,"route_I_counts":"{\"1\": 153}","source":13,"target":14,"layer":"L","from":"Erandio","to":"Astrabudua"},"geometry":{"type":"LineString","coordinates":[[-2.97437,43.30338],[-2.98681,43.31463]]}},{"type":"Feature","properties":{"shape_id":"{}","direction_id":"{\"1\": 154}","headsign":"{\"Basauri\": 4, \"Etxebarri\": 150}","duration_avg":115.0,"n_vehicles":154,"d":1426,"route_I_counts":"{\"1\": 154}","source":13,"target":12,"layer":"L","from":"Erandio","to":"Lutxana"},"geometry":{"type":"LineString","coordinates":[[-2.97437,43.30338],[-2.96992,43.29098]]}},{"type":"Feature","properties":{"shape_id":"{}","direction_id":"{\"0\": 153}","headsign":"{\"Ibarbengoa\": 49, \"Larrabasterra\": 38, \"Plentzia\": 53, \"Sopela\": 9, \"Urduliz\": 4}","duration_avg":60.0,"n_vehicles":153,"d":535,"route_I_counts":"{\"1\": 153}","source":14,"target":15,"layer":"L","from":"Astrabudua","to":"Leioa"},"geometry":{"type":"LineString","coordinates":[[-2.98681,43.31463],[-2.99168,43.31788]]}},{"type":"Feature","properties":{"shape_id":"{}","direction_id":"{\"1\": 154}","headsign":"{\"Basauri\": 4, \"Etxebarri\": 150}","duration_avg":124.0,"n_vehicles":154,"d":1607,"route_I_counts":"{\"1\": 154}","source":14,"target":13,"layer":"L","from":"Astrabudua","to":"Erandio"},"geometry":{"type":"LineString","coordinates":[[-2.98681,43.31463],[-2.97437,43.30338]]}},{"type":"Feature","properties":{"shape_id":"{}","direction_id":"{\"0\": 153}","headsign":"{\"Ibarbengoa\": 49, \"Larrabasterra\": 38, \"Plentzia\": 53, \"Sopela\": 9, \"Urduliz\": 4}","duration_avg":70.0,"n_vehicles":153,"d":848,"route_I_counts":"{\"1\": 153}","source":15,"target":16,"layer":"L","from":"Leioa","to":"Lamiako"},"geometry":{"type":"LineString","coordinates":[[-2.99168,43.31788],[-3.00102,43.32133]]}},{"type":"Feature","properties":{"shape_id":"{}","direction_id":"{\"1\": 154}","headsign":"{\"Basauri\": 4, \"Etxebarri\": 150}","duration_avg":53.0,"n_vehicles":154,"d":535,"route_I_counts":"{\"1\": 154}","source":15,"target":14,"layer":"L","from":"Leioa","to":"Astrabudua"},"geometry":{"type":"LineString","coordinates":[[-2.99168,43.31788],[-2.98681,43.31463]]}},{"type":"Feature","properties":{"shape_id":"{}","direction_id":"{\"0\": 153}","headsign":"{\"Ibarbengoa\": 49, \"Larrabasterra\": 38, \"Plentzia\": 53, \"Sopela\": 9, \"Urduliz\": 4}","duration_avg":71.0,"n_vehicles":153,"d":865,"route_I_counts":"{\"1\": 153}","source":16,"target":17,"layer":"L","from":"Lamiako","to":"Areeta"},"geometry":{"type":"LineString","coordinates":[[-3.00102,43.32133],[-3.00961,43.32595]]}},{"type":"Feature","properties":{"shape_id":"{}","direction_id":"{\"1\": 154}","headsign":"{\"Basauri\": 4, \"Etxebarri\": 150}","duration_avg":70.0,"n_vehicles":154,"d":848,"route_I_counts":"{\"1\": 154}","source":16,"target":15,"layer":"L","from":"Lamiako","to":"Leioa"},"geometry":{"type":"LineString","coordinates":[[-3.00102,43.32133],[-2.99168,43.31788]]}},{"type":"Feature","properties":{"shape_id":"{}","direction_id":"{\"0\": 153}","headsign":"{\"Ibarbengoa\": 49, \"Larrabasterra\": 38, \"Plentzia\": 53, \"Sopela\": 9, \"Urduliz\": 4}","duration_avg":79.0,"n_vehicles":153,"d":814,"route_I_counts":"{\"1\": 153}","source":17,"target":18,"layer":"L","from":"Areeta","to":"Gobela"},"geometry":{"type":"LineString","coordinates":[[-3.00961,43.32595],[-3.00735,43.33308]]}},{"type":"Feature","properties":{"shape_id":"{}","direction_id":"{\"1\": 154}","headsign":"{\"Basauri\": 4, \"Etxebarri\": 150}","duration_avg":72.0,"n_vehicles":154,"d":865,"route_I_counts":"{\"1\": 154}","source":17,"target":16,"layer":"L","from":"Areeta","to":"Lamiako"},"geometry":{"type":"LineString","coordinates":[[-3.00961,43.32595],[-3.00102,43.32133]]}},{"type":"Feature","properties":{"shape_id":"{}","direction_id":"{\"0\": 153}","headsign":"{\"Ibarbengoa\": 49, \"Larrabasterra\": 38, \"Plentzia\": 53, \"Sopela\": 9, \"Urduliz\": 4}","duration_avg":84.0,"n_vehicles":153,"d":809,"route_I_counts":"{\"1\": 153}","source":18,"target":19,"layer":"L","from":"Gobela","to":"Neguri"},"geometry":{"type":"LineString","coordinates":[[-3.00735,43.33308],[-3.00562,43.34024]]}},{"type":"Feature","properties":{"shape_id":"{}","direction_id":"{\"1\": 154}","headsign":"{\"Basauri\": 4, \"Etxebarri\": 150}","duration_avg":77.0,"n_vehicles":154,"d":814,"route_I_counts":"{\"1\": 154}","source":18,"target":17,"layer":"L","from":"Gobela","to":"Areeta"},"geometry":{"type":"LineString","coordinates":[[-3.00735,43.33308],[-3.00961,43.32595]]}},{"type":"Feature","properties":{"shape_id":"{}","direction_id":"{\"0\": 153}","headsign":"{\"Ibarbengoa\": 49, \"Larrabasterra\": 38, \"Plentzia\": 53, \"Sopela\": 9, \"Urduliz\": 4}","duration_avg":59.0,"n_vehicles":153,"d":495,"route_I_counts":"{\"1\": 153}","source":19,"target":20,"layer":"L","from":"Neguri","to":"Aiboa"},"geometry":{"type":"LineString","coordinates":[[-3.00562,43.34024],[-3.00267,43.34414]]}},{"type":"Feature","properties":{"shape_id":"{}","direction_id":"{\"1\": 154}","headsign":"{\"Basauri\": 4, \"Etxebarri\": 150}","duration_avg":83.0,"n_vehicles":154,"d":809,"route_I_counts":"{\"1\": 154}","source":19,"target":18,"layer":"L","from":"Neguri","to":"Gobela"},"geometry":{"type":"LineString","coordinates":[[-3.00562,43.34024],[-3.00735,43.33308]]}},{"type":"Feature","properties":{"shape_id":"{}","direction_id":"{\"0\": 152}","headsign":"{\"Ibarbengoa\": 49, \"Larrabasterra\": 38, \"Plentzia\": 52, \"Sopela\": 9, \"Urduliz\": 4}","duration_avg":79.0,"n_vehicles":152,"d":886,"route_I_counts":"{\"1\": 152}","source":20,"target":21,"layer":"L","from":"Aiboa","to":"Algorta"},"geometry":{"type":"LineString","coordinates":[[-3.00267,43.34414],[-3.00935,43.35045]]}},{"type":"Feature","properties":{"shape_id":"{}","direction_id":"{\"1\": 154}","headsign":"{\"Basauri\": 4, \"Etxebarri\": 150}","duration_avg":60.0,"n_vehicles":154,"d":495,"route_I_counts":"{\"1\": 154}","source":20,"target":19,"layer":"L","from":"Aiboa","to":"Neguri"},"geometry":{"type":"LineString","coordinates":[[-3.00267,43.34414],[-3.00562,43.34024]]}},{"type":"Feature","properties":{"shape_id":"{}","direction_id":"{\"0\": 152}","headsign":"{\"Ibarbengoa\": 49, \"Larrabasterra\": 38, \"Plentzia\": 52, \"Sopela\": 9, \"Urduliz\": 4}","duration_avg":67.0,"n_vehicles":152,"d":684,"route_I_counts":"{\"1\": 152}","source":21,"target":22,"layer":"L","from":"Algorta","to":"Bidezabal"},"geometry":{"type":"LineString","coordinates":[[-3.00935,43.35045],[-3.01127,43.35644]]}},{"type":"Feature","properties":{"shape_id":"{}","direction_id":"{\"1\": 154}","headsign":"{\"Basauri\": 4, \"Etxebarri\": 150}","duration_avg":77.0,"n_vehicles":154,"d":886,"route_I_counts":"{\"1\": 154}","source":21,"target":20,"layer":"L","from":"Algorta","to":"Aiboa"},"geometry":{"type":"LineString","coordinates":[[-3.00935,43.35045],[-3.00267,43.34414]]}},{"type":"Feature","properties":{"shape_id":"{}","direction_id":"{\"0\": 152}","headsign":"{\"Ibarbengoa\": 49, \"Larrabasterra\": 38, \"Plentzia\": 52, \"Sopela\": 9, \"Urduliz\": 4}","duration_avg":108.0,"n_vehicles":152,"d":828,"route_I_counts":"{\"1\": 152}","source":22,"target":23,"layer":"L","from":"Bidezabal","to":"Ibarbengoa"},"geometry":{"type":"LineString","coordinates":[[-3.01127,43.35644],[-3.00699,43.3632]]}},{"type":"Feature","properties":{"shape_id":"{}","direction_id":"{\"1\": 154}","headsign":"{\"Basauri\": 4, \"Etxebarri\": 150}","duration_avg":64.0,"n_vehicles":154,"d":684,"route_I_counts":"{\"1\": 154}","source":22,"target":21,"layer":"L","from":"Bidezabal","to":"Algorta"},"geometry":{"type":"LineString","coordinates":[[-3.01127,43.35644],[-3.00935,43.35045]]}},{"type":"Feature","properties":{"shape_id":"{}","direction_id":"{\"0\": 103}","headsign":"{\"Larrabasterra\": 38, \"Plentzia\": 52, \"Sopela\": 9, \"Urduliz\": 4}","duration_avg":71.0,"n_vehicles":103,"d":742,"route_I_counts":"{\"1\": 103}","source":23,"target":24,"layer":"L","from":"Ibarbengoa","to":"Berango"},"geometry":{"type":"LineString","coordinates":[[-3.00699,43.3632],[-2.99949,43.36704]]}},{"type":"Feature","properties":{"shape_id":"{}","direction_id":"{\"1\": 154}","headsign":"{\"Basauri\": 4, \"Etxebarri\": 150}","duration_avg":117.0,"n_vehicles":154,"d":828,"route_I_counts":"{\"1\": 154}","source":23,"target":22,"layer":"L","from":"Ibarbengoa","to":"Bidezabal"},"geometry":{"type":"LineString","coordinates":[[-3.00699,43.3632],[-3.01127,43.35644]]}},{"type":"Feature","properties":{"shape_id":"{}","direction_id":"{\"0\": 103}","headsign":"{\"Larrabasterra\": 38, \"Plentzia\": 52, \"Sopela\": 9, \"Urduliz\": 4}","duration_avg":108.0,"n_vehicles":103,"d":1164,"route_I_counts":"{\"1\": 103}","source":24,"target":25,"layer":"L","from":"Berango","to":"Larrabasterra"},"geometry":{"type":"LineString","coordinates":[[-2.99949,43.36704],[-2.99147,43.37573]]}},{"type":"Feature","properties":{"shape_id":"{}","direction_id":"{\"1\": 105}","headsign":"{\"Basauri\": 4, \"Etxebarri\": 101}","duration_avg":71.0,"n_vehicles":105,"d":742,"route_I_counts":"{\"1\": 105}","source":24,"target":23,"layer":"L","from":"Berango","to":"Ibarbengoa"},"geometry":{"type":"LineString","coordinates":[[-2.99949,43.36704],[-3.00699,43.3632]]}},{"type":"Feature","properties":{"shape_id":"{}","direction_id":"{\"1\": 105}","headsign":"{\"Basauri\": 4, \"Etxebarri\": 101}","duration_avg":112.0,"n_vehicles":105,"d":1164,"route_I_counts":"{\"1\": 105}","source":25,"target":24,"layer":"L","from":"Larrabasterra","to":"Berango"},"geometry":{"type":"LineString","coordinates":[[-2.99147,43.37573],[-2.99949,43.36704]]}},{"type":"Feature","properties":{"shape_id":"{}","direction_id":"{\"0\": 65}","headsign":"{\"Plentzia\": 52, \"Sopela\": 9, \"Urduliz\": 4}","duration_avg":99.0,"n_vehicles":65,"d":1126,"route_I_counts":"{\"1\": 65}","source":25,"target":26,"layer":"L","from":"Larrabasterra","to":"Sopela"},"geometry":{"type":"LineString","coordinates":[[-2.99147,43.37573],[-2.97899,43.38021]]}},{"type":"Feature","properties":{"shape_id":"{}","direction_id":"{\"0\": 56}","headsign":"{\"Plentzia\": 52, \"Urduliz\": 4}","duration_avg":121.0,"n_vehicles":56,"d":1694,"route_I_counts":"{\"1\": 56}","source":26,"target":27,"layer":"L","from":"Sopela","to":"Urduliz"},"geometry":{"type":"LineString","coordinates":[[-2.97899,43.38021],[-2.95811,43.379]]}},{"type":"Feature","properties":{"shape_id":"{}","direction_id":"{\"1\": 67}","headsign":"{\"Basauri\": 4, \"Etxebarri\": 63}","duration_avg":103.0,"n_vehicles":67,"d":1126,"route_I_counts":"{\"1\": 67}","source":26,"target":25,"layer":"L","from":"Sopela","to":"Larrabasterra"},"geometry":{"type":"LineString","coordinates":[[-2.97899,43.38021],[-2.99147,43.37573]]}},{"type":"Feature","properties":{"shape_id":"{}","direction_id":"{\"0\": 52}","headsign":"{\"Plentzia\": 52}","duration_avg":269.0,"n_vehicles":52,"d":2662,"route_I_counts":"{\"1\": 52}","source":27,"target":28,"layer":"L","from":"Urduliz","to":"Plentzia"},"geometry":{"type":"LineString","coordinates":[[-2.95811,43.379],[-2.94636,43.40134]]}},{"type":"Feature","properties":{"shape_id":"{}","direction_id":"{\"1\": 56}","headsign":"{\"Basauri\": 2, \"Etxebarri\": 54}","duration_avg":118.0,"n_vehicles":56,"d":1694,"route_I_counts":"{\"1\": 56}","source":27,"target":26,"layer":"L","from":"Urduliz","to":"Sopela"},"geometry":{"type":"LineString","coordinates":[[-2.95811,43.379],[-2.97899,43.38021]]}},{"type":"Feature","properties":{"shape_id":"{}","direction_id":"{\"1\": 52}","headsign":"{\"Basauri\": 2, \"Etxebarri\": 50}","duration_avg":269.0,"n_vehicles":52,"d":2662,"route_I_counts":"{\"1\": 52}","source":28,"target":27,"layer":"L","from":"Plentzia","to":"Urduliz"},"geometry":{"type":"LineString","coordinates":[[-2.94636,43.40134],[-2.95811,43.379]]}},{"type":"Feature","properties":{"shape_id":"{}","direction_id":"{\"1\": 157}","headsign":"{\"Basauri\": 155, \"Etxebarri\": 2}","duration_avg":124.0,"n_vehicles":157,"d":786,"route_I_counts":"{\"1\": 157}","source":29,"target":30,"layer":"L","from":"Kabiezes","to":"Santurtzi"},"geometry":{"type":"LineString","coordinates":[[-3.03777,43.32238],[-3.03421,43.32895]]}},{"type":"Feature","properties":{"shape_id":"{}","direction_id":"{\"1\": 157}","headsign":"{\"Basauri\": 155, \"Etxebarri\": 2}","duration_avg":82.0,"n_vehicles":157,"d":1054,"route_I_counts":"{\"1\": 157}","source":30,"target":31,"layer":"L","from":"Santurtzi","to":"Peñota"},"geometry":{"type":"LineString","coordinates":[[-3.03421,43.32895],[-3.0254,43.32198]]}},{"type":"Feature","properties":{"shape_id":"{}","direction_id":"{\"0\": 157}","headsign":"{\"Kabiezes\": 157}","duration_avg":116.0,"n_vehicles":157,"d":786,"route_I_counts":"{\"1\": 157}","source":30,"target":29,"layer":"L","from":"Santurtzi","to":"Kabiezes"},"geometry":{"type":"LineString","coordinates":[[-3.03421,43.32895],[-3.03777,43.32238]]}},{"type":"Feature","properties":{"shape_id":"{}","direction_id":"{\"1\": 157}","headsign":"{\"Basauri\": 155, \"Etxebarri\": 2}","duration_avg":62.0,"n_vehicles":157,"d":600,"route_I_counts":"{\"1\": 157}","source":31,"target":32,"layer":"L","from":"Peñota","to":"Portugalete"},"geometry":{"type":"LineString","coordinates":[[-3.0254,43.32198],[-3.02076,43.31777]]}},{"type":"Feature","properties":{"shape_id":"{}","direction_id":"{\"0\": 157}","headsign":"{\"Kabiezes\": 157}","duration_avg":87.0,"n_vehicles":157,"d":1054,"route_I_counts":"{\"1\": 157}","source":31,"target":30,"layer":"L","from":"Peñota","to":"Santurtzi"},"geometry":{"type":"LineString","coordinates":[[-3.0254,43.32198],[-3.03421,43.32895]]}},{"type":"Feature","properties":{"shape_id":"{}","direction_id":"{\"1\": 157}","headsign":"{\"Basauri\": 155, \"Etxebarri\": 2}","duration_avg":65.0,"n_vehicles":157,"d":695,"route_I_counts":"{\"1\": 157}","source":32,"target":33,"layer":"L","from":"Portugalete","to":"Abatxolo"},"geometry":{"type":"LineString","coordinates":[[-3.02076,43.31777],[-3.01357,43.31436]]}},{"type":"Feature","properties":{"shape_id":"{}","direction_id":"{\"0\": 157}","headsign":"{\"Kabiezes\": 157}","duration_avg":62.0,"n_vehicles":157,"d":600,"route_I_counts":"{\"1\": 157}","source":32,"target":31,"layer":"L","from":"Portugalete","to":"Peñota"},"geometry":{"type":"LineString","coordinates":[[-3.02076,43.31777],[-3.0254,43.32198]]}},{"type":"Feature","properties":{"shape_id":"{}","direction_id":"{\"1\": 157}","headsign":"{\"Basauri\": 155, \"Etxebarri\": 2}","duration_avg":75.0,"n_vehicles":157,"d":865,"route_I_counts":"{\"1\": 157}","source":33,"target":34,"layer":"L","from":"Abatxolo","to":"Sestao"},"geometry":{"type":"LineString","coordinates":[[-3.01357,43.31436],[-3.00567,43.30912]]}},{"type":"Feature","properties":{"shape_id":"{}","direction_id":"{\"0\": 157}","headsign":"{\"Kabiezes\": 157}","duration_avg":64.0,"n_vehicles":157,"d":695,"route_I_counts":"{\"1\": 157}","source":33,"target":32,"layer":"L","from":"Abatxolo","to":"Portugalete"},"geometry":{"type":"LineString","coordinates":[[-3.01357,43.31436],[-3.02076,43.31777]]}},{"type":"Feature","properties":{"shape_id":"{}","direction_id":"{\"1\": 157}","headsign":"{\"Basauri\": 155, \"Etxebarri\": 2}","duration_avg":86.0,"n_vehicles":157,"d":1125,"route_I_counts":"{\"1\": 157}","source":34,"target":35,"layer":"L","from":"Sestao","to":"Urbinaga"},"geometry":{"type":"LineString","coordinates":[[-3.00567,43.30912],[-2.9926,43.3057]]}},{"type":"Feature","properties":{"shape_id":"{}","direction_id":"{\"0\": 157}","headsign":"{\"Kabiezes\": 157}","duration_avg":75.0,"n_vehicles":157,"d":865,"route_I_counts":"{\"1\": 157}","source":34,"target":33,"layer":"L","from":"Sestao","to":"Abatxolo"},"geometry":{"type":"LineString","coordinates":[[-3.00567,43.30912],[-3.01357,43.31436]]}},{"type":"Feature","properties":{"shape_id":"{}","direction_id":"{\"1\": 157}","headsign":"{\"Basauri\": 155, \"Etxebarri\": 2}","duration_avg":72.0,"n_vehicles":157,"d":762,"route_I_counts":"{\"1\": 157}","source":35,"target":36,"layer":"L","from":"Urbinaga","to":"Bagatza"},"geometry":{"type":"LineString","coordinates":[[-2.9926,43.3057],[-2.99268,43.29885]]}},{"type":"Feature","properties":{"shape_id":"{}","direction_id":"{\"0\": 157}","headsign":"{\"Kabiezes\": 157}","duration_avg":87.0,"n_vehicles":157,"d":1125,"route_I_counts":"{\"1\": 157}","source":35,"target":34,"layer":"L","from":"Urbinaga","to":"Sestao"},"geometry":{"type":"LineString","coordinates":[[-2.9926,43.3057],[-3.00567,43.30912]]}},{"type":"Feature","properties":{"shape_id":"{}","direction_id":"{\"1\": 157}","headsign":"{\"Basauri\": 155, \"Etxebarri\": 2}","duration_avg":51.0,"n_vehicles":157,"d":448,"route_I_counts":"{\"1\": 157}","source":36,"target":37,"layer":"L","from":"Bagatza","to":"Barakaldo"},"geometry":{"type":"LineString","coordinates":[[-2.99268,43.29885],[-2.98936,43.29563]]}},{"type":"Feature","properties":{"shape_id":"{}","direction_id":"{\"0\": 157}","headsign":"{\"Kabiezes\": 157}","duration_avg":83.0,"n_vehicles":157,"d":762,"route_I_counts":"{\"1\": 157}","source":36,"target":35,"layer":"L","from":"Bagatza","to":"Urbinaga"},"geometry":{"type":"LineString","coordinates":[[-2.99268,43.29885],[-2.9926,43.3057]]}},{"type":"Feature","properties":{"shape_id":"{}","direction_id":"{\"1\": 157}","headsign":"{\"Basauri\": 155, \"Etxebarri\": 2}","duration_avg":72.0,"n_vehicles":157,"d":738,"route_I_counts":"{\"1\": 157}","source":37,"target":38,"layer":"L","from":"Barakaldo","to":"Ansio"},"geometry":{"type":"LineString","coordinates":[[-2.98936,43.29563],[-2.98716,43.28919]]}},{"type":"Feature","properties":{"shape_id":"{}","direction_id":"{\"0\": 157}","headsign":"{\"Kabiezes\": 157}","duration_avg":52.0,"n_vehicles":157,"d":448,"route_I_counts":"{\"1\": 157}","source":37,"target":36,"layer":"L","from":"Barakaldo","to":"Bagatza"},"geometry":{"type":"LineString","coordinates":[[-2.98936,43.29563],[-2.99268,43.29885]]}},{"type":"Feature","properties":{"shape_id":"{}","direction_id":"{\"1\": 157}","headsign":"{\"Basauri\": 155, \"Etxebarri\": 2}","duration_avg":81.0,"n_vehicles":157,"d":786,"route_I_counts":"{\"1\": 157}","source":38,"target":39,"layer":"L","from":"Ansio","to":"Gurutzeta/Cruces"},"geometry":{"type":"LineString","coordinates":[[-2.98716,43.28919],[-2.98245,43.28301]]}},{"type":"Feature","properties":{"shape_id":"{}","direction_id":"{\"0\": 157}","headsign":"{\"Kabiezes\": 157}","duration_avg":72.0,"n_vehicles":157,"d":738,"route_I_counts":"{\"1\": 157}","source":38,"target":37,"layer":"L","from":"Ansio","to":"Barakaldo"},"geometry":{"type":"LineString","coordinates":[[-2.98716,43.28919],[-2.98936,43.29563]]}},{"type":"Feature","properties":{"shape_id":"{}","direction_id":"{\"1\": 157}","headsign":"{\"Basauri\": 155, \"Etxebarri\": 2}","duration_avg":184.0,"n_vehicles":157,"d":1646,"route_I_counts":"{\"1\": 157}","source":39,"target":11,"layer":"L","from":"Gurutzeta/Cruces","to":"San Ignazio"},"geometry":{"type":"LineString","coordinates":[[-2.98245,43.28301],[-2.96239,43.28068]]}},{"type":"Feature","properties":{"shape_id":"{}","direction_id":"{\"0\": 157}","headsign":"{\"Kabiezes\": 157}","duration_avg":83.0,"n_vehicles":157,"d":786,"route_I_counts":"{\"1\": 157}","source":39,"target":38,"layer":"L","from":"Gurutzeta/Cruces","to":"Ansio"},"geometry":{"type":"LineString","coordinates":[[-2.98245,43.28301],[-2.98716,43.28919]]}},{"type":"Feature","properties":{"shape_id":"{}","direction_id":"{\"1\": 159}","headsign":"{\"Basauri\": 159}","duration_avg":83.0,"n_vehicles":159,"d":942,"route_I_counts":"{\"1\": 159}","source":40,"target":41,"layer":"L","from":"Ariz","to":"Basauri"},"geometry":{"type":"LineString","coordinates":[[-2.88203,43.23801],[-2.8934,43.23624]]}},{"type":"Feature","properties":{"shape_id":"{}","direction_id":"{\"0\": 155}","headsign":"{\"Kabiezes\": 152, \"Plentzia\": 2, \"Sopela\": 1}","duration_avg":130.0,"n_vehicles":155,"d":1428,"route_I_counts":"{\"1\": 155}","source":40,"target":0,"layer":"L","from":"Ariz","to":"Etxebarri"},"geometry":{"type":"LineString","coordinates":[[-2.88203,43.23801],[-2.89771,43.24386]]}},{"type":"Feature","properties":{"shape_id":"{}","direction_id":"{\"0\": 156}","headsign":"{\"Kabiezes\": 153, \"Plentzia\": 2, \"Sopela\": 1}","duration_avg":86.0,"n_vehicles":156,"d":942,"route_I_counts":"{\"1\": 156}","source":41,"target":40,"layer":"L","from":"Basauri","to":"Ariz"},"geometry":{"type":"LineString","coordinates":[[-2.8934,43.23624],[-2.88203,43.23801]]}}]}