{"type":"FeatureCollection","features":[{"type":"Feature","geometry":{"type":"Point","coordinates":[-71.142483,42.395428]},"properties":{"name":"Alewife","original_ids":"[7418]","id":0,"layer":"stop"}},{"type":"Feature","geometry":{"type":"Point","coordinates":[-71.121815,42.39674]},"properties":{"name":"Davis","original_ids":"[7837, 7838]","id":1,"layer":"stop"}},{"type":"Feature","geometry":{"type":"Point","coordinates":[-71.119149,42.3884]},"properties":{"name":"Porter","original_ids":"[8440, 8441]","id":2,"layer":"stop"}},{"type":"Feature","geometry":{"type":"Point","coordinates":[-71.118956,42.373362]},"properties":{"name":"Harvard","original_ids":"[7998, 7999]","id":3,"layer":"stop"}},{"type":"Feature","geometry":{"type":"Point","coordinates":[-71.103621,42.365304]},"properties":{"name":"Central","original_ids":"[7798, 7799]","id":4,"layer":"stop"}},{"type":"Feature","geometry":{"type":"Point","coordinates":[-71.085605,42.362355]},"properties":{"name":"Kendall/MIT","original_ids":"[8095, 8096]","id":5,"layer":"stop"}},{"type":"Feature","geometry":{"type":"Point","coordinates":[-71.071505,42.361187]},"properties":{"name":"Charles/MGH","original_ids":"[7765, 7766]","id":6,"layer":"stop"}},{"type":"Feature","geometry":{"type":"Point","coordinates":[-71.062424,42.356395]},"properties":{"name":"Park Street","original_ids":"[8419, 8420]","id":7,"layer":"stop"}},{"type":"Feature","geometry":{"type":"Point","coordinates":[-71.060225,42.355518]},"properties":{"name":"Downtown Crossing","original_ids":"[7855, 7856, 7853, 7854]","id":8,"layer":"stop"}},{"type":"Feature","geometry":{"type":"Point","coordinates":[-71.055242,42.352271]},"properties":{"name":"South Station","original_ids":"[8722, 8723]","id":9,"layer":"stop"}},{"type":"Feature","geometry":{"type":"Point","coordinates":[-71.056967,42.342622]},"properties":{"name":"Broadway","original_ids":"[7647, 7648]","id":10,"layer":"stop"}},{"type":"Feature","geometry":{"type":"Point","coordinates":[-71.057655,42.330154]},"properties":{"name":"Andrew","original_ids":"[7439, 7440]","id":11,"layer":"stop"}},{"type":"Feature","geometry":{"type":"Point","coordinates":[-71.052514,42.320632]},"properties":{"name":"JFK/UMass","original_ids":"[8030, 8032, 8031, 8033]","id":12,"layer":"stop"}},{"type":"Feature","geometry":{"type":"Point","coordinates":[-71.053678,42.310603]},"properties":{"name":"Savin Hill","original_ids":"[8656, 8657]","id":13,"layer":"stop"}},{"type":"Feature","geometry":{"type":"Point","coordinates":[-71.062021,42.299993]},"properties":{"name":"Fields Corner","original_ids":"[7898, 7899]","id":14,"layer":"stop"}},{"type":"Feature","geometry":{"type":"Point","coordinates":[-71.065738,42.293126]},"properties":{"name":"Shawmut","original_ids":"[8678, 8679]","id":15,"layer":"stop"}},{"type":"Feature","geometry":{"type":"Point","coordinates":[-71.063833,42.284508]},"properties":{"name":"Ashmont","original_ids":"[7497, 7498]","id":16,"layer":"stop"}},{"type":"Feature","geometry":{"type":"Point","coordinates":[-71.030194,42.27577]},"properties":{"name":"North Quincy","original_ids":"[8310, 8311]","id":17,"layer":"stop"}},{"type":"Feature","geometry":{"type":"Point","coordinates":[-71.020542,42.266762]},"properties":{"name":"Wollaston","original_ids":"[8892, 8893]","id":18,"layer":"stop"}},{"type":"Feature","geometry":{"type":"Point","coordinates":[-71.005409,42.251809]},"properties":{"name":"Quincy Center","original_ids":"[8510, 8511]","id":19,"layer":"stop"}},{"type":"Feature","geometry":{"type":"Point","coordinates":[-71.007153,42.233391]},"properties":{"name":"Quincy Adams","original_ids":"[8499, 8500]","id":20,"layer":"stop"}},{"type":"Feature","geometry":{"type":"Point","coordinates":[-71.001645,42.207424]},"properties":{"name":"Braintree","original_ids":"[7666]","id":21,"layer":"stop"}},{"type":"Feature","geometry":{"type":"Point","coordinates":[-71.070875,42.437735]},"properties":{"name":"Oak Grove","original_ids":"[8352]","id":22,"layer":"stop"}},{"type":"Feature","geometry":{"type":"Point","coordinates":[-71.074381,42.426677]},"properties":{"name":"Malden Center","original_ids":"[8207, 8208]","id":23,"layer":"stop"}},{"type":"Feature","geometry":{"type":"Point","coordinates":[-71.077252,42.401505]},"properties":{"name":"Wellington","original_ids":"[8839, 8840]","id":24,"layer":"stop"}},{"type":"Feature","geometry":{"type":"Point","coordinates":[-71.077262,42.392331]},"properties":{"name":"Assembly","original_ids":"[7532, 7533]","id":25,"layer":"stop"}},{"type":"Feature","geometry":{"type":"Point","coordinates":[-71.076994,42.383975]},"properties":{"name":"Sullivan Square","original_ids":"[8783, 8784]","id":26,"layer":"stop"}},{"type":"Feature","geometry":{"type":"Point","coordinates":[-71.069533,42.373622]},"properties":{"name":"Community College","original_ids":"[7719, 7720]","id":27,"layer":"stop"}},{"type":"Feature","geometry":{"type":"Point","coordinates":[-71.06129,42.365577]},"properties":{"name":"North Station","original_ids":"[8285, 8286]","id":28,"layer":"stop"}},{"type":"Feature","geometry":{"type":"Point","coordinates":[-71.05829,42.363021]},"properties":{"name":"Haymarket","original_ids":"[7989, 7990]","id":29,"layer":"stop"}},{"type":"Feature","geometry":{"type":"Point","coordinates":[-71.057598,42.358978]},"properties":{"name":"State","original_ids":"[8752, 8753, 8754, 8755]","id":30,"layer":"stop"}},{"type":"Feature","geometry":{"type":"Point","coordinates":[-71.062752,42.352547]},"properties":{"name":"Chinatown","original_ids":"[7783, 7784]","id":31,"layer":"stop"}},{"type":"Feature","geometry":{"type":"Point","coordinates":[-71.063917,42.349662]},"properties":{"name":"Tufts Medical Center","original_ids":"[8802, 8803]","id":32,"layer":"stop"}},{"type":"Feature","geometry":{"type":"Point","coordinates":[-71.075727,42.34735]},"properties":{"name":"Back Bay","original_ids":"[7569, 7570]","id":33,"layer":"stop"}},{"type":"Feature","geometry":{"type":"Point","coordinates":[-71.084188,42.340927]},"properties":{"name":"Massachusetts Avenue","original_ids":"[8155, 8156]","id":34,"layer":"stop"}},{"type":"Feature","geometry":{"type":"Point","coordinates":[-71.089684,42.33649]},"properties":{"name":"Ruggles","original_ids":"[8597, 8598]","id":35,"layer":"stop"}},{"type":"Feature","geometry":{"type":"Point","coordinates":[-71.096121,42.330671]},"properties":{"name":"Roxbury Crossing","original_ids":"[8558, 8559]","id":36,"layer":"stop"}},{"type":"Feature","geometry":{"type":"Point","coordinates":[-71.099592,42.323132]},"properties":{"name":"Jackson Square","original_ids":"[8025, 8026]","id":37,"layer":"stop"}},{"type":"Feature","geometry":{"type":"Point","coordinates":[-71.104248,42.317062]},"properties":{"name":"Stony Brook","original_ids":"[8627, 8628]","id":38,"layer":"stop"}},{"type":"Feature","geometry":{"type":"Point","coordinates":[-71.108059,42.309832]},"properties":{"name":"Green Street","original_ids":"[7977, 7978]","id":39,"layer":"stop"}},{"type":"Feature","geometry":{"type":"Point","coordinates":[-71.113686,42.300523]},"properties":{"name":"Forest Hills","original_ids":"[7918]","id":40,"layer":"stop"}},{"type":"Feature","geometry":{"type":"Point","coordinates":[-70.991714,42.413514]},"properties":{"name":"Wonderland","original_ids":"[8900, 8901]","id":41,"layer":"stop"}},{"type":"Feature","geometry":{"type":"Point","coordinates":[-70.992586,42.40776]},"properties":{"name":"Revere Beach","original_ids":"[8534, 8535]","id":42,"layer":"stop"}},{"type":"Feature","geometry":{"type":"Point","coordinates":[-70.992647,42.397219]},"properties":{"name":"Beachmont","original_ids":"[7614, 7615]","id":43,"layer":"stop"}},{"type":"Feature","geometry":{"type":"Point","coordinates":[-70.997323,42.390422]},"properties":{"name":"Suffolk Downs","original_ids":"[8639, 8640]","id":44,"layer":"stop"}},{"type":"Feature","geometry":{"type":"Point","coordinates":[-71.004809,42.386909]},"properties":{"name":"Orient Heights","original_ids":"[8390, 8391]","id":45,"layer":"stop"}},{"type":"Feature","geometry":{"type":"Point","coordinates":[-71.022818,42.37974]},"properties":{"name":"Wood Island","original_ids":"[8864, 8865]","id":46,"layer":"stop"}},{"type":"Feature","geometry":{"type":"Point","coordinates":[-71.030395,42.374262]},"properties":{"name":"Airport","original_ids":"[7446, 7447]","id":47,"layer":"stop"}},{"type":"Feature","geometry":{"type":"Point","coordinates":[-71.03953,42.369119]},"properties":{"name":"Maverick","original_ids":"[8237, 8238]","id":48,"layer":"stop"}},{"type":"Feature","geometry":{"type":"Point","coordinates":[-71.051652,42.359784]},"properties":{"name":"Aquarium","original_ids":"[7482, 7483]","id":49,"layer":"stop"}},{"type":"Feature","geometry":{"type":"Point","coordinates":[-71.059215,42.359705]},"properties":{"name":"Government Center","original_ids":"[7957, 7958]","id":50,"layer":"stop"}},{"type":"Feature","geometry":{"type":"Point","coordinates":[-71.062037,42.361365]},"properties":{"name":"Bowdoin","original_ids":"[7636, 7635]","id":51,"layer":"stop"}},{"type":"Feature","properties":{"shape_id":"{\"931_0009\": 80, \"933_0009\": 79}","direction_id":"{\"0\": 159}","headsign":"{\"Ashmont\": 80, \"Braintree\": 79}","duration_avg":120.0,"n_vehicles":159,"d":1705,"route_I_counts":"{\"1\": 159}","source":0,"target":1,"layer":"L","from":"Alewife","to":"Davis"},"geometry":{"type":"LineString","coordinates":[[-71.142483,42.395428],[-71.121815,42.39674]]}},{"type":"Feature","properties":{"shape_id":"{\"931_0009\": 80, \"933_0009\": 79}","direction_id":"{\"0\": 159}","headsign":"{\"Ashmont\": 80, \"Braintree\": 79}","duration_avg":120.0,"n_vehicles":159,"d":953,"route_I_counts":"{\"1\": 159}","source":1,"target":2,"layer":"L","from":"Davis","to":"Porter"},"geometry":{"type":"LineString","coordinates":[[-71.121815,42.39674],[-71.119149,42.3884]]}},{"type":"Feature","properties":{"duration_avg":186.62576687116564,"n_vehicles":163,"d":1705,"route_I_counts":"{\"1\": 163}","shape_id":"{\"931_0010\": 82, \"933_0010\": 81}","direction_id":"{\"1\": 163}","headsign":"{\"Alewife\": 163}","source":1,"target":0,"layer":"L","from":"Davis","to":"Alewife"},"geometry":{"type":"LineString","coordinates":[[-71.121815,42.39674],[-71.142483,42.395428]]}},{"type":"Feature","properties":{"shape_id":"{\"931_0009\": 80, \"933_0009\": 80}","direction_id":"{\"0\": 160}","headsign":"{\"Ashmont\": 80, \"Braintree\": 80}","duration_avg":180.0,"n_vehicles":160,"d":1674,"route_I_counts":"{\"1\": 160}","source":2,"target":3,"layer":"L","from":"Porter","to":"Harvard"},"geometry":{"type":"LineString","coordinates":[[-71.119149,42.3884],[-71.118956,42.373362]]}},{"type":"Feature","properties":{"duration_avg":120.0,"n_vehicles":163,"d":953,"route_I_counts":"{\"1\": 163}","shape_id":"{\"931_0010\": 82, \"933_0010\": 81}","direction_id":"{\"1\": 163}","headsign":"{\"Alewife\": 163}","source":2,"target":1,"layer":"L","from":"Porter","to":"Davis"},"geometry":{"type":"LineString","coordinates":[[-71.119149,42.3884],[-71.121815,42.39674]]}},{"type":"Feature","properties":{"shape_id":"{\"931_0009\": 81, \"933_0009\": 80}","direction_id":"{\"0\": 161}","headsign":"{\"Ashmont\": 81, \"Braintree\": 80}","duration_avg":240.0,"n_vehicles":161,"d":1547,"route_I_counts":"{\"1\": 161}","source":3,"target":4,"layer":"L","from":"Harvard","to":"Central"},"geometry":{"type":"LineString","coordinates":[[-71.118956,42.373362],[-71.103621,42.365304]]}},{"type":"Feature","properties":{"duration_avg":200.37037037037038,"n_vehicles":162,"d":1674,"route_I_counts":"{\"1\": 162}","shape_id":"{\"931_0010\": 81, \"933_0010\": 81}","direction_id":"{\"1\": 162}","headsign":"{\"Alewife\": 162}","source":3,"target":2,"layer":"L","from":"Harvard","to":"Porter"},"geometry":{"type":"LineString","coordinates":[[-71.118956,42.373362],[-71.119149,42.3884]]}},{"type":"Feature","properties":{"shape_id":"{\"931_0009\": 81, \"933_0009\": 81}","direction_id":"{\"0\": 162}","headsign":"{\"Ashmont\": 81, \"Braintree\": 81}","duration_avg":120.0,"n_vehicles":162,"d":1517,"route_I_counts":"{\"1\": 162}","source":4,"target":5,"layer":"L","from":"Central","to":"Kendall/MIT"},"geometry":{"type":"LineString","coordinates":[[-71.103621,42.365304],[-71.085605,42.362355]]}},{"type":"Feature","properties":{"duration_avg":240.0,"n_vehicles":161,"d":1547,"route_I_counts":"{\"1\": 161}","shape_id":"{\"931_0010\": 81, \"933_0010\": 80}","direction_id":"{\"1\": 161}","headsign":"{\"Alewife\": 161}","source":4,"target":3,"layer":"L","from":"Central","to":"Harvard"},"geometry":{"type":"LineString","coordinates":[[-71.103621,42.365304],[-71.118956,42.373362]]}},{"type":"Feature","properties":{"shape_id":"{\"931_0009\": 81, \"933_0009\": 81}","direction_id":"{\"0\": 162}","headsign":"{\"Ashmont\": 81, \"Braintree\": 81}","duration_avg":120.0,"n_vehicles":162,"d":1167,"route_I_counts":"{\"1\": 162}","source":5,"target":6,"layer":"L","from":"Kendall/MIT","to":"Charles/MGH"},"geometry":{"type":"LineString","coordinates":[[-71.085605,42.362355],[-71.071505,42.361187]]}},{"type":"Feature","properties":{"duration_avg":180.0,"n_vehicles":161,"d":1513,"route_I_counts":"{\"1\": 161}","shape_id":"{\"931_0010\": 81, \"933_0010\": 80}","direction_id":"{\"1\": 161}","headsign":"{\"Alewife\": 161}","source":5,"target":4,"layer":"L","from":"Kendall/MIT","to":"Central"},"geometry":{"type":"LineString","coordinates":[[-71.085605,42.362355],[-71.103621,42.365304]]}},{"type":"Feature","properties":{"shape_id":"{\"931_0009\": 81, \"933_0009\": 81}","direction_id":"{\"0\": 162}","headsign":"{\"Ashmont\": 81, \"Braintree\": 81}","duration_avg":120.0,"n_vehicles":162,"d":917,"route_I_counts":"{\"1\": 162}","source":6,"target":7,"layer":"L","from":"Charles/MGH","to":"Park Street"},"geometry":{"type":"LineString","coordinates":[[-71.071505,42.361187],[-71.062424,42.356395]]}},{"type":"Feature","properties":{"duration_avg":120.0,"n_vehicles":160,"d":1158,"route_I_counts":"{\"1\": 160}","shape_id":"{\"931_0010\": 80, \"933_0010\": 80}","direction_id":"{\"1\": 160}","headsign":"{\"Alewife\": 160}","source":6,"target":5,"layer":"L","from":"Charles/MGH","to":"Kendall/MIT"},"geometry":{"type":"LineString","coordinates":[[-71.071505,42.361187],[-71.085605,42.362355]]}},{"type":"Feature","properties":{"shape_id":"{\"931_0009\": 82, \"933_0009\": 81}","direction_id":"{\"0\": 163}","headsign":"{\"Ashmont\": 82, \"Braintree\": 81}","duration_avg":120.0,"n_vehicles":163,"d":205,"route_I_counts":"{\"1\": 163}","source":7,"target":8,"layer":"L","from":"Park Street","to":"Downtown Crossing"},"geometry":{"type":"LineString","coordinates":[[-71.062424,42.356395],[-71.060225,42.355518]]}},{"type":"Feature","properties":{"duration_avg":131.625,"n_vehicles":160,"d":929,"route_I_counts":"{\"1\": 160}","shape_id":"{\"931_0010\": 80, \"933_0010\": 80}","direction_id":"{\"1\": 160}","headsign":"{\"Alewife\": 160}","source":7,"target":6,"layer":"L","from":"Park Street","to":"Charles/MGH"},"geometry":{"type":"LineString","coordinates":[[-71.062424,42.356395],[-71.071505,42.361187]]}},{"type":"Feature","properties":{"shape_id":"{\"931_0009\": 82, \"933_0009\": 81}","direction_id":"{\"0\": 163}","headsign":"{\"Ashmont\": 82, \"Braintree\": 81}","duration_avg":120.0,"n_vehicles":163,"d":546,"route_I_counts":"{\"1\": 163}","source":8,"target":9,"layer":"L","from":"Downtown Crossing","to":"South Station"},"geometry":{"type":"LineString","coordinates":[[-71.060225,42.355518],[-71.055242,42.352271]]}},{"type":"Feature","properties":{"duration_avg":120.0,"n_vehicles":118,"d":390,"route_I_counts":"{\"3\": 118}","shape_id":"{\"903_0018\": 118}","direction_id":"{\"0\": 118}","headsign":"{\"Forest Hills\": 118}","source":8,"target":31,"layer":"L","from":"Downtown Crossing","to":"Chinatown"},"geometry":{"type":"LineString","coordinates":[[-71.060225,42.355518],[-71.062752,42.352547]]}},{"type":"Feature","properties":{"duration_avg":120.0,"n_vehicles":159,"d":205,"route_I_counts":"{\"1\": 159}","shape_id":"{\"931_0010\": 80, \"933_0010\": 79}","direction_id":"{\"1\": 159}","headsign":"{\"Alewife\": 159}","source":8,"target":7,"layer":"L","from":"Downtown Crossing","to":"Park Street"},"geometry":{"type":"LineString","coordinates":[[-71.060225,42.355518],[-71.062424,42.356395]]}},{"type":"Feature","properties":{"duration_avg":120.0,"n_vehicles":118,"d":441,"route_I_counts":"{\"3\": 118}","shape_id":"{\"903_0017\": 118}","direction_id":"{\"1\": 118}","headsign":"{\"Oak Grove\": 118}","source":8,"target":30,"layer":"L","from":"Downtown Crossing","to":"State"},"geometry":{"type":"LineString","coordinates":[[-71.060225,42.355518],[-71.057598,42.358978]]}},{"type":"Feature","properties":{"shape_id":"{\"931_0009\": 82, \"933_0009\": 82}","direction_id":"{\"0\": 164}","headsign":"{\"Ashmont\": 82, \"Braintree\": 82}","duration_avg":150.73170731707316,"n_vehicles":164,"d":1083,"route_I_counts":"{\"1\": 164}","source":9,"target":10,"layer":"L","from":"South Station","to":"Broadway"},"geometry":{"type":"LineString","coordinates":[[-71.055242,42.352271],[-71.056967,42.342622]]}},{"type":"Feature","properties":{"duration_avg":120.0,"n_vehicles":159,"d":546,"route_I_counts":"{\"1\": 159}","shape_id":"{\"931_0010\": 80, \"933_0010\": 79}","direction_id":"{\"1\": 159}","headsign":"{\"Alewife\": 159}","source":9,"target":8,"layer":"L","from":"South Station","to":"Downtown Crossing"},"geometry":{"type":"LineString","coordinates":[[-71.055242,42.352271],[-71.060225,42.355518]]}},{"type":"Feature","properties":{"shape_id":"{\"931_0009\": 83, \"933_0009\": 82}","direction_id":"{\"0\": 165}","headsign":"{\"Ashmont\": 83, \"Braintree\": 82}","duration_avg":120.0,"n_vehicles":165,"d":1389,"route_I_counts":"{\"1\": 165}","source":10,"target":11,"layer":"L","from":"Broadway","to":"Andrew"},"geometry":{"type":"LineString","coordinates":[[-71.056967,42.342622],[-71.057655,42.330154]]}},{"type":"Feature","properties":{"duration_avg":169.74683544303798,"n_vehicles":158,"d":1083,"route_I_counts":"{\"1\": 158}","shape_id":"{\"931_0010\": 79, \"933_0010\": 79}","direction_id":"{\"1\": 158}","headsign":"{\"Alewife\": 158}","source":10,"target":9,"layer":"L","from":"Broadway","to":"South Station"},"geometry":{"type":"LineString","coordinates":[[-71.056967,42.342622],[-71.055242,42.352271]]}},{"type":"Feature","properties":{"shape_id":"{\"931_0009\": 83, \"933_0009\": 82}","direction_id":"{\"0\": 165}","headsign":"{\"Ashmont\": 83, \"Braintree\": 82}","duration_avg":171.32530120481928,"n_vehicles":165,"d":1141,"route_I_counts":"{\"1\": 165}","source":11,"target":12,"layer":"L","from":"Andrew","to":"JFK/UMass"},"geometry":{"type":"LineString","coordinates":[[-71.057655,42.330154],[-71.052514,42.320632]]}},{"type":"Feature","properties":{"duration_avg":120.0,"n_vehicles":158,"d":1389,"route_I_counts":"{\"1\": 158}","shape_id":"{\"931_0010\": 79, \"933_0010\": 79}","direction_id":"{\"1\": 158}","headsign":"{\"Alewife\": 158}","source":11,"target":10,"layer":"L","from":"Andrew","to":"Broadway"},"geometry":{"type":"LineString","coordinates":[[-71.057655,42.330154],[-71.056967,42.342622]]}},{"type":"Feature","properties":{"shape_id":"{\"931_0009\": 83}","direction_id":"{\"0\": 83}","headsign":"{\"Ashmont\": 83}","duration_avg":120.0,"n_vehicles":83,"d":1120,"route_I_counts":"{\"1\": 83}","source":12,"target":13,"layer":"L","from":"JFK/UMass","to":"Savin Hill"},"geometry":{"type":"LineString","coordinates":[[-71.052514,42.320632],[-71.053678,42.310603]]}},{"type":"Feature","properties":{"duration_avg":465.5421686746988,"n_vehicles":83,"d":5292,"route_I_counts":"{\"1\": 83}","shape_id":"{\"933_0009\": 83}","direction_id":"{\"0\": 83}","headsign":"{\"Braintree\": 83}","source":12,"target":17,"layer":"L","from":"JFK/UMass","to":"North Quincy"},"geometry":{"type":"LineString","coordinates":[[-71.052514,42.320632],[-71.030194,42.27577]]}},{"type":"Feature","properties":{"duration_avg":184.6153846153846,"n_vehicles":157,"d":1142,"route_I_counts":"{\"1\": 157}","shape_id":"{\"931_0010\": 79, \"933_0010\": 78}","direction_id":"{\"1\": 157}","headsign":"{\"Alewife\": 157}","source":12,"target":11,"layer":"L","from":"JFK/UMass","to":"Andrew"},"geometry":{"type":"LineString","coordinates":[[-71.052514,42.320632],[-71.057655,42.330154]]}},{"type":"Feature","properties":{"shape_id":"{\"931_0009\": 83}","direction_id":"{\"0\": 83}","headsign":"{\"Ashmont\": 83}","duration_avg":180.0,"n_vehicles":83,"d":1366,"route_I_counts":"{\"1\": 83}","source":13,"target":14,"layer":"L","from":"Savin Hill","to":"Fields Corner"},"geometry":{"type":"LineString","coordinates":[[-71.053678,42.310603],[-71.062021,42.299993]]}},{"type":"Feature","properties":{"duration_avg":120.0,"n_vehicles":79,"d":1122,"route_I_counts":"{\"1\": 79}","shape_id":"{\"931_0010\": 79}","direction_id":"{\"1\": 79}","headsign":"{\"Alewife\": 79}","source":13,"target":12,"layer":"L","from":"Savin Hill","to":"JFK/UMass"},"geometry":{"type":"LineString","coordinates":[[-71.053678,42.310603],[-71.052514,42.320632]]}},{"type":"Feature","properties":{"shape_id":"{\"931_0009\": 84}","direction_id":"{\"0\": 84}","headsign":"{\"Ashmont\": 84}","duration_avg":120.0,"n_vehicles":84,"d":823,"route_I_counts":"{\"1\": 84}","source":14,"target":15,"layer":"L","from":"Fields Corner","to":"Shawmut"},"geometry":{"type":"LineString","coordinates":[[-71.062021,42.299993],[-71.065738,42.293126]]}},{"type":"Feature","properties":{"duration_avg":120.0,"n_vehicles":79,"d":1370,"route_I_counts":"{\"1\": 79}","shape_id":"{\"931_0010\": 79}","direction_id":"{\"1\": 79}","headsign":"{\"Alewife\": 79}","source":14,"target":13,"layer":"L","from":"Fields Corner","to":"Savin Hill"},"geometry":{"type":"LineString","coordinates":[[-71.062021,42.299993],[-71.053678,42.310603]]}},{"type":"Feature","properties":{"shape_id":"{\"931_0009\": 84}","direction_id":"{\"0\": 84}","headsign":"{\"Ashmont\": 84}","duration_avg":96.42857142857143,"n_vehicles":84,"d":972,"route_I_counts":"{\"1\": 84}","source":15,"target":16,"layer":"L","from":"Shawmut","to":"Ashmont"},"geometry":{"type":"LineString","coordinates":[[-71.065738,42.293126],[-71.063833,42.284508]]}},{"type":"Feature","properties":{"duration_avg":120.0,"n_vehicles":78,"d":819,"route_I_counts":"{\"1\": 78}","shape_id":"{\"931_0010\": 78}","direction_id":"{\"1\": 78}","headsign":"{\"Alewife\": 78}","source":15,"target":14,"layer":"L","from":"Shawmut","to":"Fields Corner"},"geometry":{"type":"LineString","coordinates":[[-71.065738,42.293126],[-71.062021,42.299993]]}},{"type":"Feature","properties":{"duration_avg":100.76923076923077,"n_vehicles":78,"d":971,"route_I_counts":"{\"1\": 78}","shape_id":"{\"931_0010\": 78}","direction_id":"{\"1\": 78}","headsign":"{\"Alewife\": 78}","source":16,"target":15,"layer":"L","from":"Ashmont","to":"Shawmut"},"geometry":{"type":"LineString","coordinates":[[-71.063833,42.284508],[-71.065738,42.293126]]}},{"type":"Feature","properties":{"shape_id":"{\"933_0009\": 83}","direction_id":"{\"0\": 83}","headsign":"{\"Braintree\": 83}","duration_avg":162.65060240963857,"n_vehicles":83,"d":1279,"route_I_counts":"{\"1\": 83}","source":17,"target":18,"layer":"L","from":"North Quincy","to":"Wollaston"},"geometry":{"type":"LineString","coordinates":[[-71.030194,42.27577],[-71.020542,42.266762]]}},{"type":"Feature","properties":{"duration_avg":420.0,"n_vehicles":78,"d":5290,"route_I_counts":"{\"1\": 78}","shape_id":"{\"933_0010\": 78}","direction_id":"{\"1\": 78}","headsign":"{\"Alewife\": 78}","source":17,"target":12,"layer":"L","from":"North Quincy","to":"JFK/UMass"},"geometry":{"type":"LineString","coordinates":[[-71.030194,42.27577],[-71.052514,42.320632]]}},{"type":"Feature","properties":{"shape_id":"{\"933_0009\": 84}","direction_id":"{\"0\": 84}","headsign":"{\"Braintree\": 84}","duration_avg":180.0,"n_vehicles":84,"d":2079,"route_I_counts":"{\"1\": 84}","source":18,"target":19,"layer":"L","from":"Wollaston","to":"Quincy Center"},"geometry":{"type":"LineString","coordinates":[[-71.020542,42.266762],[-71.005409,42.251809]]}},{"type":"Feature","properties":{"duration_avg":144.93506493506493,"n_vehicles":77,"d":1282,"route_I_counts":"{\"1\": 77}","shape_id":"{\"933_0010\": 77}","direction_id":"{\"1\": 77}","headsign":"{\"Alewife\": 77}","source":18,"target":17,"layer":"L","from":"Wollaston","to":"North Quincy"},"geometry":{"type":"LineString","coordinates":[[-71.020542,42.266762],[-71.030194,42.27577]]}},{"type":"Feature","properties":{"shape_id":"{\"933_0009\": 84}","direction_id":"{\"0\": 84}","headsign":"{\"Braintree\": 84}","duration_avg":180.0,"n_vehicles":84,"d":2055,"route_I_counts":"{\"1\": 84}","source":19,"target":20,"layer":"L","from":"Quincy Center","to":"Quincy Adams"},"geometry":{"type":"LineString","coordinates":[[-71.005409,42.251809],[-71.007153,42.233391]]}},{"type":"Feature","properties":{"duration_avg":180.0,"n_vehicles":77,"d":2077,"route_I_counts":"{\"1\": 77}","shape_id":"{\"933_0010\": 77}","direction_id":"{\"1\": 77}","headsign":"{\"Alewife\": 77}","source":19,"target":18,"layer":"L","from":"Quincy Center","to":"Wollaston"},"geometry":{"type":"LineString","coordinates":[[-71.005409,42.251809],[-71.020542,42.266762]]}},{"type":"Feature","properties":{"shape_id":"{\"933_0009\": 84}","direction_id":"{\"0\": 84}","headsign":"{\"Braintree\": 84}","duration_avg":330.0,"n_vehicles":84,"d":2926,"route_I_counts":"{\"1\": 84}","source":20,"target":21,"layer":"L","from":"Quincy Adams","to":"Braintree"},"geometry":{"type":"LineString","coordinates":[[-71.007153,42.233391],[-71.001645,42.207424]]}},{"type":"Feature","properties":{"duration_avg":240.0,"n_vehicles":77,"d":2055,"route_I_counts":"{\"1\": 77}","shape_id":"{\"933_0010\": 77}","direction_id":"{\"1\": 77}","headsign":"{\"Alewife\": 77}","source":20,"target":19,"layer":"L","from":"Quincy Adams","to":"Quincy Center"},"geometry":{"type":"LineString","coordinates":[[-71.007153,42.233391],[-71.005409,42.251809]]}},{"type":"Feature","properties":{"duration_avg":240.0,"n_vehicles":77,"d":2926,"route_I_counts":"{\"1\": 77}","shape_id":"{\"933_0010\": 77}","direction_id":"{\"1\": 77}","headsign":"{\"Alewife\": 77}","source":21,"target":20,"layer":"L","from":"Braintree","to":"Quincy Adams"},"geometry":{"type":"LineString","coordinates":[[-71.001645,42.207424],[-71.007153,42.233391]]}},{"type":"Feature","properties":{"shape_id":"{\"903_0018\": 115}","direction_id":"{\"0\": 115}","headsign":"{\"Forest Hills\": 115}","duration_avg":60.0,"n_vehicles":115,"d":1264,"route_I_counts":"{\"3\": 115}","source":22,"target":23,"layer":"L","from":"Oak Grove","to":"Malden Center"},"geometry":{"type":"LineString","coordinates":[[-71.070875,42.437735],[-71.074381,42.426677]]}},{"type":"Feature","properties":{"shape_id":"{\"903_0018\": 115}","direction_id":"{\"0\": 115}","headsign":"{\"Forest Hills\": 115}","duration_avg":240.0,"n_vehicles":115,"d":2812,"route_I_counts":"{\"3\": 115}","source":23,"target":24,"layer":"L","from":"Malden Center","to":"Wellington"},"geometry":{"type":"LineString","coordinates":[[-71.074381,42.426677],[-71.077252,42.401505]]}},{"type":"Feature","properties":{"duration_avg":130.9090909090909,"n_vehicles":121,"d":1264,"route_I_counts":"{\"3\": 121}","shape_id":"{\"903_0017\": 121}","direction_id":"{\"1\": 121}","headsign":"{\"Oak Grove\": 121}","source":23,"target":22,"layer":"L","from":"Malden Center","to":"Oak Grove"},"geometry":{"type":"LineString","coordinates":[[-71.074381,42.426677],[-71.070875,42.437735]]}},{"type":"Feature","properties":{"shape_id":"{\"903_0018\": 116}","direction_id":"{\"0\": 116}","headsign":"{\"Forest Hills\": 116}","duration_avg":120.0,"n_vehicles":116,"d":1021,"route_I_counts":"{\"3\": 116}","source":24,"target":25,"layer":"L","from":"Wellington","to":"Assembly"},"geometry":{"type":"LineString","coordinates":[[-71.077252,42.401505],[-71.077262,42.392331]]}},{"type":"Feature","properties":{"duration_avg":240.0,"n_vehicles":121,"d":2809,"route_I_counts":"{\"3\": 121}","shape_id":"{\"903_0017\": 121}","direction_id":"{\"1\": 121}","headsign":"{\"Oak Grove\": 121}","source":24,"target":23,"layer":"L","from":"Wellington","to":"Malden Center"},"geometry":{"type":"LineString","coordinates":[[-71.077252,42.401505],[-71.074381,42.426677]]}},{"type":"Feature","properties":{"shape_id":"{\"903_0018\": 116}","direction_id":"{\"0\": 116}","headsign":"{\"Forest Hills\": 116}","duration_avg":120.0,"n_vehicles":116,"d":930,"route_I_counts":"{\"3\": 116}","source":25,"target":26,"layer":"L","from":"Assembly","to":"Sullivan Square"},"geometry":{"type":"LineString","coordinates":[[-71.077262,42.392331],[-71.076994,42.383975]]}},{"type":"Feature","properties":{"duration_avg":180.0,"n_vehicles":120,"d":1020,"route_I_counts":"{\"3\": 120}","shape_id":"{\"903_0017\": 120}","direction_id":"{\"1\": 120}","headsign":"{\"Oak Grove\": 120}","source":25,"target":24,"layer":"L","from":"Assembly","to":"Wellington"},"geometry":{"type":"LineString","coordinates":[[-71.077262,42.392331],[-71.077252,42.401505]]}},{"type":"Feature","properties":{"shape_id":"{\"903_0018\": 116}","direction_id":"{\"0\": 116}","headsign":"{\"Forest Hills\": 116}","duration_avg":167.58620689655172,"n_vehicles":116,"d":1305,"route_I_counts":"{\"3\": 116}","source":26,"target":27,"layer":"L","from":"Sullivan Square","to":"Community College"},"geometry":{"type":"LineString","coordinates":[[-71.076994,42.383975],[-71.069533,42.373622]]}},{"type":"Feature","properties":{"duration_avg":120.0,"n_vehicles":120,"d":930,"route_I_counts":"{\"3\": 120}","shape_id":"{\"903_0017\": 120}","direction_id":"{\"1\": 120}","headsign":"{\"Oak Grove\": 120}","source":26,"target":25,"layer":"L","from":"Sullivan Square","to":"Assembly"},"geometry":{"type":"LineString","coordinates":[[-71.076994,42.383975],[-71.077262,42.392331]]}},{"type":"Feature","properties":{"shape_id":"{\"903_0018\": 117}","direction_id":"{\"0\": 117}","headsign":"{\"Forest Hills\": 117}","duration_avg":240.0,"n_vehicles":117,"d":1123,"route_I_counts":"{\"3\": 117}","source":27,"target":28,"layer":"L","from":"Community College","to":"North Station"},"geometry":{"type":"LineString","coordinates":[[-71.069533,42.373622],[-71.06129,42.365577]]}},{"type":"Feature","properties":{"duration_avg":180.0,"n_vehicles":120,"d":1305,"route_I_counts":"{\"3\": 120}","shape_id":"{\"903_0017\": 120}","direction_id":"{\"1\": 120}","headsign":"{\"Oak Grove\": 120}","source":27,"target":26,"layer":"L","from":"Community College","to":"Sullivan Square"},"geometry":{"type":"LineString","coordinates":[[-71.069533,42.373622],[-71.076994,42.383975]]}},{"type":"Feature","properties":{"shape_id":"{\"903_0018\": 117}","direction_id":"{\"0\": 117}","headsign":"{\"Forest Hills\": 117}","duration_avg":83.07692307692308,"n_vehicles":117,"d":376,"route_I_counts":"{\"3\": 117}","source":28,"target":29,"layer":"L","from":"North Station","to":"Haymarket"},"geometry":{"type":"LineString","coordinates":[[-71.06129,42.365577],[-71.05829,42.363021]]}},{"type":"Feature","properties":{"duration_avg":180.0,"n_vehicles":119,"d":1123,"route_I_counts":"{\"3\": 119}","shape_id":"{\"903_0017\": 119}","direction_id":"{\"1\": 119}","headsign":"{\"Oak Grove\": 119}","source":28,"target":27,"layer":"L","from":"North Station","to":"Community College"},"geometry":{"type":"LineString","coordinates":[[-71.06129,42.365577],[-71.069533,42.373622]]}},{"type":"Feature","properties":{"shape_id":"{\"903_0018\": 117}","direction_id":"{\"0\": 117}","headsign":"{\"Forest Hills\": 117}","duration_avg":120.0,"n_vehicles":117,"d":453,"route_I_counts":"{\"3\": 117}","source":29,"target":30,"layer":"L","from":"Haymarket","to":"State"},"geometry":{"type":"LineString","coordinates":[[-71.05829,42.363021],[-71.057598,42.358978]]}},{"type":"Feature","properties":{"duration_avg":105.88235294117646,"n_vehicles":119,"d":376,"route_I_counts":"{\"3\": 119}","shape_id":"{\"903_0017\": 119}","direction_id":"{\"1\": 119}","headsign":"{\"Oak Grove\": 119}","source":29,"target":28,"layer":"L","from":"Haymarket","to":"North Station"},"geometry":{"type":"LineString","coordinates":[[-71.05829,42.363021],[-71.06129,42.365577]]}},{"type":"Feature","properties":{"duration_avg":73.84615384615384,"n_vehicles":117,"d":441,"route_I_counts":"{\"3\": 117}","shape_id":"{\"903_0018\": 117}","direction_id":"{\"0\": 117}","headsign":"{\"Forest Hills\": 117}","source":30,"target":8,"layer":"L","from":"State","to":"Downtown Crossing"},"geometry":{"type":"LineString","coordinates":[[-71.057598,42.358978],[-71.060225,42.355518]]}},{"type":"Feature","properties":{"duration_avg":96.30252100840336,"n_vehicles":119,"d":453,"route_I_counts":"{\"3\": 119}","shape_id":"{\"903_0017\": 119}","direction_id":"{\"1\": 119}","headsign":"{\"Oak Grove\": 119}","source":30,"target":29,"layer":"L","from":"State","to":"Haymarket"},"geometry":{"type":"LineString","coordinates":[[-71.057598,42.358978],[-71.05829,42.363021]]}},{"type":"Feature","properties":{"duration_avg":60.0,"n_vehicles":125,"d":155,"route_I_counts":"{\"8\": 125}","shape_id":"{\"946_0013\": 120, \"948_0005\": 5}","direction_id":"{\"0\": 125}","headsign":"{\"Bowdoin\": 125}","source":30,"target":50,"layer":"L","from":"State","to":"Government Center"},"geometry":{"type":"LineString","coordinates":[[-71.057598,42.358978],[-71.059215,42.359705]]}},{"type":"Feature","properties":{"duration_avg":60.0,"n_vehicles":124,"d":497,"route_I_counts":"{\"8\": 124}","shape_id":"{\"946_0014\": 124}","direction_id":"{\"1\": 124}","headsign":"{\"Wonderland\": 124}","source":30,"target":49,"layer":"L","from":"State","to":"Aquarium"},"geometry":{"type":"LineString","coordinates":[[-71.057598,42.358978],[-71.051652,42.359784]]}},{"type":"Feature","properties":{"shape_id":"{\"903_0018\": 118}","direction_id":"{\"0\": 118}","headsign":"{\"Forest Hills\": 118}","duration_avg":60.0,"n_vehicles":118,"d":335,"route_I_counts":"{\"3\": 118}","source":31,"target":32,"layer":"L","from":"Chinatown","to":"Tufts Medical Center"},"geometry":{"type":"LineString","coordinates":[[-71.062752,42.352547],[-71.063917,42.349662]]}},{"type":"Feature","properties":{"duration_avg":71.69491525423729,"n_vehicles":118,"d":390,"route_I_counts":"{\"3\": 118}","shape_id":"{\"903_0017\": 118}","direction_id":"{\"1\": 118}","headsign":"{\"Oak Grove\": 118}","source":31,"target":8,"layer":"L","from":"Chinatown","to":"Downtown Crossing"},"geometry":{"type":"LineString","coordinates":[[-71.062752,42.352547],[-71.060225,42.355518]]}},{"type":"Feature","properties":{"shape_id":"{\"903_0018\": 118}","direction_id":"{\"0\": 118}","headsign":"{\"Forest Hills\": 118}","duration_avg":120.0,"n_vehicles":118,"d":1005,"route_I_counts":"{\"3\": 118}","source":32,"target":33,"layer":"L","from":"Tufts Medical Center","to":"Back Bay"},"geometry":{"type":"LineString","coordinates":[[-71.063917,42.349662],[-71.075727,42.34735]]}},{"type":"Feature","properties":{"duration_avg":105.2542372881356,"n_vehicles":118,"d":335,"route_I_counts":"{\"3\": 118}","shape_id":"{\"903_0017\": 118}","direction_id":"{\"1\": 118}","headsign":"{\"Oak Grove\": 118}","source":32,"target":31,"layer":"L","from":"Tufts Medical Center","to":"Chinatown"},"geometry":{"type":"LineString","coordinates":[[-71.063917,42.349662],[-71.062752,42.352547]]}},{"type":"Feature","properties":{"shape_id":"{\"903_0018\": 118}","direction_id":"{\"0\": 118}","headsign":"{\"Forest Hills\": 118}","duration_avg":166.77966101694915,"n_vehicles":118,"d":997,"route_I_counts":"{\"3\": 118}","source":33,"target":34,"layer":"L","from":"Back Bay","to":"Massachusetts Avenue"},"geometry":{"type":"LineString","coordinates":[[-71.075727,42.34735],[-71.084188,42.340927]]}},{"type":"Feature","properties":{"duration_avg":120.0,"n_vehicles":118,"d":1005,"route_I_counts":"{\"3\": 118}","shape_id":"{\"903_0017\": 118}","direction_id":"{\"1\": 118}","headsign":"{\"Oak Grove\": 118}","source":33,"target":32,"layer":"L","from":"Back Bay","to":"Tufts Medical Center"},"geometry":{"type":"LineString","coordinates":[[-71.075727,42.34735],[-71.063917,42.349662]]}},{"type":"Feature","properties":{"shape_id":"{\"903_0018\": 119}","direction_id":"{\"0\": 119}","headsign":"{\"Forest Hills\": 119}","duration_avg":120.0,"n_vehicles":119,"d":669,"route_I_counts":"{\"3\": 119}","source":34,"target":35,"layer":"L","from":"Massachusetts Avenue","to":"Ruggles"},"geometry":{"type":"LineString","coordinates":[[-71.084188,42.340927],[-71.089684,42.33649]]}},{"type":"Feature","properties":{"duration_avg":120.0,"n_vehicles":117,"d":997,"route_I_counts":"{\"3\": 117}","shape_id":"{\"903_0017\": 117}","direction_id":"{\"1\": 117}","headsign":"{\"Oak Grove\": 117}","source":34,"target":33,"layer":"L","from":"Massachusetts Avenue","to":"Back Bay"},"geometry":{"type":"LineString","coordinates":[[-71.084188,42.340927],[-71.075727,42.34735]]}},{"type":"Feature","properties":{"shape_id":"{\"903_0018\": 119}","direction_id":"{\"0\": 119}","headsign":"{\"Forest Hills\": 119}","duration_avg":120.0,"n_vehicles":119,"d":836,"route_I_counts":"{\"3\": 119}","source":35,"target":36,"layer":"L","from":"Ruggles","to":"Roxbury Crossing"},"geometry":{"type":"LineString","coordinates":[[-71.089684,42.33649],[-71.096121,42.330671]]}},{"type":"Feature","properties":{"duration_avg":120.0,"n_vehicles":117,"d":670,"route_I_counts":"{\"3\": 117}","shape_id":"{\"903_0017\": 117}","direction_id":"{\"1\": 117}","headsign":"{\"Oak Grove\": 117}","source":35,"target":34,"layer":"L","from":"Ruggles","to":"Massachusetts Avenue"},"geometry":{"type":"LineString","coordinates":[[-71.089684,42.33649],[-71.084188,42.340927]]}},{"type":"Feature","properties":{"shape_id":"{\"903_0018\": 119}","direction_id":"{\"0\": 119}","headsign":"{\"Forest Hills\": 119}","duration_avg":120.0,"n_vehicles":119,"d":886,"route_I_counts":"{\"3\": 119}","source":36,"target":37,"layer":"L","from":"Roxbury Crossing","to":"Jackson Square"},"geometry":{"type":"LineString","coordinates":[[-71.096121,42.330671],[-71.099592,42.323132]]}},{"type":"Feature","properties":{"duration_avg":120.0,"n_vehicles":117,"d":834,"route_I_counts":"{\"3\": 117}","shape_id":"{\"903_0017\": 117}","direction_id":"{\"1\": 117}","headsign":"{\"Oak Grove\": 117}","source":36,"target":35,"layer":"L","from":"Roxbury Crossing","to":"Ruggles"},"geometry":{"type":"LineString","coordinates":[[-71.096121,42.330671],[-71.089684,42.33649]]}},{"type":"Feature","properties":{"shape_id":"{\"903_0018\": 120}","direction_id":"{\"0\": 120}","headsign":"{\"Forest Hills\": 120}","duration_avg":120.0,"n_vehicles":120,"d":776,"route_I_counts":"{\"3\": 120}","source":37,"target":38,"layer":"L","from":"Jackson Square","to":"Stony Brook"},"geometry":{"type":"LineString","coordinates":[[-71.099592,42.323132],[-71.104248,42.317062]]}},{"type":"Feature","properties":{"duration_avg":120.0,"n_vehicles":116,"d":885,"route_I_counts":"{\"3\": 116}","shape_id":"{\"903_0017\": 116}","direction_id":"{\"1\": 116}","headsign":"{\"Oak Grove\": 116}","source":37,"target":36,"layer":"L","from":"Jackson Square","to":"Roxbury Crossing"},"geometry":{"type":"LineString","coordinates":[[-71.099592,42.323132],[-71.096121,42.330671]]}},{"type":"Feature","properties":{"shape_id":"{\"903_0018\": 120}","direction_id":"{\"0\": 120}","headsign":"{\"Forest Hills\": 120}","duration_avg":120.0,"n_vehicles":120,"d":863,"route_I_counts":"{\"3\": 120}","source":38,"target":39,"layer":"L","from":"Stony Brook","to":"Green Street"},"geometry":{"type":"LineString","coordinates":[[-71.104248,42.317062],[-71.108059,42.309832]]}},{"type":"Feature","properties":{"duration_avg":120.0,"n_vehicles":116,"d":776,"route_I_counts":"{\"3\": 116}","shape_id":"{\"903_0017\": 116}","direction_id":"{\"1\": 116}","headsign":"{\"Oak Grove\": 116}","source":38,"target":37,"layer":"L","from":"Stony Brook","to":"Jackson Square"},"geometry":{"type":"LineString","coordinates":[[-71.104248,42.317062],[-71.099592,42.323132]]}},{"type":"Feature","properties":{"shape_id":"{\"903_0018\": 120}","direction_id":"{\"0\": 120}","headsign":"{\"Forest Hills\": 120}","duration_avg":120.0,"n_vehicles":120,"d":1135,"route_I_counts":"{\"3\": 120}","source":39,"target":40,"layer":"L","from":"Green Street","to":"Forest Hills"},"geometry":{"type":"LineString","coordinates":[[-71.108059,42.309832],[-71.113686,42.300523]]}},{"type":"Feature","properties":{"duration_avg":120.0,"n_vehicles":116,"d":865,"route_I_counts":"{\"3\": 116}","shape_id":"{\"903_0017\": 116}","direction_id":"{\"1\": 116}","headsign":"{\"Oak Grove\": 116}","source":39,"target":38,"layer":"L","from":"Green Street","to":"Stony Brook"},"geometry":{"type":"LineString","coordinates":[[-71.108059,42.309832],[-71.104248,42.317062]]}},{"type":"Feature","properties":{"duration_avg":60.0,"n_vehicles":116,"d":1133,"route_I_counts":"{\"3\": 116}","shape_id":"{\"903_0017\": 116}","direction_id":"{\"1\": 116}","headsign":"{\"Oak Grove\": 116}","source":40,"target":39,"layer":"L","from":"Forest Hills","to":"Green Street"},"geometry":{"type":"LineString","coordinates":[[-71.113686,42.300523],[-71.108059,42.309832]]}},{"type":"Feature","properties":{"shape_id":"{\"946_0013\": 118}","direction_id":"{\"0\": 118}","headsign":"{\"Bowdoin\": 118}","duration_avg":60.0,"n_vehicles":118,"d":644,"route_I_counts":"{\"8\": 118}","source":41,"target":42,"layer":"L","from":"Wonderland","to":"Revere Beach"},"geometry":{"type":"LineString","coordinates":[[-70.991714,42.413514],[-70.992586,42.40776]]}},{"type":"Feature","properties":{"shape_id":"{\"946_0013\": 118}","direction_id":"{\"0\": 118}","headsign":"{\"Bowdoin\": 118}","duration_avg":120.0,"n_vehicles":118,"d":1173,"route_I_counts":"{\"8\": 118}","source":42,"target":43,"layer":"L","from":"Revere Beach","to":"Beachmont"},"geometry":{"type":"LineString","coordinates":[[-70.992586,42.40776],[-70.992647,42.397219]]}},{"type":"Feature","properties":{"duration_avg":84.56692913385827,"n_vehicles":127,"d":614,"route_I_counts":"{\"8\": 127}","shape_id":"{\"946_0014\": 127}","direction_id":"{\"1\": 127}","headsign":"{\"Wonderland\": 127}","source":42,"target":41,"layer":"L","from":"Revere Beach","to":"Wonderland"},"geometry":{"type":"LineString","coordinates":[[-70.992586,42.40776],[-70.991714,42.413514]]}},{"type":"Feature","properties":{"shape_id":"{\"946_0013\": 119}","direction_id":"{\"0\": 119}","headsign":"{\"Bowdoin\": 119}","duration_avg":60.0,"n_vehicles":119,"d":848,"route_I_counts":"{\"8\": 119}","source":43,"target":44,"layer":"L","from":"Beachmont","to":"Suffolk Downs"},"geometry":{"type":"LineString","coordinates":[[-70.992647,42.397219],[-70.997323,42.390422]]}},{"type":"Feature","properties":{"duration_avg":120.0,"n_vehicles":127,"d":1187,"route_I_counts":"{\"8\": 127}","shape_id":"{\"946_0014\": 127}","direction_id":"{\"1\": 127}","headsign":"{\"Wonderland\": 127}","source":43,"target":42,"layer":"L","from":"Beachmont","to":"Revere Beach"},"geometry":{"type":"LineString","coordinates":[[-70.992647,42.397219],[-70.992586,42.40776]]}},{"type":"Feature","properties":{"shape_id":"{\"946_0013\": 119}","direction_id":"{\"0\": 119}","headsign":"{\"Bowdoin\": 119}","duration_avg":120.0,"n_vehicles":119,"d":729,"route_I_counts":"{\"8\": 119}","source":44,"target":45,"layer":"L","from":"Suffolk Downs","to":"Orient Heights"},"geometry":{"type":"LineString","coordinates":[[-70.997323,42.390422],[-71.004809,42.386909]]}},{"type":"Feature","properties":{"duration_avg":100.0,"n_vehicles":126,"d":821,"route_I_counts":"{\"8\": 126}","shape_id":"{\"946_0014\": 126}","direction_id":"{\"1\": 126}","headsign":"{\"Wonderland\": 126}","source":44,"target":43,"layer":"L","from":"Suffolk Downs","to":"Beachmont"},"geometry":{"type":"LineString","coordinates":[[-70.997323,42.390422],[-70.992647,42.397219]]}},{"type":"Feature","properties":{"shape_id":"{\"946_0013\": 119, \"948_0005\": 5}","direction_id":"{\"0\": 124}","headsign":"{\"Bowdoin\": 124}","duration_avg":180.0,"n_vehicles":124,"d":1682,"route_I_counts":"{\"8\": 124}","source":45,"target":46,"layer":"L","from":"Orient Heights","to":"Wood Island"},"geometry":{"type":"LineString","coordinates":[[-71.004809,42.386909],[-71.022818,42.37974]]}},{"type":"Feature","properties":{"duration_avg":120.0,"n_vehicles":126,"d":761,"route_I_counts":"{\"8\": 126}","shape_id":"{\"946_0014\": 126}","direction_id":"{\"1\": 126}","headsign":"{\"Wonderland\": 126}","source":45,"target":44,"layer":"L","from":"Orient Heights","to":"Suffolk Downs"},"geometry":{"type":"LineString","coordinates":[[-71.004809,42.386909],[-70.997323,42.390422]]}},{"type":"Feature","properties":{"shape_id":"{\"946_0013\": 119, \"948_0005\": 5}","direction_id":"{\"0\": 124}","headsign":"{\"Bowdoin\": 124}","duration_avg":120.0,"n_vehicles":124,"d":871,"route_I_counts":"{\"8\": 124}","source":46,"target":47,"layer":"L","from":"Wood Island","to":"Airport"},"geometry":{"type":"LineString","coordinates":[[-71.022818,42.37974],[-71.030395,42.374262]]}},{"type":"Feature","properties":{"duration_avg":180.0,"n_vehicles":125,"d":1682,"route_I_counts":"{\"8\": 125}","shape_id":"{\"946_0014\": 125}","direction_id":"{\"1\": 125}","headsign":"{\"Wonderland\": 125}","source":46,"target":45,"layer":"L","from":"Wood Island","to":"Orient Heights"},"geometry":{"type":"LineString","coordinates":[[-71.022818,42.37974],[-71.004809,42.386909]]}},{"type":"Feature","properties":{"shape_id":"{\"946_0013\": 119, \"948_0005\": 5}","direction_id":"{\"0\": 124}","headsign":"{\"Bowdoin\": 124}","duration_avg":128.70967741935485,"n_vehicles":124,"d":944,"route_I_counts":"{\"8\": 124}","source":47,"target":48,"layer":"L","from":"Airport","to":"Maverick"},"geometry":{"type":"LineString","coordinates":[[-71.030395,42.374262],[-71.03953,42.369119]]}},{"type":"Feature","properties":{"duration_avg":120.0,"n_vehicles":125,"d":868,"route_I_counts":"{\"8\": 125}","shape_id":"{\"946_0014\": 125}","direction_id":"{\"1\": 125}","headsign":"{\"Wonderland\": 125}","source":47,"target":46,"layer":"L","from":"Airport","to":"Wood Island"},"geometry":{"type":"LineString","coordinates":[[-71.030395,42.374262],[-71.022818,42.37974]]}},{"type":"Feature","properties":{"shape_id":"{\"946_0013\": 120, \"948_0005\": 5}","direction_id":"{\"0\": 125}","headsign":"{\"Bowdoin\": 125}","duration_avg":120.0,"n_vehicles":125,"d":1440,"route_I_counts":"{\"8\": 125}","source":48,"target":49,"layer":"L","from":"Maverick","to":"Aquarium"},"geometry":{"type":"LineString","coordinates":[[-71.03953,42.369119],[-71.051652,42.359784]]}},{"type":"Feature","properties":{"duration_avg":120.0,"n_vehicles":124,"d":944,"route_I_counts":"{\"8\": 124}","shape_id":"{\"946_0014\": 124}","direction_id":"{\"1\": 124}","headsign":"{\"Wonderland\": 124}","source":48,"target":47,"layer":"L","from":"Maverick","to":"Airport"},"geometry":{"type":"LineString","coordinates":[[-71.03953,42.369119],[-71.030395,42.374262]]}},{"type":"Feature","properties":{"duration_avg":120.0,"n_vehicles":124,"d":1440,"route_I_counts":"{\"8\": 124}","shape_id":"{\"946_0014\": 124}","direction_id":"{\"1\": 124}","headsign":"{\"Wonderland\": 124}","source":49,"target":48,"layer":"L","from":"Aquarium","to":"Maverick"},"geometry":{"type":"LineString","coordinates":[[-71.051652,42.359784],[-71.03953,42.369119]]}},{"type":"Feature","properties":{"duration_avg":60.0,"n_vehicles":125,"d":497,"route_I_counts":"{\"8\": 125}","shape_id":"{\"946_0013\": 120, \"948_0005\": 5}","direction_id":"{\"0\": 125}","headsign":"{\"Bowdoin\": 125}","source":49,"target":30,"layer":"L","from":"Aquarium","to":"State"},"geometry":{"type":"LineString","coordinates":[[-71.051652,42.359784],[-71.057598,42.358978]]}},{"type":"Feature","properties":{"shape_id":"{\"946_0013\": 120, \"948_0005\": 5}","direction_id":"{\"0\": 125}","headsign":"{\"Bowdoin\": 125}","duration_avg":60.0,"n_vehicles":125,"d":296,"route_I_counts":"{\"8\": 125}","source":50,"target":51,"layer":"L","from":"Government Center","to":"Bowdoin"},"geometry":{"type":"LineString","coordinates":[[-71.059215,42.359705],[-71.062037,42.361365]]}},{"type":"Feature","properties":{"duration_avg":60.0,"n_vehicles":124,"d":155,"route_I_counts":"{\"8\": 124}","shape_id":"{\"946_0014\": 124}","direction_id":"{\"1\": 124}","headsign":"{\"Wonderland\": 124}","source":50,"target":30,"layer":"L","from":"Government Center","to":"State"},"geometry":{"type":"LineString","coordinates":[[-71.059215,42.359705],[-71.057598,42.358978]]}},{"type":"Feature","properties":{"duration_avg":60.0,"n_vehicles":124,"d":296,"route_I_counts":"{\"8\": 124}","shape_id":"{\"946_0014\": 124}","direction_id":"{\"1\": 124}","headsign":"{\"Wonderland\": 124}","source":51,"target":50,"layer":"L","from":"Bowdoin","to":"Government Center"},"geometry":{"type":"LineString","coordinates":[[-71.062037,42.361365],[-71.059215,42.359705]]}}]}