{"type":"FeatureCollection","features":[{"type":"Feature","geometry":{"type":"Point","coordinates":[4.398281,50.839364]},"properties":{"name":"MERODE","original_ids":"[2394, 2393]","id":0,"layer":"stop"}},{"type":"Feature","geometry":{"type":"Point","coordinates":[4.407955,50.837806]},"properties":{"name":"MONTGOMERY","original_ids":"[2407, 2401]","id":1,"layer":"stop"}},{"type":"Feature","geometry":{"type":"Point","coordinates":[4.414051,50.840527]},"properties":{"name":"JOSEPH.-CHARLOTTE","original_ids":"[2412, 2408]","id":2,"layer":"stop"}},{"type":"Feature","geometry":{"type":"Point","coordinates":[4.418967,50.842594]},"properties":{"name":"GRIBAUMONT","original_ids":"[2419, 2413]","id":3,"layer":"stop"}},{"type":"Feature","geometry":{"type":"Point","coordinates":[4.426369,50.844833]},"properties":{"name":"TOMBERG","original_ids":"[2425, 2420]","id":4,"layer":"stop"}},{"type":"Feature","geometry":{"type":"Point","coordinates":[4.436102,50.847552]},"properties":{"name":"ROODEBEEK","original_ids":"[2433, 2426]","id":5,"layer":"stop"}},{"type":"Feature","geometry":{"type":"Point","coordinates":[4.447303,50.847439]},"properties":{"name":"VANDERVELDE","original_ids":"[2437, 2434]","id":6,"layer":"stop"}},{"type":"Feature","geometry":{"type":"Point","coordinates":[4.4534,50.849991]},"properties":{"name":"ALMA","original_ids":"[2441, 2438]","id":7,"layer":"stop"}},{"type":"Feature","geometry":{"type":"Point","coordinates":[4.458929,50.848478]},"properties":{"name":"CRAINHEM","original_ids":"[2444, 2442]","id":8,"layer":"stop"}},{"type":"Feature","geometry":{"type":"Point","coordinates":[4.464541,50.841872]},"properties":{"name":"STOCKEL","original_ids":"[2445, 2448]","id":9,"layer":"stop"}},{"type":"Feature","geometry":{"type":"Point","coordinates":[4.380974,50.842972]},"properties":{"name":"SCHUMAN","original_ids":"[2388, 2389]","id":10,"layer":"stop"}},{"type":"Feature","geometry":{"type":"Point","coordinates":[4.377084,50.84379]},"properties":{"name":"MAELBEEK","original_ids":"[2381, 2382]","id":11,"layer":"stop"}},{"type":"Feature","geometry":{"type":"Point","coordinates":[4.369121,50.845476]},"properties":{"name":"ARTS-LOI","original_ids":"[2373, 2374, 2549, 2550]","id":12,"layer":"stop"}},{"type":"Feature","geometry":{"type":"Point","coordinates":[4.362431,50.845628]},"properties":{"name":"PARC","original_ids":"[2370, 2371]","id":13,"layer":"stop"}},{"type":"Feature","geometry":{"type":"Point","coordinates":[4.358551,50.846679]},"properties":{"name":"GARE CENTRALE","original_ids":"[2362, 2363]","id":14,"layer":"stop"}},{"type":"Feature","geometry":{"type":"Point","coordinates":[4.352165,50.850095]},"properties":{"name":"DE BROUCKERE","original_ids":"[2356, 2357]","id":15,"layer":"stop"}},{"type":"Feature","geometry":{"type":"Point","coordinates":[4.347749,50.852347]},"properties":{"name":"SAINTE-CATHERINE","original_ids":"[2486, 2487]","id":16,"layer":"stop"}},{"type":"Feature","geometry":{"type":"Point","coordinates":[4.340056,50.854968]},"properties":{"name":"COMTE DE FLANDRE","original_ids":"[2493, 2494]","id":17,"layer":"stop"}},{"type":"Feature","geometry":{"type":"Point","coordinates":[4.332019,50.857096]},"properties":{"name":"ETANGS NOIRS","original_ids":"[2497, 2498]","id":18,"layer":"stop"}},{"type":"Feature","geometry":{"type":"Point","coordinates":[4.322763,50.853111]},"properties":{"name":"BEEKKANT","original_ids":"[2637, 2638, 2641, 2642]","id":19,"layer":"stop"}},{"type":"Feature","geometry":{"type":"Point","coordinates":[4.320673,50.848584]},"properties":{"name":"GARE DE L'OUEST","original_ids":"[2631, 2636, 2632, 2547, 2548]","id":20,"layer":"stop"}},{"type":"Feature","geometry":{"type":"Point","coordinates":[4.318032,50.843785]},"properties":{"name":"JACQUES BREL","original_ids":"[2625, 2626]","id":21,"layer":"stop"}},{"type":"Feature","geometry":{"type":"Point","coordinates":[4.312081,50.839462]},"properties":{"name":"AUMALE","original_ids":"[2621, 2622]","id":22,"layer":"stop"}},{"type":"Feature","geometry":{"type":"Point","coordinates":[4.305052,50.834649]},"properties":{"name":"SAINT-GUIDON","original_ids":"[2617, 2618]","id":23,"layer":"stop"}},{"type":"Feature","geometry":{"type":"Point","coordinates":[4.300578,50.829391]},"properties":{"name":"VEEWEYDE","original_ids":"[2613, 2614]","id":24,"layer":"stop"}},{"type":"Feature","geometry":{"type":"Point","coordinates":[4.297078,50.824934]},"properties":{"name":"BIZET","original_ids":"[2610, 2611]","id":25,"layer":"stop"}},{"type":"Feature","geometry":{"type":"Point","coordinates":[4.293693,50.82092]},"properties":{"name":"LA ROUE","original_ids":"[2606, 2607]","id":26,"layer":"stop"}},{"type":"Feature","geometry":{"type":"Point","coordinates":[4.289054,50.816162]},"properties":{"name":"CERIA","original_ids":"[2602, 2603]","id":27,"layer":"stop"}},{"type":"Feature","geometry":{"type":"Point","coordinates":[4.280609,50.816767]},"properties":{"name":"EDDY MERCKX","original_ids":"[2598, 2599]","id":28,"layer":"stop"}},{"type":"Feature","geometry":{"type":"Point","coordinates":[4.267327,50.815237]},"properties":{"name":"ERASME","original_ids":"[2597, 2593]","id":29,"layer":"stop"}},{"type":"Feature","geometry":{"type":"Point","coordinates":[4.331367,50.862878]},"properties":{"name":"ELISABETH","original_ids":"[2585, 2592, 2647, 2654]","id":30,"layer":"stop"}},{"type":"Feature","geometry":{"type":"Point","coordinates":[4.339753,50.860406]},"properties":{"name":"RIBAUCOURT","original_ids":"[2581, 2584]","id":31,"layer":"stop"}},{"type":"Feature","geometry":{"type":"Point","coordinates":[4.351502,50.857225]},"properties":{"name":"YSER","original_ids":"[2573, 2580]","id":32,"layer":"stop"}},{"type":"Feature","geometry":{"type":"Point","coordinates":[4.358416,50.855412]},"properties":{"name":"ROGIER","original_ids":"[2560, 2572]","id":33,"layer":"stop"}},{"type":"Feature","geometry":{"type":"Point","coordinates":[4.365557,50.85399]},"properties":{"name":"BOTANIQUE","original_ids":"[2557, 2559]","id":34,"layer":"stop"}},{"type":"Feature","geometry":{"type":"Point","coordinates":[4.369174,50.849728]},"properties":{"name":"MADOU","original_ids":"[2551, 2556]","id":35,"layer":"stop"}},{"type":"Feature","geometry":{"type":"Point","coordinates":[4.366354,50.840813]},"properties":{"name":"TRONE","original_ids":"[2501, 2504]","id":36,"layer":"stop"}},{"type":"Feature","geometry":{"type":"Point","coordinates":[4.361263,50.838034]},"properties":{"name":"PORTE DE NAMUR","original_ids":"[2505, 2512]","id":37,"layer":"stop"}},{"type":"Feature","geometry":{"type":"Point","coordinates":[4.354268,50.835074]},"properties":{"name":"LOUISE","original_ids":"[2513, 2519]","id":38,"layer":"stop"}},{"type":"Feature","geometry":{"type":"Point","coordinates":[4.348603,50.833236]},"properties":{"name":"HOTEL DES MONNAIES","original_ids":"[2520, 2525]","id":39,"layer":"stop"}},{"type":"Feature","geometry":{"type":"Point","coordinates":[4.343071,50.833944]},"properties":{"name":"PORTE DE HAL","original_ids":"[2526, 2531]","id":40,"layer":"stop"}},{"type":"Feature","geometry":{"type":"Point","coordinates":[4.338161,50.836273]},"properties":{"name":"GARE DU MIDI","original_ids":"[2532, 2537]","id":41,"layer":"stop"}},{"type":"Feature","geometry":{"type":"Point","coordinates":[4.331202,50.84082]},"properties":{"name":"CLEMENCEAU","original_ids":"[2538, 2541]","id":42,"layer":"stop"}},{"type":"Feature","geometry":{"type":"Point","coordinates":[4.324325,50.845157]},"properties":{"name":"DELACROIX","original_ids":"[2542, 2546]","id":43,"layer":"stop"}},{"type":"Feature","geometry":{"type":"Point","coordinates":[4.325218,50.857115]},"properties":{"name":"OSSEGHEM","original_ids":"[2643, 2646]","id":44,"layer":"stop"}},{"type":"Feature","geometry":{"type":"Point","coordinates":[4.404406,50.818685]},"properties":{"name":"DELTA","original_ids":"[2462, 2463]","id":45,"layer":"stop"}},{"type":"Feature","geometry":{"type":"Point","coordinates":[4.405618,50.821592]},"properties":{"name":"HANKAR","original_ids":"[2457, 2458]","id":46,"layer":"stop"}},{"type":"Feature","geometry":{"type":"Point","coordinates":[4.403859,50.827929]},"properties":{"name":"PETILLON","original_ids":"[2453, 2454]","id":47,"layer":"stop"}},{"type":"Feature","geometry":{"type":"Point","coordinates":[4.401677,50.83369]},"properties":{"name":"THIEFFRY","original_ids":"[2449, 2450]","id":48,"layer":"stop"}},{"type":"Feature","geometry":{"type":"Point","coordinates":[4.409977,50.81505]},"properties":{"name":"BEAULIEU","original_ids":"[2469, 2468]","id":49,"layer":"stop"}},{"type":"Feature","geometry":{"type":"Point","coordinates":[4.42192,50.813192]},"properties":{"name":"DEMEY","original_ids":"[2476, 2475]","id":50,"layer":"stop"}},{"type":"Feature","geometry":{"type":"Point","coordinates":[4.429236,50.812243]},"properties":{"name":"HERRMANN-DEBROUX","original_ids":"[2483, 2482]","id":51,"layer":"stop"}},{"type":"Feature","geometry":{"type":"Point","coordinates":[4.327959,50.89646]},"properties":{"name":"ROI BAUDOUIN","original_ids":"[2686, 2685]","id":52,"layer":"stop"}},{"type":"Feature","geometry":{"type":"Point","coordinates":[4.335515,50.897198]},"properties":{"name":"HEYSEL","original_ids":"[2684, 2679]","id":53,"layer":"stop"}},{"type":"Feature","geometry":{"type":"Point","coordinates":[4.337736,50.8896]},"properties":{"name":"HOUBA-BRUGMANN","original_ids":"[2678, 2675]","id":54,"layer":"stop"}},{"type":"Feature","geometry":{"type":"Point","coordinates":[4.342738,50.88564]},"properties":{"name":"STUYVENBERGH","original_ids":"[2674, 2669]","id":55,"layer":"stop"}},{"type":"Feature","geometry":{"type":"Point","coordinates":[4.347993,50.879152]},"properties":{"name":"BOCKSTAEL","original_ids":"[2668, 2662]","id":56,"layer":"stop"}},{"type":"Feature","geometry":{"type":"Point","coordinates":[4.343137,50.873614]},"properties":{"name":"PANNENHUIS","original_ids":"[2661, 2659]","id":57,"layer":"stop"}},{"type":"Feature","geometry":{"type":"Point","coordinates":[4.336964,50.868474]},"properties":{"name":"BELGICA","original_ids":"[2658, 2655]","id":58,"layer":"stop"}},{"type":"Feature","properties":{"shape_id":"{\"001m0043\": 60, \"001m0069\": 1, \"001m0080\": 105, \"001m0083\": 4, \"001m0109\": 1, \"001m0111\": 1}","direction_id":"{\"0\": 172}","headsign":"{\"STOCKEL\": 172}","duration_avg":85.13953488372093,"n_vehicles":172,"d":701,"route_I_counts":"{\"1\": 172}","source":0,"target":1,"layer":"L","from":"MERODE","to":"MONTGOMERY"},"geometry":{"type":"LineString","coordinates":[[4.398281,50.839364],[4.407955,50.837806]]}},{"type":"Feature","properties":{"duration_avg":115.81159420289855,"n_vehicles":345,"d":1236,"route_I_counts":"{\"1\": 170, \"5\": 175}","shape_id":"{\"001m0042\": 1, \"001m0045\": 60, \"001m0063\": 1, \"001m0082\": 106, \"001m0098\": 2, \"005m0049\": 1, \"005m0123\": 87, \"005m0132\": 2, \"005m0133\": 1, \"005m0163\": 4, \"005m0164\": 78, \"005m0171\": 2}","direction_id":"{\"1\": 345}","headsign":"{\"ERASME\": 172, \"GARE DE L'OUEST\": 173}","source":0,"target":10,"layer":"L","from":"MERODE","to":"SCHUMAN"},"geometry":{"type":"LineString","coordinates":[[4.398281,50.839364],[4.380974,50.842972]]}},{"type":"Feature","properties":{"duration_avg":95.28070175438596,"n_vehicles":171,"d":738,"route_I_counts":"{\"5\": 171}","shape_id":"{\"005m0047\": 4, \"005m0076\": 1, \"005m0125\": 79, \"005m0144\": 87}","direction_id":"{\"0\": 171}","headsign":"{\"DELTA\": 5, \"HERRMANN-DEBROUX\": 166}","source":0,"target":48,"layer":"L","from":"MERODE","to":"THIEFFRY"},"geometry":{"type":"LineString","coordinates":[[4.398281,50.839364],[4.401677,50.83369]]}},{"type":"Feature","properties":{"shape_id":"{\"001m0043\": 60, \"001m0069\": 1, \"001m0080\": 105, \"001m0083\": 4, \"001m0109\": 1, \"001m0111\": 1}","direction_id":"{\"0\": 172}","headsign":"{\"STOCKEL\": 172}","duration_avg":79.86046511627907,"n_vehicles":172,"d":524,"route_I_counts":"{\"1\": 172}","source":1,"target":2,"layer":"L","from":"MONTGOMERY","to":"JOSEPH.-CHARLOTTE"},"geometry":{"type":"LineString","coordinates":[[4.407955,50.837806],[4.414051,50.840527]]}},{"type":"Feature","properties":{"duration_avg":89.0764705882353,"n_vehicles":170,"d":705,"route_I_counts":"{\"1\": 170}","shape_id":"{\"001m0042\": 1, \"001m0045\": 60, \"001m0063\": 1, \"001m0082\": 106, \"001m0098\": 2}","direction_id":"{\"1\": 170}","headsign":"{\"ERASME\": 2, \"GARE DE L'OUEST\": 168}","source":1,"target":0,"layer":"L","from":"MONTGOMERY","to":"MERODE"},"geometry":{"type":"LineString","coordinates":[[4.407955,50.837806],[4.398281,50.839364]]}},{"type":"Feature","properties":{"shape_id":"{\"001m0043\": 60, \"001m0069\": 1, \"001m0080\": 105, \"001m0083\": 4, \"001m0109\": 1, \"001m0111\": 1}","direction_id":"{\"0\": 172}","headsign":"{\"STOCKEL\": 172}","duration_avg":63.19767441860465,"n_vehicles":172,"d":415,"route_I_counts":"{\"1\": 172}","source":2,"target":3,"layer":"L","from":"JOSEPH.-CHARLOTTE","to":"GRIBAUMONT"},"geometry":{"type":"LineString","coordinates":[[4.414051,50.840527],[4.418967,50.842594]]}},{"type":"Feature","properties":{"duration_avg":73.97647058823529,"n_vehicles":170,"d":533,"route_I_counts":"{\"1\": 170}","shape_id":"{\"001m0042\": 1, \"001m0045\": 60, \"001m0063\": 1, \"001m0082\": 106, \"001m0098\": 2}","direction_id":"{\"1\": 170}","headsign":"{\"ERASME\": 2, \"GARE DE L'OUEST\": 168}","source":2,"target":1,"layer":"L","from":"JOSEPH.-CHARLOTTE","to":"MONTGOMERY"},"geometry":{"type":"LineString","coordinates":[[4.414051,50.840527],[4.407955,50.837806]]}},{"type":"Feature","properties":{"shape_id":"{\"001m0043\": 60, \"001m0069\": 1, \"001m0080\": 105, \"001m0083\": 4, \"001m0109\": 1, \"001m0111\": 1}","direction_id":"{\"0\": 172}","headsign":"{\"STOCKEL\": 172}","duration_avg":75.75,"n_vehicles":172,"d":576,"route_I_counts":"{\"1\": 172}","source":3,"target":4,"layer":"L","from":"GRIBAUMONT","to":"TOMBERG"},"geometry":{"type":"LineString","coordinates":[[4.418967,50.842594],[4.426369,50.844833]]}},{"type":"Feature","properties":{"duration_avg":62.14705882352941,"n_vehicles":170,"d":395,"route_I_counts":"{\"1\": 170}","shape_id":"{\"001m0042\": 1, \"001m0045\": 60, \"001m0063\": 1, \"001m0082\": 106, \"001m0098\": 2}","direction_id":"{\"1\": 170}","headsign":"{\"ERASME\": 2, \"GARE DE L'OUEST\": 168}","source":3,"target":2,"layer":"L","from":"GRIBAUMONT","to":"JOSEPH.-CHARLOTTE"},"geometry":{"type":"LineString","coordinates":[[4.418967,50.842594],[4.414051,50.840527]]}},{"type":"Feature","properties":{"shape_id":"{\"001m0043\": 60, \"001m0069\": 1, \"001m0080\": 104, \"001m0083\": 4, \"001m0109\": 1, \"001m0111\": 1}","direction_id":"{\"0\": 171}","headsign":"{\"STOCKEL\": 171}","duration_avg":88.81871345029239,"n_vehicles":171,"d":748,"route_I_counts":"{\"1\": 171}","source":4,"target":5,"layer":"L","from":"TOMBERG","to":"ROODEBEEK"},"geometry":{"type":"LineString","coordinates":[[4.426369,50.844833],[4.436102,50.847552]]}},{"type":"Feature","properties":{"duration_avg":80.12352941176471,"n_vehicles":170,"d":566,"route_I_counts":"{\"1\": 170}","shape_id":"{\"001m0042\": 1, \"001m0045\": 60, \"001m0063\": 1, \"001m0082\": 106, \"001m0098\": 2}","direction_id":"{\"1\": 170}","headsign":"{\"ERASME\": 2, \"GARE DE L'OUEST\": 168}","source":4,"target":3,"layer":"L","from":"TOMBERG","to":"GRIBAUMONT"},"geometry":{"type":"LineString","coordinates":[[4.426369,50.844833],[4.418967,50.842594]]}},{"type":"Feature","properties":{"shape_id":"{\"001m0043\": 60, \"001m0069\": 1, \"001m0080\": 104, \"001m0083\": 4, \"001m0109\": 1, \"001m0111\": 1}","direction_id":"{\"0\": 171}","headsign":"{\"STOCKEL\": 171}","duration_avg":86.87719298245614,"n_vehicles":171,"d":787,"route_I_counts":"{\"1\": 171}","source":5,"target":6,"layer":"L","from":"ROODEBEEK","to":"VANDERVELDE"},"geometry":{"type":"LineString","coordinates":[[4.436102,50.847552],[4.447303,50.847439]]}},{"type":"Feature","properties":{"duration_avg":90.18823529411765,"n_vehicles":170,"d":778,"route_I_counts":"{\"1\": 170}","shape_id":"{\"001m0042\": 1, \"001m0045\": 60, \"001m0063\": 1, \"001m0082\": 106, \"001m0098\": 2}","direction_id":"{\"1\": 170}","headsign":"{\"ERASME\": 2, \"GARE DE L'OUEST\": 168}","source":5,"target":4,"layer":"L","from":"ROODEBEEK","to":"TOMBERG"},"geometry":{"type":"LineString","coordinates":[[4.436102,50.847552],[4.426369,50.844833]]}},{"type":"Feature","properties":{"shape_id":"{\"001m0043\": 60, \"001m0069\": 1, \"001m0080\": 104, \"001m0083\": 4, \"001m0109\": 1, \"001m0111\": 1}","direction_id":"{\"0\": 171}","headsign":"{\"STOCKEL\": 171}","duration_avg":68.77777777777777,"n_vehicles":171,"d":514,"route_I_counts":"{\"1\": 171}","source":6,"target":7,"layer":"L","from":"VANDERVELDE","to":"ALMA"},"geometry":{"type":"LineString","coordinates":[[4.447303,50.847439],[4.4534,50.849991]]}},{"type":"Feature","properties":{"duration_avg":83.0,"n_vehicles":171,"d":776,"route_I_counts":"{\"1\": 171}","shape_id":"{\"001m0042\": 1, \"001m0045\": 60, \"001m0063\": 1, \"001m0082\": 107, \"001m0098\": 2}","direction_id":"{\"1\": 171}","headsign":"{\"ERASME\": 2, \"GARE DE L'OUEST\": 169}","source":6,"target":5,"layer":"L","from":"VANDERVELDE","to":"ROODEBEEK"},"geometry":{"type":"LineString","coordinates":[[4.447303,50.847439],[4.436102,50.847552]]}},{"type":"Feature","properties":{"shape_id":"{\"001m0043\": 60, \"001m0069\": 1, \"001m0080\": 104, \"001m0083\": 4, \"001m0109\": 1, \"001m0111\": 1}","direction_id":"{\"0\": 171}","headsign":"{\"STOCKEL\": 171}","duration_avg":73.76608187134502,"n_vehicles":171,"d":423,"route_I_counts":"{\"1\": 171}","source":7,"target":8,"layer":"L","from":"ALMA","to":"CRAINHEM"},"geometry":{"type":"LineString","coordinates":[[4.4534,50.849991],[4.458929,50.848478]]}},{"type":"Feature","properties":{"duration_avg":70.01754385964912,"n_vehicles":171,"d":531,"route_I_counts":"{\"1\": 171}","shape_id":"{\"001m0042\": 1, \"001m0045\": 60, \"001m0063\": 1, \"001m0082\": 107, \"001m0098\": 2}","direction_id":"{\"1\": 171}","headsign":"{\"ERASME\": 2, \"GARE DE L'OUEST\": 169}","source":7,"target":6,"layer":"L","from":"ALMA","to":"VANDERVELDE"},"geometry":{"type":"LineString","coordinates":[[4.4534,50.849991],[4.447303,50.847439]]}},{"type":"Feature","properties":{"shape_id":"{\"001m0080\": 104, \"001m0083\": 4, \"001m0109\": 1, \"001m0043\": 60, \"001m0069\": 1, \"001m0111\": 1}","direction_id":"{\"0\": 171}","headsign":"{\"STOCKEL\": 171}","duration_avg":116.87770050310743,"n_vehicles":171,"d":834,"route_I_counts":"{\"1\": 171}","source":8,"target":9,"layer":"L","from":"CRAINHEM","to":"STOCKEL"},"geometry":{"type":"LineString","coordinates":[[4.458929,50.848478],[4.464541,50.841872]]}},{"type":"Feature","properties":{"duration_avg":72.78947368421052,"n_vehicles":171,"d":409,"route_I_counts":"{\"1\": 171}","shape_id":"{\"001m0042\": 1, \"001m0045\": 60, \"001m0063\": 1, \"001m0082\": 107, \"001m0098\": 2}","direction_id":"{\"1\": 171}","headsign":"{\"ERASME\": 2, \"GARE DE L'OUEST\": 169}","source":8,"target":7,"layer":"L","from":"CRAINHEM","to":"ALMA"},"geometry":{"type":"LineString","coordinates":[[4.458929,50.848478],[4.4534,50.849991]]}},{"type":"Feature","properties":{"duration_avg":79.0,"n_vehicles":170,"d":872,"route_I_counts":"{\"1\": 170}","shape_id":"{\"001m0042\": 1, \"001m0082\": 107, \"001m0045\": 60, \"001m0098\": 2}","direction_id":"{\"1\": 170}","headsign":"{\"GARE DE L'OUEST\": 168, \"ERASME\": 2}","source":9,"target":8,"layer":"L","from":"STOCKEL","to":"CRAINHEM"},"geometry":{"type":"LineString","coordinates":[[4.464541,50.841872],[4.458929,50.848478]]}},{"type":"Feature","properties":{"shape_id":"{\"001m0042\": 1, \"001m0045\": 60, \"001m0063\": 1, \"001m0082\": 106, \"001m0098\": 2, \"005m0049\": 1, \"005m0123\": 87, \"005m0132\": 2, \"005m0133\": 1, \"005m0163\": 4, \"005m0164\": 78, \"005m0171\": 2}","direction_id":"{\"1\": 345}","headsign":"{\"ERASME\": 172, \"GARE DE L'OUEST\": 173}","duration_avg":67.96231884057971,"n_vehicles":345,"d":288,"route_I_counts":"{\"1\": 170, \"5\": 175}","source":10,"target":11,"layer":"L","from":"SCHUMAN","to":"MAELBEEK"},"geometry":{"type":"LineString","coordinates":[[4.380974,50.842972],[4.377084,50.84379]]}},{"type":"Feature","properties":{"duration_avg":111.93510324483776,"n_vehicles":339,"d":1216,"route_I_counts":"{\"1\": 167, \"5\": 172}","shape_id":"{\"001m0043\": 60, \"001m0080\": 105, \"001m0109\": 1, \"001m0111\": 1, \"005m0047\": 4, \"005m0076\": 1, \"005m0125\": 79, \"005m0144\": 88}","direction_id":"{\"0\": 339}","headsign":"{\"DELTA\": 5, \"HERRMANN-DEBROUX\": 167, \"STOCKEL\": 167}","source":10,"target":0,"layer":"L","from":"SCHUMAN","to":"MERODE"},"geometry":{"type":"LineString","coordinates":[[4.380974,50.842972],[4.398281,50.839364]]}},{"type":"Feature","properties":{"shape_id":"{\"001m0042\": 1, \"001m0045\": 60, \"001m0063\": 1, \"001m0082\": 105, \"001m0098\": 2, \"005m0049\": 1, \"005m0123\": 87, \"005m0132\": 2, \"005m0133\": 1, \"005m0163\": 4, \"005m0164\": 78, \"005m0171\": 2}","direction_id":"{\"1\": 344}","headsign":"{\"ERASME\": 172, \"GARE DE L'OUEST\": 172}","duration_avg":72.95058139534883,"n_vehicles":344,"d":590,"route_I_counts":"{\"1\": 169, \"5\": 175}","source":11,"target":12,"layer":"L","from":"MAELBEEK","to":"ARTS-LOI"},"geometry":{"type":"LineString","coordinates":[[4.377084,50.84379],[4.369121,50.845476]]}},{"type":"Feature","properties":{"duration_avg":63.8023598820059,"n_vehicles":339,"d":314,"route_I_counts":"{\"1\": 167, \"5\": 172}","shape_id":"{\"001m0043\": 60, \"001m0080\": 105, \"001m0109\": 1, \"001m0111\": 1, \"005m0047\": 4, \"005m0076\": 1, \"005m0125\": 79, \"005m0144\": 88}","direction_id":"{\"0\": 339}","headsign":"{\"DELTA\": 5, \"HERRMANN-DEBROUX\": 167, \"STOCKEL\": 167}","source":11,"target":10,"layer":"L","from":"MAELBEEK","to":"SCHUMAN"},"geometry":{"type":"LineString","coordinates":[[4.377084,50.84379],[4.380974,50.842972]]}},{"type":"Feature","properties":{"shape_id":"{\"001m0042\": 1, \"001m0045\": 60, \"001m0063\": 1, \"001m0082\": 105, \"001m0098\": 2, \"005m0049\": 1, \"005m0123\": 87, \"005m0132\": 2, \"005m0133\": 1, \"005m0163\": 4, \"005m0164\": 78, \"005m0171\": 2}","direction_id":"{\"1\": 344}","headsign":"{\"ERASME\": 172, \"GARE DE L'OUEST\": 172}","duration_avg":81.03488372093024,"n_vehicles":344,"d":470,"route_I_counts":"{\"1\": 169, \"5\": 175}","source":12,"target":13,"layer":"L","from":"ARTS-LOI","to":"PARC"},"geometry":{"type":"LineString","coordinates":[[4.369121,50.845476],[4.362431,50.845628]]}},{"type":"Feature","properties":{"duration_avg":79.84542586750788,"n_vehicles":317,"d":541,"route_I_counts":"{\"2\": 158, \"6\": 159}","shape_id":"{\"002m0055\": 158, \"006m0091\": 50, \"006m0144\": 79, \"006m0196\": 3, \"006m0197\": 2, \"006m0285\": 25}","direction_id":"{\"1\": 317}","headsign":"{\"ROI BAUDOUIN\": 159, \"SIMONIS\": 158}","source":12,"target":36,"layer":"L","from":"ARTS-LOI","to":"TRONE"},"geometry":{"type":"LineString","coordinates":[[4.369121,50.845476],[4.366354,50.840813]]}},{"type":"Feature","properties":{"duration_avg":79.0122699386503,"n_vehicles":326,"d":484,"route_I_counts":"{\"2\": 166, \"6\": 160}","shape_id":"{\"002m0012\": 3, \"002m0014\": 7, \"002m0048\": 156, \"006m0087\": 52, \"006m0089\": 54, \"006m0202\": 53, \"006m0203\": 1}","direction_id":"{\"0\": 326}","headsign":"{\"ELISABETH\": 326}","source":12,"target":35,"layer":"L","from":"ARTS-LOI","to":"MADOU"},"geometry":{"type":"LineString","coordinates":[[4.369121,50.845476],[4.369174,50.849728]]}},{"type":"Feature","properties":{"duration_avg":79.36873156342183,"n_vehicles":339,"d":590,"route_I_counts":"{\"1\": 167, \"5\": 172}","shape_id":"{\"001m0043\": 60, \"001m0080\": 105, \"001m0109\": 1, \"001m0111\": 1, \"005m0047\": 4, \"005m0076\": 1, \"005m0125\": 79, \"005m0144\": 88}","direction_id":"{\"0\": 339}","headsign":"{\"DELTA\": 5, \"HERRMANN-DEBROUX\": 167, \"STOCKEL\": 167}","source":12,"target":11,"layer":"L","from":"ARTS-LOI","to":"MAELBEEK"},"geometry":{"type":"LineString","coordinates":[[4.369121,50.845476],[4.377084,50.84379]]}},{"type":"Feature","properties":{"shape_id":"{\"001m0042\": 1, \"001m0045\": 60, \"001m0063\": 1, \"001m0082\": 105, \"001m0098\": 2, \"005m0049\": 1, \"005m0123\": 87, \"005m0132\": 2, \"005m0133\": 1, \"005m0163\": 4, \"005m0164\": 78, \"005m0171\": 2}","direction_id":"{\"1\": 344}","headsign":"{\"ERASME\": 172, \"GARE DE L'OUEST\": 172}","duration_avg":53.145348837209305,"n_vehicles":344,"d":296,"route_I_counts":"{\"1\": 169, \"5\": 175}","source":13,"target":14,"layer":"L","from":"PARC","to":"GARE CENTRALE"},"geometry":{"type":"LineString","coordinates":[[4.362431,50.845628],[4.358551,50.846679]]}},{"type":"Feature","properties":{"duration_avg":69.83480825958702,"n_vehicles":339,"d":468,"route_I_counts":"{\"1\": 167, \"5\": 172}","shape_id":"{\"001m0043\": 60, \"001m0080\": 105, \"001m0109\": 1, \"001m0111\": 1, \"005m0047\": 4, \"005m0076\": 1, \"005m0125\": 79, \"005m0144\": 88}","direction_id":"{\"0\": 339}","headsign":"{\"DELTA\": 5, \"HERRMANN-DEBROUX\": 167, \"STOCKEL\": 167}","source":13,"target":12,"layer":"L","from":"PARC","to":"ARTS-LOI"},"geometry":{"type":"LineString","coordinates":[[4.362431,50.845628],[4.369121,50.845476]]}},{"type":"Feature","properties":{"shape_id":"{\"001m0042\": 1, \"001m0045\": 60, \"001m0063\": 1, \"001m0082\": 105, \"001m0098\": 2, \"005m0049\": 1, \"005m0123\": 87, \"005m0132\": 2, \"005m0133\": 1, \"005m0163\": 4, \"005m0164\": 78, \"005m0171\": 2}","direction_id":"{\"1\": 344}","headsign":"{\"ERASME\": 172, \"GARE DE L'OUEST\": 172}","duration_avg":92.97674418604652,"n_vehicles":344,"d":588,"route_I_counts":"{\"1\": 169, \"5\": 175}","source":14,"target":15,"layer":"L","from":"GARE CENTRALE","to":"DE BROUCKERE"},"geometry":{"type":"LineString","coordinates":[[4.358551,50.846679],[4.352165,50.850095]]}},{"type":"Feature","properties":{"duration_avg":65.92647058823529,"n_vehicles":340,"d":304,"route_I_counts":"{\"1\": 168, \"5\": 172}","shape_id":"{\"001m0043\": 60, \"001m0080\": 106, \"001m0109\": 1, \"001m0111\": 1, \"005m0047\": 4, \"005m0076\": 1, \"005m0125\": 79, \"005m0144\": 88}","direction_id":"{\"0\": 340}","headsign":"{\"DELTA\": 5, \"HERRMANN-DEBROUX\": 167, \"STOCKEL\": 168}","source":14,"target":13,"layer":"L","from":"GARE CENTRALE","to":"PARC"},"geometry":{"type":"LineString","coordinates":[[4.358551,50.846679],[4.362431,50.845628]]}},{"type":"Feature","properties":{"shape_id":"{\"001m0042\": 1, \"001m0045\": 60, \"001m0063\": 1, \"001m0082\": 105, \"001m0098\": 2, \"005m0049\": 1, \"005m0123\": 87, \"005m0132\": 2, \"005m0133\": 1, \"005m0163\": 4, \"005m0164\": 77, \"005m0171\": 2}","direction_id":"{\"1\": 343}","headsign":"{\"ERASME\": 171, \"GARE DE L'OUEST\": 172}","duration_avg":74.4460641399417,"n_vehicles":343,"d":398,"route_I_counts":"{\"1\": 169, \"5\": 174}","source":15,"target":16,"layer":"L","from":"DE BROUCKERE","to":"SAINTE-CATHERINE"},"geometry":{"type":"LineString","coordinates":[[4.352165,50.850095],[4.347749,50.852347]]}},{"type":"Feature","properties":{"duration_avg":83.45294117647059,"n_vehicles":340,"d":587,"route_I_counts":"{\"1\": 168, \"5\": 172}","shape_id":"{\"001m0043\": 60, \"001m0080\": 106, \"001m0109\": 1, \"001m0111\": 1, \"005m0047\": 4, \"005m0076\": 1, \"005m0125\": 79, \"005m0144\": 88}","direction_id":"{\"0\": 340}","headsign":"{\"DELTA\": 5, \"HERRMANN-DEBROUX\": 167, \"STOCKEL\": 168}","source":15,"target":14,"layer":"L","from":"DE BROUCKERE","to":"GARE CENTRALE"},"geometry":{"type":"LineString","coordinates":[[4.352165,50.850095],[4.358551,50.846679]]}},{"type":"Feature","properties":{"shape_id":"{\"001m0042\": 1, \"001m0045\": 60, \"001m0063\": 1, \"001m0082\": 105, \"001m0098\": 2, \"005m0049\": 1, \"005m0123\": 87, \"005m0132\": 2, \"005m0133\": 1, \"005m0163\": 4, \"005m0164\": 77, \"005m0171\": 2}","direction_id":"{\"1\": 343}","headsign":"{\"ERASME\": 171, \"GARE DE L'OUEST\": 172}","duration_avg":85.96793002915452,"n_vehicles":343,"d":614,"route_I_counts":"{\"1\": 169, \"5\": 174}","source":16,"target":17,"layer":"L","from":"SAINTE-CATHERINE","to":"COMTE DE FLANDRE"},"geometry":{"type":"LineString","coordinates":[[4.347749,50.852347],[4.340056,50.854968]]}},{"type":"Feature","properties":{"duration_avg":68.2235294117647,"n_vehicles":340,"d":390,"route_I_counts":"{\"1\": 168, \"5\": 172}","shape_id":"{\"001m0043\": 60, \"001m0080\": 106, \"001m0109\": 1, \"001m0111\": 1, \"005m0047\": 4, \"005m0076\": 1, \"005m0125\": 79, \"005m0144\": 88}","direction_id":"{\"0\": 340}","headsign":"{\"DELTA\": 5, \"HERRMANN-DEBROUX\": 167, \"STOCKEL\": 168}","source":16,"target":15,"layer":"L","from":"SAINTE-CATHERINE","to":"DE BROUCKERE"},"geometry":{"type":"LineString","coordinates":[[4.347749,50.852347],[4.352165,50.850095]]}},{"type":"Feature","properties":{"shape_id":"{\"001m0042\": 1, \"001m0045\": 60, \"001m0063\": 1, \"001m0082\": 105, \"001m0098\": 2, \"005m0049\": 1, \"005m0123\": 87, \"005m0132\": 2, \"005m0133\": 1, \"005m0163\": 4, \"005m0164\": 77, \"005m0171\": 2}","direction_id":"{\"1\": 343}","headsign":"{\"ERASME\": 171, \"GARE DE L'OUEST\": 172}","duration_avg":75.62973760932945,"n_vehicles":343,"d":612,"route_I_counts":"{\"1\": 169, \"5\": 174}","source":17,"target":18,"layer":"L","from":"COMTE DE FLANDRE","to":"ETANGS NOIRS"},"geometry":{"type":"LineString","coordinates":[[4.340056,50.854968],[4.332019,50.857096]]}},{"type":"Feature","properties":{"duration_avg":89.8,"n_vehicles":340,"d":610,"route_I_counts":"{\"1\": 168, \"5\": 172}","shape_id":"{\"001m0043\": 60, \"001m0080\": 106, \"001m0109\": 1, \"001m0111\": 1, \"005m0047\": 4, \"005m0076\": 1, \"005m0125\": 79, \"005m0144\": 88}","direction_id":"{\"0\": 340}","headsign":"{\"DELTA\": 5, \"HERRMANN-DEBROUX\": 167, \"STOCKEL\": 168}","source":17,"target":16,"layer":"L","from":"COMTE DE FLANDRE","to":"SAINTE-CATHERINE"},"geometry":{"type":"LineString","coordinates":[[4.340056,50.854968],[4.347749,50.852347]]}},{"type":"Feature","properties":{"shape_id":"{\"001m0042\": 1, \"001m0045\": 60, \"001m0063\": 1, \"001m0082\": 105, \"001m0098\": 2, \"005m0049\": 1, \"005m0123\": 87, \"005m0132\": 2, \"005m0133\": 1, \"005m0163\": 4, \"005m0164\": 77, \"005m0171\": 2}","direction_id":"{\"1\": 343}","headsign":"{\"ERASME\": 171, \"GARE DE L'OUEST\": 172}","duration_avg":94.56851311953353,"n_vehicles":343,"d":787,"route_I_counts":"{\"1\": 169, \"5\": 174}","source":18,"target":19,"layer":"L","from":"ETANGS NOIRS","to":"BEEKKANT"},"geometry":{"type":"LineString","coordinates":[[4.332019,50.857096],[4.322763,50.853111]]}},{"type":"Feature","properties":{"duration_avg":76.0674486803519,"n_vehicles":341,"d":585,"route_I_counts":"{\"1\": 168, \"5\": 173}","shape_id":"{\"001m0043\": 60, \"001m0080\": 106, \"001m0109\": 1, \"001m0111\": 1, \"005m0047\": 4, \"005m0076\": 1, \"005m0125\": 79, \"005m0144\": 89}","direction_id":"{\"0\": 341}","headsign":"{\"DELTA\": 5, \"HERRMANN-DEBROUX\": 168, \"STOCKEL\": 168}","source":18,"target":17,"layer":"L","from":"ETANGS NOIRS","to":"COMTE DE FLANDRE"},"geometry":{"type":"LineString","coordinates":[[4.332019,50.857096],[4.340056,50.854968]]}},{"type":"Feature","properties":{"shape_id":"{\"001m0042\": 1, \"001m0045\": 60, \"001m0063\": 1, \"001m0082\": 104, \"001m0098\": 2, \"005m0049\": 1, \"005m0123\": 87, \"005m0132\": 2, \"005m0133\": 1, \"005m0163\": 4, \"005m0164\": 77, \"005m0171\": 2, \"002m0012\": 3, \"002m0048\": 157, \"006m0087\": 53, \"006m0089\": 54, \"006m0202\": 53, \"006m0203\": 1}","direction_id":"{\"1\": 342, \"0\": 321}","headsign":"{\"ERASME\": 171, \"GARE DE L'OUEST\": 171, \"ELISABETH\": 321}","duration_avg":77.7295048368585,"n_vehicles":663,"d":524,"route_I_counts":"{\"1\": 168, \"5\": 174, \"2\": 160, \"6\": 161}","source":19,"target":20,"layer":"L","from":"BEEKKANT","to":"GARE DE L'OUEST"},"geometry":{"type":"LineString","coordinates":[[4.322763,50.853111],[4.320673,50.848584]]}},{"type":"Feature","properties":{"duration_avg":75.28164556962025,"n_vehicles":316,"d":444,"route_I_counts":"{\"2\": 157, \"6\": 159}","shape_id":"{\"002m0055\": 157, \"006m0088\": 1, \"006m0091\": 49, \"006m0144\": 78, \"006m0196\": 3, \"006m0197\": 2, \"006m0199\": 1, \"006m0285\": 25}","direction_id":"{\"1\": 316}","headsign":"{\"ROI BAUDOUIN\": 159, \"SIMONIS\": 157}","source":19,"target":44,"layer":"L","from":"BEEKKANT","to":"OSSEGHEM"},"geometry":{"type":"LineString","coordinates":[[4.322763,50.853111],[4.325218,50.857115]]}},{"type":"Feature","properties":{"duration_avg":103.79472140762464,"n_vehicles":341,"d":826,"route_I_counts":"{\"1\": 168, \"5\": 173}","shape_id":"{\"001m0043\": 60, \"001m0080\": 106, \"001m0109\": 1, \"001m0111\": 1, \"005m0047\": 4, \"005m0076\": 1, \"005m0125\": 79, \"005m0144\": 89}","direction_id":"{\"0\": 341}","headsign":"{\"DELTA\": 5, \"HERRMANN-DEBROUX\": 168, \"STOCKEL\": 168}","source":19,"target":18,"layer":"L","from":"BEEKKANT","to":"ETANGS NOIRS"},"geometry":{"type":"LineString","coordinates":[[4.322763,50.853111],[4.332019,50.857096]]}},{"type":"Feature","properties":{"shape_id":"{\"001m0098\": 2, \"005m0123\": 87, \"005m0132\": 2, \"005m0133\": 1, \"005m0164\": 77, \"005m0171\": 2}","direction_id":"{\"1\": 171}","headsign":"{\"ERASME\": 171}","duration_avg":77.0701754385965,"n_vehicles":171,"d":565,"route_I_counts":"{\"1\": 2, \"5\": 169}","source":20,"target":21,"layer":"L","from":"GARE DE L'OUEST","to":"JACQUES BREL"},"geometry":{"type":"LineString","coordinates":[[4.320673,50.848584],[4.318032,50.843785]]}},{"type":"Feature","properties":{"duration_avg":76.51348534322136,"n_vehicles":658,"d":508,"route_I_counts":"{\"1\": 168, \"5\": 173, \"2\": 157, \"6\": 160}","shape_id":"{\"001m0043\": 60, \"001m0080\": 106, \"005m0047\": 4, \"001m0109\": 1, \"001m0111\": 1, \"005m0076\": 1, \"005m0125\": 79, \"005m0144\": 89, \"002m0055\": 157, \"006m0088\": 1, \"006m0091\": 49, \"006m0144\": 79, \"006m0196\": 3, \"006m0197\": 2, \"006m0199\": 1, \"006m0285\": 25}","direction_id":"{\"0\": 341, \"1\": 317}","headsign":"{\"DELTA\": 5, \"STOCKEL\": 168, \"HERRMANN-DEBROUX\": 168, \"ROI BAUDOUIN\": 160, \"SIMONIS\": 157}","source":20,"target":19,"layer":"L","from":"GARE DE L'OUEST","to":"BEEKKANT"},"geometry":{"type":"LineString","coordinates":[[4.320673,50.848584],[4.322763,50.853111]]}},{"type":"Feature","properties":{"duration_avg":78.67289719626169,"n_vehicles":321,"d":496,"route_I_counts":"{\"2\": 160, \"6\": 161}","shape_id":"{\"002m0012\": 3, \"002m0048\": 157, \"006m0087\": 53, \"006m0089\": 54, \"006m0202\": 53, \"006m0203\": 1}","direction_id":"{\"0\": 321}","headsign":"{\"ELISABETH\": 321}","source":20,"target":43,"layer":"L","from":"GARE DE L'OUEST","to":"DELACROIX"},"geometry":{"type":"LineString","coordinates":[[4.320673,50.848584],[4.324325,50.845157]]}},{"type":"Feature","properties":{"shape_id":"{\"001m0098\": 2, \"005m0123\": 87, \"005m0132\": 2, \"005m0133\": 1, \"005m0164\": 77, \"005m0171\": 2}","direction_id":"{\"1\": 171}","headsign":"{\"ERASME\": 171}","duration_avg":76.08187134502924,"n_vehicles":171,"d":637,"route_I_counts":"{\"1\": 2, \"5\": 169}","source":21,"target":22,"layer":"L","from":"JACQUES BREL","to":"AUMALE"},"geometry":{"type":"LineString","coordinates":[[4.318032,50.843785],[4.312081,50.839462]]}},{"type":"Feature","properties":{"duration_avg":76.11695906432749,"n_vehicles":171,"d":592,"route_I_counts":"{\"1\": 2, \"5\": 169}","shape_id":"{\"001m0109\": 1, \"001m0111\": 1, \"005m0076\": 1, \"005m0125\": 79, \"005m0144\": 89}","direction_id":"{\"0\": 171}","headsign":"{\"DELTA\": 1, \"HERRMANN-DEBROUX\": 168, \"STOCKEL\": 2}","source":21,"target":20,"layer":"L","from":"JACQUES BREL","to":"GARE DE L'OUEST"},"geometry":{"type":"LineString","coordinates":[[4.318032,50.843785],[4.320673,50.848584]]}},{"type":"Feature","properties":{"shape_id":"{\"001m0098\": 2, \"005m0123\": 87, \"005m0132\": 2, \"005m0133\": 1, \"005m0164\": 77, \"005m0171\": 2}","direction_id":"{\"1\": 171}","headsign":"{\"ERASME\": 171}","duration_avg":77.84210526315789,"n_vehicles":171,"d":728,"route_I_counts":"{\"1\": 2, \"5\": 169}","source":22,"target":23,"layer":"L","from":"AUMALE","to":"SAINT-GUIDON"},"geometry":{"type":"LineString","coordinates":[[4.312081,50.839462],[4.305052,50.834649]]}},{"type":"Feature","properties":{"duration_avg":84.83625730994152,"n_vehicles":171,"d":623,"route_I_counts":"{\"1\": 2, \"5\": 169}","shape_id":"{\"001m0109\": 1, \"001m0111\": 1, \"005m0076\": 1, \"005m0125\": 79, \"005m0144\": 89}","direction_id":"{\"0\": 171}","headsign":"{\"DELTA\": 1, \"HERRMANN-DEBROUX\": 168, \"STOCKEL\": 2}","source":22,"target":21,"layer":"L","from":"AUMALE","to":"JACQUES BREL"},"geometry":{"type":"LineString","coordinates":[[4.312081,50.839462],[4.318032,50.843785]]}},{"type":"Feature","properties":{"shape_id":"{\"001m0098\": 2, \"005m0123\": 87, \"005m0132\": 2, \"005m0133\": 1, \"005m0164\": 76, \"005m0171\": 2}","direction_id":"{\"1\": 170}","headsign":"{\"ERASME\": 170}","duration_avg":83.91764705882353,"n_vehicles":170,"d":664,"route_I_counts":"{\"1\": 2, \"5\": 168}","source":23,"target":24,"layer":"L","from":"SAINT-GUIDON","to":"VEEWEYDE"},"geometry":{"type":"LineString","coordinates":[[4.305052,50.834649],[4.300578,50.829391]]}},{"type":"Feature","properties":{"duration_avg":84.88888888888889,"n_vehicles":171,"d":731,"route_I_counts":"{\"1\": 2, \"5\": 169}","shape_id":"{\"001m0109\": 1, \"001m0111\": 1, \"005m0076\": 1, \"005m0125\": 79, \"005m0144\": 89}","direction_id":"{\"0\": 171}","headsign":"{\"DELTA\": 1, \"HERRMANN-DEBROUX\": 168, \"STOCKEL\": 2}","source":23,"target":22,"layer":"L","from":"SAINT-GUIDON","to":"AUMALE"},"geometry":{"type":"LineString","coordinates":[[4.305052,50.834649],[4.312081,50.839462]]}},{"type":"Feature","properties":{"shape_id":"{\"001m0098\": 2, \"005m0123\": 87, \"005m0132\": 2, \"005m0133\": 1, \"005m0164\": 76, \"005m0171\": 2}","direction_id":"{\"1\": 170}","headsign":"{\"ERASME\": 170}","duration_avg":76.12352941176471,"n_vehicles":170,"d":553,"route_I_counts":"{\"1\": 2, \"5\": 168}","source":24,"target":25,"layer":"L","from":"VEEWEYDE","to":"BIZET"},"geometry":{"type":"LineString","coordinates":[[4.300578,50.829391],[4.297078,50.824934]]}},{"type":"Feature","properties":{"duration_avg":83.86549707602339,"n_vehicles":171,"d":674,"route_I_counts":"{\"1\": 2, \"5\": 169}","shape_id":"{\"001m0109\": 1, \"001m0111\": 1, \"005m0076\": 1, \"005m0125\": 79, \"005m0144\": 89}","direction_id":"{\"0\": 171}","headsign":"{\"DELTA\": 1, \"HERRMANN-DEBROUX\": 168, \"STOCKEL\": 2}","source":24,"target":23,"layer":"L","from":"VEEWEYDE","to":"SAINT-GUIDON"},"geometry":{"type":"LineString","coordinates":[[4.300578,50.829391],[4.305052,50.834649]]}},{"type":"Feature","properties":{"shape_id":"{\"001m0098\": 2, \"005m0123\": 87, \"005m0130\": 1, \"005m0132\": 2, \"005m0133\": 1, \"005m0161\": 1, \"005m0164\": 76, \"005m0171\": 2, \"005m0182\": 1}","direction_id":"{\"1\": 173}","headsign":"{\"ERASME\": 173}","duration_avg":70.65317919075144,"n_vehicles":173,"d":506,"route_I_counts":"{\"1\": 2, \"5\": 171}","source":25,"target":26,"layer":"L","from":"BIZET","to":"LA ROUE"},"geometry":{"type":"LineString","coordinates":[[4.297078,50.824934],[4.293693,50.82092]]}},{"type":"Feature","properties":{"duration_avg":76.80232558139535,"n_vehicles":172,"d":540,"route_I_counts":"{\"1\": 2, \"5\": 170}","shape_id":"{\"001m0109\": 1, \"001m0111\": 1, \"005m0076\": 1, \"005m0125\": 79, \"005m0144\": 90}","direction_id":"{\"0\": 172}","headsign":"{\"DELTA\": 1, \"HERRMANN-DEBROUX\": 169, \"STOCKEL\": 2}","source":25,"target":24,"layer":"L","from":"BIZET","to":"VEEWEYDE"},"geometry":{"type":"LineString","coordinates":[[4.297078,50.824934],[4.300578,50.829391]]}},{"type":"Feature","properties":{"shape_id":"{\"001m0098\": 2, \"005m0123\": 87, \"005m0130\": 1, \"005m0132\": 2, \"005m0133\": 1, \"005m0161\": 1, \"005m0164\": 76, \"005m0171\": 2, \"005m0182\": 1}","direction_id":"{\"1\": 173}","headsign":"{\"ERASME\": 173}","duration_avg":77.15606936416185,"n_vehicles":173,"d":622,"route_I_counts":"{\"1\": 2, \"5\": 171}","source":26,"target":27,"layer":"L","from":"LA ROUE","to":"CERIA"},"geometry":{"type":"LineString","coordinates":[[4.293693,50.82092],[4.289054,50.816162]]}},{"type":"Feature","properties":{"duration_avg":68.62209302325581,"n_vehicles":172,"d":502,"route_I_counts":"{\"1\": 2, \"5\": 170}","shape_id":"{\"001m0109\": 1, \"001m0111\": 1, \"005m0076\": 1, \"005m0125\": 79, \"005m0144\": 90}","direction_id":"{\"0\": 172}","headsign":"{\"DELTA\": 1, \"HERRMANN-DEBROUX\": 169, \"STOCKEL\": 2}","source":26,"target":25,"layer":"L","from":"LA ROUE","to":"BIZET"},"geometry":{"type":"LineString","coordinates":[[4.293693,50.82092],[4.297078,50.824934]]}},{"type":"Feature","properties":{"shape_id":"{\"001m0098\": 2, \"005m0123\": 87, \"005m0130\": 1, \"005m0132\": 2, \"005m0133\": 1, \"005m0161\": 1, \"005m0164\": 76, \"005m0171\": 2, \"005m0182\": 1}","direction_id":"{\"1\": 173}","headsign":"{\"ERASME\": 173}","duration_avg":80.95375722543352,"n_vehicles":173,"d":597,"route_I_counts":"{\"1\": 2, \"5\": 171}","source":27,"target":28,"layer":"L","from":"CERIA","to":"EDDY MERCKX"},"geometry":{"type":"LineString","coordinates":[[4.289054,50.816162],[4.280609,50.816767]]}},{"type":"Feature","properties":{"duration_avg":81.88953488372093,"n_vehicles":172,"d":599,"route_I_counts":"{\"1\": 2, \"5\": 170}","shape_id":"{\"001m0109\": 1, \"001m0111\": 1, \"005m0076\": 1, \"005m0125\": 79, \"005m0144\": 90}","direction_id":"{\"0\": 172}","headsign":"{\"DELTA\": 1, \"HERRMANN-DEBROUX\": 169, \"STOCKEL\": 2}","source":27,"target":26,"layer":"L","from":"CERIA","to":"LA ROUE"},"geometry":{"type":"LineString","coordinates":[[4.289054,50.816162],[4.293693,50.82092]]}},{"type":"Feature","properties":{"shape_id":"{\"001m0098\": 2, \"005m0123\": 87, \"005m0130\": 1, \"005m0132\": 2, \"005m0133\": 1, \"005m0182\": 1, \"005m0161\": 1, \"005m0164\": 76, \"005m0171\": 2}","direction_id":"{\"1\": 173}","headsign":"{\"ERASME\": 173}","duration_avg":124.71936439536762,"n_vehicles":173,"d":949,"route_I_counts":"{\"1\": 2, \"5\": 171}","source":28,"target":29,"layer":"L","from":"EDDY MERCKX","to":"ERASME"},"geometry":{"type":"LineString","coordinates":[[4.280609,50.816767],[4.267327,50.815237]]}},{"type":"Feature","properties":{"duration_avg":80.63953488372093,"n_vehicles":172,"d":608,"route_I_counts":"{\"1\": 2, \"5\": 170}","shape_id":"{\"001m0109\": 1, \"001m0111\": 1, \"005m0076\": 1, \"005m0125\": 79, \"005m0144\": 90}","direction_id":"{\"0\": 172}","headsign":"{\"DELTA\": 1, \"HERRMANN-DEBROUX\": 169, \"STOCKEL\": 2}","source":28,"target":27,"layer":"L","from":"EDDY MERCKX","to":"CERIA"},"geometry":{"type":"LineString","coordinates":[[4.280609,50.816767],[4.289054,50.816162]]}},{"type":"Feature","properties":{"duration_avg":92.1236559139785,"n_vehicles":172,"d":1010,"route_I_counts":"{\"1\": 2, \"5\": 170}","shape_id":"{\"001m0109\": 1, \"001m0111\": 1, \"005m0076\": 1, \"005m0144\": 90, \"005m0125\": 79}","direction_id":"{\"0\": 172}","headsign":"{\"DELTA\": 1, \"HERRMANN-DEBROUX\": 169, \"STOCKEL\": 2}","source":29,"target":28,"layer":"L","from":"ERASME","to":"EDDY MERCKX"},"geometry":{"type":"LineString","coordinates":[[4.267327,50.815237],[4.280609,50.816767]]}},{"type":"Feature","properties":{"shape_id":"{\"002m0055\": 159, \"006m0091\": 50, \"006m0144\": 79, \"006m0196\": 3, \"006m0197\": 2, \"006m0285\": 25}","direction_id":"{\"1\": 318}","headsign":"{\"ROI BAUDOUIN\": 159, \"SIMONIS\": 159}","duration_avg":62.062893081761004,"n_vehicles":318,"d":650,"route_I_counts":"{\"2\": 159, \"6\": 159}","source":30,"target":31,"layer":"L","from":"ELISABETH","to":"RIBAUCOURT"},"geometry":{"type":"LineString","coordinates":[[4.331367,50.862878],[4.339753,50.860406]]}},{"type":"Feature","properties":{"duration_avg":90.03144654088051,"n_vehicles":159,"d":687,"route_I_counts":"{\"6\": 159}","shape_id":"{\"006m0088\": 1, \"006m0091\": 49, \"006m0144\": 78, \"006m0196\": 3, \"006m0197\": 2, \"006m0199\": 1, \"006m0285\": 25}","direction_id":"{\"1\": 159}","headsign":"{\"ROI BAUDOUIN\": 159}","source":30,"target":58,"layer":"L","from":"ELISABETH","to":"BELGICA"},"geometry":{"type":"LineString","coordinates":[[4.331367,50.862878],[4.336964,50.868474]]}},{"type":"Feature","properties":{"duration_avg":81.61059190031153,"n_vehicles":321,"d":788,"route_I_counts":"{\"2\": 160, \"6\": 161}","shape_id":"{\"002m0012\": 3, \"002m0048\": 157, \"006m0087\": 53, \"006m0089\": 54, \"006m0202\": 53, \"006m0203\": 1}","direction_id":"{\"0\": 321}","headsign":"{\"ELISABETH\": 321}","source":30,"target":44,"layer":"L","from":"ELISABETH","to":"OSSEGHEM"},"geometry":{"type":"LineString","coordinates":[[4.331367,50.862878],[4.325218,50.857115]]}},{"type":"Feature","properties":{"shape_id":"{\"002m0055\": 159, \"006m0091\": 50, \"006m0144\": 79, \"006m0196\": 3, \"006m0197\": 2, \"006m0285\": 25}","direction_id":"{\"1\": 318}","headsign":"{\"ROI BAUDOUIN\": 159, \"SIMONIS\": 159}","duration_avg":92.36477987421384,"n_vehicles":318,"d":898,"route_I_counts":"{\"2\": 159, \"6\": 159}","source":31,"target":32,"layer":"L","from":"RIBAUCOURT","to":"YSER"},"geometry":{"type":"LineString","coordinates":[[4.339753,50.860406],[4.351502,50.857225]]}},{"type":"Feature","properties":{"duration_avg":82.19753086419753,"n_vehicles":324,"d":680,"route_I_counts":"{\"2\": 165, \"6\": 159}","shape_id":"{\"002m0012\": 3, \"002m0014\": 7, \"002m0048\": 155, \"006m0087\": 51, \"006m0089\": 54, \"006m0202\": 53, \"006m0203\": 1}","direction_id":"{\"0\": 324}","headsign":"{\"ELISABETH\": 324}","source":31,"target":30,"layer":"L","from":"RIBAUCOURT","to":"ELISABETH"},"geometry":{"type":"LineString","coordinates":[[4.339753,50.860406],[4.331367,50.862878]]}},{"type":"Feature","properties":{"shape_id":"{\"002m0055\": 159, \"006m0091\": 50, \"006m0144\": 79, \"006m0196\": 3, \"006m0197\": 2, \"006m0285\": 25}","direction_id":"{\"1\": 318}","headsign":"{\"ROI BAUDOUIN\": 159, \"SIMONIS\": 159}","duration_avg":74.02830188679245,"n_vehicles":318,"d":526,"route_I_counts":"{\"2\": 159, \"6\": 159}","source":32,"target":33,"layer":"L","from":"YSER","to":"ROGIER"},"geometry":{"type":"LineString","coordinates":[[4.351502,50.857225],[4.358416,50.855412]]}},{"type":"Feature","properties":{"duration_avg":94.20923076923077,"n_vehicles":325,"d":896,"route_I_counts":"{\"2\": 165, \"6\": 160}","shape_id":"{\"002m0012\": 3, \"002m0014\": 7, \"002m0048\": 155, \"006m0087\": 52, \"006m0089\": 54, \"006m0202\": 53, \"006m0203\": 1}","direction_id":"{\"0\": 325}","headsign":"{\"ELISABETH\": 325}","source":32,"target":31,"layer":"L","from":"YSER","to":"RIBAUCOURT"},"geometry":{"type":"LineString","coordinates":[[4.351502,50.857225],[4.339753,50.860406]]}},{"type":"Feature","properties":{"shape_id":"{\"002m0055\": 159, \"006m0091\": 50, \"006m0144\": 79, \"006m0196\": 3, \"006m0197\": 2, \"006m0285\": 25}","direction_id":"{\"1\": 318}","headsign":"{\"ROI BAUDOUIN\": 159, \"SIMONIS\": 159}","duration_avg":79.55974842767296,"n_vehicles":318,"d":526,"route_I_counts":"{\"2\": 159, \"6\": 159}","source":33,"target":34,"layer":"L","from":"ROGIER","to":"BOTANIQUE"},"geometry":{"type":"LineString","coordinates":[[4.358416,50.855412],[4.365557,50.85399]]}},{"type":"Feature","properties":{"duration_avg":80.63692307692308,"n_vehicles":325,"d":537,"route_I_counts":"{\"2\": 165, \"6\": 160}","shape_id":"{\"002m0012\": 3, \"002m0014\": 7, \"002m0048\": 155, \"006m0087\": 52, \"006m0089\": 54, \"006m0202\": 53, \"006m0203\": 1}","direction_id":"{\"0\": 325}","headsign":"{\"ELISABETH\": 325}","source":33,"target":32,"layer":"L","from":"ROGIER","to":"YSER"},"geometry":{"type":"LineString","coordinates":[[4.358416,50.855412],[4.351502,50.857225]]}},{"type":"Feature","properties":{"shape_id":"{\"002m0055\": 158, \"006m0091\": 50, \"006m0144\": 79, \"006m0196\": 3, \"006m0197\": 2, \"006m0285\": 25}","direction_id":"{\"1\": 317}","headsign":"{\"ROI BAUDOUIN\": 159, \"SIMONIS\": 158}","duration_avg":76.7981072555205,"n_vehicles":317,"d":538,"route_I_counts":"{\"2\": 158, \"6\": 159}","source":34,"target":35,"layer":"L","from":"BOTANIQUE","to":"MADOU"},"geometry":{"type":"LineString","coordinates":[[4.365557,50.85399],[4.369174,50.849728]]}},{"type":"Feature","properties":{"duration_avg":74.37230769230769,"n_vehicles":325,"d":515,"route_I_counts":"{\"2\": 165, \"6\": 160}","shape_id":"{\"002m0012\": 3, \"002m0014\": 7, \"002m0048\": 155, \"006m0087\": 52, \"006m0089\": 54, \"006m0202\": 53, \"006m0203\": 1}","direction_id":"{\"0\": 325}","headsign":"{\"ELISABETH\": 325}","source":34,"target":33,"layer":"L","from":"BOTANIQUE","to":"ROGIER"},"geometry":{"type":"LineString","coordinates":[[4.365557,50.85399],[4.358416,50.855412]]}},{"type":"Feature","properties":{"duration_avg":70.63406940063092,"n_vehicles":317,"d":478,"route_I_counts":"{\"2\": 158, \"6\": 159}","shape_id":"{\"002m0055\": 158, \"006m0091\": 50, \"006m0144\": 79, \"006m0196\": 3, \"006m0197\": 2, \"006m0285\": 25}","direction_id":"{\"1\": 317}","headsign":"{\"ROI BAUDOUIN\": 159, \"SIMONIS\": 158}","source":35,"target":12,"layer":"L","from":"MADOU","to":"ARTS-LOI"},"geometry":{"type":"LineString","coordinates":[[4.369174,50.849728],[4.369121,50.845476]]}},{"type":"Feature","properties":{"duration_avg":78.78153846153846,"n_vehicles":325,"d":538,"route_I_counts":"{\"2\": 165, \"6\": 160}","shape_id":"{\"002m0012\": 3, \"002m0014\": 7, \"002m0048\": 155, \"006m0087\": 52, \"006m0089\": 54, \"006m0202\": 53, \"006m0203\": 1}","direction_id":"{\"0\": 325}","headsign":"{\"ELISABETH\": 325}","source":35,"target":34,"layer":"L","from":"MADOU","to":"BOTANIQUE"},"geometry":{"type":"LineString","coordinates":[[4.369174,50.849728],[4.365557,50.85399]]}},{"type":"Feature","properties":{"shape_id":"{\"002m0055\": 158, \"006m0091\": 50, \"006m0144\": 79, \"006m0196\": 3, \"006m0197\": 2, \"006m0285\": 25}","direction_id":"{\"1\": 317}","headsign":"{\"ROI BAUDOUIN\": 159, \"SIMONIS\": 158}","duration_avg":79.21766561514195,"n_vehicles":317,"d":473,"route_I_counts":"{\"2\": 158, \"6\": 159}","source":36,"target":37,"layer":"L","from":"TRONE","to":"PORTE DE NAMUR"},"geometry":{"type":"LineString","coordinates":[[4.366354,50.840813],[4.361263,50.838034]]}},{"type":"Feature","properties":{"duration_avg":71.7361963190184,"n_vehicles":326,"d":536,"route_I_counts":"{\"2\": 166, \"6\": 160}","shape_id":"{\"002m0012\": 3, \"002m0014\": 7, \"002m0048\": 156, \"006m0087\": 52, \"006m0089\": 54, \"006m0202\": 53, \"006m0203\": 1}","direction_id":"{\"0\": 326}","headsign":"{\"ELISABETH\": 326}","source":36,"target":12,"layer":"L","from":"TRONE","to":"ARTS-LOI"},"geometry":{"type":"LineString","coordinates":[[4.366354,50.840813],[4.369121,50.845476]]}},{"type":"Feature","properties":{"shape_id":"{\"002m0055\": 158, \"006m0091\": 49, \"006m0144\": 79, \"006m0196\": 3, \"006m0197\": 2, \"006m0285\": 25}","direction_id":"{\"1\": 316}","headsign":"{\"ROI BAUDOUIN\": 158, \"SIMONIS\": 158}","duration_avg":79.92088607594937,"n_vehicles":316,"d":591,"route_I_counts":"{\"2\": 158, \"6\": 158}","source":37,"target":38,"layer":"L","from":"PORTE DE NAMUR","to":"LOUISE"},"geometry":{"type":"LineString","coordinates":[[4.361263,50.838034],[4.354268,50.835074]]}},{"type":"Feature","properties":{"duration_avg":78.29141104294479,"n_vehicles":326,"d":460,"route_I_counts":"{\"2\": 166, \"6\": 160}","shape_id":"{\"002m0012\": 3, \"002m0014\": 7, \"002m0048\": 156, \"006m0087\": 52, \"006m0089\": 54, \"006m0202\": 53, \"006m0203\": 1}","direction_id":"{\"0\": 326}","headsign":"{\"ELISABETH\": 326}","source":37,"target":36,"layer":"L","from":"PORTE DE NAMUR","to":"TRONE"},"geometry":{"type":"LineString","coordinates":[[4.361263,50.838034],[4.366354,50.840813]]}},{"type":"Feature","properties":{"shape_id":"{\"002m0055\": 158, \"006m0091\": 49, \"006m0144\": 79, \"006m0196\": 3, \"006m0197\": 2, \"006m0285\": 25}","direction_id":"{\"1\": 316}","headsign":"{\"ROI BAUDOUIN\": 158, \"SIMONIS\": 158}","duration_avg":71.80379746835443,"n_vehicles":316,"d":447,"route_I_counts":"{\"2\": 158, \"6\": 158}","source":38,"target":39,"layer":"L","from":"LOUISE","to":"HOTEL DES MONNAIES"},"geometry":{"type":"LineString","coordinates":[[4.354268,50.835074],[4.348603,50.833236]]}},{"type":"Feature","properties":{"duration_avg":82.96319018404908,"n_vehicles":326,"d":599,"route_I_counts":"{\"2\": 166, \"6\": 160}","shape_id":"{\"002m0012\": 3, \"002m0014\": 7, \"002m0048\": 156, \"006m0087\": 52, \"006m0089\": 54, \"006m0202\": 53, \"006m0203\": 1}","direction_id":"{\"0\": 326}","headsign":"{\"ELISABETH\": 326}","source":38,"target":37,"layer":"L","from":"LOUISE","to":"PORTE DE NAMUR"},"geometry":{"type":"LineString","coordinates":[[4.354268,50.835074],[4.361263,50.838034]]}},{"type":"Feature","properties":{"shape_id":"{\"002m0055\": 158, \"006m0091\": 49, \"006m0144\": 79, \"006m0196\": 3, \"006m0197\": 2, \"006m0285\": 25}","direction_id":"{\"1\": 316}","headsign":"{\"ROI BAUDOUIN\": 158, \"SIMONIS\": 158}","duration_avg":69.50632911392405,"n_vehicles":316,"d":396,"route_I_counts":"{\"2\": 158, \"6\": 158}","source":39,"target":40,"layer":"L","from":"HOTEL DES MONNAIES","to":"PORTE DE HAL"},"geometry":{"type":"LineString","coordinates":[[4.348603,50.833236],[4.343071,50.833944]]}},{"type":"Feature","properties":{"duration_avg":69.11042944785277,"n_vehicles":326,"d":433,"route_I_counts":"{\"2\": 166, \"6\": 160}","shape_id":"{\"002m0012\": 3, \"002m0014\": 7, \"002m0048\": 156, \"006m0087\": 52, \"006m0089\": 54, \"006m0202\": 53, \"006m0203\": 1}","direction_id":"{\"0\": 326}","headsign":"{\"ELISABETH\": 326}","source":39,"target":38,"layer":"L","from":"HOTEL DES MONNAIES","to":"LOUISE"},"geometry":{"type":"LineString","coordinates":[[4.348603,50.833236],[4.354268,50.835074]]}},{"type":"Feature","properties":{"shape_id":"{\"002m0055\": 158, \"006m0091\": 49, \"006m0144\": 79, \"006m0196\": 3, \"006m0197\": 2, \"006m0285\": 25}","direction_id":"{\"1\": 316}","headsign":"{\"ROI BAUDOUIN\": 158, \"SIMONIS\": 158}","duration_avg":74.31962025316456,"n_vehicles":316,"d":431,"route_I_counts":"{\"2\": 158, \"6\": 158}","source":40,"target":41,"layer":"L","from":"PORTE DE HAL","to":"GARE DU MIDI"},"geometry":{"type":"LineString","coordinates":[[4.343071,50.833944],[4.338161,50.836273]]}},{"type":"Feature","properties":{"duration_avg":71.26605504587155,"n_vehicles":327,"d":403,"route_I_counts":"{\"2\": 166, \"6\": 161}","shape_id":"{\"002m0012\": 3, \"002m0014\": 7, \"002m0048\": 156, \"006m0087\": 53, \"006m0089\": 54, \"006m0202\": 53, \"006m0203\": 1}","direction_id":"{\"0\": 327}","headsign":"{\"ELISABETH\": 327}","source":40,"target":39,"layer":"L","from":"PORTE DE HAL","to":"HOTEL DES MONNAIES"},"geometry":{"type":"LineString","coordinates":[[4.343071,50.833944],[4.348603,50.833236]]}},{"type":"Feature","properties":{"shape_id":"{\"002m0055\": 157, \"006m0091\": 49, \"006m0144\": 79, \"006m0196\": 3, \"006m0197\": 2, \"006m0285\": 25}","direction_id":"{\"1\": 315}","headsign":"{\"ROI BAUDOUIN\": 158, \"SIMONIS\": 157}","duration_avg":98.15873015873017,"n_vehicles":315,"d":703,"route_I_counts":"{\"2\": 157, \"6\": 158}","source":41,"target":42,"layer":"L","from":"GARE DU MIDI","to":"CLEMENCEAU"},"geometry":{"type":"LineString","coordinates":[[4.338161,50.836273],[4.331202,50.84082]]}},{"type":"Feature","properties":{"duration_avg":78.29969418960245,"n_vehicles":327,"d":453,"route_I_counts":"{\"2\": 166, \"6\": 161}","shape_id":"{\"002m0012\": 3, \"002m0014\": 7, \"002m0048\": 156, \"006m0087\": 53, \"006m0089\": 54, \"006m0202\": 53, \"006m0203\": 1}","direction_id":"{\"0\": 327}","headsign":"{\"ELISABETH\": 327}","source":41,"target":40,"layer":"L","from":"GARE DU MIDI","to":"PORTE DE HAL"},"geometry":{"type":"LineString","coordinates":[[4.338161,50.836273],[4.343071,50.833944]]}},{"type":"Feature","properties":{"shape_id":"{\"002m0055\": 157, \"006m0091\": 49, \"006m0144\": 79, \"006m0196\": 3, \"006m0197\": 2, \"006m0285\": 25}","direction_id":"{\"1\": 315}","headsign":"{\"ROI BAUDOUIN\": 158, \"SIMONIS\": 157}","duration_avg":86.92380952380952,"n_vehicles":315,"d":683,"route_I_counts":"{\"2\": 157, \"6\": 158}","source":42,"target":43,"layer":"L","from":"CLEMENCEAU","to":"DELACROIX"},"geometry":{"type":"LineString","coordinates":[[4.331202,50.84082],[4.324325,50.845157]]}},{"type":"Feature","properties":{"duration_avg":90.9571865443425,"n_vehicles":327,"d":696,"route_I_counts":"{\"2\": 166, \"6\": 161}","shape_id":"{\"002m0012\": 3, \"002m0014\": 7, \"002m0048\": 156, \"006m0087\": 53, \"006m0089\": 54, \"006m0202\": 53, \"006m0203\": 1}","direction_id":"{\"0\": 327}","headsign":"{\"ELISABETH\": 327}","source":42,"target":41,"layer":"L","from":"CLEMENCEAU","to":"GARE DU MIDI"},"geometry":{"type":"LineString","coordinates":[[4.331202,50.84082],[4.338161,50.836273]]}},{"type":"Feature","properties":{"duration_avg":83.62996941896024,"n_vehicles":327,"d":672,"route_I_counts":"{\"2\": 166, \"6\": 161}","shape_id":"{\"002m0012\": 3, \"002m0014\": 7, \"002m0048\": 156, \"006m0087\": 53, \"006m0089\": 54, \"006m0202\": 53, \"006m0203\": 1}","direction_id":"{\"0\": 327}","headsign":"{\"ELISABETH\": 327}","source":43,"target":42,"layer":"L","from":"DELACROIX","to":"CLEMENCEAU"},"geometry":{"type":"LineString","coordinates":[[4.324325,50.845157],[4.331202,50.84082]]}},{"type":"Feature","properties":{"duration_avg":75.45714285714286,"n_vehicles":315,"d":473,"route_I_counts":"{\"2\": 157, \"6\": 158}","shape_id":"{\"002m0055\": 157, \"006m0091\": 49, \"006m0144\": 79, \"006m0196\": 3, \"006m0197\": 2, \"006m0285\": 25}","direction_id":"{\"1\": 315}","headsign":"{\"ROI BAUDOUIN\": 158, \"SIMONIS\": 157}","source":43,"target":20,"layer":"L","from":"DELACROIX","to":"GARE DE L'OUEST"},"geometry":{"type":"LineString","coordinates":[[4.324325,50.845157],[4.320673,50.848584]]}},{"type":"Feature","properties":{"duration_avg":73.28660436137072,"n_vehicles":321,"d":417,"route_I_counts":"{\"2\": 160, \"6\": 161}","shape_id":"{\"002m0012\": 3, \"002m0048\": 157, \"006m0087\": 53, \"006m0089\": 54, \"006m0202\": 53, \"006m0203\": 1}","direction_id":"{\"0\": 321}","headsign":"{\"ELISABETH\": 321}","source":44,"target":19,"layer":"L","from":"OSSEGHEM","to":"BEEKKANT"},"geometry":{"type":"LineString","coordinates":[[4.325218,50.857115],[4.322763,50.853111]]}},{"type":"Feature","properties":{"duration_avg":92.35759493670886,"n_vehicles":316,"d":827,"route_I_counts":"{\"2\": 157, \"6\": 159}","shape_id":"{\"002m0055\": 157, \"006m0088\": 1, \"006m0091\": 49, \"006m0144\": 78, \"006m0196\": 3, \"006m0197\": 2, \"006m0199\": 1, \"006m0285\": 25}","direction_id":"{\"1\": 316}","headsign":"{\"ROI BAUDOUIN\": 159, \"SIMONIS\": 157}","source":44,"target":30,"layer":"L","from":"OSSEGHEM","to":"ELISABETH"},"geometry":{"type":"LineString","coordinates":[[4.325218,50.857115],[4.331367,50.862878]]}},{"type":"Feature","properties":{"shape_id":"{\"005m0049\": 1, \"005m0123\": 88, \"005m0132\": 2, \"005m0133\": 1, \"005m0163\": 4, \"005m0164\": 78, \"005m0171\": 2}","direction_id":"{\"1\": 176}","headsign":"{\"ERASME\": 171, \"GARE DE L'OUEST\": 5}","duration_avg":57.75568181818182,"n_vehicles":176,"d":334,"route_I_counts":"{\"5\": 176}","source":45,"target":46,"layer":"L","from":"DELTA","to":"HANKAR"},"geometry":{"type":"LineString","coordinates":[[4.404406,50.818685],[4.405618,50.821592]]}},{"type":"Feature","properties":{"duration_avg":83.90116279069767,"n_vehicles":172,"d":544,"route_I_counts":"{\"5\": 172}","shape_id":"{\"005m0066\": 6, \"005m0125\": 79, \"005m0144\": 87}","direction_id":"{\"0\": 172}","headsign":"{\"HERRMANN-DEBROUX\": 172}","source":45,"target":49,"layer":"L","from":"DELTA","to":"BEAULIEU"},"geometry":{"type":"LineString","coordinates":[[4.404406,50.818685],[4.409977,50.81505]]}},{"type":"Feature","properties":{"shape_id":"{\"005m0049\": 1, \"005m0123\": 88, \"005m0132\": 2, \"005m0133\": 1, \"005m0163\": 4, \"005m0164\": 78, \"005m0171\": 2}","direction_id":"{\"1\": 176}","headsign":"{\"ERASME\": 171, \"GARE DE L'OUEST\": 5}","duration_avg":83.6590909090909,"n_vehicles":176,"d":716,"route_I_counts":"{\"5\": 176}","source":46,"target":47,"layer":"L","from":"HANKAR","to":"PETILLON"},"geometry":{"type":"LineString","coordinates":[[4.405618,50.821592],[4.403859,50.827929]]}},{"type":"Feature","properties":{"duration_avg":55.39766081871345,"n_vehicles":171,"d":313,"route_I_counts":"{\"5\": 171}","shape_id":"{\"005m0047\": 4, \"005m0076\": 1, \"005m0125\": 79, \"005m0144\": 87}","direction_id":"{\"0\": 171}","headsign":"{\"DELTA\": 5, \"HERRMANN-DEBROUX\": 166}","source":46,"target":45,"layer":"L","from":"HANKAR","to":"DELTA"},"geometry":{"type":"LineString","coordinates":[[4.405618,50.821592],[4.404406,50.818685]]}},{"type":"Feature","properties":{"shape_id":"{\"005m0049\": 1, \"005m0123\": 88, \"005m0132\": 2, \"005m0133\": 1, \"005m0163\": 4, \"005m0164\": 78, \"005m0171\": 2}","direction_id":"{\"1\": 176}","headsign":"{\"ERASME\": 171, \"GARE DE L'OUEST\": 5}","duration_avg":80.27272727272727,"n_vehicles":176,"d":659,"route_I_counts":"{\"5\": 176}","source":47,"target":48,"layer":"L","from":"PETILLON","to":"THIEFFRY"},"geometry":{"type":"LineString","coordinates":[[4.403859,50.827929],[4.401677,50.83369]]}},{"type":"Feature","properties":{"duration_avg":82.52046783625731,"n_vehicles":171,"d":738,"route_I_counts":"{\"5\": 171}","shape_id":"{\"005m0047\": 4, \"005m0076\": 1, \"005m0125\": 79, \"005m0144\": 87}","direction_id":"{\"0\": 171}","headsign":"{\"DELTA\": 5, \"HERRMANN-DEBROUX\": 166}","source":47,"target":46,"layer":"L","from":"PETILLON","to":"HANKAR"},"geometry":{"type":"LineString","coordinates":[[4.403859,50.827929],[4.405618,50.821592]]}},{"type":"Feature","properties":{"duration_avg":92.59428571428572,"n_vehicles":175,"d":708,"route_I_counts":"{\"5\": 175}","shape_id":"{\"005m0049\": 1, \"005m0123\": 87, \"005m0132\": 2, \"005m0133\": 1, \"005m0163\": 4, \"005m0164\": 78, \"005m0171\": 2}","direction_id":"{\"1\": 175}","headsign":"{\"ERASME\": 170, \"GARE DE L'OUEST\": 5}","source":48,"target":0,"layer":"L","from":"THIEFFRY","to":"MERODE"},"geometry":{"type":"LineString","coordinates":[[4.401677,50.83369],[4.398281,50.839364]]}},{"type":"Feature","properties":{"duration_avg":78.59649122807018,"n_vehicles":171,"d":648,"route_I_counts":"{\"5\": 171}","shape_id":"{\"005m0047\": 4, \"005m0076\": 1, \"005m0125\": 79, \"005m0144\": 87}","direction_id":"{\"0\": 171}","headsign":"{\"DELTA\": 5, \"HERRMANN-DEBROUX\": 166}","source":48,"target":47,"layer":"L","from":"THIEFFRY","to":"PETILLON"},"geometry":{"type":"LineString","coordinates":[[4.401677,50.83369],[4.403859,50.827929]]}},{"type":"Feature","properties":{"shape_id":"{\"005m0066\": 6, \"005m0125\": 79, \"005m0144\": 87}","direction_id":"{\"0\": 172}","headsign":"{\"HERRMANN-DEBROUX\": 172}","duration_avg":83.73255813953489,"n_vehicles":172,"d":865,"route_I_counts":"{\"5\": 172}","source":49,"target":50,"layer":"L","from":"BEAULIEU","to":"DEMEY"},"geometry":{"type":"LineString","coordinates":[[4.409977,50.81505],[4.42192,50.813192]]}},{"type":"Feature","properties":{"duration_avg":85.73053892215569,"n_vehicles":167,"d":526,"route_I_counts":"{\"5\": 167}","shape_id":"{\"005m0123\": 88, \"005m0133\": 1, \"005m0164\": 78}","direction_id":"{\"1\": 167}","headsign":"{\"ERASME\": 167}","source":49,"target":45,"layer":"L","from":"BEAULIEU","to":"DELTA"},"geometry":{"type":"LineString","coordinates":[[4.409977,50.81505],[4.404406,50.818685]]}},{"type":"Feature","properties":{"shape_id":"{\"005m0066\": 6, \"005m0125\": 79, \"005m0144\": 87}","direction_id":"{\"0\": 172}","headsign":"{\"HERRMANN-DEBROUX\": 172}","duration_avg":70.68023255813954,"n_vehicles":172,"d":525,"route_I_counts":"{\"5\": 172}","source":50,"target":51,"layer":"L","from":"DEMEY","to":"HERRMANN-DEBROUX"},"geometry":{"type":"LineString","coordinates":[[4.42192,50.813192],[4.429236,50.812243]]}},{"type":"Feature","properties":{"duration_avg":89.7185628742515,"n_vehicles":167,"d":838,"route_I_counts":"{\"5\": 167}","shape_id":"{\"005m0123\": 88, \"005m0133\": 1, \"005m0164\": 78}","direction_id":"{\"1\": 167}","headsign":"{\"ERASME\": 167}","source":50,"target":49,"layer":"L","from":"DEMEY","to":"BEAULIEU"},"geometry":{"type":"LineString","coordinates":[[4.42192,50.813192],[4.409977,50.81505]]}},{"type":"Feature","properties":{"duration_avg":54.0,"n_vehicles":167,"d":596,"route_I_counts":"{\"5\": 167}","shape_id":"{\"005m0133\": 1, \"005m0123\": 88, \"005m0164\": 78}","direction_id":"{\"1\": 167}","headsign":"{\"ERASME\": 167}","source":51,"target":50,"layer":"L","from":"HERRMANN-DEBROUX","to":"DEMEY"},"geometry":{"type":"LineString","coordinates":[[4.429236,50.812243],[4.42192,50.813192]]}},{"type":"Feature","properties":{"shape_id":"{\"006m0087\": 54, \"006m0202\": 53, \"006m0089\": 54, \"006m0203\": 1}","direction_id":"{\"0\": 162}","headsign":"{\"ELISABETH\": 162}","duration_avg":63.070093457943926,"n_vehicles":162,"d":536,"route_I_counts":"{\"6\": 162}","source":52,"target":53,"layer":"L","from":"ROI BAUDOUIN","to":"HEYSEL"},"geometry":{"type":"LineString","coordinates":[[4.327959,50.89646],[4.335515,50.897198]]}},{"type":"Feature","properties":{"shape_id":"{\"006m0087\": 54, \"006m0089\": 54, \"006m0202\": 53, \"006m0203\": 1}","direction_id":"{\"0\": 162}","headsign":"{\"ELISABETH\": 162}","duration_avg":114.14197530864197,"n_vehicles":162,"d":860,"route_I_counts":"{\"6\": 162}","source":53,"target":54,"layer":"L","from":"HEYSEL","to":"HOUBA-BRUGMANN"},"geometry":{"type":"LineString","coordinates":[[4.335515,50.897198],[4.337736,50.8896]]}},{"type":"Feature","properties":{"duration_avg":89.54556074766356,"n_vehicles":159,"d":527,"route_I_counts":"{\"6\": 159}","shape_id":"{\"006m0144\": 78, \"006m0196\": 3, \"006m0199\": 1, \"006m0285\": 25, \"006m0088\": 1, \"006m0091\": 48, \"006m0129\": 1, \"006m0197\": 2}","direction_id":"{\"1\": 159}","headsign":"{\"ROI BAUDOUIN\": 159}","source":53,"target":52,"layer":"L","from":"HEYSEL","to":"ROI BAUDOUIN"},"geometry":{"type":"LineString","coordinates":[[4.335515,50.897198],[4.327959,50.89646]]}},{"type":"Feature","properties":{"shape_id":"{\"006m0087\": 54, \"006m0089\": 54, \"006m0202\": 53, \"006m0203\": 1}","direction_id":"{\"0\": 162}","headsign":"{\"ELISABETH\": 162}","duration_avg":78.29012345679013,"n_vehicles":162,"d":563,"route_I_counts":"{\"6\": 162}","source":54,"target":55,"layer":"L","from":"HOUBA-BRUGMANN","to":"STUYVENBERGH"},"geometry":{"type":"LineString","coordinates":[[4.337736,50.8896],[4.342738,50.88564]]}},{"type":"Feature","properties":{"duration_avg":113.74213836477988,"n_vehicles":159,"d":852,"route_I_counts":"{\"6\": 159}","shape_id":"{\"006m0088\": 1, \"006m0091\": 48, \"006m0129\": 1, \"006m0144\": 78, \"006m0196\": 3, \"006m0197\": 2, \"006m0199\": 1, \"006m0285\": 25}","direction_id":"{\"1\": 159}","headsign":"{\"ROI BAUDOUIN\": 159}","source":54,"target":53,"layer":"L","from":"HOUBA-BRUGMANN","to":"HEYSEL"},"geometry":{"type":"LineString","coordinates":[[4.337736,50.8896],[4.335515,50.897198]]}},{"type":"Feature","properties":{"shape_id":"{\"006m0087\": 54, \"006m0089\": 54, \"006m0202\": 53, \"006m0203\": 1}","direction_id":"{\"0\": 162}","headsign":"{\"ELISABETH\": 162}","duration_avg":91.22839506172839,"n_vehicles":162,"d":811,"route_I_counts":"{\"6\": 162}","source":55,"target":56,"layer":"L","from":"STUYVENBERGH","to":"BOCKSTAEL"},"geometry":{"type":"LineString","coordinates":[[4.342738,50.88564],[4.347993,50.879152]]}},{"type":"Feature","properties":{"duration_avg":76.5,"n_vehicles":160,"d":563,"route_I_counts":"{\"6\": 160}","shape_id":"{\"006m0088\": 1, \"006m0091\": 49, \"006m0129\": 1, \"006m0144\": 78, \"006m0196\": 3, \"006m0197\": 2, \"006m0199\": 1, \"006m0285\": 25}","direction_id":"{\"1\": 160}","headsign":"{\"ROI BAUDOUIN\": 160}","source":55,"target":54,"layer":"L","from":"STUYVENBERGH","to":"HOUBA-BRUGMANN"},"geometry":{"type":"LineString","coordinates":[[4.342738,50.88564],[4.337736,50.8896]]}},{"type":"Feature","properties":{"shape_id":"{\"006m0087\": 54, \"006m0089\": 54, \"006m0202\": 53, \"006m0203\": 1}","direction_id":"{\"0\": 162}","headsign":"{\"ELISABETH\": 162}","duration_avg":91.05555555555556,"n_vehicles":162,"d":704,"route_I_counts":"{\"6\": 162}","source":56,"target":57,"layer":"L","from":"BOCKSTAEL","to":"PANNENHUIS"},"geometry":{"type":"LineString","coordinates":[[4.347993,50.879152],[4.343137,50.873614]]}},{"type":"Feature","properties":{"duration_avg":92.3,"n_vehicles":160,"d":804,"route_I_counts":"{\"6\": 160}","shape_id":"{\"006m0088\": 1, \"006m0091\": 49, \"006m0129\": 1, \"006m0144\": 78, \"006m0196\": 3, \"006m0197\": 2, \"006m0199\": 1, \"006m0285\": 25}","direction_id":"{\"1\": 160}","headsign":"{\"ROI BAUDOUIN\": 160}","source":56,"target":55,"layer":"L","from":"BOCKSTAEL","to":"STUYVENBERGH"},"geometry":{"type":"LineString","coordinates":[[4.347993,50.879152],[4.342738,50.88564]]}},{"type":"Feature","properties":{"shape_id":"{\"006m0087\": 54, \"006m0089\": 54, \"006m0202\": 53, \"006m0203\": 1}","direction_id":"{\"0\": 162}","headsign":"{\"ELISABETH\": 162}","duration_avg":85.87654320987654,"n_vehicles":162,"d":717,"route_I_counts":"{\"6\": 162}","source":57,"target":58,"layer":"L","from":"PANNENHUIS","to":"BELGICA"},"geometry":{"type":"LineString","coordinates":[[4.343137,50.873614],[4.336964,50.868474]]}},{"type":"Feature","properties":{"duration_avg":93.05660377358491,"n_vehicles":159,"d":697,"route_I_counts":"{\"6\": 159}","shape_id":"{\"006m0088\": 1, \"006m0091\": 49, \"006m0144\": 78, \"006m0196\": 3, \"006m0197\": 2, \"006m0199\": 1, \"006m0285\": 25}","direction_id":"{\"1\": 159}","headsign":"{\"ROI BAUDOUIN\": 159}","source":57,"target":56,"layer":"L","from":"PANNENHUIS","to":"BOCKSTAEL"},"geometry":{"type":"LineString","coordinates":[[4.343137,50.873614],[4.347993,50.879152]]}},{"type":"Feature","properties":{"duration_avg":86.35849056603773,"n_vehicles":159,"d":718,"route_I_counts":"{\"6\": 159}","shape_id":"{\"006m0088\": 1, \"006m0091\": 49, \"006m0144\": 78, \"006m0196\": 3, \"006m0197\": 2, \"006m0199\": 1, \"006m0285\": 25}","direction_id":"{\"1\": 159}","headsign":"{\"ROI BAUDOUIN\": 159}","source":58,"target":57,"layer":"L","from":"BELGICA","to":"PANNENHUIS"},"geometry":{"type":"LineString","coordinates":[[4.336964,50.868474],[4.343137,50.873614]]}},{"type":"Feature","properties":{"duration_avg":88.96913580246914,"n_vehicles":162,"d":750,"route_I_counts":"{\"6\": 162}","shape_id":"{\"006m0087\": 54, \"006m0089\": 54, \"006m0202\": 53, \"006m0203\": 1}","direction_id":"{\"0\": 162}","headsign":"{\"ELISABETH\": 162}","source":58,"target":30,"layer":"L","from":"BELGICA","to":"ELISABETH"},"geometry":{"type":"LineString","coordinates":[[4.336964,50.868474],[4.331367,50.862878]]}}]}