{"type":"FeatureCollection","features":[{"type":"Feature","geometry":{"type":"Point","coordinates":[19.050593,47.496737]},"properties":{"name":"Vörösmarty tér","original_ids":"[3734, 3733, 3733]","id":0,"layer":"stop"}},{"type":"Feature","geometry":{"type":"Point","coordinates":[19.054142,47.497728]},"properties":{"name":"Deák Ferenc tér","original_ids":"[3732, 3731, 3730, 3724, 3731, 3730, 3729, 3723, 3724]","id":1,"layer":"stop"}},{"type":"Feature","geometry":{"type":"Point","coordinates":[19.055655,47.499937]},"properties":{"name":"Bajcsy-Zsilinszky út","original_ids":"[3757, 3756, 3756]","id":2,"layer":"stop"}},{"type":"Feature","geometry":{"type":"Point","coordinates":[19.059161,47.502305]},"properties":{"name":"Opera","original_ids":"[3830, 3829, 3829]","id":3,"layer":"stop"}},{"type":"Feature","geometry":{"type":"Point","coordinates":[19.063233,47.505023]},"properties":{"name":"Oktogon","original_ids":"[3836, 3835, 3835]","id":4,"layer":"stop"}},{"type":"Feature","geometry":{"type":"Point","coordinates":[19.066529,47.507238]},"properties":{"name":"Vörösmarty utca","original_ids":"[3843, 3842, 3842]","id":5,"layer":"stop"}},{"type":"Feature","geometry":{"type":"Point","coordinates":[19.069544,47.509261]},"properties":{"name":"Kodály körönd","original_ids":"[3846, 3845, 3845]","id":6,"layer":"stop"}},{"type":"Feature","geometry":{"type":"Point","coordinates":[19.072662,47.511342]},"properties":{"name":"Bajza utca","original_ids":"[3851, 3850, 3850]","id":7,"layer":"stop"}},{"type":"Feature","geometry":{"type":"Point","coordinates":[19.076883,47.51411]},"properties":{"name":"Hősök tere","original_ids":"[3853, 3852, 3852]","id":8,"layer":"stop"}},{"type":"Feature","geometry":{"type":"Point","coordinates":[19.081481,47.517407]},"properties":{"name":"Széchenyi fürdő","original_ids":"[5264, 5263, 5263]","id":9,"layer":"stop"}},{"type":"Feature","geometry":{"type":"Point","coordinates":[19.091037,47.519513]},"properties":{"name":"Mexikói út","original_ids":"[5434, 5433, 5433]","id":10,"layer":"stop"}},{"type":"Feature","geometry":{"type":"Point","coordinates":[19.024604,47.50045]},"properties":{"name":"Déli pályaudvar","original_ids":"[2929, 2928]","id":11,"layer":"stop"}},{"type":"Feature","geometry":{"type":"Point","coordinates":[19.026097,47.507533]},"properties":{"name":"Széll Kálmán tér","original_ids":"[5073, 5072]","id":12,"layer":"stop"}},{"type":"Feature","geometry":{"type":"Point","coordinates":[19.038103,47.506826]},"properties":{"name":"Batthyány tér","original_ids":"[2899, 2898]","id":13,"layer":"stop"}},{"type":"Feature","geometry":{"type":"Point","coordinates":[19.045769,47.505511]},"properties":{"name":"Kossuth Lajos tér","original_ids":"[3728, 3727]","id":14,"layer":"stop"}},{"type":"Feature","geometry":{"type":"Point","coordinates":[19.062457,47.494825]},"properties":{"name":"Astoria","original_ids":"[3772, 3771]","id":15,"layer":"stop"}},{"type":"Feature","geometry":{"type":"Point","coordinates":[19.070279,47.49701]},"properties":{"name":"Blaha Lujza tér","original_ids":"[4019, 4018]","id":16,"layer":"stop"}},{"type":"Feature","geometry":{"type":"Point","coordinates":[19.082881,47.499683]},"properties":{"name":"Keleti pályaudvar","original_ids":"[4054, 4053, 931, 932]","id":17,"layer":"stop"}},{"type":"Feature","geometry":{"type":"Point","coordinates":[19.106381,47.500174]},"properties":{"name":"Puskás Ferenc Stadion","original_ids":"[4043, 4042]","id":18,"layer":"stop"}},{"type":"Feature","geometry":{"type":"Point","coordinates":[19.120417,47.501204]},"properties":{"name":"Pillangó utca","original_ids":"[4427, 4426]","id":19,"layer":"stop"}},{"type":"Feature","geometry":{"type":"Point","coordinates":[19.135963,47.502922]},"properties":{"name":"Örs vezér tere","original_ids":"[4431]","id":20,"layer":"stop"}},{"type":"Feature","geometry":{"type":"Point","coordinates":[19.147412,47.46393]},"properties":{"name":"Kőbánya-Kispest","original_ids":"[4239, 4240]","id":21,"layer":"stop"}},{"type":"Feature","geometry":{"type":"Point","coordinates":[19.124821,47.466285]},"properties":{"name":"Határ út","original_ids":"[4237, 4238]","id":22,"layer":"stop"}},{"type":"Feature","geometry":{"type":"Point","coordinates":[19.117532,47.468557]},"properties":{"name":"Pöttyös utca","original_ids":"[4541, 4542]","id":23,"layer":"stop"}},{"type":"Feature","geometry":{"type":"Point","coordinates":[19.110331,47.471127]},"properties":{"name":"Ecseri út","original_ids":"[4196, 4197]","id":24,"layer":"stop"}},{"type":"Feature","geometry":{"type":"Point","coordinates":[19.099291,47.475479]},"properties":{"name":"Népliget","original_ids":"[4011, 4012]","id":25,"layer":"stop"}},{"type":"Feature","geometry":{"type":"Point","coordinates":[19.089768,47.478999]},"properties":{"name":"Nagyvárad tér","original_ids":"[3985, 3986]","id":26,"layer":"stop"}},{"type":"Feature","geometry":{"type":"Point","coordinates":[19.07703,47.483413]},"properties":{"name":"Klinikák","original_ids":"[3969, 3970]","id":27,"layer":"stop"}},{"type":"Feature","geometry":{"type":"Point","coordinates":[19.070866,47.485424]},"properties":{"name":"Corvin-negyed","original_ids":"[3928, 3929]","id":28,"layer":"stop"}},{"type":"Feature","geometry":{"type":"Point","coordinates":[19.06064,47.49017]},"properties":{"name":"Kálvin tér","original_ids":"[4016, 4017, 925, 926]","id":29,"layer":"stop"}},{"type":"Feature","geometry":{"type":"Point","coordinates":[19.056091,47.492808]},"properties":{"name":"Ferenciek tere","original_ids":"[3721, 3722]","id":30,"layer":"stop"}},{"type":"Feature","geometry":{"type":"Point","coordinates":[19.054679,47.504733]},"properties":{"name":"Arany János utca","original_ids":"[3725, 3726]","id":31,"layer":"stop"}},{"type":"Feature","geometry":{"type":"Point","coordinates":[19.056873,47.51172]},"properties":{"name":"Nyugati pályaudvar","original_ids":"[3707, 3708]","id":32,"layer":"stop"}},{"type":"Feature","geometry":{"type":"Point","coordinates":[19.060859,47.518659]},"properties":{"name":"Lehel tér","original_ids":"[5186, 5187]","id":33,"layer":"stop"}},{"type":"Feature","geometry":{"type":"Point","coordinates":[19.063737,47.52543]},"properties":{"name":"Dózsa György út","original_ids":"[5249, 5250]","id":34,"layer":"stop"}},{"type":"Feature","geometry":{"type":"Point","coordinates":[19.067089,47.533217]},"properties":{"name":"Árpád híd","original_ids":"[5208, 5209]","id":35,"layer":"stop"}},{"type":"Feature","geometry":{"type":"Point","coordinates":[19.069648,47.53916]},"properties":{"name":"Forgách utca","original_ids":"[5251, 5252]","id":36,"layer":"stop"}},{"type":"Feature","geometry":{"type":"Point","coordinates":[19.073575,47.549394]},"properties":{"name":"Gyöngyösi utca","original_ids":"[5253, 5254]","id":37,"layer":"stop"}},{"type":"Feature","geometry":{"type":"Point","coordinates":[19.081099,47.559495]},"properties":{"name":"Újpest-Városkapu","original_ids":"[3675, 3676]","id":38,"layer":"stop"}},{"type":"Feature","geometry":{"type":"Point","coordinates":[19.091319,47.560144]},"properties":{"name":"Újpest-Központ","original_ids":"[3689, 3690]","id":39,"layer":"stop"}},{"type":"Feature","geometry":{"type":"Point","coordinates":[19.077229,47.495593]},"properties":{"name":"II. János Pál pápa tér","original_ids":"[929, 930, 930]","id":40,"layer":"stop"}},{"type":"Feature","geometry":{"type":"Point","coordinates":[19.071361,47.492725]},"properties":{"name":"Rákóczi tér","original_ids":"[927, 928, 928]","id":41,"layer":"stop"}},{"type":"Feature","geometry":{"type":"Point","coordinates":[19.057571,47.485792]},"properties":{"name":"Fővám tér","original_ids":"[923, 924, 924]","id":42,"layer":"stop"}},{"type":"Feature","geometry":{"type":"Point","coordinates":[19.054014,47.482635]},"properties":{"name":"Szent Gellért tér","original_ids":"[921, 922, 922]","id":43,"layer":"stop"}},{"type":"Feature","geometry":{"type":"Point","coordinates":[19.047227,47.476629]},"properties":{"name":"Móricz Zsigmond körtér","original_ids":"[919, 920, 920]","id":44,"layer":"stop"}},{"type":"Feature","geometry":{"type":"Point","coordinates":[19.045954,47.47286]},"properties":{"name":"Újbuda-központ","original_ids":"[917, 918, 918]","id":45,"layer":"stop"}},{"type":"Feature","geometry":{"type":"Point","coordinates":[19.032345,47.464881]},"properties":{"name":"Bikás park","original_ids":"[915, 916, 916]","id":46,"layer":"stop"}},{"type":"Feature","geometry":{"type":"Point","coordinates":[19.019618,47.464515]},"properties":{"name":"Kelenföld vasútállomás","original_ids":"[913, 914, 914]","id":47,"layer":"stop"}},{"type":"Feature","properties":{"shape_id":"{\"1110\": 361}","direction_id":"{\"0\": 361}","headsign":"{\"Mexikói út M\": 361}","duration_avg":70.0,"n_vehicles":361,"d":288,"route_I_counts":"{\"285\": 361}","source":0,"target":1,"layer":"L","from":"Vörösmarty tér","to":"Deák Ferenc tér"},"geometry":{"type":"LineString","coordinates":[[19.050593,47.496737],[19.054142,47.497728]]}},{"type":"Feature","properties":{"shape_id":"{\"1110\": 361}","direction_id":"{\"0\": 361}","headsign":"{\"Mexikói út M\": 361}","duration_avg":80.0,"n_vehicles":361,"d":270,"route_I_counts":"{\"285\": 361}","source":1,"target":2,"layer":"L","from":"Deák Ferenc tér","to":"Bajcsy-Zsilinszky út"},"geometry":{"type":"LineString","coordinates":[[19.054142,47.497728],[19.055655,47.499937]]}},{"type":"Feature","properties":{"duration_avg":97.84965034965035,"n_vehicles":286,"d":716,"route_I_counts":"{\"286\": 286}","shape_id":"{\"1112\": 286}","direction_id":"{\"0\": 286}","headsign":"{\"Örs vezér tere M+H\": 286}","source":1,"target":15,"layer":"L","from":"Deák Ferenc tér","to":"Astoria"},"geometry":{"type":"LineString","coordinates":[[19.054142,47.497728],[19.062457,47.494825]]}},{"type":"Feature","properties":{"duration_avg":92.89752650176679,"n_vehicles":283,"d":676,"route_I_counts":"{\"287\": 283}","shape_id":"{\"1113\": 283}","direction_id":"{\"1\": 283}","headsign":"{\"Újpest-Központ M\": 283}","source":1,"target":31,"layer":"L","from":"Deák Ferenc tér","to":"Arany János utca"},"geometry":{"type":"LineString","coordinates":[[19.054142,47.497728],[19.054679,47.504733]]}},{"type":"Feature","properties":{"duration_avg":90.1063829787234,"n_vehicles":282,"d":664,"route_I_counts":"{\"287\": 282}","shape_id":"{\"1114\": 281, \"2148\": 1}","direction_id":"{\"0\": 282}","headsign":"{\"Kőbánya-Kispest M\": 282}","source":1,"target":30,"layer":"L","from":"Deák Ferenc tér","to":"Ferenciek tere"},"geometry":{"type":"LineString","coordinates":[[19.054142,47.497728],[19.056091,47.492808]]}},{"type":"Feature","properties":{"duration_avg":112.84965034965035,"n_vehicles":286,"d":1047,"route_I_counts":"{\"286\": 286}","shape_id":"{\"1111\": 286}","direction_id":"{\"1\": 286}","headsign":"{\"Déli pályaudvar M\": 286}","source":1,"target":14,"layer":"L","from":"Deák Ferenc tér","to":"Kossuth Lajos tér"},"geometry":{"type":"LineString","coordinates":[[19.054142,47.497728],[19.045769,47.505511]]}},{"type":"Feature","properties":{"duration_avg":80.0,"n_vehicles":361,"d":286,"route_I_counts":"{\"285\": 361}","shape_id":"{\"1109\": 361}","direction_id":"{\"1\": 361}","headsign":"{\"Vörösmarty tér\": 361}","source":1,"target":0,"layer":"L","from":"Deák Ferenc tér","to":"Vörösmarty tér"},"geometry":{"type":"LineString","coordinates":[[19.054142,47.497728],[19.050593,47.496737]]}},{"type":"Feature","properties":{"shape_id":"{\"1110\": 361}","direction_id":"{\"0\": 361}","headsign":"{\"Mexikói út M\": 361}","duration_avg":65.0,"n_vehicles":361,"d":372,"route_I_counts":"{\"285\": 361}","source":2,"target":3,"layer":"L","from":"Bajcsy-Zsilinszky út","to":"Opera"},"geometry":{"type":"LineString","coordinates":[[19.055655,47.499937],[19.059161,47.502305]]}},{"type":"Feature","properties":{"duration_avg":77.65650969529086,"n_vehicles":361,"d":264,"route_I_counts":"{\"285\": 361}","shape_id":"{\"1109\": 361}","direction_id":"{\"1\": 361}","headsign":"{\"Vörösmarty tér\": 361}","source":2,"target":1,"layer":"L","from":"Bajcsy-Zsilinszky út","to":"Deák Ferenc tér"},"geometry":{"type":"LineString","coordinates":[[19.055655,47.499937],[19.054142,47.497728]]}},{"type":"Feature","properties":{"shape_id":"{\"1110\": 361}","direction_id":"{\"0\": 361}","headsign":"{\"Mexikói út M\": 361}","duration_avg":70.0,"n_vehicles":361,"d":430,"route_I_counts":"{\"285\": 361}","source":3,"target":4,"layer":"L","from":"Opera","to":"Oktogon"},"geometry":{"type":"LineString","coordinates":[[19.059161,47.502305],[19.063233,47.505023]]}},{"type":"Feature","properties":{"duration_avg":65.34349030470914,"n_vehicles":361,"d":371,"route_I_counts":"{\"285\": 361}","shape_id":"{\"1109\": 361}","direction_id":"{\"1\": 361}","headsign":"{\"Vörösmarty tér\": 361}","source":3,"target":2,"layer":"L","from":"Opera","to":"Bajcsy-Zsilinszky út"},"geometry":{"type":"LineString","coordinates":[[19.059161,47.502305],[19.055655,47.499937]]}},{"type":"Feature","properties":{"shape_id":"{\"1110\": 362}","direction_id":"{\"0\": 362}","headsign":"{\"Mexikói út M\": 362}","duration_avg":68.03591160220995,"n_vehicles":362,"d":349,"route_I_counts":"{\"285\": 362}","source":4,"target":5,"layer":"L","from":"Oktogon","to":"Vörösmarty utca"},"geometry":{"type":"LineString","coordinates":[[19.063233,47.505023],[19.066529,47.507238]]}},{"type":"Feature","properties":{"duration_avg":70.68888888888888,"n_vehicles":360,"d":430,"route_I_counts":"{\"285\": 360}","shape_id":"{\"1109\": 360}","direction_id":"{\"1\": 360}","headsign":"{\"Vörösmarty tér\": 360}","source":4,"target":3,"layer":"L","from":"Oktogon","to":"Opera"},"geometry":{"type":"LineString","coordinates":[[19.063233,47.505023],[19.059161,47.502305]]}},{"type":"Feature","properties":{"shape_id":"{\"1110\": 362}","direction_id":"{\"0\": 362}","headsign":"{\"Mexikói út M\": 362}","duration_avg":58.69060773480663,"n_vehicles":362,"d":319,"route_I_counts":"{\"285\": 362}","source":5,"target":6,"layer":"L","from":"Vörösmarty utca","to":"Kodály körönd"},"geometry":{"type":"LineString","coordinates":[[19.066529,47.507238],[19.069544,47.509261]]}},{"type":"Feature","properties":{"duration_avg":66.03333333333333,"n_vehicles":360,"d":350,"route_I_counts":"{\"285\": 360}","shape_id":"{\"1109\": 360}","direction_id":"{\"1\": 360}","headsign":"{\"Vörösmarty tér\": 360}","source":5,"target":4,"layer":"L","from":"Vörösmarty utca","to":"Oktogon"},"geometry":{"type":"LineString","coordinates":[[19.066529,47.507238],[19.063233,47.505023]]}},{"type":"Feature","properties":{"shape_id":"{\"1110\": 362}","direction_id":"{\"0\": 362}","headsign":"{\"Mexikói út M\": 362}","duration_avg":61.72375690607735,"n_vehicles":362,"d":329,"route_I_counts":"{\"285\": 362}","source":6,"target":7,"layer":"L","from":"Kodály körönd","to":"Bajza utca"},"geometry":{"type":"LineString","coordinates":[[19.069544,47.509261],[19.072662,47.511342]]}},{"type":"Feature","properties":{"duration_avg":59.6,"n_vehicles":360,"d":318,"route_I_counts":"{\"285\": 360}","shape_id":"{\"1109\": 360}","direction_id":"{\"1\": 360}","headsign":"{\"Vörösmarty tér\": 360}","source":6,"target":5,"layer":"L","from":"Kodály körönd","to":"Vörösmarty utca"},"geometry":{"type":"LineString","coordinates":[[19.069544,47.509261],[19.066529,47.507238]]}},{"type":"Feature","properties":{"shape_id":"{\"1110\": 362}","direction_id":"{\"0\": 362}","headsign":"{\"Mexikói út M\": 362}","duration_avg":71.03591160220995,"n_vehicles":362,"d":442,"route_I_counts":"{\"285\": 362}","source":7,"target":8,"layer":"L","from":"Bajza utca","to":"Hősök tere"},"geometry":{"type":"LineString","coordinates":[[19.072662,47.511342],[19.076883,47.51411]]}},{"type":"Feature","properties":{"duration_avg":60.68888888888889,"n_vehicles":360,"d":330,"route_I_counts":"{\"285\": 360}","shape_id":"{\"1109\": 360}","direction_id":"{\"1\": 360}","headsign":"{\"Vörösmarty tér\": 360}","source":7,"target":6,"layer":"L","from":"Bajza utca","to":"Kodály körönd"},"geometry":{"type":"LineString","coordinates":[[19.072662,47.511342],[19.069544,47.509261]]}},{"type":"Feature","properties":{"shape_id":"{\"1110\": 362}","direction_id":"{\"0\": 362}","headsign":"{\"Mexikói út M\": 362}","duration_avg":100.69060773480663,"n_vehicles":362,"d":504,"route_I_counts":"{\"285\": 362}","source":8,"target":9,"layer":"L","from":"Hősök tere","to":"Széchenyi fürdő"},"geometry":{"type":"LineString","coordinates":[[19.076883,47.51411],[19.081481,47.517407]]}},{"type":"Feature","properties":{"duration_avg":73.16666666666667,"n_vehicles":360,"d":443,"route_I_counts":"{\"285\": 360}","shape_id":"{\"1109\": 360}","direction_id":"{\"1\": 360}","headsign":"{\"Vörösmarty tér\": 360}","source":8,"target":7,"layer":"L","from":"Hősök tere","to":"Bajza utca"},"geometry":{"type":"LineString","coordinates":[[19.076883,47.51411],[19.072662,47.511342]]}},{"type":"Feature","properties":{"shape_id":"{\"1110\": 362}","direction_id":"{\"0\": 362}","headsign":"{\"Mexikói út M\": 362}","duration_avg":97.58563535911603,"n_vehicles":362,"d":755,"route_I_counts":"{\"285\": 362}","source":9,"target":10,"layer":"L","from":"Széchenyi fürdő","to":"Mexikói út"},"geometry":{"type":"LineString","coordinates":[[19.081481,47.517407],[19.091037,47.519513]]}},{"type":"Feature","properties":{"duration_avg":99.6,"n_vehicles":360,"d":514,"route_I_counts":"{\"285\": 360}","shape_id":"{\"1109\": 360}","direction_id":"{\"1\": 360}","headsign":"{\"Vörösmarty tér\": 360}","source":9,"target":8,"layer":"L","from":"Széchenyi fürdő","to":"Hősök tere"},"geometry":{"type":"LineString","coordinates":[[19.081481,47.517407],[19.076883,47.51411]]}},{"type":"Feature","properties":{"duration_avg":90.0,"n_vehicles":360,"d":757,"route_I_counts":"{\"285\": 360}","shape_id":"{\"1109\": 360}","direction_id":"{\"1\": 360}","headsign":"{\"Vörösmarty tér\": 360}","source":10,"target":9,"layer":"L","from":"Mexikói út","to":"Széchenyi fürdő"},"geometry":{"type":"LineString","coordinates":[[19.091037,47.519513],[19.081481,47.517407]]}},{"type":"Feature","properties":{"shape_id":"{\"1112\": 285}","direction_id":"{\"0\": 285}","headsign":"{\"Örs vezér tere M+H\": 285}","duration_avg":98.71578947368421,"n_vehicles":285,"d":796,"route_I_counts":"{\"286\": 285}","source":11,"target":12,"layer":"L","from":"Déli pályaudvar","to":"Széll Kálmán tér"},"geometry":{"type":"LineString","coordinates":[[19.024604,47.50045],[19.026097,47.507533]]}},{"type":"Feature","properties":{"shape_id":"{\"1112\": 285}","direction_id":"{\"0\": 285}","headsign":"{\"Örs vezér tere M+H\": 285}","duration_avg":106.1438596491228,"n_vehicles":285,"d":906,"route_I_counts":"{\"286\": 285}","source":12,"target":13,"layer":"L","from":"Széll Kálmán tér","to":"Batthyány tér"},"geometry":{"type":"LineString","coordinates":[[19.026097,47.507533],[19.038103,47.506826]]}},{"type":"Feature","properties":{"duration_avg":85.0,"n_vehicles":286,"d":828,"route_I_counts":"{\"286\": 286}","shape_id":"{\"1111\": 286}","direction_id":"{\"1\": 286}","headsign":"{\"Déli pályaudvar M\": 286}","source":12,"target":11,"layer":"L","from":"Széll Kálmán tér","to":"Déli pályaudvar"},"geometry":{"type":"LineString","coordinates":[[19.026097,47.507533],[19.024604,47.50045]]}},{"type":"Feature","properties":{"shape_id":"{\"1112\": 285}","direction_id":"{\"0\": 285}","headsign":"{\"Örs vezér tere M+H\": 285}","duration_avg":85.85964912280701,"n_vehicles":285,"d":594,"route_I_counts":"{\"286\": 285}","source":13,"target":14,"layer":"L","from":"Batthyány tér","to":"Kossuth Lajos tér"},"geometry":{"type":"LineString","coordinates":[[19.038103,47.506826],[19.045769,47.505511]]}},{"type":"Feature","properties":{"duration_avg":106.70979020979021,"n_vehicles":286,"d":893,"route_I_counts":"{\"286\": 286}","shape_id":"{\"1111\": 286}","direction_id":"{\"1\": 286}","headsign":"{\"Déli pályaudvar M\": 286}","source":13,"target":12,"layer":"L","from":"Batthyány tér","to":"Széll Kálmán tér"},"geometry":{"type":"LineString","coordinates":[[19.038103,47.506826],[19.026097,47.507533]]}},{"type":"Feature","properties":{"duration_avg":120.0,"n_vehicles":285,"d":1070,"route_I_counts":"{\"286\": 285}","shape_id":"{\"1112\": 285}","direction_id":"{\"0\": 285}","headsign":"{\"Örs vezér tere M+H\": 285}","source":14,"target":1,"layer":"L","from":"Kossuth Lajos tér","to":"Deák Ferenc tér"},"geometry":{"type":"LineString","coordinates":[[19.045769,47.505511],[19.054142,47.497728]]}},{"type":"Feature","properties":{"duration_avg":86.13986013986013,"n_vehicles":286,"d":591,"route_I_counts":"{\"286\": 286}","shape_id":"{\"1111\": 286}","direction_id":"{\"1\": 286}","headsign":"{\"Déli pályaudvar M\": 286}","source":14,"target":13,"layer":"L","from":"Kossuth Lajos tér","to":"Batthyány tér"},"geometry":{"type":"LineString","coordinates":[[19.045769,47.505511],[19.038103,47.506826]]}},{"type":"Feature","properties":{"shape_id":"{\"1112\": 286}","direction_id":"{\"0\": 286}","headsign":"{\"Örs vezér tere M+H\": 286}","duration_avg":86.13986013986013,"n_vehicles":286,"d":636,"route_I_counts":"{\"286\": 286}","source":15,"target":16,"layer":"L","from":"Astoria","to":"Blaha Lujza tér"},"geometry":{"type":"LineString","coordinates":[[19.062457,47.494825],[19.070279,47.49701]]}},{"type":"Feature","properties":{"duration_avg":103.0,"n_vehicles":285,"d":726,"route_I_counts":"{\"286\": 285}","shape_id":"{\"1111\": 285}","direction_id":"{\"1\": 285}","headsign":"{\"Déli pályaudvar M\": 285}","source":15,"target":1,"layer":"L","from":"Astoria","to":"Deák Ferenc tér"},"geometry":{"type":"LineString","coordinates":[[19.062457,47.494825],[19.054142,47.497728]]}},{"type":"Feature","properties":{"shape_id":"{\"1112\": 286}","direction_id":"{\"0\": 286}","headsign":"{\"Örs vezér tere M+H\": 286}","duration_avg":106.70979020979021,"n_vehicles":286,"d":993,"route_I_counts":"{\"286\": 286}","source":16,"target":17,"layer":"L","from":"Blaha Lujza tér","to":"Keleti pályaudvar"},"geometry":{"type":"LineString","coordinates":[[19.070279,47.49701],[19.082881,47.499683]]}},{"type":"Feature","properties":{"duration_avg":84.85964912280701,"n_vehicles":285,"d":637,"route_I_counts":"{\"286\": 285}","shape_id":"{\"1111\": 285}","direction_id":"{\"1\": 285}","headsign":"{\"Déli pályaudvar M\": 285}","source":16,"target":15,"layer":"L","from":"Blaha Lujza tér","to":"Astoria"},"geometry":{"type":"LineString","coordinates":[[19.070279,47.49701],[19.062457,47.494825]]}},{"type":"Feature","properties":{"shape_id":"{\"1112\": 286}","direction_id":"{\"0\": 286}","headsign":"{\"Örs vezér tere M+H\": 286}","duration_avg":161.55944055944056,"n_vehicles":286,"d":1768,"route_I_counts":"{\"286\": 286}","source":17,"target":18,"layer":"L","from":"Keleti pályaudvar","to":"Puskás Ferenc Stadion"},"geometry":{"type":"LineString","coordinates":[[19.082881,47.499683],[19.106381,47.500174]]}},{"type":"Feature","properties":{"duration_avg":109.1438596491228,"n_vehicles":285,"d":998,"route_I_counts":"{\"286\": 285}","shape_id":"{\"1111\": 285}","direction_id":"{\"1\": 285}","headsign":"{\"Déli pályaudvar M\": 285}","source":17,"target":16,"layer":"L","from":"Keleti pályaudvar","to":"Blaha Lujza tér"},"geometry":{"type":"LineString","coordinates":[[19.082881,47.499683],[19.070279,47.49701]]}},{"type":"Feature","properties":{"duration_avg":81.0,"n_vehicles":253,"d":567,"route_I_counts":"{\"288\": 253}","shape_id":"{\"X484\": 253}","direction_id":"{\"0\": 253}","headsign":"{\"Kelenföld vasútállomás\": 253}","source":17,"target":40,"layer":"L","from":"Keleti pályaudvar","to":"II. János Pál pápa tér"},"geometry":{"type":"LineString","coordinates":[[19.082881,47.499683],[19.077229,47.495593]]}},{"type":"Feature","properties":{"shape_id":"{\"1112\": 286}","direction_id":"{\"0\": 286}","headsign":"{\"Örs vezér tere M+H\": 286}","duration_avg":111.29020979020979,"n_vehicles":286,"d":1061,"route_I_counts":"{\"286\": 286}","source":18,"target":19,"layer":"L","from":"Puskás Ferenc Stadion","to":"Pillangó utca"},"geometry":{"type":"LineString","coordinates":[[19.106381,47.500174],[19.120417,47.501204]]}},{"type":"Feature","properties":{"duration_avg":161.7157894736842,"n_vehicles":285,"d":1766,"route_I_counts":"{\"286\": 285}","shape_id":"{\"1111\": 285}","direction_id":"{\"1\": 285}","headsign":"{\"Déli pályaudvar M\": 285}","source":18,"target":17,"layer":"L","from":"Puskás Ferenc Stadion","to":"Keleti pályaudvar"},"geometry":{"type":"LineString","coordinates":[[19.106381,47.500174],[19.082881,47.499683]]}},{"type":"Feature","properties":{"shape_id":"{\"1112\": 286}","direction_id":"{\"0\": 286}","headsign":"{\"Örs vezér tere M+H\": 286}","duration_avg":120.0,"n_vehicles":286,"d":1184,"route_I_counts":"{\"286\": 286}","source":19,"target":20,"layer":"L","from":"Pillangó utca","to":"Örs vezér tere"},"geometry":{"type":"LineString","coordinates":[[19.120417,47.501204],[19.135963,47.502922]]}},{"type":"Feature","properties":{"duration_avg":116.1438596491228,"n_vehicles":285,"d":1062,"route_I_counts":"{\"286\": 285}","shape_id":"{\"1111\": 285}","direction_id":"{\"1\": 285}","headsign":"{\"Déli pályaudvar M\": 285}","source":19,"target":18,"layer":"L","from":"Pillangó utca","to":"Puskás Ferenc Stadion"},"geometry":{"type":"LineString","coordinates":[[19.120417,47.501204],[19.106381,47.500174]]}},{"type":"Feature","properties":{"duration_avg":128.7218309859155,"n_vehicles":284,"d":1304,"route_I_counts":"{\"286\": 284}","shape_id":"{\"1111\": 284}","direction_id":"{\"1\": 284}","headsign":"{\"Déli pályaudvar M\": 284}","source":20,"target":19,"layer":"L","from":"Örs vezér tere","to":"Pillangó utca"},"geometry":{"type":"LineString","coordinates":[[19.135963,47.502922],[19.120417,47.501204]]}},{"type":"Feature","properties":{"shape_id":"{\"1113\": 279}","direction_id":"{\"1\": 279}","headsign":"{\"Újpest-Központ M\": 279}","duration_avg":162.9390681003584,"n_vehicles":279,"d":1720,"route_I_counts":"{\"287\": 279}","source":21,"target":22,"layer":"L","from":"Kőbánya-Kispest","to":"Határ út"},"geometry":{"type":"LineString","coordinates":[[19.147412,47.46393],[19.124821,47.466285]]}},{"type":"Feature","properties":{"shape_id":"{\"1113\": 280}","direction_id":"{\"1\": 280}","headsign":"{\"Újpest-Központ M\": 280}","duration_avg":83.75714285714285,"n_vehicles":280,"d":604,"route_I_counts":"{\"287\": 280}","source":22,"target":23,"layer":"L","from":"Határ út","to":"Pöttyös utca"},"geometry":{"type":"LineString","coordinates":[[19.124821,47.466285],[19.117532,47.468557]]}},{"type":"Feature","properties":{"duration_avg":145.47535211267606,"n_vehicles":284,"d":1715,"route_I_counts":"{\"287\": 284}","shape_id":"{\"1114\": 283, \"2148\": 1}","direction_id":"{\"0\": 284}","headsign":"{\"Kőbánya-Kispest M\": 284}","source":22,"target":21,"layer":"L","from":"Határ út","to":"Kőbánya-Kispest"},"geometry":{"type":"LineString","coordinates":[[19.124821,47.466285],[19.147412,47.46393]]}},{"type":"Feature","properties":{"shape_id":"{\"1113\": 280}","direction_id":"{\"1\": 280}","headsign":"{\"Újpest-Központ M\": 280}","duration_avg":84.17142857142858,"n_vehicles":280,"d":612,"route_I_counts":"{\"287\": 280}","source":23,"target":24,"layer":"L","from":"Pöttyös utca","to":"Ecseri út"},"geometry":{"type":"LineString","coordinates":[[19.117532,47.468557],[19.110331,47.471127]]}},{"type":"Feature","properties":{"duration_avg":87.80918727915194,"n_vehicles":283,"d":607,"route_I_counts":"{\"287\": 283}","shape_id":"{\"1114\": 282, \"2148\": 1}","direction_id":"{\"0\": 283}","headsign":"{\"Kőbánya-Kispest M\": 283}","source":23,"target":22,"layer":"L","from":"Pöttyös utca","to":"Határ út"},"geometry":{"type":"LineString","coordinates":[[19.117532,47.468557],[19.124821,47.466285]]}},{"type":"Feature","properties":{"shape_id":"{\"1113\": 280}","direction_id":"{\"1\": 280}","headsign":"{\"Újpest-Központ M\": 280}","duration_avg":107.92857142857143,"n_vehicles":280,"d":961,"route_I_counts":"{\"287\": 280}","source":24,"target":25,"layer":"L","from":"Ecseri út","to":"Népliget"},"geometry":{"type":"LineString","coordinates":[[19.110331,47.471127],[19.099291,47.475479]]}},{"type":"Feature","properties":{"duration_avg":84.28975265017668,"n_vehicles":283,"d":613,"route_I_counts":"{\"287\": 283}","shape_id":"{\"1114\": 282, \"2148\": 1}","direction_id":"{\"0\": 283}","headsign":"{\"Kőbánya-Kispest M\": 283}","source":24,"target":23,"layer":"L","from":"Ecseri út","to":"Pöttyös utca"},"geometry":{"type":"LineString","coordinates":[[19.110331,47.471127],[19.117532,47.468557]]}},{"type":"Feature","properties":{"shape_id":"{\"1113\": 281}","direction_id":"{\"1\": 281}","headsign":"{\"Újpest-Központ M\": 281}","duration_avg":99.73309608540926,"n_vehicles":281,"d":816,"route_I_counts":"{\"287\": 281}","source":25,"target":26,"layer":"L","from":"Népliget","to":"Nagyvárad tér"},"geometry":{"type":"LineString","coordinates":[[19.099291,47.475479],[19.089768,47.478999]]}},{"type":"Feature","properties":{"duration_avg":103.59010600706713,"n_vehicles":283,"d":959,"route_I_counts":"{\"287\": 283}","shape_id":"{\"1114\": 282, \"2148\": 1}","direction_id":"{\"0\": 283}","headsign":"{\"Kőbánya-Kispest M\": 283}","source":25,"target":24,"layer":"L","from":"Népliget","to":"Ecseri út"},"geometry":{"type":"LineString","coordinates":[[19.099291,47.475479],[19.110331,47.471127]]}},{"type":"Feature","properties":{"shape_id":"{\"1113\": 281}","direction_id":"{\"1\": 281}","headsign":"{\"Újpest-Központ M\": 281}","duration_avg":120.0,"n_vehicles":281,"d":1076,"route_I_counts":"{\"287\": 281}","source":26,"target":27,"layer":"L","from":"Nagyvárad tér","to":"Klinikák"},"geometry":{"type":"LineString","coordinates":[[19.089768,47.478999],[19.07703,47.483413]]}},{"type":"Feature","properties":{"duration_avg":112.93286219081273,"n_vehicles":283,"d":818,"route_I_counts":"{\"287\": 283}","shape_id":"{\"1114\": 282, \"2148\": 1}","direction_id":"{\"0\": 283}","headsign":"{\"Kőbánya-Kispest M\": 283}","source":26,"target":25,"layer":"L","from":"Nagyvárad tér","to":"Népliget"},"geometry":{"type":"LineString","coordinates":[[19.089768,47.478999],[19.099291,47.475479]]}},{"type":"Feature","properties":{"shape_id":"{\"1113\": 281}","direction_id":"{\"1\": 281}","headsign":"{\"Újpest-Központ M\": 281}","duration_avg":84.73309608540926,"n_vehicles":281,"d":514,"route_I_counts":"{\"287\": 281}","source":27,"target":28,"layer":"L","from":"Klinikák","to":"Corvin-negyed"},"geometry":{"type":"LineString","coordinates":[[19.07703,47.483413],[19.070866,47.485424]]}},{"type":"Feature","properties":{"duration_avg":119.75265017667844,"n_vehicles":283,"d":1075,"route_I_counts":"{\"287\": 283}","shape_id":"{\"1114\": 282, \"2148\": 1}","direction_id":"{\"0\": 283}","headsign":"{\"Kőbánya-Kispest M\": 283}","source":27,"target":26,"layer":"L","from":"Klinikák","to":"Nagyvárad tér"},"geometry":{"type":"LineString","coordinates":[[19.07703,47.483413],[19.089768,47.478999]]}},{"type":"Feature","properties":{"shape_id":"{\"1113\": 282}","direction_id":"{\"1\": 282}","headsign":"{\"Újpest-Központ M\": 282}","duration_avg":110.0,"n_vehicles":282,"d":933,"route_I_counts":"{\"287\": 282}","source":28,"target":29,"layer":"L","from":"Corvin-negyed","to":"Kálvin tér"},"geometry":{"type":"LineString","coordinates":[[19.070866,47.485424],[19.06064,47.49017]]}},{"type":"Feature","properties":{"duration_avg":79.92932862190813,"n_vehicles":283,"d":515,"route_I_counts":"{\"287\": 283}","shape_id":"{\"1114\": 282, \"2148\": 1}","direction_id":"{\"0\": 283}","headsign":"{\"Kőbánya-Kispest M\": 283}","source":28,"target":27,"layer":"L","from":"Corvin-negyed","to":"Klinikák"},"geometry":{"type":"LineString","coordinates":[[19.070866,47.485424],[19.07703,47.483413]]}},{"type":"Feature","properties":{"shape_id":"{\"1113\": 282}","direction_id":"{\"1\": 282}","headsign":"{\"Újpest-Központ M\": 282}","duration_avg":80.0,"n_vehicles":282,"d":450,"route_I_counts":"{\"287\": 282}","source":29,"target":30,"layer":"L","from":"Kálvin tér","to":"Ferenciek tere"},"geometry":{"type":"LineString","coordinates":[[19.06064,47.49017],[19.056091,47.492808]]}},{"type":"Feature","properties":{"duration_avg":104.60992907801419,"n_vehicles":282,"d":931,"route_I_counts":"{\"287\": 282}","shape_id":"{\"1114\": 281, \"2148\": 1}","direction_id":"{\"0\": 282}","headsign":"{\"Kőbánya-Kispest M\": 282}","source":29,"target":28,"layer":"L","from":"Kálvin tér","to":"Corvin-negyed"},"geometry":{"type":"LineString","coordinates":[[19.06064,47.49017],[19.070866,47.485424]]}},{"type":"Feature","properties":{"duration_avg":78.42125984251969,"n_vehicles":254,"d":432,"route_I_counts":"{\"288\": 254}","shape_id":"{\"X484\": 254}","direction_id":"{\"0\": 254}","headsign":"{\"Kelenföld vasútállomás\": 254}","source":29,"target":42,"layer":"L","from":"Kálvin tér","to":"Fővám tér"},"geometry":{"type":"LineString","coordinates":[[19.06064,47.49017],[19.057571,47.485792]]}},{"type":"Feature","properties":{"duration_avg":99.42292490118577,"n_vehicles":253,"d":884,"route_I_counts":"{\"288\": 253}","shape_id":"{\"X485\": 253}","direction_id":"{\"1\": 253}","headsign":"{\"Keleti pályaudvar\": 253}","source":29,"target":41,"layer":"L","from":"Kálvin tér","to":"Rákóczi tér"},"geometry":{"type":"LineString","coordinates":[[19.06064,47.49017],[19.071361,47.492725]]}},{"type":"Feature","properties":{"duration_avg":95.0,"n_vehicles":282,"d":661,"route_I_counts":"{\"287\": 282}","shape_id":"{\"1113\": 282}","direction_id":"{\"1\": 282}","headsign":"{\"Újpest-Központ M\": 282}","source":30,"target":1,"layer":"L","from":"Ferenciek tere","to":"Deák Ferenc tér"},"geometry":{"type":"LineString","coordinates":[[19.056091,47.492808],[19.054142,47.497728]]}},{"type":"Feature","properties":{"duration_avg":79.9290780141844,"n_vehicles":282,"d":465,"route_I_counts":"{\"287\": 282}","shape_id":"{\"1114\": 281, \"2148\": 1}","direction_id":"{\"0\": 282}","headsign":"{\"Kőbánya-Kispest M\": 282}","source":30,"target":29,"layer":"L","from":"Ferenciek tere","to":"Kálvin tér"},"geometry":{"type":"LineString","coordinates":[[19.056091,47.492808],[19.06064,47.49017]]}},{"type":"Feature","properties":{"shape_id":"{\"1113\": 283}","direction_id":"{\"1\": 283}","headsign":"{\"Újpest-Központ M\": 283}","duration_avg":104.73498233215548,"n_vehicles":283,"d":795,"route_I_counts":"{\"287\": 283}","source":31,"target":32,"layer":"L","from":"Arany János utca","to":"Nyugati pályaudvar"},"geometry":{"type":"LineString","coordinates":[[19.054679,47.504733],[19.056873,47.51172]]}},{"type":"Feature","properties":{"duration_avg":94.87588652482269,"n_vehicles":282,"d":676,"route_I_counts":"{\"287\": 282}","shape_id":"{\"1114\": 281, \"2148\": 1}","direction_id":"{\"0\": 282}","headsign":"{\"Kőbánya-Kispest M\": 282}","source":31,"target":1,"layer":"L","from":"Arany János utca","to":"Deák Ferenc tér"},"geometry":{"type":"LineString","coordinates":[[19.054679,47.504733],[19.054142,47.497728]]}},{"type":"Feature","properties":{"shape_id":"{\"1113\": 283}","direction_id":"{\"1\": 283}","headsign":"{\"Újpest-Központ M\": 283}","duration_avg":104.73498233215548,"n_vehicles":283,"d":828,"route_I_counts":"{\"287\": 283}","source":32,"target":33,"layer":"L","from":"Nyugati pályaudvar","to":"Lehel tér"},"geometry":{"type":"LineString","coordinates":[[19.056873,47.51172],[19.060859,47.518659]]}},{"type":"Feature","properties":{"duration_avg":102.76595744680851,"n_vehicles":282,"d":804,"route_I_counts":"{\"287\": 282}","shape_id":"{\"1114\": 281, \"2148\": 1}","direction_id":"{\"0\": 282}","headsign":"{\"Kőbánya-Kispest M\": 282}","source":32,"target":31,"layer":"L","from":"Nyugati pályaudvar","to":"Arany János utca"},"geometry":{"type":"LineString","coordinates":[[19.056873,47.51172],[19.054679,47.504733]]}},{"type":"Feature","properties":{"shape_id":"{\"1113\": 283}","direction_id":"{\"1\": 283}","headsign":"{\"Újpest-Központ M\": 283}","duration_avg":95.0,"n_vehicles":283,"d":784,"route_I_counts":"{\"287\": 283}","source":33,"target":34,"layer":"L","from":"Lehel tér","to":"Dózsa György út"},"geometry":{"type":"LineString","coordinates":[[19.060859,47.518659],[19.063737,47.52543]]}},{"type":"Feature","properties":{"duration_avg":104.822695035461,"n_vehicles":282,"d":820,"route_I_counts":"{\"287\": 282}","shape_id":"{\"1114\": 281, \"2148\": 1}","direction_id":"{\"0\": 282}","headsign":"{\"Kőbánya-Kispest M\": 282}","source":33,"target":32,"layer":"L","from":"Lehel tér","to":"Nyugati pályaudvar"},"geometry":{"type":"LineString","coordinates":[[19.060859,47.518659],[19.056873,47.51172]]}},{"type":"Feature","properties":{"shape_id":"{\"1113\": 283}","direction_id":"{\"1\": 283}","headsign":"{\"Újpest-Központ M\": 283}","duration_avg":102.89752650176679,"n_vehicles":283,"d":902,"route_I_counts":"{\"287\": 283}","source":34,"target":35,"layer":"L","from":"Dózsa György út","to":"Árpád híd"},"geometry":{"type":"LineString","coordinates":[[19.063737,47.52543],[19.067089,47.533217]]}},{"type":"Feature","properties":{"duration_avg":99.62765957446808,"n_vehicles":282,"d":781,"route_I_counts":"{\"287\": 282}","shape_id":"{\"1114\": 281, \"2148\": 1}","direction_id":"{\"0\": 282}","headsign":"{\"Kőbánya-Kispest M\": 282}","source":34,"target":33,"layer":"L","from":"Dózsa György út","to":"Lehel tér"},"geometry":{"type":"LineString","coordinates":[[19.063737,47.52543],[19.060859,47.518659]]}},{"type":"Feature","properties":{"shape_id":"{\"1113\": 284}","direction_id":"{\"1\": 284}","headsign":"{\"Újpest-Központ M\": 284}","duration_avg":88.73239436619718,"n_vehicles":284,"d":688,"route_I_counts":"{\"287\": 284}","source":35,"target":36,"layer":"L","from":"Árpád híd","to":"Forgách utca"},"geometry":{"type":"LineString","coordinates":[[19.067089,47.533217],[19.069648,47.53916]]}},{"type":"Feature","properties":{"duration_avg":100.0711743772242,"n_vehicles":281,"d":906,"route_I_counts":"{\"287\": 281}","shape_id":"{\"1114\": 280, \"2148\": 1}","direction_id":"{\"0\": 281}","headsign":"{\"Kőbánya-Kispest M\": 281}","source":35,"target":34,"layer":"L","from":"Árpád híd","to":"Dózsa György út"},"geometry":{"type":"LineString","coordinates":[[19.067089,47.533217],[19.063737,47.52543]]}},{"type":"Feature","properties":{"shape_id":"{\"1113\": 284}","direction_id":"{\"1\": 284}","headsign":"{\"Újpest-Központ M\": 284}","duration_avg":119.15492957746478,"n_vehicles":284,"d":1176,"route_I_counts":"{\"287\": 284}","source":36,"target":37,"layer":"L","from":"Forgách utca","to":"Gyöngyösi utca"},"geometry":{"type":"LineString","coordinates":[[19.069648,47.53916],[19.073575,47.549394]]}},{"type":"Feature","properties":{"duration_avg":92.92857142857143,"n_vehicles":280,"d":694,"route_I_counts":"{\"287\": 280}","shape_id":"{\"1114\": 280}","direction_id":"{\"0\": 280}","headsign":"{\"Kőbánya-Kispest M\": 280}","source":36,"target":35,"layer":"L","from":"Forgách utca","to":"Árpád híd"},"geometry":{"type":"LineString","coordinates":[[19.069648,47.53916],[19.067089,47.533217]]}},{"type":"Feature","properties":{"shape_id":"{\"1113\": 284}","direction_id":"{\"1\": 284}","headsign":"{\"Újpest-Központ M\": 284}","duration_avg":125.0,"n_vehicles":284,"d":1258,"route_I_counts":"{\"287\": 284}","source":37,"target":38,"layer":"L","from":"Gyöngyösi utca","to":"Újpest-Városkapu"},"geometry":{"type":"LineString","coordinates":[[19.073575,47.549394],[19.081099,47.559495]]}},{"type":"Feature","properties":{"duration_avg":119.17142857142858,"n_vehicles":280,"d":1175,"route_I_counts":"{\"287\": 280}","shape_id":"{\"1114\": 280}","direction_id":"{\"0\": 280}","headsign":"{\"Kőbánya-Kispest M\": 280}","source":37,"target":36,"layer":"L","from":"Gyöngyösi utca","to":"Forgách utca"},"geometry":{"type":"LineString","coordinates":[[19.073575,47.549394],[19.069648,47.53916]]}},{"type":"Feature","properties":{"shape_id":"{\"1113\": 284}","direction_id":"{\"1\": 284}","headsign":"{\"Újpest-Központ M\": 284}","duration_avg":85.0,"n_vehicles":284,"d":771,"route_I_counts":"{\"287\": 284}","source":38,"target":39,"layer":"L","from":"Újpest-Városkapu","to":"Újpest-Központ"},"geometry":{"type":"LineString","coordinates":[[19.081099,47.559495],[19.091319,47.560144]]}},{"type":"Feature","properties":{"duration_avg":123.75714285714285,"n_vehicles":280,"d":1296,"route_I_counts":"{\"287\": 280}","shape_id":"{\"1114\": 280}","direction_id":"{\"0\": 280}","headsign":"{\"Kőbánya-Kispest M\": 280}","source":38,"target":37,"layer":"L","from":"Újpest-Városkapu","to":"Gyöngyösi utca"},"geometry":{"type":"LineString","coordinates":[[19.081099,47.559495],[19.073575,47.549394]]}},{"type":"Feature","properties":{"duration_avg":100.0,"n_vehicles":280,"d":779,"route_I_counts":"{\"287\": 280}","shape_id":"{\"1114\": 280}","direction_id":"{\"0\": 280}","headsign":"{\"Kőbánya-Kispest M\": 280}","source":39,"target":38,"layer":"L","from":"Újpest-Központ","to":"Újpest-Városkapu"},"geometry":{"type":"LineString","coordinates":[[19.091319,47.560144],[19.081099,47.559495]]}},{"type":"Feature","properties":{"shape_id":"{\"X484\": 254}","direction_id":"{\"0\": 254}","headsign":"{\"Kelenföld vasútállomás\": 254}","duration_avg":83.42125984251969,"n_vehicles":254,"d":544,"route_I_counts":"{\"288\": 254}","source":40,"target":41,"layer":"L","from":"II. János Pál pápa tér","to":"Rákóczi tér"},"geometry":{"type":"LineString","coordinates":[[19.077229,47.495593],[19.071361,47.492725]]}},{"type":"Feature","properties":{"duration_avg":77.0,"n_vehicles":253,"d":575,"route_I_counts":"{\"288\": 253}","shape_id":"{\"X485\": 253}","direction_id":"{\"1\": 253}","headsign":"{\"Keleti pályaudvar\": 253}","source":40,"target":17,"layer":"L","from":"II. János Pál pápa tér","to":"Keleti pályaudvar"},"geometry":{"type":"LineString","coordinates":[[19.077229,47.495593],[19.082881,47.499683]]}},{"type":"Feature","properties":{"duration_avg":106.26377952755905,"n_vehicles":254,"d":886,"route_I_counts":"{\"288\": 254}","shape_id":"{\"X484\": 254}","direction_id":"{\"0\": 254}","headsign":"{\"Kelenföld vasútállomás\": 254}","source":41,"target":29,"layer":"L","from":"Rákóczi tér","to":"Kálvin tér"},"geometry":{"type":"LineString","coordinates":[[19.071361,47.492725],[19.06064,47.49017]]}},{"type":"Feature","properties":{"duration_avg":81.0,"n_vehicles":253,"d":538,"route_I_counts":"{\"288\": 253}","shape_id":"{\"X485\": 253}","direction_id":"{\"1\": 253}","headsign":"{\"Keleti pályaudvar\": 253}","source":41,"target":40,"layer":"L","from":"Rákóczi tér","to":"II. János Pál pápa tér"},"geometry":{"type":"LineString","coordinates":[[19.071361,47.492725],[19.077229,47.495593]]}},{"type":"Feature","properties":{"shape_id":"{\"X484\": 254}","direction_id":"{\"0\": 254}","headsign":"{\"Kelenföld vasútállomás\": 254}","duration_avg":70.42125984251969,"n_vehicles":254,"d":441,"route_I_counts":"{\"288\": 254}","source":42,"target":43,"layer":"L","from":"Fővám tér","to":"Szent Gellért tér"},"geometry":{"type":"LineString","coordinates":[[19.057571,47.485792],[19.054014,47.482635]]}},{"type":"Feature","properties":{"duration_avg":80.26877470355731,"n_vehicles":253,"d":452,"route_I_counts":"{\"288\": 253}","shape_id":"{\"X485\": 253}","direction_id":"{\"1\": 253}","headsign":"{\"Keleti pályaudvar\": 253}","source":42,"target":29,"layer":"L","from":"Fővám tér","to":"Kálvin tér"},"geometry":{"type":"LineString","coordinates":[[19.057571,47.485792],[19.06064,47.49017]]}},{"type":"Feature","properties":{"shape_id":"{\"X484\": 254}","direction_id":"{\"0\": 254}","headsign":"{\"Kelenföld vasútállomás\": 254}","duration_avg":98.42125984251969,"n_vehicles":254,"d":841,"route_I_counts":"{\"288\": 254}","source":43,"target":44,"layer":"L","from":"Szent Gellért tér","to":"Móricz Zsigmond körtér"},"geometry":{"type":"LineString","coordinates":[[19.054014,47.482635],[19.047227,47.476629]]}},{"type":"Feature","properties":{"duration_avg":71.42292490118577,"n_vehicles":253,"d":414,"route_I_counts":"{\"288\": 253}","shape_id":"{\"X485\": 253}","direction_id":"{\"1\": 253}","headsign":"{\"Keleti pályaudvar\": 253}","source":43,"target":42,"layer":"L","from":"Szent Gellért tér","to":"Fővám tér"},"geometry":{"type":"LineString","coordinates":[[19.054014,47.482635],[19.057571,47.485792]]}},{"type":"Feature","properties":{"shape_id":"{\"X484\": 254}","direction_id":"{\"0\": 254}","headsign":"{\"Kelenföld vasútállomás\": 254}","duration_avg":74.84251968503936,"n_vehicles":254,"d":430,"route_I_counts":"{\"288\": 254}","source":44,"target":45,"layer":"L","from":"Móricz Zsigmond körtér","to":"Újbuda-központ"},"geometry":{"type":"LineString","coordinates":[[19.047227,47.476629],[19.045954,47.47286]]}},{"type":"Feature","properties":{"duration_avg":99.42292490118577,"n_vehicles":253,"d":846,"route_I_counts":"{\"288\": 253}","shape_id":"{\"X485\": 253}","direction_id":"{\"1\": 253}","headsign":"{\"Keleti pályaudvar\": 253}","source":44,"target":43,"layer":"L","from":"Móricz Zsigmond körtér","to":"Szent Gellért tér"},"geometry":{"type":"LineString","coordinates":[[19.047227,47.476629],[19.054014,47.482635]]}},{"type":"Feature","properties":{"shape_id":"{\"X484\": 254}","direction_id":"{\"0\": 254}","headsign":"{\"Kelenföld vasútállomás\": 254}","duration_avg":127.42125984251969,"n_vehicles":254,"d":1355,"route_I_counts":"{\"288\": 254}","source":45,"target":46,"layer":"L","from":"Újbuda-központ","to":"Bikás park"},"geometry":{"type":"LineString","coordinates":[[19.045954,47.47286],[19.032345,47.464881]]}},{"type":"Feature","properties":{"duration_avg":75.42292490118577,"n_vehicles":253,"d":430,"route_I_counts":"{\"288\": 253}","shape_id":"{\"X485\": 253}","direction_id":"{\"1\": 253}","headsign":"{\"Keleti pályaudvar\": 253}","source":45,"target":44,"layer":"L","from":"Újbuda-központ","to":"Móricz Zsigmond körtér"},"geometry":{"type":"LineString","coordinates":[[19.045954,47.47286],[19.047227,47.476629]]}},{"type":"Feature","properties":{"shape_id":"{\"X484\": 255}","direction_id":"{\"0\": 255}","headsign":"{\"Kelenföld vasútállomás\": 255}","duration_avg":89.0,"n_vehicles":255,"d":958,"route_I_counts":"{\"288\": 255}","source":46,"target":47,"layer":"L","from":"Bikás park","to":"Kelenföld vasútállomás"},"geometry":{"type":"LineString","coordinates":[[19.032345,47.464881],[19.019618,47.464515]]}},{"type":"Feature","properties":{"duration_avg":128.84920634920636,"n_vehicles":252,"d":1357,"route_I_counts":"{\"288\": 252}","shape_id":"{\"X485\": 252}","direction_id":"{\"1\": 252}","headsign":"{\"Keleti pályaudvar\": 252}","source":46,"target":45,"layer":"L","from":"Bikás park","to":"Újbuda-központ"},"geometry":{"type":"LineString","coordinates":[[19.032345,47.464881],[19.045954,47.47286]]}},{"type":"Feature","properties":{"duration_avg":101.42460317460318,"n_vehicles":252,"d":966,"route_I_counts":"{\"288\": 252}","shape_id":"{\"X485\": 252}","direction_id":"{\"1\": 252}","headsign":"{\"Keleti pályaudvar\": 252}","source":47,"target":46,"layer":"L","from":"Kelenföld vasútállomás","to":"Bikás park"},"geometry":{"type":"LineString","coordinates":[[19.019618,47.464515],[19.032345,47.464881]]}}]}