{"type":"FeatureCollection","features":[{"type":"Feature","geometry":{"type":"Point","coordinates":[-58.371493,-34.608695]},"properties":{"name":"Plaza de Mayo","original_ids":"[66, 65]","id":0,"layer":"stop"}},{"type":"Feature","geometry":{"type":"Point","coordinates":[-58.378502,-34.608838]},"properties":{"name":"Piedras","original_ids":"[62, 61]","id":1,"layer":"stop"}},{"type":"Feature","geometry":{"type":"Point","coordinates":[-58.386668,-34.609417]},"properties":{"name":"Saenz Peña","original_ids":"[58, 57]","id":2,"layer":"stop"}},{"type":"Feature","geometry":{"type":"Point","coordinates":[-58.392671,-34.609241]},"properties":{"name":"Congreso","original_ids":"[56, 55]","id":3,"layer":"stop"}},{"type":"Feature","geometry":{"type":"Point","coordinates":[-58.40072,-34.609832]},"properties":{"name":"Alberti","original_ids":"[53]","id":4,"layer":"stop"}},{"type":"Feature","geometry":{"type":"Point","coordinates":[-58.406814,-34.609688]},"properties":{"name":"Plaza Miserere","original_ids":"[52, 51, 193, 194]","id":5,"layer":"stop"}},{"type":"Feature","geometry":{"type":"Point","coordinates":[-58.415153,-34.610811]},"properties":{"name":"Loria","original_ids":"[50, 49]","id":6,"layer":"stop"}},{"type":"Feature","geometry":{"type":"Point","coordinates":[-58.421728,-34.611764]},"properties":{"name":"Castro Barros","original_ids":"[48, 47]","id":7,"layer":"stop"}},{"type":"Feature","geometry":{"type":"Point","coordinates":[-58.429286,-34.615111]},"properties":{"name":"Rio de Janeiro","original_ids":"[46, 45]","id":8,"layer":"stop"}},{"type":"Feature","geometry":{"type":"Point","coordinates":[-58.435862,-34.618036]},"properties":{"name":"Acoyte","original_ids":"[44, 43]","id":9,"layer":"stop"}},{"type":"Feature","geometry":{"type":"Point","coordinates":[-58.441401,-34.62046]},"properties":{"name":"Primera Junta","original_ids":"[42, 41]","id":10,"layer":"stop"}},{"type":"Feature","geometry":{"type":"Point","coordinates":[-58.448788,-34.623572]},"properties":{"name":"Puan","original_ids":"[40, 39]","id":11,"layer":"stop"}},{"type":"Feature","geometry":{"type":"Point","coordinates":[-58.456044,-34.626422]},"properties":{"name":"Carabobo","original_ids":"[38, 37]","id":12,"layer":"stop"}},{"type":"Feature","geometry":{"type":"Point","coordinates":[-58.463536,-34.629055]},"properties":{"name":"San Jose de Flores","original_ids":"[36, 35]","id":13,"layer":"stop"}},{"type":"Feature","geometry":{"type":"Point","coordinates":[-58.470433,-34.630923]},"properties":{"name":"San Pedrito","original_ids":"[34, 33]","id":14,"layer":"stop"}},{"type":"Feature","geometry":{"type":"Point","coordinates":[-58.39834,-34.609664]},"properties":{"name":"Pasco","original_ids":"[54]","id":15,"layer":"stop"}},{"type":"Feature","geometry":{"type":"Point","coordinates":[-58.374535,-34.603302]},"properties":{"name":"Florida","original_ids":"[98, 97]","id":16,"layer":"stop"}},{"type":"Feature","geometry":{"type":"Point","coordinates":[-58.381379,-34.603701]},"properties":{"name":"Carlos Pellegrini","original_ids":"[96, 95, 148, 147, 111, 112]","id":17,"layer":"stop"}},{"type":"Feature","geometry":{"type":"Point","coordinates":[-58.387106,-34.604046]},"properties":{"name":"Uruguay","original_ids":"[94, 93]","id":18,"layer":"stop"}},{"type":"Feature","geometry":{"type":"Point","coordinates":[-58.392846,-34.604458]},"properties":{"name":"Callao","original_ids":"[92, 91]","id":19,"layer":"stop"}},{"type":"Feature","geometry":{"type":"Point","coordinates":[-58.399357,-34.604623]},"properties":{"name":"Pasteur","original_ids":"[90, 89]","id":20,"layer":"stop"}},{"type":"Feature","geometry":{"type":"Point","coordinates":[-58.411705,-34.604103]},"properties":{"name":"Carlos Gardel","original_ids":"[86, 85]","id":21,"layer":"stop"}},{"type":"Feature","geometry":{"type":"Point","coordinates":[-58.421303,-34.60314]},"properties":{"name":"Medrano","original_ids":"[84, 83]","id":22,"layer":"stop"}},{"type":"Feature","geometry":{"type":"Point","coordinates":[-58.431022,-34.602157]},"properties":{"name":"Angel Gallardo","original_ids":"[80, 79]","id":23,"layer":"stop"}},{"type":"Feature","geometry":{"type":"Point","coordinates":[-58.439675,-34.599048]},"properties":{"name":"Malabia","original_ids":"[82, 81]","id":24,"layer":"stop"}},{"type":"Feature","geometry":{"type":"Point","coordinates":[-58.447618,-34.591693]},"properties":{"name":"Dorrego","original_ids":"[78, 77]","id":25,"layer":"stop"}},{"type":"Feature","geometry":{"type":"Point","coordinates":[-58.454097,-34.587565]},"properties":{"name":"Federico Lacroze","original_ids":"[76, 75]","id":26,"layer":"stop"}},{"type":"Feature","geometry":{"type":"Point","coordinates":[-58.465676,-34.584319]},"properties":{"name":"Tronador - Villa Ortuzar","original_ids":"[74, 73]","id":27,"layer":"stop"}},{"type":"Feature","geometry":{"type":"Point","coordinates":[-58.472949,-34.581941]},"properties":{"name":"De Los Incas - Parque Chas","original_ids":"[72, 71]","id":28,"layer":"stop"}},{"type":"Feature","geometry":{"type":"Point","coordinates":[-58.480764,-34.577998]},"properties":{"name":"Echeverria","original_ids":"[70, 69]","id":29,"layer":"stop"}},{"type":"Feature","geometry":{"type":"Point","coordinates":[-58.486718,-34.574011]},"properties":{"name":"Juan Manuel de Rosas","original_ids":"[68, 67]","id":30,"layer":"stop"}},{"type":"Feature","geometry":{"type":"Point","coordinates":[-58.374748,-34.591874]},"properties":{"name":"Retiro","original_ids":"[117, 118, 5, 32]","id":31,"layer":"stop"}},{"type":"Feature","geometry":{"type":"Point","coordinates":[-58.377257,-34.594872]},"properties":{"name":"General San Martin","original_ids":"[115, 116]","id":32,"layer":"stop"}},{"type":"Feature","geometry":{"type":"Point","coordinates":[-58.378116,-34.601776]},"properties":{"name":"Lavalle","original_ids":"[113, 114]","id":33,"layer":"stop"}},{"type":"Feature","geometry":{"type":"Point","coordinates":[-58.380681,-34.608991]},"properties":{"name":"Avenida de Mayo","original_ids":"[109, 110, 60, 59]","id":34,"layer":"stop"}},{"type":"Feature","geometry":{"type":"Point","coordinates":[-58.380518,-34.612435]},"properties":{"name":"Moreno","original_ids":"[107, 108]","id":35,"layer":"stop"}},{"type":"Feature","geometry":{"type":"Point","coordinates":[-58.380236,-34.61806]},"properties":{"name":"Independencia","original_ids":"[105, 106, 156, 155]","id":36,"layer":"stop"}},{"type":"Feature","geometry":{"type":"Point","coordinates":[-58.379952,-34.622676]},"properties":{"name":"San Juan","original_ids":"[103, 104]","id":37,"layer":"stop"}},{"type":"Feature","geometry":{"type":"Point","coordinates":[-58.381431,-34.627277]},"properties":{"name":"Constitucion","original_ids":"[101, 102]","id":38,"layer":"stop"}},{"type":"Feature","geometry":{"type":"Point","coordinates":[-58.374257,-34.607624]},"properties":{"name":"Catedral","original_ids":"[150, 149, 64, 63, 152, 151]","id":39,"layer":"stop"}},{"type":"Feature","geometry":{"type":"Point","coordinates":[-58.384459,-34.601771]},"properties":{"name":"Tribunales","original_ids":"[146, 145]","id":40,"layer":"stop"}},{"type":"Feature","geometry":{"type":"Point","coordinates":[-58.39224,-34.599603]},"properties":{"name":"Callao","original_ids":"[144, 143]","id":41,"layer":"stop"}},{"type":"Feature","geometry":{"type":"Point","coordinates":[-58.397434,-34.59972]},"properties":{"name":"Facultad de Medicina","original_ids":"[142, 141]","id":42,"layer":"stop"}},{"type":"Feature","geometry":{"type":"Point","coordinates":[-58.407093,-34.591698]},"properties":{"name":"Agüero","original_ids":"[138, 137]","id":43,"layer":"stop"}},{"type":"Feature","geometry":{"type":"Point","coordinates":[-58.411264,-34.588259]},"properties":{"name":"Bulnes","original_ids":"[136, 135]","id":44,"layer":"stop"}},{"type":"Feature","geometry":{"type":"Point","coordinates":[-58.415825,-34.585185]},"properties":{"name":"Scalabrini Ortiz","original_ids":"[134, 133]","id":45,"layer":"stop"}},{"type":"Feature","geometry":{"type":"Point","coordinates":[-58.420979,-34.581661]},"properties":{"name":"Plaza Italia","original_ids":"[132, 131]","id":46,"layer":"stop"}},{"type":"Feature","geometry":{"type":"Point","coordinates":[-58.42587,-34.578414]},"properties":{"name":"Palermo","original_ids":"[130, 129]","id":47,"layer":"stop"}},{"type":"Feature","geometry":{"type":"Point","coordinates":[-58.434726,-34.575206]},"properties":{"name":"Ministro Carranza","original_ids":"[128, 127]","id":48,"layer":"stop"}},{"type":"Feature","geometry":{"type":"Point","coordinates":[-58.444337,-34.570247]},"properties":{"name":"Olleros","original_ids":"[126, 125]","id":49,"layer":"stop"}},{"type":"Feature","geometry":{"type":"Point","coordinates":[-58.451969,-34.566268]},"properties":{"name":"Jose Hernandez","original_ids":"[124, 123]","id":50,"layer":"stop"}},{"type":"Feature","geometry":{"type":"Point","coordinates":[-58.456281,-34.56241]},"properties":{"name":"Juramento","original_ids":"[122, 121]","id":51,"layer":"stop"}},{"type":"Feature","geometry":{"type":"Point","coordinates":[-58.462078,-34.555988]},"properties":{"name":"Congreso de Tucuman","original_ids":"[120, 119]","id":52,"layer":"stop"}},{"type":"Feature","geometry":{"type":"Point","coordinates":[-58.37195,-34.596461]},"properties":{"name":"Catalinas","original_ids":"[7, 6]","id":53,"layer":"stop"}},{"type":"Feature","geometry":{"type":"Point","coordinates":[-58.370058,-34.603428]},"properties":{"name":"Correo Central","original_ids":"[9, 8, 100, 99]","id":54,"layer":"stop"}},{"type":"Feature","geometry":{"type":"Point","coordinates":[-58.37822,-34.61341]},"properties":{"name":"Belgrano","original_ids":"[154, 153]","id":55,"layer":"stop"}},{"type":"Feature","geometry":{"type":"Point","coordinates":[-58.385392,-34.622367]},"properties":{"name":"San Jose","original_ids":"[158, 157]","id":56,"layer":"stop"}},{"type":"Feature","geometry":{"type":"Point","coordinates":[-58.391515,-34.62276]},"properties":{"name":"Entre Rios","original_ids":"[160, 159]","id":57,"layer":"stop"}},{"type":"Feature","geometry":{"type":"Point","coordinates":[-58.397112,-34.623134]},"properties":{"name":"Pichincha","original_ids":"[162, 161]","id":58,"layer":"stop"}},{"type":"Feature","geometry":{"type":"Point","coordinates":[-58.402829,-34.623879]},"properties":{"name":"Jujuy","original_ids":"[164, 163, 189, 190]","id":59,"layer":"stop"}},{"type":"Feature","geometry":{"type":"Point","coordinates":[-58.409617,-34.624682]},"properties":{"name":"General Urquiza","original_ids":"[166, 165]","id":60,"layer":"stop"}},{"type":"Feature","geometry":{"type":"Point","coordinates":[-58.416628,-34.625545]},"properties":{"name":"Boedo","original_ids":"[168, 167]","id":61,"layer":"stop"}},{"type":"Feature","geometry":{"type":"Point","coordinates":[-58.425611,-34.626836]},"properties":{"name":"La Plata","original_ids":"[170, 169]","id":62,"layer":"stop"}},{"type":"Feature","geometry":{"type":"Point","coordinates":[-58.434298,-34.628084]},"properties":{"name":"Jose Maria Moreno","original_ids":"[172, 171]","id":63,"layer":"stop"}},{"type":"Feature","geometry":{"type":"Point","coordinates":[-58.442525,-34.631632]},"properties":{"name":"Emilio Mitre","original_ids":"[174, 173]","id":64,"layer":"stop"}},{"type":"Feature","geometry":{"type":"Point","coordinates":[-58.450398,-34.63625]},"properties":{"name":"Medalla Milagrosa","original_ids":"[176, 175]","id":65,"layer":"stop"}},{"type":"Feature","geometry":{"type":"Point","coordinates":[-58.457848,-34.639567]},"properties":{"name":"Varela","original_ids":"[178, 177]","id":66,"layer":"stop"}},{"type":"Feature","geometry":{"type":"Point","coordinates":[-58.461445,-34.64277]},"properties":{"name":"Plaza de los Virreyes","original_ids":"[180, 179]","id":67,"layer":"stop"}},{"type":"Feature","geometry":{"type":"Point","coordinates":[-58.391207,-34.583194]},"properties":{"name":"Facultad de Derecho","original_ids":"[239, 240]","id":68,"layer":"stop"}},{"type":"Feature","geometry":{"type":"Point","coordinates":[-58.398045,-34.588063]},"properties":{"name":"Las Heras","original_ids":"[237, 238]","id":69,"layer":"stop"}},{"type":"Feature","geometry":{"type":"Point","coordinates":[-58.40246,-34.594857]},"properties":{"name":"Santa Fe","original_ids":"[235, 236, 140, 139]","id":70,"layer":"stop"}},{"type":"Feature","geometry":{"type":"Point","coordinates":[-58.403805,-34.598686]},"properties":{"name":"Cordoba","original_ids":"[233, 234]","id":71,"layer":"stop"}},{"type":"Feature","geometry":{"type":"Point","coordinates":[-58.405317,-34.603924]},"properties":{"name":"Corrientes","original_ids":"[195, 196, 88, 87]","id":72,"layer":"stop"}},{"type":"Feature","geometry":{"type":"Point","coordinates":[-58.404759,-34.615227]},"properties":{"name":"Venezuela","original_ids":"[191, 192]","id":73,"layer":"stop"}},{"type":"Feature","geometry":{"type":"Point","coordinates":[-58.400987,-34.629351]},"properties":{"name":"Inclan","original_ids":"[187, 188]","id":74,"layer":"stop"}},{"type":"Feature","geometry":{"type":"Point","coordinates":[-58.399159,-34.635266]},"properties":{"name":"Caseros","original_ids":"[185, 186]","id":75,"layer":"stop"}},{"type":"Feature","geometry":{"type":"Point","coordinates":[-58.406328,-34.63846]},"properties":{"name":"Parque Patricios","original_ids":"[183, 184]","id":76,"layer":"stop"}},{"type":"Feature","geometry":{"type":"Point","coordinates":[-58.412673,-34.641753]},"properties":{"name":"Hospitales","original_ids":"[181, 182]","id":77,"layer":"stop"}},{"type":"Feature","properties":{"duration_avg":58.0,"n_vehicles":268,"d":281,"route_I_counts":"{\"1\": 268}","shape_id":"{\"E0\": 268}","direction_id":"{\"0\": 268}","headsign":"{\"San Pedrito\": 268}","source":0,"target":39,"layer":"L","from":"Plaza de Mayo","to":"Catedral"},"geometry":{"type":"LineString","coordinates":[[-58.371493,-34.608695],[-58.374257,-34.607624]]}},{"type":"Feature","properties":{"duration_avg":68.0,"n_vehicles":277,"d":362,"route_I_counts":"{\"1\": 277}","shape_id":"{\"A1\": 277}","direction_id":"{\"1\": 277}","headsign":"{\"Plaza de Mayo\": 277}","source":1,"target":39,"layer":"L","from":"Piedras","to":"Catedral"},"geometry":{"type":"LineString","coordinates":[[-58.378502,-34.608838],[-58.374257,-34.607624]]}},{"type":"Feature","properties":{"duration_avg":69.0,"n_vehicles":269,"d":369,"route_I_counts":"{\"1\": 269}","shape_id":"{\"E0\": 269}","direction_id":"{\"0\": 269}","headsign":"{\"San Pedrito\": 269}","source":1,"target":34,"layer":"L","from":"Piedras","to":"Avenida de Mayo"},"geometry":{"type":"LineString","coordinates":[[-58.378502,-34.608838],[-58.380681,-34.608991]]}},{"type":"Feature","properties":{"shape_id":"{\"E0\": 270}","direction_id":"{\"0\": 270}","headsign":"{\"San Pedrito\": 270}","duration_avg":92.0,"n_vehicles":270,"d":550,"route_I_counts":"{\"1\": 270}","source":2,"target":3,"layer":"L","from":"Saenz Peña","to":"Congreso"},"geometry":{"type":"LineString","coordinates":[[-58.386668,-34.609417],[-58.392671,-34.609241]]}},{"type":"Feature","properties":{"duration_avg":70.0,"n_vehicles":276,"d":381,"route_I_counts":"{\"1\": 276}","shape_id":"{\"A1\": 276}","direction_id":"{\"1\": 276}","headsign":"{\"Plaza de Mayo\": 276}","source":2,"target":34,"layer":"L","from":"Saenz Peña","to":"Avenida de Mayo"},"geometry":{"type":"LineString","coordinates":[[-58.386668,-34.609417],[-58.380681,-34.608991]]}},{"type":"Feature","properties":{"shape_id":"{\"E0\": 270}","direction_id":"{\"0\": 270}","headsign":"{\"San Pedrito\": 270}","duration_avg":114.0,"n_vehicles":270,"d":740,"route_I_counts":"{\"1\": 270}","source":3,"target":4,"layer":"L","from":"Congreso","to":"Alberti"},"geometry":{"type":"LineString","coordinates":[[-58.392671,-34.609241],[-58.40072,-34.609832]]}},{"type":"Feature","properties":{"duration_avg":92.0,"n_vehicles":275,"d":550,"route_I_counts":"{\"1\": 275}","shape_id":"{\"A1\": 275}","direction_id":"{\"1\": 275}","headsign":"{\"Plaza de Mayo\": 275}","source":3,"target":2,"layer":"L","from":"Congreso","to":"Saenz Peña"},"geometry":{"type":"LineString","coordinates":[[-58.392671,-34.609241],[-58.386668,-34.609417]]}},{"type":"Feature","properties":{"shape_id":"{\"E0\": 271}","direction_id":"{\"0\": 271}","headsign":"{\"San Pedrito\": 271}","duration_avg":76.0,"n_vehicles":271,"d":558,"route_I_counts":"{\"1\": 271}","source":4,"target":5,"layer":"L","from":"Alberti","to":"Plaza Miserere"},"geometry":{"type":"LineString","coordinates":[[-58.40072,-34.609832],[-58.406814,-34.609688]]}},{"type":"Feature","properties":{"shape_id":"{\"E0\": 272}","direction_id":"{\"0\": 272}","headsign":"{\"San Pedrito\": 272}","duration_avg":137.0,"n_vehicles":272,"d":774,"route_I_counts":"{\"1\": 272}","source":5,"target":6,"layer":"L","from":"Plaza Miserere","to":"Loria"},"geometry":{"type":"LineString","coordinates":[[-58.406814,-34.609688],[-58.415153,-34.610811]]}},{"type":"Feature","properties":{"duration_avg":103.0,"n_vehicles":274,"d":776,"route_I_counts":"{\"1\": 274}","shape_id":"{\"A1\": 274}","direction_id":"{\"1\": 274}","headsign":"{\"Plaza de Mayo\": 274}","source":5,"target":15,"layer":"L","from":"Plaza Miserere","to":"Pasco"},"geometry":{"type":"LineString","coordinates":[[-58.406814,-34.609688],[-58.39834,-34.609664]]}},{"type":"Feature","properties":{"duration_avg":100.0,"n_vehicles":260,"d":686,"route_I_counts":"{\"6\": 260}","shape_id":"{\"H0\": 260}","direction_id":"{\"0\": 260}","headsign":"{\"Hospitales\": 260}","source":5,"target":73,"layer":"L","from":"Plaza Miserere","to":"Venezuela"},"geometry":{"type":"LineString","coordinates":[[-58.406814,-34.609688],[-58.404759,-34.615227]]}},{"type":"Feature","properties":{"duration_avg":90.0,"n_vehicles":262,"d":585,"route_I_counts":"{\"6\": 262}","shape_id":"{\"H1\": 262}","direction_id":"{\"1\": 262}","headsign":"{\"Facultad de Derecho\": 262}","source":5,"target":72,"layer":"L","from":"Plaza Miserere","to":"Corrientes"},"geometry":{"type":"LineString","coordinates":[[-58.406814,-34.609688],[-58.405317,-34.603924]]}},{"type":"Feature","properties":{"shape_id":"{\"E0\": 272}","direction_id":"{\"0\": 272}","headsign":"{\"San Pedrito\": 272}","duration_avg":99.0,"n_vehicles":272,"d":611,"route_I_counts":"{\"1\": 272}","source":6,"target":7,"layer":"L","from":"Loria","to":"Castro Barros"},"geometry":{"type":"LineString","coordinates":[[-58.415153,-34.610811],[-58.421728,-34.611764]]}},{"type":"Feature","properties":{"duration_avg":137.0,"n_vehicles":273,"d":774,"route_I_counts":"{\"1\": 273}","shape_id":"{\"A1\": 273}","direction_id":"{\"1\": 273}","headsign":"{\"Plaza de Mayo\": 273}","source":6,"target":5,"layer":"L","from":"Loria","to":"Plaza Miserere"},"geometry":{"type":"LineString","coordinates":[[-58.415153,-34.610811],[-58.406814,-34.609688]]}},{"type":"Feature","properties":{"shape_id":"{\"E0\": 273}","direction_id":"{\"0\": 273}","headsign":"{\"San Pedrito\": 273}","duration_avg":120.0,"n_vehicles":273,"d":786,"route_I_counts":"{\"1\": 273}","source":7,"target":8,"layer":"L","from":"Castro Barros","to":"Rio de Janeiro"},"geometry":{"type":"LineString","coordinates":[[-58.421728,-34.611764],[-58.429286,-34.615111]]}},{"type":"Feature","properties":{"duration_avg":99.0,"n_vehicles":273,"d":611,"route_I_counts":"{\"1\": 273}","shape_id":"{\"A1\": 273}","direction_id":"{\"1\": 273}","headsign":"{\"Plaza de Mayo\": 273}","source":7,"target":6,"layer":"L","from":"Castro Barros","to":"Loria"},"geometry":{"type":"LineString","coordinates":[[-58.421728,-34.611764],[-58.415153,-34.610811]]}},{"type":"Feature","properties":{"shape_id":"{\"E0\": 274}","direction_id":"{\"0\": 274}","headsign":"{\"San Pedrito\": 274}","duration_avg":107.0,"n_vehicles":274,"d":684,"route_I_counts":"{\"1\": 274}","source":8,"target":9,"layer":"L","from":"Rio de Janeiro","to":"Acoyte"},"geometry":{"type":"LineString","coordinates":[[-58.429286,-34.615111],[-58.435862,-34.618036]]}},{"type":"Feature","properties":{"duration_avg":120.0,"n_vehicles":272,"d":786,"route_I_counts":"{\"1\": 272}","shape_id":"{\"A1\": 272}","direction_id":"{\"1\": 272}","headsign":"{\"Plaza de Mayo\": 272}","source":8,"target":7,"layer":"L","from":"Rio de Janeiro","to":"Castro Barros"},"geometry":{"type":"LineString","coordinates":[[-58.429286,-34.615111],[-58.421728,-34.611764]]}},{"type":"Feature","properties":{"shape_id":"{\"E0\": 274}","direction_id":"{\"0\": 274}","headsign":"{\"San Pedrito\": 274}","duration_avg":93.0,"n_vehicles":274,"d":574,"route_I_counts":"{\"1\": 274}","source":9,"target":10,"layer":"L","from":"Acoyte","to":"Primera Junta"},"geometry":{"type":"LineString","coordinates":[[-58.435862,-34.618036],[-58.441401,-34.62046]]}},{"type":"Feature","properties":{"duration_avg":107.0,"n_vehicles":272,"d":684,"route_I_counts":"{\"1\": 272}","shape_id":"{\"A1\": 272}","direction_id":"{\"1\": 272}","headsign":"{\"Plaza de Mayo\": 272}","source":9,"target":8,"layer":"L","from":"Acoyte","to":"Rio de Janeiro"},"geometry":{"type":"LineString","coordinates":[[-58.435862,-34.618036],[-58.429286,-34.615111]]}},{"type":"Feature","properties":{"shape_id":"{\"E0\": 275}","direction_id":"{\"0\": 275}","headsign":"{\"San Pedrito\": 275}","duration_avg":116.0,"n_vehicles":275,"d":760,"route_I_counts":"{\"1\": 275}","source":10,"target":11,"layer":"L","from":"Primera Junta","to":"Puan"},"geometry":{"type":"LineString","coordinates":[[-58.441401,-34.62046],[-58.448788,-34.623572]]}},{"type":"Feature","properties":{"duration_avg":93.0,"n_vehicles":271,"d":574,"route_I_counts":"{\"1\": 271}","shape_id":"{\"A1\": 271}","direction_id":"{\"1\": 271}","headsign":"{\"Plaza de Mayo\": 271}","source":10,"target":9,"layer":"L","from":"Primera Junta","to":"Acoyte"},"geometry":{"type":"LineString","coordinates":[[-58.441401,-34.62046],[-58.435862,-34.618036]]}},{"type":"Feature","properties":{"shape_id":"{\"E0\": 275}","direction_id":"{\"0\": 275}","headsign":"{\"San Pedrito\": 275}","duration_avg":113.0,"n_vehicles":275,"d":736,"route_I_counts":"{\"1\": 275}","source":11,"target":12,"layer":"L","from":"Puan","to":"Carabobo"},"geometry":{"type":"LineString","coordinates":[[-58.448788,-34.623572],[-58.456044,-34.626422]]}},{"type":"Feature","properties":{"duration_avg":116.0,"n_vehicles":270,"d":760,"route_I_counts":"{\"1\": 270}","shape_id":"{\"A1\": 270}","direction_id":"{\"1\": 270}","headsign":"{\"Plaza de Mayo\": 270}","source":11,"target":10,"layer":"L","from":"Puan","to":"Primera Junta"},"geometry":{"type":"LineString","coordinates":[[-58.448788,-34.623572],[-58.441401,-34.62046]]}},{"type":"Feature","properties":{"shape_id":"{\"E0\": 276}","direction_id":"{\"0\": 276}","headsign":"{\"San Pedrito\": 276}","duration_avg":116.0,"n_vehicles":276,"d":746,"route_I_counts":"{\"1\": 276}","source":12,"target":13,"layer":"L","from":"Carabobo","to":"San Jose de Flores"},"geometry":{"type":"LineString","coordinates":[[-58.456044,-34.626422],[-58.463536,-34.629055]]}},{"type":"Feature","properties":{"duration_avg":113.0,"n_vehicles":270,"d":736,"route_I_counts":"{\"1\": 270}","shape_id":"{\"A1\": 270}","direction_id":"{\"1\": 270}","headsign":"{\"Plaza de Mayo\": 270}","source":12,"target":11,"layer":"L","from":"Carabobo","to":"Puan"},"geometry":{"type":"LineString","coordinates":[[-58.456044,-34.626422],[-58.448788,-34.623572]]}},{"type":"Feature","properties":{"shape_id":"{\"E0\": 277}","direction_id":"{\"0\": 277}","headsign":"{\"San Pedrito\": 277}","duration_avg":105.0,"n_vehicles":277,"d":665,"route_I_counts":"{\"1\": 277}","source":13,"target":14,"layer":"L","from":"San Jose de Flores","to":"San Pedrito"},"geometry":{"type":"LineString","coordinates":[[-58.463536,-34.629055],[-58.470433,-34.630923]]}},{"type":"Feature","properties":{"duration_avg":116.0,"n_vehicles":269,"d":746,"route_I_counts":"{\"1\": 269}","shape_id":"{\"A1\": 269}","direction_id":"{\"1\": 269}","headsign":"{\"Plaza de Mayo\": 269}","source":13,"target":12,"layer":"L","from":"San Jose de Flores","to":"Carabobo"},"geometry":{"type":"LineString","coordinates":[[-58.463536,-34.629055],[-58.456044,-34.626422]]}},{"type":"Feature","properties":{"duration_avg":105.0,"n_vehicles":268,"d":665,"route_I_counts":"{\"1\": 268}","shape_id":"{\"A1\": 268}","direction_id":"{\"1\": 268}","headsign":"{\"Plaza de Mayo\": 268}","source":14,"target":13,"layer":"L","from":"San Pedrito","to":"San Jose de Flores"},"geometry":{"type":"LineString","coordinates":[[-58.470433,-34.630923],[-58.463536,-34.629055]]}},{"type":"Feature","properties":{"duration_avg":87.0,"n_vehicles":275,"d":521,"route_I_counts":"{\"1\": 275}","shape_id":"{\"A1\": 275}","direction_id":"{\"1\": 275}","headsign":"{\"Plaza de Mayo\": 275}","source":15,"target":3,"layer":"L","from":"Pasco","to":"Congreso"},"geometry":{"type":"LineString","coordinates":[[-58.39834,-34.609664],[-58.392671,-34.609241]]}},{"type":"Feature","properties":{"shape_id":"{\"B0\": 262}","direction_id":"{\"0\": 262}","headsign":"{\"Juan Manuel de Rosas\": 262}","duration_avg":89.0,"n_vehicles":262,"d":628,"route_I_counts":"{\"2\": 262}","source":16,"target":17,"layer":"L","from":"Florida","to":"Carlos Pellegrini"},"geometry":{"type":"LineString","coordinates":[[-58.374535,-34.603302],[-58.381379,-34.603701]]}},{"type":"Feature","properties":{"duration_avg":67.0,"n_vehicles":271,"d":421,"route_I_counts":"{\"2\": 271}","shape_id":"{\"B1\": 271}","direction_id":"{\"1\": 271}","headsign":"{\"Leandro N. Alem\": 271}","source":16,"target":54,"layer":"L","from":"Florida","to":"Correo Central"},"geometry":{"type":"LineString","coordinates":[[-58.374535,-34.603302],[-58.370058,-34.603428]]}},{"type":"Feature","properties":{"shape_id":"{\"B0\": 263}","direction_id":"{\"0\": 263}","headsign":"{\"Juan Manuel de Rosas\": 263}","duration_avg":79.0,"n_vehicles":263,"d":526,"route_I_counts":"{\"2\": 263}","source":17,"target":18,"layer":"L","from":"Carlos Pellegrini","to":"Uruguay"},"geometry":{"type":"LineString","coordinates":[[-58.381379,-34.603701],[-58.387106,-34.604046]]}},{"type":"Feature","properties":{"duration_avg":89.0,"n_vehicles":270,"d":628,"route_I_counts":"{\"2\": 270}","shape_id":"{\"B1\": 270}","direction_id":"{\"1\": 270}","headsign":"{\"Leandro N. Alem\": 270}","source":17,"target":16,"layer":"L","from":"Carlos Pellegrini","to":"Florida"},"geometry":{"type":"LineString","coordinates":[[-58.381379,-34.603701],[-58.374535,-34.603302]]}},{"type":"Feature","properties":{"duration_avg":79.0,"n_vehicles":272,"d":473,"route_I_counts":"{\"4\": 272}","shape_id":"{\"D0\": 272}","direction_id":"{\"0\": 272}","headsign":"{\"Congreso de Tucumán\": 272}","source":17,"target":40,"layer":"L","from":"Carlos Pellegrini","to":"Tribunales"},"geometry":{"type":"LineString","coordinates":[[-58.381379,-34.603701],[-58.384459,-34.601771]]}},{"type":"Feature","properties":{"duration_avg":101.0,"n_vehicles":280,"d":666,"route_I_counts":"{\"4\": 280}","shape_id":"{\"D1\": 280}","direction_id":"{\"1\": 280}","headsign":"{\"Catedral\": 280}","source":17,"target":39,"layer":"L","from":"Carlos Pellegrini","to":"Catedral"},"geometry":{"type":"LineString","coordinates":[[-58.381379,-34.603701],[-58.374257,-34.607624]]}},{"type":"Feature","properties":{"duration_avg":100.0,"n_vehicles":261,"d":485,"route_I_counts":"{\"3\": 261}","shape_id":"{\"C0\": 261}","direction_id":"{\"0\": 261}","headsign":"{\"Constitución\": 261}","source":17,"target":34,"layer":"L","from":"Carlos Pellegrini","to":"Avenida de Mayo"},"geometry":{"type":"LineString","coordinates":[[-58.381379,-34.603701],[-58.380681,-34.608991]]}},{"type":"Feature","properties":{"duration_avg":81.0,"n_vehicles":262,"d":351,"route_I_counts":"{\"3\": 262}","shape_id":"{\"C1\": 262}","direction_id":"{\"1\": 262}","headsign":"{\"Retiro\": 262}","source":17,"target":33,"layer":"L","from":"Carlos Pellegrini","to":"Lavalle"},"geometry":{"type":"LineString","coordinates":[[-58.381379,-34.603701],[-58.378116,-34.601776]]}},{"type":"Feature","properties":{"shape_id":"{\"B0\": 263}","direction_id":"{\"0\": 263}","headsign":"{\"Juan Manuel de Rosas\": 263}","duration_avg":79.0,"n_vehicles":263,"d":527,"route_I_counts":"{\"2\": 263}","source":18,"target":19,"layer":"L","from":"Uruguay","to":"Callao"},"geometry":{"type":"LineString","coordinates":[[-58.387106,-34.604046],[-58.392846,-34.604458]]}},{"type":"Feature","properties":{"duration_avg":79.0,"n_vehicles":270,"d":526,"route_I_counts":"{\"2\": 270}","shape_id":"{\"B1\": 270}","direction_id":"{\"1\": 270}","headsign":"{\"Leandro N. Alem\": 270}","source":18,"target":17,"layer":"L","from":"Uruguay","to":"Carlos Pellegrini"},"geometry":{"type":"LineString","coordinates":[[-58.387106,-34.604046],[-58.381379,-34.603701]]}},{"type":"Feature","properties":{"shape_id":"{\"B0\": 264}","direction_id":"{\"0\": 264}","headsign":"{\"Juan Manuel de Rosas\": 264}","duration_avg":86.0,"n_vehicles":264,"d":596,"route_I_counts":"{\"2\": 264}","source":19,"target":20,"layer":"L","from":"Callao","to":"Pasteur"},"geometry":{"type":"LineString","coordinates":[[-58.392846,-34.604458],[-58.399357,-34.604623]]}},{"type":"Feature","properties":{"duration_avg":79.0,"n_vehicles":269,"d":527,"route_I_counts":"{\"2\": 269}","shape_id":"{\"B1\": 269}","direction_id":"{\"1\": 269}","headsign":"{\"Leandro N. Alem\": 269}","source":19,"target":18,"layer":"L","from":"Callao","to":"Uruguay"},"geometry":{"type":"LineString","coordinates":[[-58.392846,-34.604458],[-58.387106,-34.604046]]}},{"type":"Feature","properties":{"duration_avg":86.0,"n_vehicles":269,"d":596,"route_I_counts":"{\"2\": 269}","shape_id":"{\"B1\": 269}","direction_id":"{\"1\": 269}","headsign":"{\"Leandro N. Alem\": 269}","source":20,"target":19,"layer":"L","from":"Pasteur","to":"Callao"},"geometry":{"type":"LineString","coordinates":[[-58.399357,-34.604623],[-58.392846,-34.604458]]}},{"type":"Feature","properties":{"duration_avg":80.0,"n_vehicles":264,"d":538,"route_I_counts":"{\"2\": 264}","shape_id":"{\"B0\": 264}","direction_id":"{\"0\": 264}","headsign":"{\"Juan Manuel de Rosas\": 264}","source":20,"target":72,"layer":"L","from":"Pasteur","to":"Corrientes"},"geometry":{"type":"LineString","coordinates":[[-58.399357,-34.604623],[-58.405317,-34.603924]]}},{"type":"Feature","properties":{"shape_id":"{\"B0\": 265}","direction_id":"{\"0\": 265}","headsign":"{\"Juan Manuel de Rosas\": 265}","duration_avg":117.0,"n_vehicles":265,"d":885,"route_I_counts":"{\"2\": 265}","source":21,"target":22,"layer":"L","from":"Carlos Gardel","to":"Medrano"},"geometry":{"type":"LineString","coordinates":[[-58.411705,-34.604103],[-58.421303,-34.60314]]}},{"type":"Feature","properties":{"duration_avg":88.0,"n_vehicles":268,"d":595,"route_I_counts":"{\"2\": 268}","shape_id":"{\"B1\": 268}","direction_id":"{\"1\": 268}","headsign":"{\"Leandro N. Alem\": 268}","source":21,"target":72,"layer":"L","from":"Carlos Gardel","to":"Corrientes"},"geometry":{"type":"LineString","coordinates":[[-58.411705,-34.604103],[-58.405317,-34.603924]]}},{"type":"Feature","properties":{"shape_id":"{\"B0\": 266}","direction_id":"{\"0\": 266}","headsign":"{\"Juan Manuel de Rosas\": 266}","duration_avg":117.0,"n_vehicles":266,"d":897,"route_I_counts":"{\"2\": 266}","source":22,"target":23,"layer":"L","from":"Medrano","to":"Angel Gallardo"},"geometry":{"type":"LineString","coordinates":[[-58.421303,-34.60314],[-58.431022,-34.602157]]}},{"type":"Feature","properties":{"duration_avg":117.0,"n_vehicles":267,"d":885,"route_I_counts":"{\"2\": 267}","shape_id":"{\"B1\": 267}","direction_id":"{\"1\": 267}","headsign":"{\"Leandro N. Alem\": 267}","source":22,"target":21,"layer":"L","from":"Medrano","to":"Carlos Gardel"},"geometry":{"type":"LineString","coordinates":[[-58.421303,-34.60314],[-58.411705,-34.604103]]}},{"type":"Feature","properties":{"shape_id":"{\"B0\": 267}","direction_id":"{\"0\": 267}","headsign":"{\"Juan Manuel de Rosas\": 267}","duration_avg":116.0,"n_vehicles":267,"d":865,"route_I_counts":"{\"2\": 267}","source":23,"target":24,"layer":"L","from":"Angel Gallardo","to":"Malabia"},"geometry":{"type":"LineString","coordinates":[[-58.431022,-34.602157],[-58.439675,-34.599048]]}},{"type":"Feature","properties":{"duration_avg":117.0,"n_vehicles":267,"d":897,"route_I_counts":"{\"2\": 267}","shape_id":"{\"B1\": 267}","direction_id":"{\"1\": 267}","headsign":"{\"Leandro N. Alem\": 267}","source":23,"target":22,"layer":"L","from":"Angel Gallardo","to":"Medrano"},"geometry":{"type":"LineString","coordinates":[[-58.431022,-34.602157],[-58.421303,-34.60314]]}},{"type":"Feature","properties":{"shape_id":"{\"B0\": 267}","direction_id":"{\"0\": 267}","headsign":"{\"Juan Manuel de Rosas\": 267}","duration_avg":138.0,"n_vehicles":267,"d":1095,"route_I_counts":"{\"2\": 267}","source":24,"target":25,"layer":"L","from":"Malabia","to":"Dorrego"},"geometry":{"type":"LineString","coordinates":[[-58.439675,-34.599048],[-58.447618,-34.591693]]}},{"type":"Feature","properties":{"duration_avg":116.0,"n_vehicles":266,"d":865,"route_I_counts":"{\"2\": 266}","shape_id":"{\"B1\": 266}","direction_id":"{\"1\": 266}","headsign":"{\"Leandro N. Alem\": 266}","source":24,"target":23,"layer":"L","from":"Malabia","to":"Angel Gallardo"},"geometry":{"type":"LineString","coordinates":[[-58.439675,-34.599048],[-58.431022,-34.602157]]}},{"type":"Feature","properties":{"shape_id":"{\"B0\": 268}","direction_id":"{\"0\": 268}","headsign":"{\"Juan Manuel de Rosas\": 268}","duration_avg":103.0,"n_vehicles":268,"d":750,"route_I_counts":"{\"2\": 268}","source":25,"target":26,"layer":"L","from":"Dorrego","to":"Federico Lacroze"},"geometry":{"type":"LineString","coordinates":[[-58.447618,-34.591693],[-58.454097,-34.587565]]}},{"type":"Feature","properties":{"duration_avg":138.0,"n_vehicles":265,"d":1095,"route_I_counts":"{\"2\": 265}","shape_id":"{\"B1\": 265}","direction_id":"{\"1\": 265}","headsign":"{\"Leandro N. Alem\": 265}","source":25,"target":24,"layer":"L","from":"Dorrego","to":"Malabia"},"geometry":{"type":"LineString","coordinates":[[-58.447618,-34.591693],[-58.439675,-34.599048]]}},{"type":"Feature","properties":{"shape_id":"{\"B0\": 269}","direction_id":"{\"0\": 269}","headsign":"{\"Juan Manuel de Rosas\": 269}","duration_avg":141.0,"n_vehicles":269,"d":1121,"route_I_counts":"{\"2\": 269}","source":26,"target":27,"layer":"L","from":"Federico Lacroze","to":"Tronador - Villa Ortuzar"},"geometry":{"type":"LineString","coordinates":[[-58.454097,-34.587565],[-58.465676,-34.584319]]}},{"type":"Feature","properties":{"duration_avg":103.0,"n_vehicles":265,"d":750,"route_I_counts":"{\"2\": 265}","shape_id":"{\"B1\": 265}","direction_id":"{\"1\": 265}","headsign":"{\"Leandro N. Alem\": 265}","source":26,"target":25,"layer":"L","from":"Federico Lacroze","to":"Dorrego"},"geometry":{"type":"LineString","coordinates":[[-58.454097,-34.587565],[-58.447618,-34.591693]]}},{"type":"Feature","properties":{"shape_id":"{\"B0\": 270}","direction_id":"{\"0\": 270}","headsign":"{\"Juan Manuel de Rosas\": 270}","duration_avg":99.0,"n_vehicles":270,"d":717,"route_I_counts":"{\"2\": 270}","source":27,"target":28,"layer":"L","from":"Tronador - Villa Ortuzar","to":"De Los Incas - Parque Chas"},"geometry":{"type":"LineString","coordinates":[[-58.465676,-34.584319],[-58.472949,-34.581941]]}},{"type":"Feature","properties":{"duration_avg":141.0,"n_vehicles":264,"d":1121,"route_I_counts":"{\"2\": 264}","shape_id":"{\"B1\": 264}","direction_id":"{\"1\": 264}","headsign":"{\"Leandro N. Alem\": 264}","source":27,"target":26,"layer":"L","from":"Tronador - Villa Ortuzar","to":"Federico Lacroze"},"geometry":{"type":"LineString","coordinates":[[-58.465676,-34.584319],[-58.454097,-34.587565]]}},{"type":"Feature","properties":{"shape_id":"{\"B0\": 270}","direction_id":"{\"0\": 270}","headsign":"{\"Juan Manuel de Rosas\": 270}","duration_avg":115.0,"n_vehicles":270,"d":840,"route_I_counts":"{\"2\": 270}","source":28,"target":29,"layer":"L","from":"De Los Incas - Parque Chas","to":"Echeverria"},"geometry":{"type":"LineString","coordinates":[[-58.472949,-34.581941],[-58.480764,-34.577998]]}},{"type":"Feature","properties":{"duration_avg":99.0,"n_vehicles":263,"d":717,"route_I_counts":"{\"2\": 263}","shape_id":"{\"B1\": 263}","direction_id":"{\"1\": 263}","headsign":"{\"Leandro N. Alem\": 263}","source":28,"target":27,"layer":"L","from":"De Los Incas - Parque Chas","to":"Tronador - Villa Ortuzar"},"geometry":{"type":"LineString","coordinates":[[-58.472949,-34.581941],[-58.465676,-34.584319]]}},{"type":"Feature","properties":{"shape_id":"{\"B0\": 271}","direction_id":"{\"0\": 271}","headsign":"{\"Juan Manuel de Rosas\": 271}","duration_avg":97.0,"n_vehicles":271,"d":703,"route_I_counts":"{\"2\": 271}","source":29,"target":30,"layer":"L","from":"Echeverria","to":"Juan Manuel de Rosas"},"geometry":{"type":"LineString","coordinates":[[-58.480764,-34.577998],[-58.486718,-34.574011]]}},{"type":"Feature","properties":{"duration_avg":115.0,"n_vehicles":262,"d":840,"route_I_counts":"{\"2\": 262}","shape_id":"{\"B1\": 262}","direction_id":"{\"1\": 262}","headsign":"{\"Leandro N. Alem\": 262}","source":29,"target":28,"layer":"L","from":"Echeverria","to":"De Los Incas - Parque Chas"},"geometry":{"type":"LineString","coordinates":[[-58.480764,-34.577998],[-58.472949,-34.581941]]}},{"type":"Feature","properties":{"duration_avg":97.0,"n_vehicles":262,"d":703,"route_I_counts":"{\"2\": 262}","shape_id":"{\"B1\": 262}","direction_id":"{\"1\": 262}","headsign":"{\"Leandro N. Alem\": 262}","source":30,"target":29,"layer":"L","from":"Juan Manuel de Rosas","to":"Echeverria"},"geometry":{"type":"LineString","coordinates":[[-58.486718,-34.574011],[-58.480764,-34.577998]]}},{"type":"Feature","properties":{"shape_id":"{\"C0\": 259}","direction_id":"{\"0\": 259}","headsign":"{\"Constitución\": 259}","duration_avg":78.0,"n_vehicles":259,"d":405,"route_I_counts":"{\"3\": 259}","source":31,"target":32,"layer":"L","from":"Retiro","to":"General San Martin"},"geometry":{"type":"LineString","coordinates":[[-58.374748,-34.591874],[-58.377257,-34.594872]]}},{"type":"Feature","properties":{"duration_avg":90.0,"n_vehicles":167,"d":616,"route_I_counts":"{\"5\": 167}","shape_id":"{\"E0\": 167}","direction_id":"{\"0\": 167}","headsign":"{\"Plaza de los Virreyes\": 167}","source":31,"target":53,"layer":"L","from":"Retiro","to":"Catalinas"},"geometry":{"type":"LineString","coordinates":[[-58.374748,-34.591874],[-58.37195,-34.596461]]}},{"type":"Feature","properties":{"shape_id":"{\"C0\": 260}","direction_id":"{\"0\": 260}","headsign":"{\"Constitución\": 260}","duration_avg":135.0,"n_vehicles":260,"d":772,"route_I_counts":"{\"3\": 260}","source":32,"target":33,"layer":"L","from":"General San Martin","to":"Lavalle"},"geometry":{"type":"LineString","coordinates":[[-58.377257,-34.594872],[-58.378116,-34.601776]]}},{"type":"Feature","properties":{"duration_avg":78.0,"n_vehicles":263,"d":405,"route_I_counts":"{\"3\": 263}","shape_id":"{\"C1\": 263}","direction_id":"{\"1\": 263}","headsign":"{\"Retiro\": 263}","source":32,"target":31,"layer":"L","from":"General San Martin","to":"Retiro"},"geometry":{"type":"LineString","coordinates":[[-58.377257,-34.594872],[-58.374748,-34.591874]]}},{"type":"Feature","properties":{"duration_avg":135.0,"n_vehicles":262,"d":772,"route_I_counts":"{\"3\": 262}","shape_id":"{\"C1\": 262}","direction_id":"{\"1\": 262}","headsign":"{\"Retiro\": 262}","source":33,"target":32,"layer":"L","from":"Lavalle","to":"General San Martin"},"geometry":{"type":"LineString","coordinates":[[-58.378116,-34.601776],[-58.377257,-34.594872]]}},{"type":"Feature","properties":{"duration_avg":81.0,"n_vehicles":261,"d":351,"route_I_counts":"{\"3\": 261}","shape_id":"{\"C0\": 261}","direction_id":"{\"0\": 261}","headsign":"{\"Constitución\": 261}","source":33,"target":17,"layer":"L","from":"Lavalle","to":"Carlos Pellegrini"},"geometry":{"type":"LineString","coordinates":[[-58.378116,-34.601776],[-58.381379,-34.603701]]}},{"type":"Feature","properties":{"shape_id":"{\"C0\": 262}","direction_id":"{\"0\": 262}","headsign":"{\"Constitución\": 262}","duration_avg":78.0,"n_vehicles":262,"d":383,"route_I_counts":"{\"3\": 262}","source":34,"target":35,"layer":"L","from":"Avenida de Mayo","to":"Moreno"},"geometry":{"type":"LineString","coordinates":[[-58.380681,-34.608991],[-58.380518,-34.612435]]}},{"type":"Feature","properties":{"duration_avg":100.0,"n_vehicles":261,"d":485,"route_I_counts":"{\"3\": 261}","shape_id":"{\"C1\": 261}","direction_id":"{\"1\": 261}","headsign":"{\"Retiro\": 261}","source":34,"target":17,"layer":"L","from":"Avenida de Mayo","to":"Carlos Pellegrini"},"geometry":{"type":"LineString","coordinates":[[-58.380681,-34.608991],[-58.381379,-34.603701]]}},{"type":"Feature","properties":{"duration_avg":70.0,"n_vehicles":270,"d":381,"route_I_counts":"{\"1\": 270}","shape_id":"{\"E0\": 270}","direction_id":"{\"0\": 270}","headsign":"{\"San Pedrito\": 270}","source":34,"target":2,"layer":"L","from":"Avenida de Mayo","to":"Saenz Peña"},"geometry":{"type":"LineString","coordinates":[[-58.380681,-34.608991],[-58.386668,-34.609417]]}},{"type":"Feature","properties":{"duration_avg":69.0,"n_vehicles":276,"d":369,"route_I_counts":"{\"1\": 276}","shape_id":"{\"A1\": 276}","direction_id":"{\"1\": 276}","headsign":"{\"Plaza de Mayo\": 276}","source":34,"target":1,"layer":"L","from":"Avenida de Mayo","to":"Piedras"},"geometry":{"type":"LineString","coordinates":[[-58.380681,-34.608991],[-58.378502,-34.608838]]}},{"type":"Feature","properties":{"shape_id":"{\"C0\": 262}","direction_id":"{\"0\": 262}","headsign":"{\"Constitución\": 262}","duration_avg":109.0,"n_vehicles":262,"d":626,"route_I_counts":"{\"3\": 262}","source":35,"target":36,"layer":"L","from":"Moreno","to":"Independencia"},"geometry":{"type":"LineString","coordinates":[[-58.380518,-34.612435],[-58.380236,-34.61806]]}},{"type":"Feature","properties":{"duration_avg":78.0,"n_vehicles":261,"d":383,"route_I_counts":"{\"3\": 261}","shape_id":"{\"C1\": 261}","direction_id":"{\"1\": 261}","headsign":"{\"Retiro\": 261}","source":35,"target":34,"layer":"L","from":"Moreno","to":"Avenida de Mayo"},"geometry":{"type":"LineString","coordinates":[[-58.380518,-34.612435],[-58.380681,-34.608991]]}},{"type":"Feature","properties":{"shape_id":"{\"C0\": 263}","direction_id":"{\"0\": 263}","headsign":"{\"Constitución\": 263}","duration_avg":95.0,"n_vehicles":263,"d":514,"route_I_counts":"{\"3\": 263}","source":36,"target":37,"layer":"L","from":"Independencia","to":"San Juan"},"geometry":{"type":"LineString","coordinates":[[-58.380236,-34.61806],[-58.379952,-34.622676]]}},{"type":"Feature","properties":{"duration_avg":84.0,"n_vehicles":168,"d":636,"route_I_counts":"{\"5\": 168}","shape_id":"{\"E0\": 168}","direction_id":"{\"0\": 168}","headsign":"{\"Plaza de los Virreyes\": 168}","source":36,"target":56,"layer":"L","from":"Independencia","to":"San Jose"},"geometry":{"type":"LineString","coordinates":[[-58.380236,-34.61806],[-58.385392,-34.622367]]}},{"type":"Feature","properties":{"duration_avg":120.0,"n_vehicles":171,"d":567,"route_I_counts":"{\"5\": 171}","shape_id":"{\"E1\": 171}","direction_id":"{\"1\": 171}","headsign":"{\"Retiro\": 171}","source":36,"target":55,"layer":"L","from":"Independencia","to":"Belgrano"},"geometry":{"type":"LineString","coordinates":[[-58.380236,-34.61806],[-58.37822,-34.61341]]}},{"type":"Feature","properties":{"duration_avg":109.0,"n_vehicles":260,"d":626,"route_I_counts":"{\"3\": 260}","shape_id":"{\"C1\": 260}","direction_id":"{\"1\": 260}","headsign":"{\"Retiro\": 260}","source":36,"target":35,"layer":"L","from":"Independencia","to":"Moreno"},"geometry":{"type":"LineString","coordinates":[[-58.380236,-34.61806],[-58.380518,-34.612435]]}},{"type":"Feature","properties":{"shape_id":"{\"C0\": 263}","direction_id":"{\"0\": 263}","headsign":"{\"Constitución\": 263}","duration_avg":99.0,"n_vehicles":263,"d":529,"route_I_counts":"{\"3\": 263}","source":37,"target":38,"layer":"L","from":"San Juan","to":"Constitucion"},"geometry":{"type":"LineString","coordinates":[[-58.379952,-34.622676],[-58.381431,-34.627277]]}},{"type":"Feature","properties":{"duration_avg":95.0,"n_vehicles":260,"d":514,"route_I_counts":"{\"3\": 260}","shape_id":"{\"C1\": 260}","direction_id":"{\"1\": 260}","headsign":"{\"Retiro\": 260}","source":37,"target":36,"layer":"L","from":"San Juan","to":"Independencia"},"geometry":{"type":"LineString","coordinates":[[-58.379952,-34.622676],[-58.380236,-34.61806]]}},{"type":"Feature","properties":{"duration_avg":99.0,"n_vehicles":259,"d":529,"route_I_counts":"{\"3\": 259}","shape_id":"{\"C1\": 259}","direction_id":"{\"1\": 259}","headsign":"{\"Retiro\": 259}","source":38,"target":37,"layer":"L","from":"Constitucion","to":"San Juan"},"geometry":{"type":"LineString","coordinates":[[-58.381431,-34.627277],[-58.379952,-34.622676]]}},{"type":"Feature","properties":{"duration_avg":101.0,"n_vehicles":271,"d":666,"route_I_counts":"{\"4\": 271}","shape_id":"{\"D0\": 271}","direction_id":"{\"0\": 271}","headsign":"{\"Congreso de Tucumán\": 271}","source":39,"target":17,"layer":"L","from":"Catedral","to":"Carlos Pellegrini"},"geometry":{"type":"LineString","coordinates":[[-58.374257,-34.607624],[-58.381379,-34.603701]]}},{"type":"Feature","properties":{"duration_avg":68.0,"n_vehicles":269,"d":362,"route_I_counts":"{\"1\": 269}","shape_id":"{\"E0\": 269}","direction_id":"{\"0\": 269}","headsign":"{\"San Pedrito\": 269}","source":39,"target":1,"layer":"L","from":"Catedral","to":"Piedras"},"geometry":{"type":"LineString","coordinates":[[-58.374257,-34.607624],[-58.378502,-34.608838]]}},{"type":"Feature","properties":{"duration_avg":58.0,"n_vehicles":277,"d":281,"route_I_counts":"{\"1\": 277}","shape_id":"{\"A1\": 277}","direction_id":"{\"1\": 277}","headsign":"{\"Plaza de Mayo\": 277}","source":39,"target":0,"layer":"L","from":"Catedral","to":"Plaza de Mayo"},"geometry":{"type":"LineString","coordinates":[[-58.374257,-34.607624],[-58.371493,-34.608695]]}},{"type":"Feature","properties":{"duration_avg":90.0,"n_vehicles":168,"d":572,"route_I_counts":"{\"5\": 168}","shape_id":"{\"E0\": 168}","direction_id":"{\"0\": 168}","headsign":"{\"Plaza de los Virreyes\": 168}","source":39,"target":55,"layer":"L","from":"Catedral","to":"Belgrano"},"geometry":{"type":"LineString","coordinates":[[-58.374257,-34.607624],[-58.37822,-34.61341]]}},{"type":"Feature","properties":{"duration_avg":116.0,"n_vehicles":172,"d":750,"route_I_counts":"{\"5\": 172}","shape_id":"{\"E1\": 172}","direction_id":"{\"1\": 172}","headsign":"{\"Retiro\": 172}","source":39,"target":54,"layer":"L","from":"Catedral","to":"Correo Central"},"geometry":{"type":"LineString","coordinates":[[-58.374257,-34.607624],[-58.370058,-34.603428]]}},{"type":"Feature","properties":{"shape_id":"{\"D0\": 272}","direction_id":"{\"0\": 272}","headsign":"{\"Congreso de Tucumán\": 272}","duration_avg":119.0,"n_vehicles":272,"d":752,"route_I_counts":"{\"4\": 272}","source":40,"target":41,"layer":"L","from":"Tribunales","to":"Callao"},"geometry":{"type":"LineString","coordinates":[[-58.384459,-34.601771],[-58.39224,-34.599603]]}},{"type":"Feature","properties":{"duration_avg":79.0,"n_vehicles":279,"d":473,"route_I_counts":"{\"4\": 279}","shape_id":"{\"D1\": 279}","direction_id":"{\"1\": 279}","headsign":"{\"Catedral\": 279}","source":40,"target":17,"layer":"L","from":"Tribunales","to":"Carlos Pellegrini"},"geometry":{"type":"LineString","coordinates":[[-58.384459,-34.601771],[-58.381379,-34.603701]]}},{"type":"Feature","properties":{"shape_id":"{\"D0\": 273}","direction_id":"{\"0\": 273}","headsign":"{\"Congreso de Tucumán\": 273}","duration_avg":78.0,"n_vehicles":273,"d":476,"route_I_counts":"{\"4\": 273}","source":41,"target":42,"layer":"L","from":"Callao","to":"Facultad de Medicina"},"geometry":{"type":"LineString","coordinates":[[-58.39224,-34.599603],[-58.397434,-34.59972]]}},{"type":"Feature","properties":{"duration_avg":119.0,"n_vehicles":278,"d":752,"route_I_counts":"{\"4\": 278}","shape_id":"{\"D1\": 278}","direction_id":"{\"1\": 278}","headsign":"{\"Catedral\": 278}","source":41,"target":40,"layer":"L","from":"Callao","to":"Tribunales"},"geometry":{"type":"LineString","coordinates":[[-58.39224,-34.599603],[-58.384459,-34.601771]]}},{"type":"Feature","properties":{"duration_avg":78.0,"n_vehicles":278,"d":476,"route_I_counts":"{\"4\": 278}","shape_id":"{\"D1\": 278}","direction_id":"{\"1\": 278}","headsign":"{\"Catedral\": 278}","source":42,"target":41,"layer":"L","from":"Facultad de Medicina","to":"Callao"},"geometry":{"type":"LineString","coordinates":[[-58.397434,-34.59972],[-58.39224,-34.599603]]}},{"type":"Feature","properties":{"duration_avg":120.0,"n_vehicles":273,"d":747,"route_I_counts":"{\"4\": 273}","shape_id":"{\"D0\": 273}","direction_id":"{\"0\": 273}","headsign":"{\"Congreso de Tucumán\": 273}","source":42,"target":70,"layer":"L","from":"Facultad de Medicina","to":"Santa Fe"},"geometry":{"type":"LineString","coordinates":[[-58.397434,-34.59972],[-58.40246,-34.594857]]}},{"type":"Feature","properties":{"shape_id":"{\"D0\": 275}","direction_id":"{\"0\": 275}","headsign":"{\"Congreso de Tucumán\": 275}","duration_avg":86.0,"n_vehicles":275,"d":541,"route_I_counts":"{\"4\": 275}","source":43,"target":44,"layer":"L","from":"Agüero","to":"Bulnes"},"geometry":{"type":"LineString","coordinates":[[-58.407093,-34.591698],[-58.411264,-34.588259]]}},{"type":"Feature","properties":{"duration_avg":84.0,"n_vehicles":277,"d":509,"route_I_counts":"{\"4\": 277}","shape_id":"{\"D1\": 277}","direction_id":"{\"1\": 277}","headsign":"{\"Catedral\": 277}","source":43,"target":70,"layer":"L","from":"Agüero","to":"Santa Fe"},"geometry":{"type":"LineString","coordinates":[[-58.407093,-34.591698],[-58.40246,-34.594857]]}},{"type":"Feature","properties":{"shape_id":"{\"D0\": 275}","direction_id":"{\"0\": 275}","headsign":"{\"Congreso de Tucumán\": 275}","duration_avg":87.0,"n_vehicles":275,"d":540,"route_I_counts":"{\"4\": 275}","source":44,"target":45,"layer":"L","from":"Bulnes","to":"Scalabrini Ortiz"},"geometry":{"type":"LineString","coordinates":[[-58.411264,-34.588259],[-58.415825,-34.585185]]}},{"type":"Feature","properties":{"duration_avg":86.0,"n_vehicles":276,"d":541,"route_I_counts":"{\"4\": 276}","shape_id":"{\"D1\": 276}","direction_id":"{\"1\": 276}","headsign":"{\"Catedral\": 276}","source":44,"target":43,"layer":"L","from":"Bulnes","to":"Agüero"},"geometry":{"type":"LineString","coordinates":[[-58.411264,-34.588259],[-58.407093,-34.591698]]}},{"type":"Feature","properties":{"shape_id":"{\"D0\": 276}","direction_id":"{\"0\": 276}","headsign":"{\"Congreso de Tucumán\": 276}","duration_avg":94.0,"n_vehicles":276,"d":614,"route_I_counts":"{\"4\": 276}","source":45,"target":46,"layer":"L","from":"Scalabrini Ortiz","to":"Plaza Italia"},"geometry":{"type":"LineString","coordinates":[[-58.415825,-34.585185],[-58.420979,-34.581661]]}},{"type":"Feature","properties":{"duration_avg":87.0,"n_vehicles":276,"d":540,"route_I_counts":"{\"4\": 276}","shape_id":"{\"D1\": 276}","direction_id":"{\"1\": 276}","headsign":"{\"Catedral\": 276}","source":45,"target":44,"layer":"L","from":"Scalabrini Ortiz","to":"Bulnes"},"geometry":{"type":"LineString","coordinates":[[-58.415825,-34.585185],[-58.411264,-34.588259]]}},{"type":"Feature","properties":{"shape_id":"{\"D0\": 276}","direction_id":"{\"0\": 276}","headsign":"{\"Congreso de Tucumán\": 276}","duration_avg":90.0,"n_vehicles":276,"d":575,"route_I_counts":"{\"4\": 276}","source":46,"target":47,"layer":"L","from":"Plaza Italia","to":"Palermo"},"geometry":{"type":"LineString","coordinates":[[-58.420979,-34.581661],[-58.42587,-34.578414]]}},{"type":"Feature","properties":{"duration_avg":94.0,"n_vehicles":275,"d":614,"route_I_counts":"{\"4\": 275}","shape_id":"{\"D1\": 275}","direction_id":"{\"1\": 275}","headsign":"{\"Catedral\": 275}","source":46,"target":45,"layer":"L","from":"Plaza Italia","to":"Scalabrini Ortiz"},"geometry":{"type":"LineString","coordinates":[[-58.420979,-34.581661],[-58.415825,-34.585185]]}},{"type":"Feature","properties":{"shape_id":"{\"D0\": 277}","direction_id":"{\"0\": 277}","headsign":"{\"Congreso de Tucumán\": 277}","duration_avg":128.0,"n_vehicles":277,"d":886,"route_I_counts":"{\"4\": 277}","source":47,"target":48,"layer":"L","from":"Palermo","to":"Ministro Carranza"},"geometry":{"type":"LineString","coordinates":[[-58.42587,-34.578414],[-58.434726,-34.575206]]}},{"type":"Feature","properties":{"duration_avg":90.0,"n_vehicles":275,"d":575,"route_I_counts":"{\"4\": 275}","shape_id":"{\"D1\": 275}","direction_id":"{\"1\": 275}","headsign":"{\"Catedral\": 275}","source":47,"target":46,"layer":"L","from":"Palermo","to":"Plaza Italia"},"geometry":{"type":"LineString","coordinates":[[-58.42587,-34.578414],[-58.420979,-34.581661]]}},{"type":"Feature","properties":{"shape_id":"{\"D0\": 277}","direction_id":"{\"0\": 277}","headsign":"{\"Congreso de Tucumán\": 277}","duration_avg":145.0,"n_vehicles":277,"d":1039,"route_I_counts":"{\"4\": 277}","source":48,"target":49,"layer":"L","from":"Ministro Carranza","to":"Olleros"},"geometry":{"type":"LineString","coordinates":[[-58.434726,-34.575206],[-58.444337,-34.570247]]}},{"type":"Feature","properties":{"duration_avg":128.0,"n_vehicles":274,"d":886,"route_I_counts":"{\"4\": 274}","shape_id":"{\"D1\": 274}","direction_id":"{\"1\": 274}","headsign":"{\"Catedral\": 274}","source":48,"target":47,"layer":"L","from":"Ministro Carranza","to":"Palermo"},"geometry":{"type":"LineString","coordinates":[[-58.434726,-34.575206],[-58.42587,-34.578414]]}},{"type":"Feature","properties":{"shape_id":"{\"D0\": 278}","direction_id":"{\"0\": 278}","headsign":"{\"Congreso de Tucumán\": 278}","duration_avg":120.0,"n_vehicles":278,"d":828,"route_I_counts":"{\"4\": 278}","source":49,"target":50,"layer":"L","from":"Olleros","to":"Jose Hernandez"},"geometry":{"type":"LineString","coordinates":[[-58.444337,-34.570247],[-58.451969,-34.566268]]}},{"type":"Feature","properties":{"duration_avg":145.0,"n_vehicles":273,"d":1039,"route_I_counts":"{\"4\": 273}","shape_id":"{\"D1\": 273}","direction_id":"{\"1\": 273}","headsign":"{\"Catedral\": 273}","source":49,"target":48,"layer":"L","from":"Olleros","to":"Ministro Carranza"},"geometry":{"type":"LineString","coordinates":[[-58.444337,-34.570247],[-58.434726,-34.575206]]}},{"type":"Feature","properties":{"shape_id":"{\"D0\": 279}","direction_id":"{\"0\": 279}","headsign":"{\"Congreso de Tucumán\": 279}","duration_avg":91.0,"n_vehicles":279,"d":583,"route_I_counts":"{\"4\": 279}","source":50,"target":51,"layer":"L","from":"Jose Hernandez","to":"Juramento"},"geometry":{"type":"LineString","coordinates":[[-58.451969,-34.566268],[-58.456281,-34.56241]]}},{"type":"Feature","properties":{"duration_avg":120.0,"n_vehicles":272,"d":828,"route_I_counts":"{\"4\": 272}","shape_id":"{\"D1\": 272}","direction_id":"{\"1\": 272}","headsign":"{\"Catedral\": 272}","source":50,"target":49,"layer":"L","from":"Jose Hernandez","to":"Olleros"},"geometry":{"type":"LineString","coordinates":[[-58.451969,-34.566268],[-58.444337,-34.570247]]}},{"type":"Feature","properties":{"shape_id":"{\"D0\": 279}","direction_id":"{\"0\": 279}","headsign":"{\"Congreso de Tucumán\": 279}","duration_avg":129.0,"n_vehicles":279,"d":890,"route_I_counts":"{\"4\": 279}","source":51,"target":52,"layer":"L","from":"Juramento","to":"Congreso de Tucuman"},"geometry":{"type":"LineString","coordinates":[[-58.456281,-34.56241],[-58.462078,-34.555988]]}},{"type":"Feature","properties":{"duration_avg":91.0,"n_vehicles":272,"d":583,"route_I_counts":"{\"4\": 272}","shape_id":"{\"D1\": 272}","direction_id":"{\"1\": 272}","headsign":"{\"Catedral\": 272}","source":51,"target":50,"layer":"L","from":"Juramento","to":"Jose Hernandez"},"geometry":{"type":"LineString","coordinates":[[-58.456281,-34.56241],[-58.451969,-34.566268]]}},{"type":"Feature","properties":{"duration_avg":129.0,"n_vehicles":271,"d":890,"route_I_counts":"{\"4\": 271}","shape_id":"{\"D1\": 271}","direction_id":"{\"1\": 271}","headsign":"{\"Catedral\": 271}","source":52,"target":51,"layer":"L","from":"Congreso de Tucuman","to":"Juramento"},"geometry":{"type":"LineString","coordinates":[[-58.462078,-34.555988],[-58.456281,-34.56241]]}},{"type":"Feature","properties":{"shape_id":"{\"E0\": 167}","direction_id":"{\"0\": 167}","headsign":"{\"Plaza de los Virreyes\": 167}","duration_avg":92.0,"n_vehicles":167,"d":794,"route_I_counts":"{\"5\": 167}","source":53,"target":54,"layer":"L","from":"Catalinas","to":"Correo Central"},"geometry":{"type":"LineString","coordinates":[[-58.37195,-34.596461],[-58.370058,-34.603428]]}},{"type":"Feature","properties":{"duration_avg":97.0,"n_vehicles":173,"d":615,"route_I_counts":"{\"5\": 173}","shape_id":"{\"E1\": 173}","direction_id":"{\"1\": 173}","headsign":"{\"Retiro\": 173}","source":53,"target":31,"layer":"L","from":"Catalinas","to":"Retiro"},"geometry":{"type":"LineString","coordinates":[[-58.37195,-34.596461],[-58.374748,-34.591874]]}},{"type":"Feature","properties":{"duration_avg":109.0,"n_vehicles":172,"d":804,"route_I_counts":"{\"5\": 172}","shape_id":"{\"E1\": 172}","direction_id":"{\"1\": 172}","headsign":"{\"Retiro\": 172}","source":54,"target":53,"layer":"L","from":"Correo Central","to":"Catalinas"},"geometry":{"type":"LineString","coordinates":[[-58.370058,-34.603428],[-58.37195,-34.596461]]}},{"type":"Feature","properties":{"duration_avg":108.0,"n_vehicles":167,"d":775,"route_I_counts":"{\"5\": 167}","shape_id":"{\"E0\": 167}","direction_id":"{\"0\": 167}","headsign":"{\"Plaza de los Virreyes\": 167}","source":54,"target":39,"layer":"L","from":"Correo Central","to":"Catedral"},"geometry":{"type":"LineString","coordinates":[[-58.370058,-34.603428],[-58.374257,-34.607624]]}},{"type":"Feature","properties":{"duration_avg":67.0,"n_vehicles":262,"d":421,"route_I_counts":"{\"2\": 262}","shape_id":"{\"B0\": 262}","direction_id":"{\"0\": 262}","headsign":"{\"Juan Manuel de Rosas\": 262}","source":54,"target":16,"layer":"L","from":"Correo Central","to":"Florida"},"geometry":{"type":"LineString","coordinates":[[-58.370058,-34.603428],[-58.374535,-34.603302]]}},{"type":"Feature","properties":{"duration_avg":83.0,"n_vehicles":168,"d":567,"route_I_counts":"{\"5\": 168}","shape_id":"{\"E0\": 168}","direction_id":"{\"0\": 168}","headsign":"{\"Plaza de los Virreyes\": 168}","source":55,"target":36,"layer":"L","from":"Belgrano","to":"Independencia"},"geometry":{"type":"LineString","coordinates":[[-58.37822,-34.61341],[-58.380236,-34.61806]]}},{"type":"Feature","properties":{"duration_avg":91.0,"n_vehicles":171,"d":572,"route_I_counts":"{\"5\": 171}","shape_id":"{\"E1\": 171}","direction_id":"{\"1\": 171}","headsign":"{\"Retiro\": 171}","source":55,"target":39,"layer":"L","from":"Belgrano","to":"Catedral"},"geometry":{"type":"LineString","coordinates":[[-58.37822,-34.61341],[-58.374257,-34.607624]]}},{"type":"Feature","properties":{"shape_id":"{\"E0\": 169}","direction_id":"{\"0\": 169}","headsign":"{\"Plaza de los Virreyes\": 169}","duration_avg":96.0,"n_vehicles":169,"d":562,"route_I_counts":"{\"5\": 169}","source":56,"target":57,"layer":"L","from":"San Jose","to":"Entre Rios"},"geometry":{"type":"LineString","coordinates":[[-58.385392,-34.622367],[-58.391515,-34.62276]]}},{"type":"Feature","properties":{"duration_avg":145.0,"n_vehicles":170,"d":636,"route_I_counts":"{\"5\": 170}","shape_id":"{\"E1\": 170}","direction_id":"{\"1\": 170}","headsign":"{\"Retiro\": 170}","source":56,"target":36,"layer":"L","from":"San Jose","to":"Independencia"},"geometry":{"type":"LineString","coordinates":[[-58.385392,-34.622367],[-58.380236,-34.61806]]}},{"type":"Feature","properties":{"shape_id":"{\"E0\": 169}","direction_id":"{\"0\": 169}","headsign":"{\"Plaza de los Virreyes\": 169}","duration_avg":99.0,"n_vehicles":169,"d":514,"route_I_counts":"{\"5\": 169}","source":57,"target":58,"layer":"L","from":"Entre Rios","to":"Pichincha"},"geometry":{"type":"LineString","coordinates":[[-58.391515,-34.62276],[-58.397112,-34.623134]]}},{"type":"Feature","properties":{"duration_avg":128.0,"n_vehicles":170,"d":562,"route_I_counts":"{\"5\": 170}","shape_id":"{\"E1\": 170}","direction_id":"{\"1\": 170}","headsign":"{\"Retiro\": 170}","source":57,"target":56,"layer":"L","from":"Entre Rios","to":"San Jose"},"geometry":{"type":"LineString","coordinates":[[-58.391515,-34.62276],[-58.385392,-34.622367]]}},{"type":"Feature","properties":{"shape_id":"{\"E0\": 169}","direction_id":"{\"0\": 169}","headsign":"{\"Plaza de los Virreyes\": 169}","duration_avg":121.0,"n_vehicles":169,"d":530,"route_I_counts":"{\"5\": 169}","source":58,"target":59,"layer":"L","from":"Pichincha","to":"Jujuy"},"geometry":{"type":"LineString","coordinates":[[-58.397112,-34.623134],[-58.402829,-34.623879]]}},{"type":"Feature","properties":{"duration_avg":90.0,"n_vehicles":170,"d":514,"route_I_counts":"{\"5\": 170}","shape_id":"{\"E1\": 170}","direction_id":"{\"1\": 170}","headsign":"{\"Retiro\": 170}","source":58,"target":57,"layer":"L","from":"Pichincha","to":"Entre Rios"},"geometry":{"type":"LineString","coordinates":[[-58.397112,-34.623134],[-58.391515,-34.62276]]}},{"type":"Feature","properties":{"shape_id":"{\"E0\": 170}","direction_id":"{\"0\": 170}","headsign":"{\"Plaza de los Virreyes\": 170}","duration_avg":116.0,"n_vehicles":170,"d":628,"route_I_counts":"{\"5\": 170}","source":59,"target":60,"layer":"L","from":"Jujuy","to":"General Urquiza"},"geometry":{"type":"LineString","coordinates":[[-58.402829,-34.623879],[-58.409617,-34.624682]]}},{"type":"Feature","properties":{"duration_avg":94.0,"n_vehicles":169,"d":530,"route_I_counts":"{\"5\": 169}","shape_id":"{\"E1\": 169}","direction_id":"{\"1\": 169}","headsign":"{\"Retiro\": 169}","source":59,"target":58,"layer":"L","from":"Jujuy","to":"Pichincha"},"geometry":{"type":"LineString","coordinates":[[-58.402829,-34.623879],[-58.397112,-34.623134]]}},{"type":"Feature","properties":{"duration_avg":102.0,"n_vehicles":262,"d":704,"route_I_counts":"{\"6\": 262}","shape_id":"{\"H0\": 262}","direction_id":"{\"0\": 262}","headsign":"{\"Hospitales\": 262}","source":59,"target":74,"layer":"L","from":"Jujuy","to":"Inclan"},"geometry":{"type":"LineString","coordinates":[[-58.402829,-34.623879],[-58.400987,-34.629351]]}},{"type":"Feature","properties":{"duration_avg":125.0,"n_vehicles":260,"d":906,"route_I_counts":"{\"6\": 260}","shape_id":"{\"H1\": 260}","direction_id":"{\"1\": 260}","headsign":"{\"Facultad de Derecho\": 260}","source":59,"target":73,"layer":"L","from":"Jujuy","to":"Venezuela"},"geometry":{"type":"LineString","coordinates":[[-58.402829,-34.623879],[-58.404759,-34.615227]]}},{"type":"Feature","properties":{"shape_id":"{\"E0\": 170}","direction_id":"{\"0\": 170}","headsign":"{\"Plaza de los Virreyes\": 170}","duration_avg":127.0,"n_vehicles":170,"d":649,"route_I_counts":"{\"5\": 170}","source":60,"target":61,"layer":"L","from":"General Urquiza","to":"Boedo"},"geometry":{"type":"LineString","coordinates":[[-58.409617,-34.624682],[-58.416628,-34.625545]]}},{"type":"Feature","properties":{"duration_avg":87.0,"n_vehicles":169,"d":628,"route_I_counts":"{\"5\": 169}","shape_id":"{\"E1\": 169}","direction_id":"{\"1\": 169}","headsign":"{\"Retiro\": 169}","source":60,"target":59,"layer":"L","from":"General Urquiza","to":"Jujuy"},"geometry":{"type":"LineString","coordinates":[[-58.409617,-34.624682],[-58.402829,-34.623879]]}},{"type":"Feature","properties":{"shape_id":"{\"E0\": 171}","direction_id":"{\"0\": 171}","headsign":"{\"Plaza de los Virreyes\": 171}","duration_avg":129.0,"n_vehicles":171,"d":835,"route_I_counts":"{\"5\": 171}","source":61,"target":62,"layer":"L","from":"Boedo","to":"La Plata"},"geometry":{"type":"LineString","coordinates":[[-58.416628,-34.625545],[-58.425611,-34.626836]]}},{"type":"Feature","properties":{"duration_avg":86.0,"n_vehicles":169,"d":649,"route_I_counts":"{\"5\": 169}","shape_id":"{\"E1\": 169}","direction_id":"{\"1\": 169}","headsign":"{\"Retiro\": 169}","source":61,"target":60,"layer":"L","from":"Boedo","to":"General Urquiza"},"geometry":{"type":"LineString","coordinates":[[-58.416628,-34.625545],[-58.409617,-34.624682]]}},{"type":"Feature","properties":{"shape_id":"{\"E0\": 171}","direction_id":"{\"0\": 171}","headsign":"{\"Plaza de los Virreyes\": 171}","duration_avg":117.0,"n_vehicles":171,"d":807,"route_I_counts":"{\"5\": 171}","source":62,"target":63,"layer":"L","from":"La Plata","to":"Jose Maria Moreno"},"geometry":{"type":"LineString","coordinates":[[-58.425611,-34.626836],[-58.434298,-34.628084]]}},{"type":"Feature","properties":{"duration_avg":84.0,"n_vehicles":168,"d":835,"route_I_counts":"{\"5\": 168}","shape_id":"{\"E1\": 168}","direction_id":"{\"1\": 168}","headsign":"{\"Retiro\": 168}","source":62,"target":61,"layer":"L","from":"La Plata","to":"Boedo"},"geometry":{"type":"LineString","coordinates":[[-58.425611,-34.626836],[-58.416628,-34.625545]]}},{"type":"Feature","properties":{"shape_id":"{\"E0\": 172}","direction_id":"{\"0\": 172}","headsign":"{\"Plaza de los Virreyes\": 172}","duration_avg":80.0,"n_vehicles":172,"d":850,"route_I_counts":"{\"5\": 172}","source":63,"target":64,"layer":"L","from":"Jose Maria Moreno","to":"Emilio Mitre"},"geometry":{"type":"LineString","coordinates":[[-58.434298,-34.628084],[-58.442525,-34.631632]]}},{"type":"Feature","properties":{"duration_avg":120.0,"n_vehicles":168,"d":807,"route_I_counts":"{\"5\": 168}","shape_id":"{\"E1\": 168}","direction_id":"{\"1\": 168}","headsign":"{\"Retiro\": 168}","source":63,"target":62,"layer":"L","from":"Jose Maria Moreno","to":"La Plata"},"geometry":{"type":"LineString","coordinates":[[-58.434298,-34.628084],[-58.425611,-34.626836]]}},{"type":"Feature","properties":{"shape_id":"{\"E0\": 172}","direction_id":"{\"0\": 172}","headsign":"{\"Plaza de los Virreyes\": 172}","duration_avg":106.0,"n_vehicles":172,"d":885,"route_I_counts":"{\"5\": 172}","source":64,"target":65,"layer":"L","from":"Emilio Mitre","to":"Medalla Milagrosa"},"geometry":{"type":"LineString","coordinates":[[-58.442525,-34.631632],[-58.450398,-34.63625]]}},{"type":"Feature","properties":{"duration_avg":78.0,"n_vehicles":168,"d":850,"route_I_counts":"{\"5\": 168}","shape_id":"{\"E1\": 168}","direction_id":"{\"1\": 168}","headsign":"{\"Retiro\": 168}","source":64,"target":63,"layer":"L","from":"Emilio Mitre","to":"Jose Maria Moreno"},"geometry":{"type":"LineString","coordinates":[[-58.442525,-34.631632],[-58.434298,-34.628084]]}},{"type":"Feature","properties":{"shape_id":"{\"E0\": 172}","direction_id":"{\"0\": 172}","headsign":"{\"Plaza de los Virreyes\": 172}","duration_avg":109.0,"n_vehicles":172,"d":775,"route_I_counts":"{\"5\": 172}","source":65,"target":66,"layer":"L","from":"Medalla Milagrosa","to":"Varela"},"geometry":{"type":"LineString","coordinates":[[-58.450398,-34.63625],[-58.457848,-34.639567]]}},{"type":"Feature","properties":{"duration_avg":119.0,"n_vehicles":167,"d":885,"route_I_counts":"{\"5\": 167}","shape_id":"{\"E1\": 167}","direction_id":"{\"1\": 167}","headsign":"{\"Retiro\": 167}","source":65,"target":64,"layer":"L","from":"Medalla Milagrosa","to":"Emilio Mitre"},"geometry":{"type":"LineString","coordinates":[[-58.450398,-34.63625],[-58.442525,-34.631632]]}},{"type":"Feature","properties":{"shape_id":"{\"E0\": 173}","direction_id":"{\"0\": 173}","headsign":"{\"Plaza de los Virreyes\": 173}","duration_avg":97.0,"n_vehicles":173,"d":485,"route_I_counts":"{\"5\": 173}","source":66,"target":67,"layer":"L","from":"Varela","to":"Plaza de los Virreyes"},"geometry":{"type":"LineString","coordinates":[[-58.457848,-34.639567],[-58.461445,-34.64277]]}},{"type":"Feature","properties":{"duration_avg":79.0,"n_vehicles":167,"d":775,"route_I_counts":"{\"5\": 167}","shape_id":"{\"E1\": 167}","direction_id":"{\"1\": 167}","headsign":"{\"Retiro\": 167}","source":66,"target":65,"layer":"L","from":"Varela","to":"Medalla Milagrosa"},"geometry":{"type":"LineString","coordinates":[[-58.457848,-34.639567],[-58.450398,-34.63625]]}},{"type":"Feature","properties":{"duration_avg":101.0,"n_vehicles":167,"d":485,"route_I_counts":"{\"5\": 167}","shape_id":"{\"E1\": 167}","direction_id":"{\"1\": 167}","headsign":"{\"Retiro\": 167}","source":67,"target":66,"layer":"L","from":"Plaza de los Virreyes","to":"Varela"},"geometry":{"type":"LineString","coordinates":[[-58.461445,-34.64277],[-58.457848,-34.639567]]}},{"type":"Feature","properties":{"shape_id":"{\"H0\": 258}","direction_id":"{\"0\": 258}","headsign":"{\"Hospitales\": 258}","duration_avg":99.0,"n_vehicles":258,"d":828,"route_I_counts":"{\"6\": 258}","source":68,"target":69,"layer":"L","from":"Facultad de Derecho","to":"Las Heras"},"geometry":{"type":"LineString","coordinates":[[-58.391207,-34.583194],[-58.398045,-34.588063]]}},{"type":"Feature","properties":{"shape_id":"{\"H0\": 258}","direction_id":"{\"0\": 258}","headsign":"{\"Hospitales\": 258}","duration_avg":124.0,"n_vehicles":258,"d":857,"route_I_counts":"{\"6\": 258}","source":69,"target":70,"layer":"L","from":"Las Heras","to":"Santa Fe"},"geometry":{"type":"LineString","coordinates":[[-58.398045,-34.588063],[-58.40246,-34.594857]]}},{"type":"Feature","properties":{"duration_avg":99.0,"n_vehicles":264,"d":828,"route_I_counts":"{\"6\": 264}","shape_id":"{\"H1\": 264}","direction_id":"{\"1\": 264}","headsign":"{\"Facultad de Derecho\": 264}","source":69,"target":68,"layer":"L","from":"Las Heras","to":"Facultad de Derecho"},"geometry":{"type":"LineString","coordinates":[[-58.398045,-34.588063],[-58.391207,-34.583194]]}},{"type":"Feature","properties":{"shape_id":"{\"H0\": 259}","direction_id":"{\"0\": 259}","headsign":"{\"Hospitales\": 259}","duration_avg":73.0,"n_vehicles":259,"d":443,"route_I_counts":"{\"6\": 259}","source":70,"target":71,"layer":"L","from":"Santa Fe","to":"Cordoba"},"geometry":{"type":"LineString","coordinates":[[-58.40246,-34.594857],[-58.403805,-34.598686]]}},{"type":"Feature","properties":{"duration_avg":124.0,"n_vehicles":263,"d":857,"route_I_counts":"{\"6\": 263}","shape_id":"{\"H1\": 263}","direction_id":"{\"1\": 263}","headsign":"{\"Facultad de Derecho\": 263}","source":70,"target":69,"layer":"L","from":"Santa Fe","to":"Las Heras"},"geometry":{"type":"LineString","coordinates":[[-58.40246,-34.594857],[-58.398045,-34.588063]]}},{"type":"Feature","properties":{"duration_avg":84.0,"n_vehicles":274,"d":509,"route_I_counts":"{\"4\": 274}","shape_id":"{\"D0\": 274}","direction_id":"{\"0\": 274}","headsign":"{\"Congreso de Tucumán\": 274}","source":70,"target":43,"layer":"L","from":"Santa Fe","to":"Agüero"},"geometry":{"type":"LineString","coordinates":[[-58.40246,-34.594857],[-58.407093,-34.591698]]}},{"type":"Feature","properties":{"duration_avg":120.0,"n_vehicles":277,"d":747,"route_I_counts":"{\"4\": 277}","shape_id":"{\"D1\": 277}","direction_id":"{\"1\": 277}","headsign":"{\"Catedral\": 277}","source":70,"target":42,"layer":"L","from":"Santa Fe","to":"Facultad de Medicina"},"geometry":{"type":"LineString","coordinates":[[-58.40246,-34.594857],[-58.397434,-34.59972]]}},{"type":"Feature","properties":{"shape_id":"{\"H0\": 259}","direction_id":"{\"0\": 259}","headsign":"{\"Hospitales\": 259}","duration_avg":90.0,"n_vehicles":259,"d":599,"route_I_counts":"{\"6\": 259}","source":71,"target":72,"layer":"L","from":"Cordoba","to":"Corrientes"},"geometry":{"type":"LineString","coordinates":[[-58.403805,-34.598686],[-58.405317,-34.603924]]}},{"type":"Feature","properties":{"duration_avg":73.0,"n_vehicles":263,"d":443,"route_I_counts":"{\"6\": 263}","shape_id":"{\"H1\": 263}","direction_id":"{\"1\": 263}","headsign":"{\"Facultad de Derecho\": 263}","source":71,"target":70,"layer":"L","from":"Cordoba","to":"Santa Fe"},"geometry":{"type":"LineString","coordinates":[[-58.403805,-34.598686],[-58.40246,-34.594857]]}},{"type":"Feature","properties":{"duration_avg":90.0,"n_vehicles":262,"d":599,"route_I_counts":"{\"6\": 262}","shape_id":"{\"H1\": 262}","direction_id":"{\"1\": 262}","headsign":"{\"Facultad de Derecho\": 262}","source":72,"target":71,"layer":"L","from":"Corrientes","to":"Cordoba"},"geometry":{"type":"LineString","coordinates":[[-58.405317,-34.603924],[-58.403805,-34.598686]]}},{"type":"Feature","properties":{"duration_avg":88.0,"n_vehicles":265,"d":595,"route_I_counts":"{\"2\": 265}","shape_id":"{\"B0\": 265}","direction_id":"{\"0\": 265}","headsign":"{\"Juan Manuel de Rosas\": 265}","source":72,"target":21,"layer":"L","from":"Corrientes","to":"Carlos Gardel"},"geometry":{"type":"LineString","coordinates":[[-58.405317,-34.603924],[-58.411705,-34.604103]]}},{"type":"Feature","properties":{"duration_avg":80.0,"n_vehicles":269,"d":538,"route_I_counts":"{\"2\": 269}","shape_id":"{\"B1\": 269}","direction_id":"{\"1\": 269}","headsign":"{\"Leandro N. Alem\": 269}","source":72,"target":20,"layer":"L","from":"Corrientes","to":"Pasteur"},"geometry":{"type":"LineString","coordinates":[[-58.405317,-34.603924],[-58.399357,-34.604623]]}},{"type":"Feature","properties":{"duration_avg":90.0,"n_vehicles":260,"d":585,"route_I_counts":"{\"6\": 260}","shape_id":"{\"H0\": 260}","direction_id":"{\"0\": 260}","headsign":"{\"Hospitales\": 260}","source":72,"target":5,"layer":"L","from":"Corrientes","to":"Plaza Miserere"},"geometry":{"type":"LineString","coordinates":[[-58.405317,-34.603924],[-58.406814,-34.609688]]}},{"type":"Feature","properties":{"duration_avg":100.0,"n_vehicles":261,"d":686,"route_I_counts":"{\"6\": 261}","shape_id":"{\"H1\": 261}","direction_id":"{\"1\": 261}","headsign":"{\"Facultad de Derecho\": 261}","source":73,"target":5,"layer":"L","from":"Venezuela","to":"Plaza Miserere"},"geometry":{"type":"LineString","coordinates":[[-58.404759,-34.615227],[-58.406814,-34.609688]]}},{"type":"Feature","properties":{"duration_avg":125.0,"n_vehicles":261,"d":906,"route_I_counts":"{\"6\": 261}","shape_id":"{\"H0\": 261}","direction_id":"{\"0\": 261}","headsign":"{\"Hospitales\": 261}","source":73,"target":59,"layer":"L","from":"Venezuela","to":"Jujuy"},"geometry":{"type":"LineString","coordinates":[[-58.404759,-34.615227],[-58.402829,-34.623879]]}},{"type":"Feature","properties":{"shape_id":"{\"H0\": 262}","direction_id":"{\"0\": 262}","headsign":"{\"Hospitales\": 262}","duration_avg":100.0,"n_vehicles":262,"d":679,"route_I_counts":"{\"6\": 262}","source":74,"target":75,"layer":"L","from":"Inclan","to":"Caseros"},"geometry":{"type":"LineString","coordinates":[[-58.400987,-34.629351],[-58.399159,-34.635266]]}},{"type":"Feature","properties":{"duration_avg":102.0,"n_vehicles":260,"d":704,"route_I_counts":"{\"6\": 260}","shape_id":"{\"H1\": 260}","direction_id":"{\"1\": 260}","headsign":"{\"Facultad de Derecho\": 260}","source":74,"target":59,"layer":"L","from":"Inclan","to":"Jujuy"},"geometry":{"type":"LineString","coordinates":[[-58.400987,-34.629351],[-58.402829,-34.623879]]}},{"type":"Feature","properties":{"shape_id":"{\"H0\": 263}","direction_id":"{\"0\": 263}","headsign":"{\"Hospitales\": 263}","duration_avg":121.0,"n_vehicles":263,"d":746,"route_I_counts":"{\"6\": 263}","source":75,"target":76,"layer":"L","from":"Caseros","to":"Parque Patricios"},"geometry":{"type":"LineString","coordinates":[[-58.399159,-34.635266],[-58.406328,-34.63846]]}},{"type":"Feature","properties":{"duration_avg":100.0,"n_vehicles":259,"d":679,"route_I_counts":"{\"6\": 259}","shape_id":"{\"H1\": 259}","direction_id":"{\"1\": 259}","headsign":"{\"Facultad de Derecho\": 259}","source":75,"target":74,"layer":"L","from":"Caseros","to":"Inclan"},"geometry":{"type":"LineString","coordinates":[[-58.399159,-34.635266],[-58.400987,-34.629351]]}},{"type":"Feature","properties":{"shape_id":"{\"H0\": 264}","direction_id":"{\"0\": 264}","headsign":"{\"Hospitales\": 264}","duration_avg":112.0,"n_vehicles":264,"d":687,"route_I_counts":"{\"6\": 264}","source":76,"target":77,"layer":"L","from":"Parque Patricios","to":"Hospitales"},"geometry":{"type":"LineString","coordinates":[[-58.406328,-34.63846],[-58.412673,-34.641753]]}},{"type":"Feature","properties":{"duration_avg":121.0,"n_vehicles":258,"d":746,"route_I_counts":"{\"6\": 258}","shape_id":"{\"H1\": 258}","direction_id":"{\"1\": 258}","headsign":"{\"Facultad de Derecho\": 258}","source":76,"target":75,"layer":"L","from":"Parque Patricios","to":"Caseros"},"geometry":{"type":"LineString","coordinates":[[-58.406328,-34.63846],[-58.399159,-34.635266]]}},{"type":"Feature","properties":{"duration_avg":112.0,"n_vehicles":258,"d":687,"route_I_counts":"{\"6\": 258}","shape_id":"{\"H1\": 258}","direction_id":"{\"1\": 258}","headsign":"{\"Facultad de Derecho\": 258}","source":77,"target":76,"layer":"L","from":"Hospitales","to":"Parque Patricios"},"geometry":{"type":"LineString","coordinates":[[-58.412673,-34.641753],[-58.406328,-34.63846]]}}]}