{"type":"FeatureCollection","features":[{"type":"Feature","geometry":{"type":"Point","coordinates":[31.334252,29.848824]},"properties":{"name":"Helwan","original_ids":"[1, 62]","id":0,"layer":"stop"}},{"type":"Feature","geometry":{"type":"Point","coordinates":[31.325026,29.862604]},"properties":{"name":"Ain Helwan","original_ids":"[2, 63]","id":1,"layer":"stop"}},{"type":"Feature","geometry":{"type":"Point","coordinates":[31.320004,29.869452]},"properties":{"name":"Helwan University","original_ids":"[3, 64]","id":2,"layer":"stop"}},{"type":"Feature","geometry":{"type":"Point","coordinates":[31.313438,29.879053]},"properties":{"name":"Wadi Hof","original_ids":"[4, 65]","id":3,"layer":"stop"}},{"type":"Feature","geometry":{"type":"Point","coordinates":[31.30404,29.897192]},"properties":{"name":"Hadayek Helwan","original_ids":"[5, 66]","id":4,"layer":"stop"}},{"type":"Feature","geometry":{"type":"Point","coordinates":[31.299534,29.906362]},"properties":{"name":"El-Maasara","original_ids":"[6, 67]","id":5,"layer":"stop"}},{"type":"Feature","geometry":{"type":"Point","coordinates":[31.28755,29.925965]},"properties":{"name":"Tora El-Asmant","original_ids":"[7, 68]","id":6,"layer":"stop"}},{"type":"Feature","geometry":{"type":"Point","coordinates":[31.281424,29.936453]},"properties":{"name":"Kozzika","original_ids":"[8, 69]","id":7,"layer":"stop"}},{"type":"Feature","geometry":{"type":"Point","coordinates":[31.272883,29.946717]},"properties":{"name":"Tora El-Balad","original_ids":"[9, 70]","id":8,"layer":"stop"}},{"type":"Feature","geometry":{"type":"Point","coordinates":[31.262965,29.953308]},"properties":{"name":"Sakanat El-Maadi","original_ids":"[10, 71]","id":9,"layer":"stop"}},{"type":"Feature","geometry":{"type":"Point","coordinates":[31.257734,29.960298]},"properties":{"name":"Maadi","original_ids":"[11, 72]","id":10,"layer":"stop"}},{"type":"Feature","geometry":{"type":"Point","coordinates":[31.25083,29.969783]},"properties":{"name":"Hadayek El-Maadi","original_ids":"[12, 73]","id":11,"layer":"stop"}},{"type":"Feature","geometry":{"type":"Point","coordinates":[31.242043,29.981986]},"properties":{"name":"Dar El-Salam","original_ids":"[13, 74]","id":12,"layer":"stop"}},{"type":"Feature","geometry":{"type":"Point","coordinates":[31.231234,29.995539]},"properties":{"name":"El-Zahraa'","original_ids":"[14, 75]","id":13,"layer":"stop"}},{"type":"Feature","geometry":{"type":"Point","coordinates":[31.229582,30.006168]},"properties":{"name":"Mar Girgis","original_ids":"[15, 76]","id":14,"layer":"stop"}},{"type":"Feature","geometry":{"type":"Point","coordinates":[31.231175,30.017716]},"properties":{"name":"El-Malek El-Saleh","original_ids":"[16, 77]","id":15,"layer":"stop"}},{"type":"Feature","geometry":{"type":"Point","coordinates":[31.235429,30.02924]},"properties":{"name":"Al-Sayeda Zeinab","original_ids":"[17, 78]","id":16,"layer":"stop"}},{"type":"Feature","geometry":{"type":"Point","coordinates":[31.237822,30.035667]},"properties":{"name":"Saad Zaghloul","original_ids":"[18, 79]","id":17,"layer":"stop"}},{"type":"Feature","geometry":{"type":"Point","coordinates":[31.23566,30.043924]},"properties":{"name":"Sadat","original_ids":"[19, 80, 186, 187]","id":18,"layer":"stop"}},{"type":"Feature","geometry":{"type":"Point","coordinates":[31.238648,30.053457]},"properties":{"name":"Nasser","original_ids":"[20, 81]","id":19,"layer":"stop"}},{"type":"Feature","geometry":{"type":"Point","coordinates":[31.242306,30.057027]},"properties":{"name":"Orabi","original_ids":"[21, 82]","id":20,"layer":"stop"}},{"type":"Feature","geometry":{"type":"Point","coordinates":[31.246287,30.061639]},"properties":{"name":"Al-Shohadaa","original_ids":"[22, 83, 189, 188]","id":21,"layer":"stop"}},{"type":"Feature","geometry":{"type":"Point","coordinates":[31.264676,30.068932]},"properties":{"name":"Ghamra","original_ids":"[23, 84]","id":22,"layer":"stop"}},{"type":"Feature","geometry":{"type":"Point","coordinates":[31.277862,30.077195]},"properties":{"name":"El-Demerdash","original_ids":"[24, 85]","id":23,"layer":"stop"}},{"type":"Feature","geometry":{"type":"Point","coordinates":[31.28755,30.081981]},"properties":{"name":"Manshiet El-Sadr","original_ids":"[25, 86]","id":24,"layer":"stop"}},{"type":"Feature","geometry":{"type":"Point","coordinates":[31.294132,30.087198]},"properties":{"name":"Kobri El-Qobba","original_ids":"[26, 87]","id":25,"layer":"stop"}},{"type":"Feature","geometry":{"type":"Point","coordinates":[31.299008,30.09119]},"properties":{"name":"Hammamat El-Qobba","original_ids":"[27, 88]","id":26,"layer":"stop"}},{"type":"Feature","geometry":{"type":"Point","coordinates":[31.304469,30.09772]},"properties":{"name":"Saray El-Qobba","original_ids":"[28, 89]","id":27,"layer":"stop"}},{"type":"Feature","geometry":{"type":"Point","coordinates":[31.310397,30.105958]},"properties":{"name":"Hadayeq El-Zaitoun","original_ids":"[29, 90]","id":28,"layer":"stop"}},{"type":"Feature","geometry":{"type":"Point","coordinates":[31.313996,30.113248]},"properties":{"name":"Helmeyet El-Zaitoun","original_ids":"[30, 91]","id":29,"layer":"stop"}},{"type":"Feature","geometry":{"type":"Point","coordinates":[31.313734,30.120895]},"properties":{"name":"El-Matareyya","original_ids":"[31, 92]","id":30,"layer":"stop"}},{"type":"Feature","geometry":{"type":"Point","coordinates":[31.319125,30.131001]},"properties":{"name":"Ain Shams","original_ids":"[32, 93]","id":31,"layer":"stop"}},{"type":"Feature","geometry":{"type":"Point","coordinates":[31.324623,30.139222]},"properties":{"name":"Ezbet El-Nakhl","original_ids":"[33, 94]","id":32,"layer":"stop"}},{"type":"Feature","geometry":{"type":"Point","coordinates":[31.335813,30.152113]},"properties":{"name":"El-Marg","original_ids":"[34, 95]","id":33,"layer":"stop"}},{"type":"Feature","geometry":{"type":"Point","coordinates":[31.338335,30.163551]},"properties":{"name":"New El-Marg","original_ids":"[35, 96]","id":34,"layer":"stop"}},{"type":"Feature","geometry":{"type":"Point","coordinates":[31.246966,30.053135]},"properties":{"name":"Attaba","original_ids":"[184, 185, 106, 45]","id":35,"layer":"stop"}},{"type":"Feature","geometry":{"type":"Point","coordinates":[31.256018,30.053903]},"properties":{"name":"Bab El-Shaaria","original_ids":"[60, 121]","id":36,"layer":"stop"}},{"type":"Feature","geometry":{"type":"Point","coordinates":[31.26696,30.061716]},"properties":{"name":"El-Geish","original_ids":"[59, 120]","id":37,"layer":"stop"}},{"type":"Feature","geometry":{"type":"Point","coordinates":[31.274853,30.064673]},"properties":{"name":"Abdou Pasha","original_ids":"[58, 119]","id":38,"layer":"stop"}},{"type":"Feature","geometry":{"type":"Point","coordinates":[31.28078,30.069762]},"properties":{"name":"Abbassiya","original_ids":"[57, 118]","id":39,"layer":"stop"}},{"type":"Feature","geometry":{"type":"Point","coordinates":[31.30063,30.072963]},"properties":{"name":"Fair Zone","original_ids":"[53, 114]","id":40,"layer":"stop"}},{"type":"Feature","geometry":{"type":"Point","coordinates":[31.317338,30.072742]},"properties":{"name":"Stadium","original_ids":"[55, 116]","id":41,"layer":"stop"}},{"type":"Feature","geometry":{"type":"Point","coordinates":[31.329012,30.084163]},"properties":{"name":"Koleyet El-Banat","original_ids":"[54, 115]","id":42,"layer":"stop"}},{"type":"Feature","geometry":{"type":"Point","coordinates":[31.326345,30.09183]},"properties":{"name":"Al-Ahram","original_ids":"[56, 117]","id":43,"layer":"stop"}},{"type":"Feature","geometry":{"type":"Point","coordinates":[31.244688,30.122515]},"properties":{"name":"Shubra El-Kheima","original_ids":"[113, 52]","id":44,"layer":"stop"}},{"type":"Feature","geometry":{"type":"Point","coordinates":[31.248754,30.113661]},"properties":{"name":"Kolleyyet El-Zeraa","original_ids":"[112, 51]","id":45,"layer":"stop"}},{"type":"Feature","geometry":{"type":"Point","coordinates":[31.245568,30.104073]},"properties":{"name":"Mezallat","original_ids":"[111, 50]","id":46,"layer":"stop"}},{"type":"Feature","geometry":{"type":"Point","coordinates":[31.244999,30.097845]},"properties":{"name":"Khalafawy","original_ids":"[110, 49]","id":47,"layer":"stop"}},{"type":"Feature","geometry":{"type":"Point","coordinates":[31.245493,30.087957]},"properties":{"name":"St. Teresa","original_ids":"[109, 48]","id":48,"layer":"stop"}},{"type":"Feature","geometry":{"type":"Point","coordinates":[31.245401,30.080588]},"properties":{"name":"Rod El Farag","original_ids":"[108, 47]","id":49,"layer":"stop"}},{"type":"Feature","geometry":{"type":"Point","coordinates":[31.245101,30.070895]},"properties":{"name":"Masarra","original_ids":"[107, 46]","id":50,"layer":"stop"}},{"type":"Feature","geometry":{"type":"Point","coordinates":[31.244152,30.04534]},"properties":{"name":"Mohamed Naguib","original_ids":"[105, 44]","id":51,"layer":"stop"}},{"type":"Feature","geometry":{"type":"Point","coordinates":[31.22499,30.041932]},"properties":{"name":"Opera","original_ids":"[104, 43]","id":52,"layer":"stop"}},{"type":"Feature","geometry":{"type":"Point","coordinates":[31.212243,30.038466]},"properties":{"name":"Dokki","original_ids":"[103, 42]","id":53,"layer":"stop"}},{"type":"Feature","geometry":{"type":"Point","coordinates":[31.200255,30.03584]},"properties":{"name":"Bohooth","original_ids":"[102, 41]","id":54,"layer":"stop"}},{"type":"Feature","geometry":{"type":"Point","coordinates":[31.200872,30.026151]},"properties":{"name":"Cairo University","original_ids":"[101, 40]","id":55,"layer":"stop"}},{"type":"Feature","geometry":{"type":"Point","coordinates":[31.203747,30.017493]},"properties":{"name":"Faisal","original_ids":"[100, 39]","id":56,"layer":"stop"}},{"type":"Feature","geometry":{"type":"Point","coordinates":[31.207051,30.010656]},"properties":{"name":"El-Giza","original_ids":"[99, 38]","id":57,"layer":"stop"}},{"type":"Feature","geometry":{"type":"Point","coordinates":[31.208135,30.005992]},"properties":{"name":"Omm El-Misryeen","original_ids":"[122, 61]","id":58,"layer":"stop"}},{"type":"Feature","geometry":{"type":"Point","coordinates":[31.208489,29.995567]},"properties":{"name":"Sakiat Mekki","original_ids":"[98, 37]","id":59,"layer":"stop"}},{"type":"Feature","geometry":{"type":"Point","coordinates":[31.212308,29.981033]},"properties":{"name":"El-Mounib","original_ids":"[97, 36]","id":60,"layer":"stop"}},{"type":"Feature","properties":{"shape_id":"{}","direction_id":"{\"0\": 436}","headsign":"{}","duration_avg":135.0,"n_vehicles":436,"d":1773,"route_I_counts":"{\"1\": 436}","source":0,"target":1,"layer":"L","from":"Helwan","to":"Ain Helwan"},"geometry":{"type":"LineString","coordinates":[[31.334252,29.848824],[31.325026,29.862604]]}},{"type":"Feature","properties":{"shape_id":"{}","direction_id":"{\"0\": 435}","headsign":"{}","duration_avg":135.0,"n_vehicles":435,"d":903,"route_I_counts":"{\"1\": 435}","source":1,"target":2,"layer":"L","from":"Ain Helwan","to":"Helwan University"},"geometry":{"type":"LineString","coordinates":[[31.325026,29.862604],[31.320004,29.869452]]}},{"type":"Feature","properties":{"duration_avg":135.0,"n_vehicles":400,"d":1773,"route_I_counts":"{\"1\": 400}","shape_id":"{}","direction_id":"{\"1\": 400}","headsign":"{}","source":1,"target":0,"layer":"L","from":"Ain Helwan","to":"Helwan"},"geometry":{"type":"LineString","coordinates":[[31.325026,29.862604],[31.334252,29.848824]]}},{"type":"Feature","properties":{"shape_id":"{}","direction_id":"{\"0\": 434}","headsign":"{}","duration_avg":135.0,"n_vehicles":434,"d":1242,"route_I_counts":"{\"1\": 434}","source":2,"target":3,"layer":"L","from":"Helwan University","to":"Wadi Hof"},"geometry":{"type":"LineString","coordinates":[[31.320004,29.869452],[31.313438,29.879053]]}},{"type":"Feature","properties":{"duration_avg":135.0,"n_vehicles":401,"d":903,"route_I_counts":"{\"1\": 401}","shape_id":"{}","direction_id":"{\"1\": 401}","headsign":"{}","source":2,"target":1,"layer":"L","from":"Helwan University","to":"Ain Helwan"},"geometry":{"type":"LineString","coordinates":[[31.320004,29.869452],[31.325026,29.862604]]}},{"type":"Feature","properties":{"shape_id":"{}","direction_id":"{\"0\": 432}","headsign":"{}","duration_avg":135.0,"n_vehicles":432,"d":2213,"route_I_counts":"{\"1\": 432}","source":3,"target":4,"layer":"L","from":"Wadi Hof","to":"Hadayek Helwan"},"geometry":{"type":"LineString","coordinates":[[31.313438,29.879053],[31.30404,29.897192]]}},{"type":"Feature","properties":{"duration_avg":135.0,"n_vehicles":402,"d":1242,"route_I_counts":"{\"1\": 402}","shape_id":"{}","direction_id":"{\"1\": 402}","headsign":"{}","source":3,"target":2,"layer":"L","from":"Wadi Hof","to":"Helwan University"},"geometry":{"type":"LineString","coordinates":[[31.313438,29.879053],[31.320004,29.869452]]}},{"type":"Feature","properties":{"shape_id":"{}","direction_id":"{\"0\": 431}","headsign":"{}","duration_avg":135.0,"n_vehicles":431,"d":1109,"route_I_counts":"{\"1\": 431}","source":4,"target":5,"layer":"L","from":"Hadayek Helwan","to":"El-Maasara"},"geometry":{"type":"LineString","coordinates":[[31.30404,29.897192],[31.299534,29.906362]]}},{"type":"Feature","properties":{"duration_avg":135.0,"n_vehicles":403,"d":2213,"route_I_counts":"{\"1\": 403}","shape_id":"{}","direction_id":"{\"1\": 403}","headsign":"{}","source":4,"target":3,"layer":"L","from":"Hadayek Helwan","to":"Wadi Hof"},"geometry":{"type":"LineString","coordinates":[[31.30404,29.897192],[31.313438,29.879053]]}},{"type":"Feature","properties":{"shape_id":"{}","direction_id":"{\"0\": 430}","headsign":"{}","duration_avg":135.0,"n_vehicles":430,"d":2469,"route_I_counts":"{\"1\": 430}","source":5,"target":6,"layer":"L","from":"El-Maasara","to":"Tora El-Asmant"},"geometry":{"type":"LineString","coordinates":[[31.299534,29.906362],[31.28755,29.925965]]}},{"type":"Feature","properties":{"duration_avg":135.0,"n_vehicles":404,"d":1109,"route_I_counts":"{\"1\": 404}","shape_id":"{}","direction_id":"{\"1\": 404}","headsign":"{}","source":5,"target":4,"layer":"L","from":"El-Maasara","to":"Hadayek Helwan"},"geometry":{"type":"LineString","coordinates":[[31.299534,29.906362],[31.30404,29.897192]]}},{"type":"Feature","properties":{"shape_id":"{}","direction_id":"{\"0\": 429}","headsign":"{}","duration_avg":135.0,"n_vehicles":429,"d":1308,"route_I_counts":"{\"1\": 429}","source":6,"target":7,"layer":"L","from":"Tora El-Asmant","to":"Kozzika"},"geometry":{"type":"LineString","coordinates":[[31.28755,29.925965],[31.281424,29.936453]]}},{"type":"Feature","properties":{"duration_avg":135.0,"n_vehicles":405,"d":2469,"route_I_counts":"{\"1\": 405}","shape_id":"{}","direction_id":"{\"1\": 405}","headsign":"{}","source":6,"target":5,"layer":"L","from":"Tora El-Asmant","to":"El-Maasara"},"geometry":{"type":"LineString","coordinates":[[31.28755,29.925965],[31.299534,29.906362]]}},{"type":"Feature","properties":{"shape_id":"{}","direction_id":"{\"0\": 428}","headsign":"{}","duration_avg":135.0,"n_vehicles":428,"d":1408,"route_I_counts":"{\"1\": 428}","source":7,"target":8,"layer":"L","from":"Kozzika","to":"Tora El-Balad"},"geometry":{"type":"LineString","coordinates":[[31.281424,29.936453],[31.272883,29.946717]]}},{"type":"Feature","properties":{"duration_avg":135.0,"n_vehicles":406,"d":1308,"route_I_counts":"{\"1\": 406}","shape_id":"{}","direction_id":"{\"1\": 406}","headsign":"{}","source":7,"target":6,"layer":"L","from":"Kozzika","to":"Tora El-Asmant"},"geometry":{"type":"LineString","coordinates":[[31.281424,29.936453],[31.28755,29.925965]]}},{"type":"Feature","properties":{"shape_id":"{}","direction_id":"{\"0\": 427}","headsign":"{}","duration_avg":135.0,"n_vehicles":427,"d":1205,"route_I_counts":"{\"1\": 427}","source":8,"target":9,"layer":"L","from":"Tora El-Balad","to":"Sakanat El-Maadi"},"geometry":{"type":"LineString","coordinates":[[31.272883,29.946717],[31.262965,29.953308]]}},{"type":"Feature","properties":{"duration_avg":135.0,"n_vehicles":407,"d":1408,"route_I_counts":"{\"1\": 407}","shape_id":"{}","direction_id":"{\"1\": 407}","headsign":"{}","source":8,"target":7,"layer":"L","from":"Tora El-Balad","to":"Kozzika"},"geometry":{"type":"LineString","coordinates":[[31.272883,29.946717],[31.281424,29.936453]]}},{"type":"Feature","properties":{"shape_id":"{}","direction_id":"{\"0\": 426}","headsign":"{}","duration_avg":135.0,"n_vehicles":426,"d":927,"route_I_counts":"{\"1\": 426}","source":9,"target":10,"layer":"L","from":"Sakanat El-Maadi","to":"Maadi"},"geometry":{"type":"LineString","coordinates":[[31.262965,29.953308],[31.257734,29.960298]]}},{"type":"Feature","properties":{"duration_avg":135.0,"n_vehicles":408,"d":1205,"route_I_counts":"{\"1\": 408}","shape_id":"{}","direction_id":"{\"1\": 408}","headsign":"{}","source":9,"target":8,"layer":"L","from":"Sakanat El-Maadi","to":"Tora El-Balad"},"geometry":{"type":"LineString","coordinates":[[31.262965,29.953308],[31.272883,29.946717]]}},{"type":"Feature","properties":{"shape_id":"{}","direction_id":"{\"0\": 425}","headsign":"{}","duration_avg":135.0,"n_vehicles":425,"d":1248,"route_I_counts":"{\"1\": 425}","source":10,"target":11,"layer":"L","from":"Maadi","to":"Hadayek El-Maadi"},"geometry":{"type":"LineString","coordinates":[[31.257734,29.960298],[31.25083,29.969783]]}},{"type":"Feature","properties":{"duration_avg":135.0,"n_vehicles":409,"d":927,"route_I_counts":"{\"1\": 409}","shape_id":"{}","direction_id":"{\"1\": 409}","headsign":"{}","source":10,"target":9,"layer":"L","from":"Maadi","to":"Sakanat El-Maadi"},"geometry":{"type":"LineString","coordinates":[[31.257734,29.960298],[31.262965,29.953308]]}},{"type":"Feature","properties":{"shape_id":"{}","direction_id":"{\"0\": 424}","headsign":"{}","duration_avg":135.0,"n_vehicles":424,"d":1600,"route_I_counts":"{\"1\": 424}","source":11,"target":12,"layer":"L","from":"Hadayek El-Maadi","to":"Dar El-Salam"},"geometry":{"type":"LineString","coordinates":[[31.25083,29.969783],[31.242043,29.981986]]}},{"type":"Feature","properties":{"duration_avg":135.0,"n_vehicles":410,"d":1248,"route_I_counts":"{\"1\": 410}","shape_id":"{}","direction_id":"{\"1\": 410}","headsign":"{}","source":11,"target":10,"layer":"L","from":"Hadayek El-Maadi","to":"Maadi"},"geometry":{"type":"LineString","coordinates":[[31.25083,29.969783],[31.257734,29.960298]]}},{"type":"Feature","properties":{"shape_id":"{}","direction_id":"{\"0\": 423}","headsign":"{}","duration_avg":135.0,"n_vehicles":423,"d":1833,"route_I_counts":"{\"1\": 423}","source":12,"target":13,"layer":"L","from":"Dar El-Salam","to":"El-Zahraa'"},"geometry":{"type":"LineString","coordinates":[[31.242043,29.981986],[31.231234,29.995539]]}},{"type":"Feature","properties":{"duration_avg":135.0,"n_vehicles":412,"d":1600,"route_I_counts":"{\"1\": 412}","shape_id":"{}","direction_id":"{\"1\": 412}","headsign":"{}","source":12,"target":11,"layer":"L","from":"Dar El-Salam","to":"Hadayek El-Maadi"},"geometry":{"type":"LineString","coordinates":[[31.242043,29.981986],[31.25083,29.969783]]}},{"type":"Feature","properties":{"shape_id":"{}","direction_id":"{\"0\": 421}","headsign":"{}","duration_avg":135.0,"n_vehicles":421,"d":1193,"route_I_counts":"{\"1\": 421}","source":13,"target":14,"layer":"L","from":"El-Zahraa'","to":"Mar Girgis"},"geometry":{"type":"LineString","coordinates":[[31.231234,29.995539],[31.229582,30.006168]]}},{"type":"Feature","properties":{"duration_avg":135.0,"n_vehicles":413,"d":1833,"route_I_counts":"{\"1\": 413}","shape_id":"{}","direction_id":"{\"1\": 413}","headsign":"{}","source":13,"target":12,"layer":"L","from":"El-Zahraa'","to":"Dar El-Salam"},"geometry":{"type":"LineString","coordinates":[[31.231234,29.995539],[31.242043,29.981986]]}},{"type":"Feature","properties":{"shape_id":"{}","direction_id":"{\"0\": 420}","headsign":"{}","duration_avg":135.0,"n_vehicles":420,"d":1294,"route_I_counts":"{\"1\": 420}","source":14,"target":15,"layer":"L","from":"Mar Girgis","to":"El-Malek El-Saleh"},"geometry":{"type":"LineString","coordinates":[[31.229582,30.006168],[31.231175,30.017716]]}},{"type":"Feature","properties":{"duration_avg":135.0,"n_vehicles":414,"d":1193,"route_I_counts":"{\"1\": 414}","shape_id":"{}","direction_id":"{\"1\": 414}","headsign":"{}","source":14,"target":13,"layer":"L","from":"Mar Girgis","to":"El-Zahraa'"},"geometry":{"type":"LineString","coordinates":[[31.229582,30.006168],[31.231234,29.995539]]}},{"type":"Feature","properties":{"shape_id":"{}","direction_id":"{\"0\": 419}","headsign":"{}","duration_avg":135.0,"n_vehicles":419,"d":1346,"route_I_counts":"{\"1\": 419}","source":15,"target":16,"layer":"L","from":"El-Malek El-Saleh","to":"Al-Sayeda Zeinab"},"geometry":{"type":"LineString","coordinates":[[31.231175,30.017716],[31.235429,30.02924]]}},{"type":"Feature","properties":{"duration_avg":135.0,"n_vehicles":415,"d":1294,"route_I_counts":"{\"1\": 415}","shape_id":"{}","direction_id":"{\"1\": 415}","headsign":"{}","source":15,"target":14,"layer":"L","from":"El-Malek El-Saleh","to":"Mar Girgis"},"geometry":{"type":"LineString","coordinates":[[31.231175,30.017716],[31.229582,30.006168]]}},{"type":"Feature","properties":{"shape_id":"{}","direction_id":"{\"0\": 418}","headsign":"{}","duration_avg":135.0,"n_vehicles":418,"d":751,"route_I_counts":"{\"1\": 418}","source":16,"target":17,"layer":"L","from":"Al-Sayeda Zeinab","to":"Saad Zaghloul"},"geometry":{"type":"LineString","coordinates":[[31.235429,30.02924],[31.237822,30.035667]]}},{"type":"Feature","properties":{"duration_avg":135.0,"n_vehicles":416,"d":1346,"route_I_counts":"{\"1\": 416}","shape_id":"{}","direction_id":"{\"1\": 416}","headsign":"{}","source":16,"target":15,"layer":"L","from":"Al-Sayeda Zeinab","to":"El-Malek El-Saleh"},"geometry":{"type":"LineString","coordinates":[[31.235429,30.02924],[31.231175,30.017716]]}},{"type":"Feature","properties":{"shape_id":"{}","direction_id":"{\"0\": 417}","headsign":"{}","duration_avg":135.0,"n_vehicles":417,"d":942,"route_I_counts":"{\"1\": 417}","source":17,"target":18,"layer":"L","from":"Saad Zaghloul","to":"Sadat"},"geometry":{"type":"LineString","coordinates":[[31.237822,30.035667],[31.23566,30.043924]]}},{"type":"Feature","properties":{"duration_avg":135.0,"n_vehicles":417,"d":751,"route_I_counts":"{\"1\": 417}","shape_id":"{}","direction_id":"{\"1\": 417}","headsign":"{}","source":17,"target":16,"layer":"L","from":"Saad Zaghloul","to":"Al-Sayeda Zeinab"},"geometry":{"type":"LineString","coordinates":[[31.237822,30.035667],[31.235429,30.02924]]}},{"type":"Feature","properties":{"shape_id":"{}","direction_id":"{\"0\": 416}","headsign":"{}","duration_avg":135.0,"n_vehicles":416,"d":1099,"route_I_counts":"{\"1\": 416}","source":18,"target":19,"layer":"L","from":"Sadat","to":"Nasser"},"geometry":{"type":"LineString","coordinates":[[31.23566,30.043924],[31.238648,30.053457]]}},{"type":"Feature","properties":{"duration_avg":135.0,"n_vehicles":418,"d":942,"route_I_counts":"{\"1\": 418}","shape_id":"{}","direction_id":"{\"1\": 418}","headsign":"{}","source":18,"target":17,"layer":"L","from":"Sadat","to":"Saad Zaghloul"},"geometry":{"type":"LineString","coordinates":[[31.23566,30.043924],[31.237822,30.035667]]}},{"type":"Feature","properties":{"duration_avg":135.0,"n_vehicles":539,"d":1051,"route_I_counts":"{\"3\": 539}","shape_id":"{}","direction_id":"{\"0\": 539}","headsign":"{}","source":18,"target":52,"layer":"L","from":"Sadat","to":"Opera"},"geometry":{"type":"LineString","coordinates":[[31.23566,30.043924],[31.22499,30.041932]]}},{"type":"Feature","properties":{"duration_avg":135.0,"n_vehicles":540,"d":833,"route_I_counts":"{\"3\": 540}","shape_id":"{}","direction_id":"{\"1\": 540}","headsign":"{}","source":18,"target":51,"layer":"L","from":"Sadat","to":"Mohamed Naguib"},"geometry":{"type":"LineString","coordinates":[[31.23566,30.043924],[31.244152,30.04534]]}},{"type":"Feature","properties":{"shape_id":"{}","direction_id":"{\"0\": 415}","headsign":"{}","duration_avg":135.0,"n_vehicles":415,"d":531,"route_I_counts":"{\"1\": 415}","source":19,"target":20,"layer":"L","from":"Nasser","to":"Orabi"},"geometry":{"type":"LineString","coordinates":[[31.238648,30.053457],[31.242306,30.057027]]}},{"type":"Feature","properties":{"duration_avg":135.0,"n_vehicles":419,"d":1099,"route_I_counts":"{\"1\": 419}","shape_id":"{}","direction_id":"{\"1\": 419}","headsign":"{}","source":19,"target":18,"layer":"L","from":"Nasser","to":"Sadat"},"geometry":{"type":"LineString","coordinates":[[31.238648,30.053457],[31.23566,30.043924]]}},{"type":"Feature","properties":{"shape_id":"{}","direction_id":"{\"0\": 414}","headsign":"{}","duration_avg":135.0,"n_vehicles":414,"d":640,"route_I_counts":"{\"1\": 414}","source":20,"target":21,"layer":"L","from":"Orabi","to":"Al-Shohadaa"},"geometry":{"type":"LineString","coordinates":[[31.242306,30.057027],[31.246287,30.061639]]}},{"type":"Feature","properties":{"duration_avg":135.0,"n_vehicles":420,"d":531,"route_I_counts":"{\"1\": 420}","shape_id":"{}","direction_id":"{\"1\": 420}","headsign":"{}","source":20,"target":19,"layer":"L","from":"Orabi","to":"Nasser"},"geometry":{"type":"LineString","coordinates":[[31.242306,30.057027],[31.238648,30.053457]]}},{"type":"Feature","properties":{"shape_id":"{}","direction_id":"{\"0\": 413}","headsign":"{}","duration_avg":135.0,"n_vehicles":413,"d":1948,"route_I_counts":"{\"1\": 413}","source":21,"target":22,"layer":"L","from":"Al-Shohadaa","to":"Ghamra"},"geometry":{"type":"LineString","coordinates":[[31.246287,30.061639],[31.264676,30.068932]]}},{"type":"Feature","properties":{"duration_avg":135.0,"n_vehicles":543,"d":1116,"route_I_counts":"{\"3\": 543}","shape_id":"{}","direction_id":"{\"0\": 543}","headsign":"{}","source":21,"target":35,"layer":"L","from":"Al-Shohadaa","to":"Attaba"},"geometry":{"type":"LineString","coordinates":[[31.246287,30.061639],[31.246966,30.053135]]}},{"type":"Feature","properties":{"duration_avg":135.0,"n_vehicles":536,"d":957,"route_I_counts":"{\"3\": 536}","shape_id":"{}","direction_id":"{\"1\": 536}","headsign":"{}","source":21,"target":50,"layer":"L","from":"Al-Shohadaa","to":"Masarra"},"geometry":{"type":"LineString","coordinates":[[31.246287,30.061639],[31.245101,30.070895]]}},{"type":"Feature","properties":{"duration_avg":135.0,"n_vehicles":421,"d":640,"route_I_counts":"{\"1\": 421}","shape_id":"{}","direction_id":"{\"1\": 421}","headsign":"{}","source":21,"target":20,"layer":"L","from":"Al-Shohadaa","to":"Orabi"},"geometry":{"type":"LineString","coordinates":[[31.246287,30.061639],[31.242306,30.057027]]}},{"type":"Feature","properties":{"shape_id":"{}","direction_id":"{\"0\": 412}","headsign":"{}","duration_avg":135.0,"n_vehicles":412,"d":1568,"route_I_counts":"{\"1\": 412}","source":22,"target":23,"layer":"L","from":"Ghamra","to":"El-Demerdash"},"geometry":{"type":"LineString","coordinates":[[31.264676,30.068932],[31.277862,30.077195]]}},{"type":"Feature","properties":{"duration_avg":135.0,"n_vehicles":423,"d":1948,"route_I_counts":"{\"1\": 423}","shape_id":"{}","direction_id":"{\"1\": 423}","headsign":"{}","source":22,"target":21,"layer":"L","from":"Ghamra","to":"Al-Shohadaa"},"geometry":{"type":"LineString","coordinates":[[31.264676,30.068932],[31.246287,30.061639]]}},{"type":"Feature","properties":{"shape_id":"{}","direction_id":"{\"0\": 410}","headsign":"{}","duration_avg":135.0,"n_vehicles":410,"d":1074,"route_I_counts":"{\"1\": 410}","source":23,"target":24,"layer":"L","from":"El-Demerdash","to":"Manshiet El-Sadr"},"geometry":{"type":"LineString","coordinates":[[31.277862,30.077195],[31.28755,30.081981]]}},{"type":"Feature","properties":{"duration_avg":135.0,"n_vehicles":424,"d":1568,"route_I_counts":"{\"1\": 424}","shape_id":"{}","direction_id":"{\"1\": 424}","headsign":"{}","source":23,"target":22,"layer":"L","from":"El-Demerdash","to":"Ghamra"},"geometry":{"type":"LineString","coordinates":[[31.277862,30.077195],[31.264676,30.068932]]}},{"type":"Feature","properties":{"shape_id":"{}","direction_id":"{\"0\": 409}","headsign":"{}","duration_avg":135.0,"n_vehicles":409,"d":859,"route_I_counts":"{\"1\": 409}","source":24,"target":25,"layer":"L","from":"Manshiet El-Sadr","to":"Kobri El-Qobba"},"geometry":{"type":"LineString","coordinates":[[31.28755,30.081981],[31.294132,30.087198]]}},{"type":"Feature","properties":{"duration_avg":135.0,"n_vehicles":425,"d":1074,"route_I_counts":"{\"1\": 425}","shape_id":"{}","direction_id":"{\"1\": 425}","headsign":"{}","source":24,"target":23,"layer":"L","from":"Manshiet El-Sadr","to":"El-Demerdash"},"geometry":{"type":"LineString","coordinates":[[31.28755,30.081981],[31.277862,30.077195]]}},{"type":"Feature","properties":{"shape_id":"{}","direction_id":"{\"0\": 408}","headsign":"{}","duration_avg":135.0,"n_vehicles":408,"d":646,"route_I_counts":"{\"1\": 408}","source":25,"target":26,"layer":"L","from":"Kobri El-Qobba","to":"Hammamat El-Qobba"},"geometry":{"type":"LineString","coordinates":[[31.294132,30.087198],[31.299008,30.09119]]}},{"type":"Feature","properties":{"duration_avg":135.0,"n_vehicles":426,"d":859,"route_I_counts":"{\"1\": 426}","shape_id":"{}","direction_id":"{\"1\": 426}","headsign":"{}","source":25,"target":24,"layer":"L","from":"Kobri El-Qobba","to":"Manshiet El-Sadr"},"geometry":{"type":"LineString","coordinates":[[31.294132,30.087198],[31.28755,30.081981]]}},{"type":"Feature","properties":{"shape_id":"{}","direction_id":"{\"0\": 407}","headsign":"{}","duration_avg":135.0,"n_vehicles":407,"d":897,"route_I_counts":"{\"1\": 407}","source":26,"target":27,"layer":"L","from":"Hammamat El-Qobba","to":"Saray El-Qobba"},"geometry":{"type":"LineString","coordinates":[[31.299008,30.09119],[31.304469,30.09772]]}},{"type":"Feature","properties":{"duration_avg":135.0,"n_vehicles":427,"d":646,"route_I_counts":"{\"1\": 427}","shape_id":"{}","direction_id":"{\"1\": 427}","headsign":"{}","source":26,"target":25,"layer":"L","from":"Hammamat El-Qobba","to":"Kobri El-Qobba"},"geometry":{"type":"LineString","coordinates":[[31.299008,30.09119],[31.294132,30.087198]]}},{"type":"Feature","properties":{"shape_id":"{}","direction_id":"{\"0\": 406}","headsign":"{}","duration_avg":135.0,"n_vehicles":406,"d":1080,"route_I_counts":"{\"1\": 406}","source":27,"target":28,"layer":"L","from":"Saray El-Qobba","to":"Hadayeq El-Zaitoun"},"geometry":{"type":"LineString","coordinates":[[31.304469,30.09772],[31.310397,30.105958]]}},{"type":"Feature","properties":{"duration_avg":135.0,"n_vehicles":428,"d":897,"route_I_counts":"{\"1\": 428}","shape_id":"{}","direction_id":"{\"1\": 428}","headsign":"{}","source":27,"target":26,"layer":"L","from":"Saray El-Qobba","to":"Hammamat El-Qobba"},"geometry":{"type":"LineString","coordinates":[[31.304469,30.09772],[31.299008,30.09119]]}},{"type":"Feature","properties":{"shape_id":"{}","direction_id":"{\"0\": 405}","headsign":"{}","duration_avg":135.0,"n_vehicles":405,"d":882,"route_I_counts":"{\"1\": 405}","source":28,"target":29,"layer":"L","from":"Hadayeq El-Zaitoun","to":"Helmeyet El-Zaitoun"},"geometry":{"type":"LineString","coordinates":[[31.310397,30.105958],[31.313996,30.113248]]}},{"type":"Feature","properties":{"duration_avg":135.0,"n_vehicles":429,"d":1080,"route_I_counts":"{\"1\": 429}","shape_id":"{}","direction_id":"{\"1\": 429}","headsign":"{}","source":28,"target":27,"layer":"L","from":"Hadayeq El-Zaitoun","to":"Saray El-Qobba"},"geometry":{"type":"LineString","coordinates":[[31.310397,30.105958],[31.304469,30.09772]]}},{"type":"Feature","properties":{"shape_id":"{}","direction_id":"{\"0\": 404}","headsign":"{}","duration_avg":135.0,"n_vehicles":404,"d":851,"route_I_counts":"{\"1\": 404}","source":29,"target":30,"layer":"L","from":"Helmeyet El-Zaitoun","to":"El-Matareyya"},"geometry":{"type":"LineString","coordinates":[[31.313996,30.113248],[31.313734,30.120895]]}},{"type":"Feature","properties":{"duration_avg":135.0,"n_vehicles":430,"d":882,"route_I_counts":"{\"1\": 430}","shape_id":"{}","direction_id":"{\"1\": 430}","headsign":"{}","source":29,"target":28,"layer":"L","from":"Helmeyet El-Zaitoun","to":"Hadayeq El-Zaitoun"},"geometry":{"type":"LineString","coordinates":[[31.313996,30.113248],[31.310397,30.105958]]}},{"type":"Feature","properties":{"shape_id":"{}","direction_id":"{\"0\": 403}","headsign":"{}","duration_avg":135.0,"n_vehicles":403,"d":1238,"route_I_counts":"{\"1\": 403}","source":30,"target":31,"layer":"L","from":"El-Matareyya","to":"Ain Shams"},"geometry":{"type":"LineString","coordinates":[[31.313734,30.120895],[31.319125,30.131001]]}},{"type":"Feature","properties":{"duration_avg":135.0,"n_vehicles":431,"d":851,"route_I_counts":"{\"1\": 431}","shape_id":"{}","direction_id":"{\"1\": 431}","headsign":"{}","source":30,"target":29,"layer":"L","from":"El-Matareyya","to":"Helmeyet El-Zaitoun"},"geometry":{"type":"LineString","coordinates":[[31.313734,30.120895],[31.313996,30.113248]]}},{"type":"Feature","properties":{"shape_id":"{}","direction_id":"{\"0\": 402}","headsign":"{}","duration_avg":135.0,"n_vehicles":402,"d":1057,"route_I_counts":"{\"1\": 402}","source":31,"target":32,"layer":"L","from":"Ain Shams","to":"Ezbet El-Nakhl"},"geometry":{"type":"LineString","coordinates":[[31.319125,30.131001],[31.324623,30.139222]]}},{"type":"Feature","properties":{"duration_avg":135.0,"n_vehicles":432,"d":1238,"route_I_counts":"{\"1\": 432}","shape_id":"{}","direction_id":"{\"1\": 432}","headsign":"{}","source":31,"target":30,"layer":"L","from":"Ain Shams","to":"El-Matareyya"},"geometry":{"type":"LineString","coordinates":[[31.319125,30.131001],[31.313734,30.120895]]}},{"type":"Feature","properties":{"shape_id":"{}","direction_id":"{\"0\": 401}","headsign":"{}","duration_avg":135.0,"n_vehicles":401,"d":1794,"route_I_counts":"{\"1\": 401}","source":32,"target":33,"layer":"L","from":"Ezbet El-Nakhl","to":"El-Marg"},"geometry":{"type":"LineString","coordinates":[[31.324623,30.139222],[31.335813,30.152113]]}},{"type":"Feature","properties":{"duration_avg":135.0,"n_vehicles":434,"d":1057,"route_I_counts":"{\"1\": 434}","shape_id":"{}","direction_id":"{\"1\": 434}","headsign":"{}","source":32,"target":31,"layer":"L","from":"Ezbet El-Nakhl","to":"Ain Shams"},"geometry":{"type":"LineString","coordinates":[[31.324623,30.139222],[31.319125,30.131001]]}},{"type":"Feature","properties":{"shape_id":"{}","direction_id":"{\"0\": 400}","headsign":"{}","duration_avg":135.0,"n_vehicles":400,"d":1296,"route_I_counts":"{\"1\": 400}","source":33,"target":34,"layer":"L","from":"El-Marg","to":"New El-Marg"},"geometry":{"type":"LineString","coordinates":[[31.335813,30.152113],[31.338335,30.163551]]}},{"type":"Feature","properties":{"duration_avg":135.0,"n_vehicles":435,"d":1794,"route_I_counts":"{\"1\": 435}","shape_id":"{}","direction_id":"{\"1\": 435}","headsign":"{}","source":33,"target":32,"layer":"L","from":"El-Marg","to":"Ezbet El-Nakhl"},"geometry":{"type":"LineString","coordinates":[[31.335813,30.152113],[31.324623,30.139222]]}},{"type":"Feature","properties":{"duration_avg":135.0,"n_vehicles":436,"d":1296,"route_I_counts":"{\"1\": 436}","shape_id":"{}","direction_id":"{\"1\": 436}","headsign":"{}","source":34,"target":33,"layer":"L","from":"New El-Marg","to":"El-Marg"},"geometry":{"type":"LineString","coordinates":[[31.338335,30.163551],[31.335813,30.152113]]}},{"type":"Feature","properties":{"shape_id":"{}","direction_id":"{\"0\": 355}","headsign":"{}","duration_avg":137.0,"n_vehicles":355,"d":876,"route_I_counts":"{\"2\": 355}","source":35,"target":36,"layer":"L","from":"Attaba","to":"Bab El-Shaaria"},"geometry":{"type":"LineString","coordinates":[[31.246966,30.053135],[31.256018,30.053903]]}},{"type":"Feature","properties":{"duration_avg":135.0,"n_vehicles":542,"d":821,"route_I_counts":"{\"3\": 542}","shape_id":"{}","direction_id":"{\"0\": 542}","headsign":"{}","source":35,"target":51,"layer":"L","from":"Attaba","to":"Mohamed Naguib"},"geometry":{"type":"LineString","coordinates":[[31.246966,30.053135],[31.244152,30.04534]]}},{"type":"Feature","properties":{"duration_avg":135.0,"n_vehicles":538,"d":1116,"route_I_counts":"{\"3\": 538}","shape_id":"{}","direction_id":"{\"1\": 538}","headsign":"{}","source":35,"target":21,"layer":"L","from":"Attaba","to":"Al-Shohadaa"},"geometry":{"type":"LineString","coordinates":[[31.246966,30.053135],[31.246287,30.061639]]}},{"type":"Feature","properties":{"shape_id":"{}","direction_id":"{\"0\": 354}","headsign":"{}","duration_avg":114.0,"n_vehicles":354,"d":1366,"route_I_counts":"{\"2\": 354}","source":36,"target":37,"layer":"L","from":"Bab El-Shaaria","to":"El-Geish"},"geometry":{"type":"LineString","coordinates":[[31.256018,30.053903],[31.26696,30.061716]]}},{"type":"Feature","properties":{"duration_avg":137.0,"n_vehicles":349,"d":876,"route_I_counts":"{\"2\": 349}","shape_id":"{}","direction_id":"{\"1\": 349}","headsign":"{}","source":36,"target":35,"layer":"L","from":"Bab El-Shaaria","to":"Attaba"},"geometry":{"type":"LineString","coordinates":[[31.256018,30.053903],[31.246966,30.053135]]}},{"type":"Feature","properties":{"shape_id":"{}","direction_id":"{\"0\": 354}","headsign":"{}","duration_avg":89.0,"n_vehicles":354,"d":828,"route_I_counts":"{\"2\": 354}","source":37,"target":38,"layer":"L","from":"El-Geish","to":"Abdou Pasha"},"geometry":{"type":"LineString","coordinates":[[31.26696,30.061716],[31.274853,30.064673]]}},{"type":"Feature","properties":{"duration_avg":114.0,"n_vehicles":350,"d":1366,"route_I_counts":"{\"2\": 350}","shape_id":"{}","direction_id":"{\"1\": 350}","headsign":"{}","source":37,"target":36,"layer":"L","from":"El-Geish","to":"Bab El-Shaaria"},"geometry":{"type":"LineString","coordinates":[[31.26696,30.061716],[31.256018,30.053903]]}},{"type":"Feature","properties":{"shape_id":"{}","direction_id":"{\"0\": 353}","headsign":"{}","duration_avg":102.0,"n_vehicles":353,"d":804,"route_I_counts":"{\"2\": 353}","source":38,"target":39,"layer":"L","from":"Abdou Pasha","to":"Abbassiya"},"geometry":{"type":"LineString","coordinates":[[31.274853,30.064673],[31.28078,30.069762]]}},{"type":"Feature","properties":{"duration_avg":89.0,"n_vehicles":351,"d":828,"route_I_counts":"{\"2\": 351}","shape_id":"{}","direction_id":"{\"1\": 351}","headsign":"{}","source":38,"target":37,"layer":"L","from":"Abdou Pasha","to":"El-Geish"},"geometry":{"type":"LineString","coordinates":[[31.274853,30.064673],[31.26696,30.061716]]}},{"type":"Feature","properties":{"shape_id":"{}","direction_id":"{\"0\": 352}","headsign":"{}","duration_avg":161.0,"n_vehicles":352,"d":1945,"route_I_counts":"{\"2\": 352}","source":39,"target":40,"layer":"L","from":"Abbassiya","to":"Fair Zone"},"geometry":{"type":"LineString","coordinates":[[31.28078,30.069762],[31.30063,30.072963]]}},{"type":"Feature","properties":{"duration_avg":102.0,"n_vehicles":351,"d":804,"route_I_counts":"{\"2\": 351}","shape_id":"{}","direction_id":"{\"1\": 351}","headsign":"{}","source":39,"target":38,"layer":"L","from":"Abbassiya","to":"Abdou Pasha"},"geometry":{"type":"LineString","coordinates":[[31.28078,30.069762],[31.274853,30.064673]]}},{"type":"Feature","properties":{"shape_id":"{}","direction_id":"{\"0\": 351}","headsign":"{}","duration_avg":154.0,"n_vehicles":351,"d":1609,"route_I_counts":"{\"2\": 351}","source":40,"target":41,"layer":"L","from":"Fair Zone","to":"Stadium"},"geometry":{"type":"LineString","coordinates":[[31.30063,30.072963],[31.317338,30.072742]]}},{"type":"Feature","properties":{"duration_avg":161.0,"n_vehicles":352,"d":1945,"route_I_counts":"{\"2\": 352}","shape_id":"{}","direction_id":"{\"1\": 352}","headsign":"{}","source":40,"target":39,"layer":"L","from":"Fair Zone","to":"Abbassiya"},"geometry":{"type":"LineString","coordinates":[[31.30063,30.072963],[31.28078,30.069762]]}},{"type":"Feature","properties":{"shape_id":"{}","direction_id":"{\"0\": 350}","headsign":"{}","duration_avg":125.0,"n_vehicles":350,"d":1697,"route_I_counts":"{\"2\": 350}","source":41,"target":42,"layer":"L","from":"Stadium","to":"Koleyet El-Banat"},"geometry":{"type":"LineString","coordinates":[[31.317338,30.072742],[31.329012,30.084163]]}},{"type":"Feature","properties":{"duration_avg":154.0,"n_vehicles":353,"d":1609,"route_I_counts":"{\"2\": 353}","shape_id":"{}","direction_id":"{\"1\": 353}","headsign":"{}","source":41,"target":40,"layer":"L","from":"Stadium","to":"Fair Zone"},"geometry":{"type":"LineString","coordinates":[[31.317338,30.072742],[31.30063,30.072963]]}},{"type":"Feature","properties":{"shape_id":"{}","direction_id":"{\"0\": 349}","headsign":"{}","duration_avg":165.0,"n_vehicles":349,"d":891,"route_I_counts":"{\"2\": 349}","source":42,"target":43,"layer":"L","from":"Koleyet El-Banat","to":"Al-Ahram"},"geometry":{"type":"LineString","coordinates":[[31.329012,30.084163],[31.326345,30.09183]]}},{"type":"Feature","properties":{"duration_avg":125.0,"n_vehicles":354,"d":1697,"route_I_counts":"{\"2\": 354}","shape_id":"{}","direction_id":"{\"1\": 354}","headsign":"{}","source":42,"target":41,"layer":"L","from":"Koleyet El-Banat","to":"Stadium"},"geometry":{"type":"LineString","coordinates":[[31.329012,30.084163],[31.317338,30.072742]]}},{"type":"Feature","properties":{"duration_avg":165.0,"n_vehicles":355,"d":891,"route_I_counts":"{\"2\": 355}","shape_id":"{}","direction_id":"{\"1\": 355}","headsign":"{}","source":43,"target":42,"layer":"L","from":"Al-Ahram","to":"Koleyet El-Banat"},"geometry":{"type":"LineString","coordinates":[[31.326345,30.09183],[31.329012,30.084163]]}},{"type":"Feature","properties":{"shape_id":"{}","direction_id":"{\"0\": 553}","headsign":"{}","duration_avg":135.0,"n_vehicles":553,"d":1060,"route_I_counts":"{\"3\": 553}","source":44,"target":45,"layer":"L","from":"Shubra El-Kheima","to":"Kolleyyet El-Zeraa"},"geometry":{"type":"LineString","coordinates":[[31.244688,30.122515],[31.248754,30.113661]]}},{"type":"Feature","properties":{"shape_id":"{}","direction_id":"{\"0\": 552}","headsign":"{}","duration_avg":135.0,"n_vehicles":552,"d":1110,"route_I_counts":"{\"3\": 552}","source":45,"target":46,"layer":"L","from":"Kolleyyet El-Zeraa","to":"Mezallat"},"geometry":{"type":"LineString","coordinates":[[31.248754,30.113661],[31.245568,30.104073]]}},{"type":"Feature","properties":{"duration_avg":135.0,"n_vehicles":528,"d":1060,"route_I_counts":"{\"3\": 528}","shape_id":"{}","direction_id":"{\"1\": 528}","headsign":"{}","source":45,"target":44,"layer":"L","from":"Kolleyyet El-Zeraa","to":"Shubra El-Kheima"},"geometry":{"type":"LineString","coordinates":[[31.248754,30.113661],[31.244688,30.122515]]}},{"type":"Feature","properties":{"shape_id":"{}","direction_id":"{\"0\": 550}","headsign":"{}","duration_avg":135.0,"n_vehicles":550,"d":695,"route_I_counts":"{\"3\": 550}","source":46,"target":47,"layer":"L","from":"Mezallat","to":"Khalafawy"},"geometry":{"type":"LineString","coordinates":[[31.245568,30.104073],[31.244999,30.097845]]}},{"type":"Feature","properties":{"duration_avg":135.0,"n_vehicles":529,"d":1110,"route_I_counts":"{\"3\": 529}","shape_id":"{}","direction_id":"{\"1\": 529}","headsign":"{}","source":46,"target":45,"layer":"L","from":"Mezallat","to":"Kolleyyet El-Zeraa"},"geometry":{"type":"LineString","coordinates":[[31.245568,30.104073],[31.248754,30.113661]]}},{"type":"Feature","properties":{"shape_id":"{}","direction_id":"{\"0\": 549}","headsign":"{}","duration_avg":135.0,"n_vehicles":549,"d":1101,"route_I_counts":"{\"3\": 549}","source":47,"target":48,"layer":"L","from":"Khalafawy","to":"St. Teresa"},"geometry":{"type":"LineString","coordinates":[[31.244999,30.097845],[31.245493,30.087957]]}},{"type":"Feature","properties":{"duration_avg":135.0,"n_vehicles":531,"d":695,"route_I_counts":"{\"3\": 531}","shape_id":"{}","direction_id":"{\"1\": 531}","headsign":"{}","source":47,"target":46,"layer":"L","from":"Khalafawy","to":"Mezallat"},"geometry":{"type":"LineString","coordinates":[[31.244999,30.097845],[31.245568,30.104073]]}},{"type":"Feature","properties":{"shape_id":"{}","direction_id":"{\"0\": 547}","headsign":"{}","duration_avg":135.0,"n_vehicles":547,"d":820,"route_I_counts":"{\"3\": 547}","source":48,"target":49,"layer":"L","from":"St. Teresa","to":"Rod El Farag"},"geometry":{"type":"LineString","coordinates":[[31.245493,30.087957],[31.245401,30.080588]]}},{"type":"Feature","properties":{"duration_avg":135.0,"n_vehicles":532,"d":1101,"route_I_counts":"{\"3\": 532}","shape_id":"{}","direction_id":"{\"1\": 532}","headsign":"{}","source":48,"target":47,"layer":"L","from":"St. Teresa","to":"Khalafawy"},"geometry":{"type":"LineString","coordinates":[[31.245493,30.087957],[31.244999,30.097845]]}},{"type":"Feature","properties":{"shape_id":"{}","direction_id":"{\"0\": 546}","headsign":"{}","duration_avg":135.0,"n_vehicles":546,"d":1079,"route_I_counts":"{\"3\": 546}","source":49,"target":50,"layer":"L","from":"Rod El Farag","to":"Masarra"},"geometry":{"type":"LineString","coordinates":[[31.245401,30.080588],[31.245101,30.070895]]}},{"type":"Feature","properties":{"duration_avg":135.0,"n_vehicles":533,"d":820,"route_I_counts":"{\"3\": 533}","shape_id":"{}","direction_id":"{\"1\": 533}","headsign":"{}","source":49,"target":48,"layer":"L","from":"Rod El Farag","to":"St. Teresa"},"geometry":{"type":"LineString","coordinates":[[31.245401,30.080588],[31.245493,30.087957]]}},{"type":"Feature","properties":{"duration_avg":135.0,"n_vehicles":545,"d":957,"route_I_counts":"{\"3\": 545}","shape_id":"{}","direction_id":"{\"0\": 545}","headsign":"{}","source":50,"target":21,"layer":"L","from":"Masarra","to":"Al-Shohadaa"},"geometry":{"type":"LineString","coordinates":[[31.245101,30.070895],[31.246287,30.061639]]}},{"type":"Feature","properties":{"duration_avg":135.0,"n_vehicles":535,"d":1079,"route_I_counts":"{\"3\": 535}","shape_id":"{}","direction_id":"{\"1\": 535}","headsign":"{}","source":50,"target":49,"layer":"L","from":"Masarra","to":"Rod El Farag"},"geometry":{"type":"LineString","coordinates":[[31.245101,30.070895],[31.245401,30.080588]]}},{"type":"Feature","properties":{"duration_avg":135.0,"n_vehicles":539,"d":821,"route_I_counts":"{\"3\": 539}","shape_id":"{}","direction_id":"{\"1\": 539}","headsign":"{}","source":51,"target":35,"layer":"L","from":"Mohamed Naguib","to":"Attaba"},"geometry":{"type":"LineString","coordinates":[[31.244152,30.04534],[31.246966,30.053135]]}},{"type":"Feature","properties":{"duration_avg":135.0,"n_vehicles":540,"d":833,"route_I_counts":"{\"3\": 540}","shape_id":"{}","direction_id":"{\"0\": 540}","headsign":"{}","source":51,"target":18,"layer":"L","from":"Mohamed Naguib","to":"Sadat"},"geometry":{"type":"LineString","coordinates":[[31.244152,30.04534],[31.23566,30.043924]]}},{"type":"Feature","properties":{"shape_id":"{}","direction_id":"{\"0\": 538}","headsign":"{}","duration_avg":135.0,"n_vehicles":538,"d":1287,"route_I_counts":"{\"3\": 538}","source":52,"target":53,"layer":"L","from":"Opera","to":"Dokki"},"geometry":{"type":"LineString","coordinates":[[31.22499,30.041932],[31.212243,30.038466]]}},{"type":"Feature","properties":{"duration_avg":135.0,"n_vehicles":542,"d":1051,"route_I_counts":"{\"3\": 542}","shape_id":"{}","direction_id":"{\"1\": 542}","headsign":"{}","source":52,"target":18,"layer":"L","from":"Opera","to":"Sadat"},"geometry":{"type":"LineString","coordinates":[[31.22499,30.041932],[31.23566,30.043924]]}},{"type":"Feature","properties":{"shape_id":"{}","direction_id":"{\"0\": 536}","headsign":"{}","duration_avg":135.0,"n_vehicles":536,"d":1191,"route_I_counts":"{\"3\": 536}","source":53,"target":54,"layer":"L","from":"Dokki","to":"Bohooth"},"geometry":{"type":"LineString","coordinates":[[31.212243,30.038466],[31.200255,30.03584]]}},{"type":"Feature","properties":{"duration_avg":135.0,"n_vehicles":543,"d":1287,"route_I_counts":"{\"3\": 543}","shape_id":"{}","direction_id":"{\"1\": 543}","headsign":"{}","source":53,"target":52,"layer":"L","from":"Dokki","to":"Opera"},"geometry":{"type":"LineString","coordinates":[[31.212243,30.038466],[31.22499,30.041932]]}},{"type":"Feature","properties":{"shape_id":"{}","direction_id":"{\"0\": 535}","headsign":"{}","duration_avg":135.0,"n_vehicles":535,"d":1080,"route_I_counts":"{\"3\": 535}","source":54,"target":55,"layer":"L","from":"Bohooth","to":"Cairo University"},"geometry":{"type":"LineString","coordinates":[[31.200255,30.03584],[31.200872,30.026151]]}},{"type":"Feature","properties":{"duration_avg":135.0,"n_vehicles":545,"d":1191,"route_I_counts":"{\"3\": 545}","shape_id":"{}","direction_id":"{\"1\": 545}","headsign":"{}","source":54,"target":53,"layer":"L","from":"Bohooth","to":"Dokki"},"geometry":{"type":"LineString","coordinates":[[31.200255,30.03584],[31.212243,30.038466]]}},{"type":"Feature","properties":{"shape_id":"{}","direction_id":"{\"0\": 533}","headsign":"{}","duration_avg":135.0,"n_vehicles":533,"d":1002,"route_I_counts":"{\"3\": 533}","source":55,"target":56,"layer":"L","from":"Cairo University","to":"Faisal"},"geometry":{"type":"LineString","coordinates":[[31.200872,30.026151],[31.203747,30.017493]]}},{"type":"Feature","properties":{"duration_avg":135.0,"n_vehicles":546,"d":1080,"route_I_counts":"{\"3\": 546}","shape_id":"{}","direction_id":"{\"1\": 546}","headsign":"{}","source":55,"target":54,"layer":"L","from":"Cairo University","to":"Bohooth"},"geometry":{"type":"LineString","coordinates":[[31.200872,30.026151],[31.200255,30.03584]]}},{"type":"Feature","properties":{"shape_id":"{}","direction_id":"{\"0\": 532}","headsign":"{}","duration_avg":135.0,"n_vehicles":532,"d":825,"route_I_counts":"{\"3\": 532}","source":56,"target":57,"layer":"L","from":"Faisal","to":"El-Giza"},"geometry":{"type":"LineString","coordinates":[[31.203747,30.017493],[31.207051,30.010656]]}},{"type":"Feature","properties":{"duration_avg":135.0,"n_vehicles":547,"d":1002,"route_I_counts":"{\"3\": 547}","shape_id":"{}","direction_id":"{\"1\": 547}","headsign":"{}","source":56,"target":55,"layer":"L","from":"Faisal","to":"Cairo University"},"geometry":{"type":"LineString","coordinates":[[31.203747,30.017493],[31.200872,30.026151]]}},{"type":"Feature","properties":{"shape_id":"{}","direction_id":"{\"0\": 531}","headsign":"{}","duration_avg":135.0,"n_vehicles":531,"d":529,"route_I_counts":"{\"3\": 531}","source":57,"target":58,"layer":"L","from":"El-Giza","to":"Omm El-Misryeen"},"geometry":{"type":"LineString","coordinates":[[31.207051,30.010656],[31.208135,30.005992]]}},{"type":"Feature","properties":{"duration_avg":135.0,"n_vehicles":549,"d":825,"route_I_counts":"{\"3\": 549}","shape_id":"{}","direction_id":"{\"1\": 549}","headsign":"{}","source":57,"target":56,"layer":"L","from":"El-Giza","to":"Faisal"},"geometry":{"type":"LineString","coordinates":[[31.207051,30.010656],[31.203747,30.017493]]}},{"type":"Feature","properties":{"shape_id":"{}","direction_id":"{\"0\": 529}","headsign":"{}","duration_avg":135.0,"n_vehicles":529,"d":1160,"route_I_counts":"{\"3\": 529}","source":58,"target":59,"layer":"L","from":"Omm El-Misryeen","to":"Sakiat Mekki"},"geometry":{"type":"LineString","coordinates":[[31.208135,30.005992],[31.208489,29.995567]]}},{"type":"Feature","properties":{"duration_avg":135.0,"n_vehicles":550,"d":529,"route_I_counts":"{\"3\": 550}","shape_id":"{}","direction_id":"{\"1\": 550}","headsign":"{}","source":58,"target":57,"layer":"L","from":"Omm El-Misryeen","to":"El-Giza"},"geometry":{"type":"LineString","coordinates":[[31.208135,30.005992],[31.207051,30.010656]]}},{"type":"Feature","properties":{"shape_id":"{}","direction_id":"{\"0\": 528}","headsign":"{}","duration_avg":135.0,"n_vehicles":528,"d":1659,"route_I_counts":"{\"3\": 528}","source":59,"target":60,"layer":"L","from":"Sakiat Mekki","to":"El-Mounib"},"geometry":{"type":"LineString","coordinates":[[31.208489,29.995567],[31.212308,29.981033]]}},{"type":"Feature","properties":{"duration_avg":135.0,"n_vehicles":552,"d":1160,"route_I_counts":"{\"3\": 552}","shape_id":"{}","direction_id":"{\"1\": 552}","headsign":"{}","source":59,"target":58,"layer":"L","from":"Sakiat Mekki","to":"Omm El-Misryeen"},"geometry":{"type":"LineString","coordinates":[[31.208489,29.995567],[31.208135,30.005992]]}},{"type":"Feature","properties":{"duration_avg":135.0,"n_vehicles":553,"d":1659,"route_I_counts":"{\"3\": 553}","shape_id":"{}","direction_id":"{\"1\": 553}","headsign":"{}","source":60,"target":59,"layer":"L","from":"El-Mounib","to":"Sakiat Mekki"},"geometry":{"type":"LineString","coordinates":[[31.212308,29.981033],[31.208489,29.995567]]}}]}