{"type":"FeatureCollection","features":[{"type":"Feature","geometry":{"type":"Point","coordinates":[-81.665798,41.48648]},"properties":{"name":"TRI-C CAMPUS DISTRICT (E. 34TH) (RED)","original_ids":"[5572, 5573]","id":0,"layer":"stop"}},{"type":"Feature","geometry":{"type":"Point","coordinates":[-81.69426,41.497756]},"properties":{"name":"TOWER CITY STATION TRACK 8 (RED)","original_ids":"[5571, 5570]","id":1,"layer":"stop"}},{"type":"Feature","geometry":{"type":"Point","coordinates":[-81.701247,41.484474]},"properties":{"name":"W 25TH ST-OHIO CITY STATION","original_ids":"[5546, 5547]","id":2,"layer":"stop"}},{"type":"Feature","geometry":{"type":"Point","coordinates":[-81.728358,41.47672]},"properties":{"name":"W 65TH ST-LORAIN AV STATION","original_ids":"[5548, 5535]","id":3,"layer":"stop"}},{"type":"Feature","geometry":{"type":"Point","coordinates":[-81.752827,41.480238]},"properties":{"name":"WEST BLVD-CUDELL STATION","original_ids":"[5550, 5559]","id":4,"layer":"stop"}},{"type":"Feature","geometry":{"type":"Point","coordinates":[-81.768692,41.475711]},"properties":{"name":"W 117TH ST-MADISON AV STATION","original_ids":"[5558, 5551]","id":5,"layer":"stop"}},{"type":"Feature","geometry":{"type":"Point","coordinates":[-81.78488,41.466269]},"properties":{"name":"TRISKETT STATION","original_ids":"[5552, 5557]","id":6,"layer":"stop"}},{"type":"Feature","geometry":{"type":"Point","coordinates":[-81.792582,41.457003]},"properties":{"name":"WEST PARK STATION","original_ids":"[5556, 5549]","id":7,"layer":"stop"}},{"type":"Feature","geometry":{"type":"Point","coordinates":[-81.805848,41.441158]},"properties":{"name":"PURITAS STATION","original_ids":"[5544, 5555]","id":8,"layer":"stop"}},{"type":"Feature","geometry":{"type":"Point","coordinates":[-81.823498,41.419962]},"properties":{"name":"BROOKPARK STATION","original_ids":"[5543, 5553]","id":9,"layer":"stop"}},{"type":"Feature","geometry":{"type":"Point","coordinates":[-81.837029,41.410889]},"properties":{"name":"AIRPORT STATION","original_ids":"[5554, 5545]","id":10,"layer":"stop"}},{"type":"Feature","geometry":{"type":"Point","coordinates":[-81.651848,41.480325]},"properties":{"name":"E 55TH ST STATION (RED)","original_ids":"[5575, 5574]","id":11,"layer":"stop"}},{"type":"Feature","geometry":{"type":"Point","coordinates":[-81.63326,41.485847]},"properties":{"name":"E 79TH ST RED LINE STATION","original_ids":"[5540, 5560]","id":12,"layer":"stop"}},{"type":"Feature","geometry":{"type":"Point","coordinates":[-81.615683,41.493727]},"properties":{"name":"E 105TH ST-QUINCY AV STATION","original_ids":"[5561, 5541]","id":13,"layer":"stop"}},{"type":"Feature","geometry":{"type":"Point","coordinates":[-81.605369,41.499856]},"properties":{"name":"CEDAR-UNIVERSITY STATION","original_ids":"[5542, 5562]","id":14,"layer":"stop"}},{"type":"Feature","geometry":{"type":"Point","coordinates":[-81.600465,41.508952]},"properties":{"name":"LITTLE ITALY-UNIV CIRCLE STATION","original_ids":"[5566, 5567]","id":15,"layer":"stop"}},{"type":"Feature","geometry":{"type":"Point","coordinates":[-81.591988,41.523158]},"properties":{"name":"SUPERIOR STATION","original_ids":"[5568, 5563]","id":16,"layer":"stop"}},{"type":"Feature","geometry":{"type":"Point","coordinates":[-81.584985,41.530384]},"properties":{"name":"STOKES-WINDERMERE STATION","original_ids":"[5564, 5569]","id":17,"layer":"stop"}},{"type":"Feature","properties":{"shape_id":"{\"660137\": 64, \"660138\": 3}","direction_id":"{\"1\": 67}","headsign":"{\"Red Line - Airport\": 67}","duration_avg":300.0,"n_vehicles":67,"d":2684,"route_I_counts":"{\"34\": 67}","source":0,"target":1,"layer":"L","from":"TRI-C CAMPUS DISTRICT (E. 34TH) (RED)","to":"TOWER CITY STATION TRACK 8 (RED)"},"geometry":{"type":"LineString","coordinates":[[-81.665798,41.48648],[-81.69426,41.497756]]}},{"type":"Feature","properties":{"duration_avg":180.0,"n_vehicles":61,"d":1351,"route_I_counts":"{\"34\": 61}","shape_id":"{\"660135\": 61}","direction_id":"{\"0\": 61}","headsign":"{\"Red Line - Stokes / Windermere\": 61}","source":0,"target":11,"layer":"L","from":"TRI-C CAMPUS DISTRICT (E. 34TH) (RED)","to":"E 55TH ST STATION (RED)"},"geometry":{"type":"LineString","coordinates":[[-81.665798,41.48648],[-81.651848,41.480325]]}},{"type":"Feature","properties":{"shape_id":"{\"660137\": 63, \"660138\": 3}","direction_id":"{\"1\": 66}","headsign":"{\"Red Line - Airport\": 66}","duration_avg":180.0,"n_vehicles":66,"d":1589,"route_I_counts":"{\"34\": 66}","source":1,"target":2,"layer":"L","from":"TOWER CITY STATION TRACK 8 (RED)","to":"W 25TH ST-OHIO CITY STATION"},"geometry":{"type":"LineString","coordinates":[[-81.69426,41.497756],[-81.701247,41.484474]]}},{"type":"Feature","properties":{"duration_avg":180.0,"n_vehicles":67,"d":2658,"route_I_counts":"{\"34\": 67}","shape_id":"{\"660135\": 61, \"660136\": 6}","direction_id":"{\"0\": 67}","headsign":"{\"Red Line - Stokes / Windermere\": 61, \"Red Line - Tower City / Public Square\": 6}","source":1,"target":0,"layer":"L","from":"TOWER CITY STATION TRACK 8 (RED)","to":"TRI-C CAMPUS DISTRICT (E. 34TH) (RED)"},"geometry":{"type":"LineString","coordinates":[[-81.69426,41.497756],[-81.665798,41.48648]]}},{"type":"Feature","properties":{"shape_id":"{\"660137\": 64, \"660138\": 3}","direction_id":"{\"1\": 67}","headsign":"{\"Red Line - Airport\": 67}","duration_avg":240.0,"n_vehicles":67,"d":2420,"route_I_counts":"{\"34\": 67}","source":2,"target":3,"layer":"L","from":"W 25TH ST-OHIO CITY STATION","to":"W 65TH ST-LORAIN AV STATION"},"geometry":{"type":"LineString","coordinates":[[-81.701247,41.484474],[-81.728358,41.47672]]}},{"type":"Feature","properties":{"duration_avg":240.0,"n_vehicles":67,"d":1525,"route_I_counts":"{\"34\": 67}","shape_id":"{\"660135\": 61, \"660136\": 6}","direction_id":"{\"0\": 67}","headsign":"{\"Red Line - Stokes / Windermere\": 61, \"Red Line - Tower City / Public Square\": 6}","source":2,"target":1,"layer":"L","from":"W 25TH ST-OHIO CITY STATION","to":"TOWER CITY STATION TRACK 8 (RED)"},"geometry":{"type":"LineString","coordinates":[[-81.701247,41.484474],[-81.69426,41.497756]]}},{"type":"Feature","properties":{"shape_id":"{\"660137\": 64, \"660138\": 3}","direction_id":"{\"1\": 67}","headsign":"{\"Red Line - Airport\": 67}","duration_avg":180.0,"n_vehicles":67,"d":2077,"route_I_counts":"{\"34\": 67}","source":3,"target":4,"layer":"L","from":"W 65TH ST-LORAIN AV STATION","to":"WEST BLVD-CUDELL STATION"},"geometry":{"type":"LineString","coordinates":[[-81.728358,41.47672],[-81.752827,41.480238]]}},{"type":"Feature","properties":{"duration_avg":240.0,"n_vehicles":66,"d":2429,"route_I_counts":"{\"34\": 66}","shape_id":"{\"660135\": 60, \"660136\": 6}","direction_id":"{\"0\": 66}","headsign":"{\"Red Line - Stokes / Windermere\": 60, \"Red Line - Tower City / Public Square\": 6}","source":3,"target":2,"layer":"L","from":"W 65TH ST-LORAIN AV STATION","to":"W 25TH ST-OHIO CITY STATION"},"geometry":{"type":"LineString","coordinates":[[-81.728358,41.47672],[-81.701247,41.484474]]}},{"type":"Feature","properties":{"shape_id":"{\"660137\": 64, \"660138\": 3}","direction_id":"{\"1\": 67}","headsign":"{\"Red Line - Airport\": 67}","duration_avg":180.0,"n_vehicles":67,"d":1415,"route_I_counts":"{\"34\": 67}","source":4,"target":5,"layer":"L","from":"WEST BLVD-CUDELL STATION","to":"W 117TH ST-MADISON AV STATION"},"geometry":{"type":"LineString","coordinates":[[-81.752827,41.480238],[-81.768692,41.475711]]}},{"type":"Feature","properties":{"duration_avg":180.0,"n_vehicles":67,"d":2076,"route_I_counts":"{\"34\": 67}","shape_id":"{\"660135\": 61, \"660136\": 6}","direction_id":"{\"0\": 67}","headsign":"{\"Red Line - Stokes / Windermere\": 61, \"Red Line - Tower City / Public Square\": 6}","source":4,"target":3,"layer":"L","from":"WEST BLVD-CUDELL STATION","to":"W 65TH ST-LORAIN AV STATION"},"geometry":{"type":"LineString","coordinates":[[-81.752827,41.480238],[-81.728358,41.47672]]}},{"type":"Feature","properties":{"shape_id":"{\"660137\": 64, \"660138\": 3}","direction_id":"{\"1\": 67}","headsign":"{\"Red Line - Airport\": 67}","duration_avg":120.0,"n_vehicles":67,"d":1711,"route_I_counts":"{\"34\": 67}","source":5,"target":6,"layer":"L","from":"W 117TH ST-MADISON AV STATION","to":"TRISKETT STATION"},"geometry":{"type":"LineString","coordinates":[[-81.768692,41.475711],[-81.78488,41.466269]]}},{"type":"Feature","properties":{"duration_avg":180.0,"n_vehicles":67,"d":1412,"route_I_counts":"{\"34\": 67}","shape_id":"{\"660135\": 61, \"660136\": 6}","direction_id":"{\"0\": 67}","headsign":"{\"Red Line - Stokes / Windermere\": 61, \"Red Line - Tower City / Public Square\": 6}","source":5,"target":4,"layer":"L","from":"W 117TH ST-MADISON AV STATION","to":"WEST BLVD-CUDELL STATION"},"geometry":{"type":"LineString","coordinates":[[-81.768692,41.475711],[-81.752827,41.480238]]}},{"type":"Feature","properties":{"shape_id":"{\"660137\": 64, \"660138\": 3}","direction_id":"{\"1\": 67}","headsign":"{\"Red Line - Airport\": 67}","duration_avg":120.0,"n_vehicles":67,"d":1215,"route_I_counts":"{\"34\": 67}","source":6,"target":7,"layer":"L","from":"TRISKETT STATION","to":"WEST PARK STATION"},"geometry":{"type":"LineString","coordinates":[[-81.78488,41.466269],[-81.792582,41.457003]]}},{"type":"Feature","properties":{"duration_avg":120.0,"n_vehicles":67,"d":1708,"route_I_counts":"{\"34\": 67}","shape_id":"{\"660135\": 61, \"660136\": 6}","direction_id":"{\"0\": 67}","headsign":"{\"Red Line - Stokes / Windermere\": 61, \"Red Line - Tower City / Public Square\": 6}","source":6,"target":5,"layer":"L","from":"TRISKETT STATION","to":"W 117TH ST-MADISON AV STATION"},"geometry":{"type":"LineString","coordinates":[[-81.78488,41.466269],[-81.768692,41.475711]]}},{"type":"Feature","properties":{"shape_id":"{\"660137\": 63, \"660138\": 3}","direction_id":"{\"1\": 66}","headsign":"{\"Red Line - Airport\": 66}","duration_avg":180.0,"n_vehicles":66,"d":2082,"route_I_counts":"{\"34\": 66}","source":7,"target":8,"layer":"L","from":"WEST PARK STATION","to":"PURITAS STATION"},"geometry":{"type":"LineString","coordinates":[[-81.792582,41.457003],[-81.805848,41.441158]]}},{"type":"Feature","properties":{"duration_avg":120.0,"n_vehicles":67,"d":1215,"route_I_counts":"{\"34\": 67}","shape_id":"{\"660135\": 61, \"660136\": 6}","direction_id":"{\"0\": 67}","headsign":"{\"Red Line - Stokes / Windermere\": 61, \"Red Line - Tower City / Public Square\": 6}","source":7,"target":6,"layer":"L","from":"WEST PARK STATION","to":"TRISKETT STATION"},"geometry":{"type":"LineString","coordinates":[[-81.792582,41.457003],[-81.78488,41.466269]]}},{"type":"Feature","properties":{"shape_id":"{\"660137\": 64, \"660138\": 3}","direction_id":"{\"1\": 67}","headsign":"{\"Red Line - Airport\": 67}","duration_avg":240.0,"n_vehicles":67,"d":2781,"route_I_counts":"{\"34\": 67}","source":8,"target":9,"layer":"L","from":"PURITAS STATION","to":"BROOKPARK STATION"},"geometry":{"type":"LineString","coordinates":[[-81.805848,41.441158],[-81.823498,41.419962]]}},{"type":"Feature","properties":{"duration_avg":180.0,"n_vehicles":66,"d":2082,"route_I_counts":"{\"34\": 66}","shape_id":"{\"660135\": 60, \"660136\": 6}","direction_id":"{\"0\": 66}","headsign":"{\"Red Line - Stokes / Windermere\": 60, \"Red Line - Tower City / Public Square\": 6}","source":8,"target":7,"layer":"L","from":"PURITAS STATION","to":"WEST PARK STATION"},"geometry":{"type":"LineString","coordinates":[[-81.805848,41.441158],[-81.792582,41.457003]]}},{"type":"Feature","properties":{"shape_id":"{\"660137\": 64, \"660138\": 3}","direction_id":"{\"1\": 67}","headsign":"{\"Red Line - Airport\": 67}","duration_avg":180.0,"n_vehicles":67,"d":1515,"route_I_counts":"{\"34\": 67}","source":9,"target":10,"layer":"L","from":"BROOKPARK STATION","to":"AIRPORT STATION"},"geometry":{"type":"LineString","coordinates":[[-81.823498,41.419962],[-81.837029,41.410889]]}},{"type":"Feature","properties":{"duration_avg":240.0,"n_vehicles":67,"d":2781,"route_I_counts":"{\"34\": 67}","shape_id":"{\"660135\": 61, \"660136\": 6}","direction_id":"{\"0\": 67}","headsign":"{\"Red Line - Stokes / Windermere\": 61, \"Red Line - Tower City / Public Square\": 6}","source":9,"target":8,"layer":"L","from":"BROOKPARK STATION","to":"PURITAS STATION"},"geometry":{"type":"LineString","coordinates":[[-81.823498,41.419962],[-81.805848,41.441158]]}},{"type":"Feature","properties":{"duration_avg":180.0,"n_vehicles":67,"d":1521,"route_I_counts":"{\"34\": 67}","shape_id":"{\"660135\": 61, \"660136\": 6}","direction_id":"{\"0\": 67}","headsign":"{\"Red Line - Stokes / Windermere\": 61, \"Red Line - Tower City / Public Square\": 6}","source":10,"target":9,"layer":"L","from":"AIRPORT STATION","to":"BROOKPARK STATION"},"geometry":{"type":"LineString","coordinates":[[-81.837029,41.410889],[-81.823498,41.419962]]}},{"type":"Feature","properties":{"shape_id":"{\"660135\": 61}","direction_id":"{\"0\": 61}","headsign":"{\"Red Line - Stokes / Windermere\": 61}","duration_avg":120.0,"n_vehicles":61,"d":1667,"route_I_counts":"{\"34\": 61}","source":11,"target":12,"layer":"L","from":"E 55TH ST STATION (RED)","to":"E 79TH ST RED LINE STATION"},"geometry":{"type":"LineString","coordinates":[[-81.651848,41.480325],[-81.63326,41.485847]]}},{"type":"Feature","properties":{"duration_avg":120.0,"n_vehicles":64,"d":1335,"route_I_counts":"{\"34\": 64}","shape_id":"{\"660137\": 64}","direction_id":"{\"1\": 64}","headsign":"{\"Red Line - Airport\": 64}","source":11,"target":0,"layer":"L","from":"E 55TH ST STATION (RED)","to":"TRI-C CAMPUS DISTRICT (E. 34TH) (RED)"},"geometry":{"type":"LineString","coordinates":[[-81.651848,41.480325],[-81.665798,41.48648]]}},{"type":"Feature","properties":{"shape_id":"{\"660109\": 5, \"660135\": 60}","direction_id":"{\"0\": 65}","headsign":"{\"Red Line - Stokes / Windermere\": 65}","duration_avg":120.0,"n_vehicles":65,"d":1708,"route_I_counts":"{\"34\": 65}","source":12,"target":13,"layer":"L","from":"E 79TH ST RED LINE STATION","to":"E 105TH ST-QUINCY AV STATION"},"geometry":{"type":"LineString","coordinates":[[-81.63326,41.485847],[-81.615683,41.493727]]}},{"type":"Feature","properties":{"duration_avg":180.0,"n_vehicles":64,"d":1665,"route_I_counts":"{\"34\": 64}","shape_id":"{\"660137\": 64}","direction_id":"{\"1\": 64}","headsign":"{\"Red Line - Airport\": 64}","source":12,"target":11,"layer":"L","from":"E 79TH ST RED LINE STATION","to":"E 55TH ST STATION (RED)"},"geometry":{"type":"LineString","coordinates":[[-81.63326,41.485847],[-81.651848,41.480325]]}},{"type":"Feature","properties":{"shape_id":"{\"660109\": 5, \"660135\": 61}","direction_id":"{\"0\": 66}","headsign":"{\"Red Line - Stokes / Windermere\": 66}","duration_avg":120.0,"n_vehicles":66,"d":1097,"route_I_counts":"{\"34\": 66}","source":13,"target":14,"layer":"L","from":"E 105TH ST-QUINCY AV STATION","to":"CEDAR-UNIVERSITY STATION"},"geometry":{"type":"LineString","coordinates":[[-81.615683,41.493727],[-81.605369,41.499856]]}},{"type":"Feature","properties":{"duration_avg":120.0,"n_vehicles":66,"d":1705,"route_I_counts":"{\"34\": 66}","shape_id":"{\"660112\": 2, \"660137\": 64}","direction_id":"{\"1\": 66}","headsign":"{\"Red Line - Airport\": 64, \"Red Line - E. 79th Street\": 2}","source":13,"target":12,"layer":"L","from":"E 105TH ST-QUINCY AV STATION","to":"E 79TH ST RED LINE STATION"},"geometry":{"type":"LineString","coordinates":[[-81.615683,41.493727],[-81.63326,41.485847]]}},{"type":"Feature","properties":{"shape_id":"{\"660109\": 5, \"660135\": 61}","direction_id":"{\"0\": 66}","headsign":"{\"Red Line - Stokes / Windermere\": 66}","duration_avg":120.0,"n_vehicles":66,"d":1091,"route_I_counts":"{\"34\": 66}","source":14,"target":15,"layer":"L","from":"CEDAR-UNIVERSITY STATION","to":"LITTLE ITALY-UNIV CIRCLE STATION"},"geometry":{"type":"LineString","coordinates":[[-81.605369,41.499856],[-81.600465,41.508952]]}},{"type":"Feature","properties":{"duration_avg":120.0,"n_vehicles":65,"d":1095,"route_I_counts":"{\"34\": 65}","shape_id":"{\"660112\": 2, \"660137\": 63}","direction_id":"{\"1\": 65}","headsign":"{\"Red Line - Airport\": 63, \"Red Line - E. 79th Street\": 2}","source":14,"target":13,"layer":"L","from":"CEDAR-UNIVERSITY STATION","to":"E 105TH ST-QUINCY AV STATION"},"geometry":{"type":"LineString","coordinates":[[-81.605369,41.499856],[-81.615683,41.493727]]}},{"type":"Feature","properties":{"shape_id":"{\"660109\": 5, \"660135\": 61}","direction_id":"{\"0\": 66}","headsign":"{\"Red Line - Stokes / Windermere\": 66}","duration_avg":180.0,"n_vehicles":66,"d":1732,"route_I_counts":"{\"34\": 66}","source":15,"target":16,"layer":"L","from":"LITTLE ITALY-UNIV CIRCLE STATION","to":"SUPERIOR STATION"},"geometry":{"type":"LineString","coordinates":[[-81.600465,41.508952],[-81.591988,41.523158]]}},{"type":"Feature","properties":{"duration_avg":180.0,"n_vehicles":66,"d":1089,"route_I_counts":"{\"34\": 66}","shape_id":"{\"660112\": 2, \"660137\": 64}","direction_id":"{\"1\": 66}","headsign":"{\"Red Line - Airport\": 64, \"Red Line - E. 79th Street\": 2}","source":15,"target":14,"layer":"L","from":"LITTLE ITALY-UNIV CIRCLE STATION","to":"CEDAR-UNIVERSITY STATION"},"geometry":{"type":"LineString","coordinates":[[-81.600465,41.508952],[-81.605369,41.499856]]}},{"type":"Feature","properties":{"shape_id":"{\"660109\": 5, \"660135\": 61}","direction_id":"{\"0\": 66}","headsign":"{\"Red Line - Stokes / Windermere\": 66}","duration_avg":120.0,"n_vehicles":66,"d":993,"route_I_counts":"{\"34\": 66}","source":16,"target":17,"layer":"L","from":"SUPERIOR STATION","to":"STOKES-WINDERMERE STATION"},"geometry":{"type":"LineString","coordinates":[[-81.591988,41.523158],[-81.584985,41.530384]]}},{"type":"Feature","properties":{"duration_avg":120.0,"n_vehicles":66,"d":1735,"route_I_counts":"{\"34\": 66}","shape_id":"{\"660112\": 2, \"660137\": 64}","direction_id":"{\"1\": 66}","headsign":"{\"Red Line - Airport\": 64, \"Red Line - E. 79th Street\": 2}","source":16,"target":15,"layer":"L","from":"SUPERIOR STATION","to":"LITTLE ITALY-UNIV CIRCLE STATION"},"geometry":{"type":"LineString","coordinates":[[-81.591988,41.523158],[-81.600465,41.508952]]}},{"type":"Feature","properties":{"duration_avg":120.0,"n_vehicles":66,"d":993,"route_I_counts":"{\"34\": 66}","shape_id":"{\"660112\": 2, \"660137\": 64}","direction_id":"{\"1\": 66}","headsign":"{\"Red Line - Airport\": 64, \"Red Line - E. 79th Street\": 2}","source":17,"target":16,"layer":"L","from":"STOKES-WINDERMERE STATION","to":"SUPERIOR STATION"},"geometry":{"type":"LineString","coordinates":[[-81.584985,41.530384],[-81.591988,41.523158]]}}]}