{"type":"FeatureCollection","features":[{"type":"Feature","geometry":{"type":"Point","coordinates":[12.56412,55.671941]},"properties":{"name":"København H (Metro)","original_ids":"[37017]","id":0,"layer":"stop"}},{"type":"Feature","geometry":{"type":"Point","coordinates":[12.568803,55.676373]},"properties":{"name":"Rådhuspladsen St. (Metro)","original_ids":"[37031]","id":1,"layer":"stop"}},{"type":"Feature","geometry":{"type":"Point","coordinates":[12.579575,55.677749]},"properties":{"name":"Gammel Strand St. (Metro)","original_ids":"[37030]","id":2,"layer":"stop"}},{"type":"Feature","geometry":{"type":"Point","coordinates":[12.585228,55.679185]},"properties":{"name":"Kongens Nytorv St. (Metro)","original_ids":"[152]","id":3,"layer":"stop"}},{"type":"Feature","geometry":{"type":"Point","coordinates":[12.588632,55.685245]},"properties":{"name":"Marmorkirken St. (Metro)","original_ids":"[37029]","id":4,"layer":"stop"}},{"type":"Feature","geometry":{"type":"Point","coordinates":[12.585352,55.693217]},"properties":{"name":"Østerport St. (Metro)","original_ids":"[37028]","id":5,"layer":"stop"}},{"type":"Feature","geometry":{"type":"Point","coordinates":[12.591834,55.707298]},"properties":{"name":"Nordhavn St. (Metro)","original_ids":"[37511]","id":6,"layer":"stop"}},{"type":"Feature","geometry":{"type":"Point","coordinates":[12.595272,55.711612]},"properties":{"name":"Orientkaj St. (Metro)","original_ids":"[37710]","id":7,"layer":"stop"}},{"type":"Feature","geometry":{"type":"Point","coordinates":[12.57607,55.699135]},"properties":{"name":"Trianglen St. (Metro)","original_ids":"[37027]","id":8,"layer":"stop"}},{"type":"Feature","geometry":{"type":"Point","coordinates":[12.576709,55.70925]},"properties":{"name":"Poul Henningsens Plads St. (Metro)","original_ids":"[37026]","id":9,"layer":"stop"}},{"type":"Feature","geometry":{"type":"Point","coordinates":[12.564,55.706284]},"properties":{"name":"Vibenshus Runddel St. (Metro)","original_ids":"[37025]","id":10,"layer":"stop"}},{"type":"Feature","geometry":{"type":"Point","coordinates":[12.548233,55.70328]},"properties":{"name":"Skjolds Plads St. (Metro)","original_ids":"[37024]","id":11,"layer":"stop"}},{"type":"Feature","geometry":{"type":"Point","coordinates":[12.538082,55.700552]},"properties":{"name":"Nørrebro St. (Metro)","original_ids":"[37023]","id":12,"layer":"stop"}},{"type":"Feature","geometry":{"type":"Point","coordinates":[12.548899,55.693945]},"properties":{"name":"Nørrebros Runddel St. (Metro)","original_ids":"[37022]","id":13,"layer":"stop"}},{"type":"Feature","geometry":{"type":"Point","coordinates":[12.542892,55.688795]},"properties":{"name":"Nuuks Plads St. (Metro)","original_ids":"[37021]","id":14,"layer":"stop"}},{"type":"Feature","geometry":{"type":"Point","coordinates":[12.533187,55.686378]},"properties":{"name":"Aksel Møllers Have St. (Metro)","original_ids":"[37020]","id":15,"layer":"stop"}},{"type":"Feature","geometry":{"type":"Point","coordinates":[12.531719,55.681223]},"properties":{"name":"Frederiksberg St. (Metro)","original_ids":"[157]","id":16,"layer":"stop"}},{"type":"Feature","geometry":{"type":"Point","coordinates":[12.540351,55.673727]},"properties":{"name":"Frederiksberg Allé St. (Metro)","original_ids":"[37019]","id":17,"layer":"stop"}},{"type":"Feature","geometry":{"type":"Point","coordinates":[12.545814,55.667284]},"properties":{"name":"Enghave Plads St. (Metro)","original_ids":"[37018]","id":18,"layer":"stop"}},{"type":"Feature","geometry":{"type":"Point","coordinates":[12.491664,55.687297]},"properties":{"name":"Vanløse St. (Metro)","original_ids":"[160]","id":19,"layer":"stop"}},{"type":"Feature","geometry":{"type":"Point","coordinates":[12.499527,55.685869]},"properties":{"name":"Flintholm St. (Metro)","original_ids":"[158]","id":20,"layer":"stop"}},{"type":"Feature","geometry":{"type":"Point","coordinates":[12.512873,55.683482]},"properties":{"name":"Lindevang St. (Metro)","original_ids":"[159]","id":21,"layer":"stop"}},{"type":"Feature","geometry":{"type":"Point","coordinates":[12.523102,55.681669]},"properties":{"name":"Fasanvej St. (Metro)","original_ids":"[156]","id":22,"layer":"stop"}},{"type":"Feature","geometry":{"type":"Point","coordinates":[12.55243,55.681821]},"properties":{"name":"Forum St. (Metro)","original_ids":"[154]","id":23,"layer":"stop"}},{"type":"Feature","geometry":{"type":"Point","coordinates":[12.571044,55.683843]},"properties":{"name":"Nørreport St. (Metro)","original_ids":"[155]","id":24,"layer":"stop"}},{"type":"Feature","geometry":{"type":"Point","coordinates":[12.591385,55.672054]},"properties":{"name":"Christianshavn St. (Metro)","original_ids":"[153]","id":25,"layer":"stop"}},{"type":"Feature","geometry":{"type":"Point","coordinates":[12.585217,55.663422]},"properties":{"name":"Islands Brygge St. (Metro)","original_ids":"[56]","id":26,"layer":"stop"}},{"type":"Feature","geometry":{"type":"Point","coordinates":[12.58899,55.655813]},"properties":{"name":"DR Byen St. (Metro)","original_ids":"[57]","id":27,"layer":"stop"}},{"type":"Feature","geometry":{"type":"Point","coordinates":[12.585728,55.645199]},"properties":{"name":"Sundby St. (Metro)","original_ids":"[54]","id":28,"layer":"stop"}},{"type":"Feature","geometry":{"type":"Point","coordinates":[12.582928,55.638051]},"properties":{"name":"Bella Center St. (Metro)","original_ids":"[55]","id":29,"layer":"stop"}},{"type":"Feature","geometry":{"type":"Point","coordinates":[12.579389,55.629055]},"properties":{"name":"Ørestad St. (Metro)","original_ids":"[53]","id":30,"layer":"stop"}},{"type":"Feature","geometry":{"type":"Point","coordinates":[12.575297,55.619391]},"properties":{"name":"Vestamager St. (Metro)","original_ids":"[52]","id":31,"layer":"stop"}},{"type":"Feature","geometry":{"type":"Point","coordinates":[12.602929,55.663326]},"properties":{"name":"Amagerbro St. (Metro)","original_ids":"[429]","id":32,"layer":"stop"}},{"type":"Feature","geometry":{"type":"Point","coordinates":[12.616417,55.662101]},"properties":{"name":"Lergravsparken St. (Metro)","original_ids":"[428]","id":33,"layer":"stop"}},{"type":"Feature","geometry":{"type":"Point","coordinates":[12.628453,55.661701]},"properties":{"name":"Øresund St. (Metro)","original_ids":"[1034]","id":34,"layer":"stop"}},{"type":"Feature","geometry":{"type":"Point","coordinates":[12.631584,55.656518]},"properties":{"name":"Amager Strand St. (Metro)","original_ids":"[1035]","id":35,"layer":"stop"}},{"type":"Feature","geometry":{"type":"Point","coordinates":[12.638324,55.645348]},"properties":{"name":"Femøren St. (Metro)","original_ids":"[1036]","id":36,"layer":"stop"}},{"type":"Feature","geometry":{"type":"Point","coordinates":[12.646732,55.635747]},"properties":{"name":"Kastrup St. (Metro)","original_ids":"[1037]","id":37,"layer":"stop"}},{"type":"Feature","geometry":{"type":"Point","coordinates":[12.64939,55.630137]},"properties":{"name":"Lufthavnen St. (Metro)","original_ids":"[1038]","id":38,"layer":"stop"}},{"type":"Feature","properties":{"shape_id":"{\"1504\": 276, \"1524\": 264}","direction_id":"{\"0\": 540}","headsign":"{\"København H (Metro)\": 276, \"Orientkaj (Metro)\": 264}","duration_avg":60.0,"n_vehicles":540,"d":574,"route_I_counts":"{\"316\": 264, \"317\": 276}","source":0,"target":1,"layer":"L","from":"København H (Metro)","to":"Rådhuspladsen St. (Metro)"},"geometry":{"type":"LineString","coordinates":[[12.56412,55.671941],[12.568803,55.676373]]}},{"type":"Feature","properties":{"shape_id":"{\"1514\": 264}","direction_id":"{\"1\": 264}","headsign":"{\"København H (Metro)\": 264}","duration_avg":60.0,"n_vehicles":264,"d":1260,"route_I_counts":"{\"317\": 264}","source":0,"target":18,"layer":"L","from":"København H (Metro)","to":"Enghave Plads St. (Metro)"},"geometry":{"type":"LineString","coordinates":[[12.56412,55.671941],[12.545814,55.667284]]}},{"type":"Feature","properties":{"shape_id":"{\"1504\": 276, \"1524\": 263}","direction_id":"{\"0\": 539}","headsign":"{\"København H (Metro)\": 276, \"Orientkaj (Metro)\": 263}","duration_avg":90.72356215213358,"n_vehicles":539,"d":693,"route_I_counts":"{\"316\": 263, \"317\": 276}","source":1,"target":2,"layer":"L","from":"Rådhuspladsen St. (Metro)","to":"Gammel Strand St. (Metro)"},"geometry":{"type":"LineString","coordinates":[[12.568803,55.676373],[12.579575,55.677749]]}},{"type":"Feature","properties":{"shape_id":"{\"1514\": 259, \"1517\": 2, \"1523\": 2, \"1526\": 262}","direction_id":"{\"1\": 525}","headsign":"{\"København H (Metro)\": 525}","duration_avg":60.0,"n_vehicles":525,"d":574,"route_I_counts":"{\"316\": 262, \"317\": 263}","source":1,"target":0,"layer":"L","from":"Rådhuspladsen St. (Metro)","to":"København H (Metro)"},"geometry":{"type":"LineString","coordinates":[[12.568803,55.676373],[12.56412,55.671941]]}},{"type":"Feature","properties":{"shape_id":"{\"1504\": 276, \"1524\": 263}","direction_id":"{\"0\": 539}","headsign":"{\"København H (Metro)\": 276, \"Orientkaj (Metro)\": 263}","duration_avg":60.0,"n_vehicles":539,"d":389,"route_I_counts":"{\"316\": 263, \"317\": 276}","source":2,"target":3,"layer":"L","from":"Gammel Strand St. (Metro)","to":"Kongens Nytorv St. (Metro)"},"geometry":{"type":"LineString","coordinates":[[12.579575,55.677749],[12.585228,55.679185]]}},{"type":"Feature","properties":{"shape_id":"{\"1514\": 259, \"1517\": 2, \"1523\": 2, \"1526\": 262}","direction_id":"{\"1\": 525}","headsign":"{\"København H (Metro)\": 525}","duration_avg":60.114285714285714,"n_vehicles":525,"d":693,"route_I_counts":"{\"316\": 262, \"317\": 263}","source":2,"target":1,"layer":"L","from":"Gammel Strand St. (Metro)","to":"Rådhuspladsen St. (Metro)"},"geometry":{"type":"LineString","coordinates":[[12.579575,55.677749],[12.568803,55.676373]]}},{"type":"Feature","properties":{"shape_id":"{\"1504\": 275, \"1524\": 263}","direction_id":"{\"0\": 538}","headsign":"{\"København H (Metro)\": 275, \"Orientkaj (Metro)\": 263}","duration_avg":60.0,"n_vehicles":538,"d":707,"route_I_counts":"{\"316\": 263, \"317\": 275}","source":3,"target":4,"layer":"L","from":"Kongens Nytorv St. (Metro)","to":"Marmorkirken St. (Metro)"},"geometry":{"type":"LineString","coordinates":[[12.585228,55.679185],[12.588632,55.685245]]}},{"type":"Feature","properties":{"shape_id":"{\"1514\": 259, \"1517\": 2, \"1523\": 2, \"1526\": 263}","direction_id":"{\"1\": 526}","headsign":"{\"København H (Metro)\": 526}","duration_avg":45.0,"n_vehicles":526,"d":389,"route_I_counts":"{\"316\": 263, \"317\": 263}","source":3,"target":2,"layer":"L","from":"Kongens Nytorv St. (Metro)","to":"Gammel Strand St. (Metro)"},"geometry":{"type":"LineString","coordinates":[[12.585228,55.679185],[12.579575,55.677749]]}},{"type":"Feature","properties":{"shape_id":"{\"1453\": 211, \"1463\": 1, \"1478\": 210}","direction_id":"{\"0\": 422}","headsign":"{\"Christianshavn st. (Metro)\": 1, \"Lufthavnen st.\": 211, \"Vestamager st.\": 210}","duration_avg":62.985781990521325,"n_vehicles":422,"d":882,"route_I_counts":"{\"318\": 211, \"319\": 211}","source":3,"target":25,"layer":"L","from":"Kongens Nytorv St. (Metro)","to":"Christianshavn St. (Metro)"},"geometry":{"type":"LineString","coordinates":[[12.585228,55.679185],[12.591385,55.672054]]}},{"type":"Feature","properties":{"shape_id":"{\"1465\": 213, \"1492\": 213}","direction_id":"{\"1\": 426}","headsign":"{\"Vanløse st. (Metro)\": 426}","duration_avg":91.69014084507042,"n_vehicles":426,"d":1030,"route_I_counts":"{\"318\": 213, \"319\": 213}","source":3,"target":24,"layer":"L","from":"Kongens Nytorv St. (Metro)","to":"Nørreport St. (Metro)"},"geometry":{"type":"LineString","coordinates":[[12.585228,55.679185],[12.571044,55.683843]]}},{"type":"Feature","properties":{"shape_id":"{\"1504\": 275, \"1524\": 262}","direction_id":"{\"0\": 537}","headsign":"{\"København H (Metro)\": 275, \"Orientkaj (Metro)\": 262}","duration_avg":60.0,"n_vehicles":537,"d":911,"route_I_counts":"{\"316\": 262, \"317\": 275}","source":4,"target":5,"layer":"L","from":"Marmorkirken St. (Metro)","to":"Østerport St. (Metro)"},"geometry":{"type":"LineString","coordinates":[[12.588632,55.685245],[12.585352,55.693217]]}},{"type":"Feature","properties":{"shape_id":"{\"1514\": 259, \"1523\": 2, \"1526\": 263}","direction_id":"{\"1\": 524}","headsign":"{\"København H (Metro)\": 524}","duration_avg":60.0,"n_vehicles":524,"d":707,"route_I_counts":"{\"316\": 263, \"317\": 261}","source":4,"target":3,"layer":"L","from":"Marmorkirken St. (Metro)","to":"Kongens Nytorv St. (Metro)"},"geometry":{"type":"LineString","coordinates":[[12.588632,55.685245],[12.585228,55.679185]]}},{"type":"Feature","properties":{"shape_id":"{\"1524\": 262, \"1525\": 6}","direction_id":"{\"0\": 268}","headsign":"{\"Orientkaj (Metro)\": 268}","duration_avg":178.65671641791045,"n_vehicles":268,"d":1619,"route_I_counts":"{\"316\": 268}","source":5,"target":6,"layer":"L","from":"Østerport St. (Metro)","to":"Nordhavn St. (Metro)"},"geometry":{"type":"LineString","coordinates":[[12.585352,55.693217],[12.591834,55.707298]]}},{"type":"Feature","properties":{"shape_id":"{\"1514\": 260, \"1523\": 2, \"1526\": 263}","direction_id":"{\"1\": 525}","headsign":"{\"København H (Metro)\": 525}","duration_avg":60.0,"n_vehicles":525,"d":911,"route_I_counts":"{\"316\": 263, \"317\": 262}","source":5,"target":4,"layer":"L","from":"Østerport St. (Metro)","to":"Marmorkirken St. (Metro)"},"geometry":{"type":"LineString","coordinates":[[12.585352,55.693217],[12.588632,55.685245]]}},{"type":"Feature","properties":{"shape_id":"{\"1504\": 275}","direction_id":"{\"0\": 275}","headsign":"{\"København H (Metro)\": 275}","duration_avg":60.0,"n_vehicles":275,"d":879,"route_I_counts":"{\"317\": 275}","source":5,"target":8,"layer":"L","from":"Østerport St. (Metro)","to":"Trianglen St. (Metro)"},"geometry":{"type":"LineString","coordinates":[[12.585352,55.693217],[12.57607,55.699135]]}},{"type":"Feature","properties":{"shape_id":"{\"1524\": 262, \"1525\": 6}","direction_id":"{\"0\": 268}","headsign":"{\"Orientkaj (Metro)\": 268}","duration_avg":58.656716417910445,"n_vehicles":268,"d":526,"route_I_counts":"{\"316\": 268}","source":6,"target":7,"layer":"L","from":"Nordhavn St. (Metro)","to":"Orientkaj St. (Metro)"},"geometry":{"type":"LineString","coordinates":[[12.591834,55.707298],[12.595272,55.711612]]}},{"type":"Feature","properties":{"shape_id":"{\"1526\": 264, \"1527\": 5}","direction_id":"{\"1\": 269}","headsign":"{\"København H (Metro)\": 264, \"Østerport (Metro)\": 5}","duration_avg":180.0,"n_vehicles":269,"d":1619,"route_I_counts":"{\"316\": 269}","source":6,"target":5,"layer":"L","from":"Nordhavn St. (Metro)","to":"Østerport St. (Metro)"},"geometry":{"type":"LineString","coordinates":[[12.591834,55.707298],[12.585352,55.693217]]}},{"type":"Feature","properties":{"shape_id":"{\"1526\": 264, \"1527\": 5}","direction_id":"{\"1\": 269}","headsign":"{\"København H (Metro)\": 264, \"Østerport (Metro)\": 5}","duration_avg":60.0,"n_vehicles":269,"d":526,"route_I_counts":"{\"316\": 269}","source":7,"target":6,"layer":"L","from":"Orientkaj St. (Metro)","to":"Nordhavn St. (Metro)"},"geometry":{"type":"LineString","coordinates":[[12.595272,55.711612],[12.591834,55.707298]]}},{"type":"Feature","properties":{"shape_id":"{\"1504\": 275}","direction_id":"{\"0\": 275}","headsign":"{\"København H (Metro)\": 275}","duration_avg":60.0,"n_vehicles":275,"d":1126,"route_I_counts":"{\"317\": 275}","source":8,"target":9,"layer":"L","from":"Trianglen St. (Metro)","to":"Poul Henningsens Plads St. (Metro)"},"geometry":{"type":"LineString","coordinates":[[12.57607,55.699135],[12.576709,55.70925]]}},{"type":"Feature","properties":{"shape_id":"{\"1514\": 260, \"1523\": 2}","direction_id":"{\"1\": 262}","headsign":"{\"København H (Metro)\": 262}","duration_avg":60.0,"n_vehicles":262,"d":879,"route_I_counts":"{\"317\": 262}","source":8,"target":5,"layer":"L","from":"Trianglen St. (Metro)","to":"Østerport St. (Metro)"},"geometry":{"type":"LineString","coordinates":[[12.57607,55.699135],[12.585352,55.693217]]}},{"type":"Feature","properties":{"shape_id":"{\"1504\": 275}","direction_id":"{\"0\": 275}","headsign":"{\"København H (Metro)\": 275}","duration_avg":60.0,"n_vehicles":275,"d":862,"route_I_counts":"{\"317\": 275}","source":9,"target":10,"layer":"L","from":"Poul Henningsens Plads St. (Metro)","to":"Vibenshus Runddel St. (Metro)"},"geometry":{"type":"LineString","coordinates":[[12.576709,55.70925],[12.564,55.706284]]}},{"type":"Feature","properties":{"shape_id":"{\"1514\": 260, \"1523\": 2}","direction_id":"{\"1\": 262}","headsign":"{\"København H (Metro)\": 262}","duration_avg":60.229007633587784,"n_vehicles":262,"d":1126,"route_I_counts":"{\"317\": 262}","source":9,"target":8,"layer":"L","from":"Poul Henningsens Plads St. (Metro)","to":"Trianglen St. (Metro)"},"geometry":{"type":"LineString","coordinates":[[12.576709,55.70925],[12.57607,55.699135]]}},{"type":"Feature","properties":{"shape_id":"{\"1504\": 275}","direction_id":"{\"0\": 275}","headsign":"{\"København H (Metro)\": 275}","duration_avg":60.0,"n_vehicles":275,"d":1044,"route_I_counts":"{\"317\": 275}","source":10,"target":11,"layer":"L","from":"Vibenshus Runddel St. (Metro)","to":"Skjolds Plads St. (Metro)"},"geometry":{"type":"LineString","coordinates":[[12.564,55.706284],[12.548233,55.70328]]}},{"type":"Feature","properties":{"shape_id":"{\"1514\": 261, \"1523\": 2}","direction_id":"{\"1\": 263}","headsign":"{\"København H (Metro)\": 263}","duration_avg":60.22813688212928,"n_vehicles":263,"d":862,"route_I_counts":"{\"317\": 263}","source":10,"target":9,"layer":"L","from":"Vibenshus Runddel St. (Metro)","to":"Poul Henningsens Plads St. (Metro)"},"geometry":{"type":"LineString","coordinates":[[12.564,55.706284],[12.576709,55.70925]]}},{"type":"Feature","properties":{"shape_id":"{\"1504\": 275}","direction_id":"{\"0\": 275}","headsign":"{\"København H (Metro)\": 275}","duration_avg":120.0,"n_vehicles":275,"d":705,"route_I_counts":"{\"317\": 275}","source":11,"target":12,"layer":"L","from":"Skjolds Plads St. (Metro)","to":"Nørrebro St. (Metro)"},"geometry":{"type":"LineString","coordinates":[[12.548233,55.70328],[12.538082,55.700552]]}},{"type":"Feature","properties":{"shape_id":"{\"1514\": 261, \"1523\": 2}","direction_id":"{\"1\": 263}","headsign":"{\"København H (Metro)\": 263}","duration_avg":120.0,"n_vehicles":263,"d":1044,"route_I_counts":"{\"317\": 263}","source":11,"target":10,"layer":"L","from":"Skjolds Plads St. (Metro)","to":"Vibenshus Runddel St. (Metro)"},"geometry":{"type":"LineString","coordinates":[[12.548233,55.70328],[12.564,55.706284]]}},{"type":"Feature","properties":{"shape_id":"{\"1504\": 275}","direction_id":"{\"0\": 275}","headsign":"{\"København H (Metro)\": 275}","duration_avg":120.0,"n_vehicles":275,"d":1000,"route_I_counts":"{\"317\": 275}","source":12,"target":13,"layer":"L","from":"Nørrebro St. (Metro)","to":"Nørrebros Runddel St. (Metro)"},"geometry":{"type":"LineString","coordinates":[[12.538082,55.700552],[12.548899,55.693945]]}},{"type":"Feature","properties":{"shape_id":"{\"1514\": 262, \"1523\": 2}","direction_id":"{\"1\": 264}","headsign":"{\"København H (Metro)\": 264}","duration_avg":119.77272727272727,"n_vehicles":264,"d":705,"route_I_counts":"{\"317\": 264}","source":12,"target":11,"layer":"L","from":"Nørrebro St. (Metro)","to":"Skjolds Plads St. (Metro)"},"geometry":{"type":"LineString","coordinates":[[12.538082,55.700552],[12.548233,55.70328]]}},{"type":"Feature","properties":{"shape_id":"{\"1504\": 275}","direction_id":"{\"0\": 275}","headsign":"{\"København H (Metro)\": 275}","duration_avg":60.0,"n_vehicles":275,"d":686,"route_I_counts":"{\"317\": 275}","source":13,"target":14,"layer":"L","from":"Nørrebros Runddel St. (Metro)","to":"Nuuks Plads St. (Metro)"},"geometry":{"type":"LineString","coordinates":[[12.548899,55.693945],[12.542892,55.688795]]}},{"type":"Feature","properties":{"shape_id":"{\"1514\": 262, \"1523\": 2}","direction_id":"{\"1\": 264}","headsign":"{\"København H (Metro)\": 264}","duration_avg":119.77272727272727,"n_vehicles":264,"d":1000,"route_I_counts":"{\"317\": 264}","source":13,"target":12,"layer":"L","from":"Nørrebros Runddel St. (Metro)","to":"Nørrebro St. (Metro)"},"geometry":{"type":"LineString","coordinates":[[12.548899,55.693945],[12.538082,55.700552]]}},{"type":"Feature","properties":{"shape_id":"{\"1504\": 275}","direction_id":"{\"0\": 275}","headsign":"{\"København H (Metro)\": 275}","duration_avg":60.0,"n_vehicles":275,"d":665,"route_I_counts":"{\"317\": 275}","source":14,"target":15,"layer":"L","from":"Nuuks Plads St. (Metro)","to":"Aksel Møllers Have St. (Metro)"},"geometry":{"type":"LineString","coordinates":[[12.542892,55.688795],[12.533187,55.686378]]}},{"type":"Feature","properties":{"shape_id":"{\"1514\": 262, \"1523\": 2}","direction_id":"{\"1\": 264}","headsign":"{\"København H (Metro)\": 264}","duration_avg":60.0,"n_vehicles":264,"d":686,"route_I_counts":"{\"317\": 264}","source":14,"target":13,"layer":"L","from":"Nuuks Plads St. (Metro)","to":"Nørrebros Runddel St. (Metro)"},"geometry":{"type":"LineString","coordinates":[[12.542892,55.688795],[12.548899,55.693945]]}},{"type":"Feature","properties":{"shape_id":"{\"1504\": 275}","direction_id":"{\"0\": 275}","headsign":"{\"København H (Metro)\": 275}","duration_avg":60.0,"n_vehicles":275,"d":581,"route_I_counts":"{\"317\": 275}","source":15,"target":16,"layer":"L","from":"Aksel Møllers Have St. (Metro)","to":"Frederiksberg St. (Metro)"},"geometry":{"type":"LineString","coordinates":[[12.533187,55.686378],[12.531719,55.681223]]}},{"type":"Feature","properties":{"shape_id":"{\"1514\": 263, \"1523\": 2}","direction_id":"{\"1\": 265}","headsign":"{\"København H (Metro)\": 265}","duration_avg":60.0,"n_vehicles":265,"d":665,"route_I_counts":"{\"317\": 265}","source":15,"target":14,"layer":"L","from":"Aksel Møllers Have St. (Metro)","to":"Nuuks Plads St. (Metro)"},"geometry":{"type":"LineString","coordinates":[[12.533187,55.686378],[12.542892,55.688795]]}},{"type":"Feature","properties":{"shape_id":"{\"1504\": 274}","direction_id":"{\"0\": 274}","headsign":"{\"København H (Metro)\": 274}","duration_avg":60.0,"n_vehicles":274,"d":994,"route_I_counts":"{\"317\": 274}","source":16,"target":17,"layer":"L","from":"Frederiksberg St. (Metro)","to":"Frederiksberg Allé St. (Metro)"},"geometry":{"type":"LineString","coordinates":[[12.531719,55.681223],[12.540351,55.673727]]}},{"type":"Feature","properties":{"shape_id":"{\"1514\": 263, \"1523\": 2}","direction_id":"{\"1\": 265}","headsign":"{\"København H (Metro)\": 265}","duration_avg":60.0,"n_vehicles":265,"d":581,"route_I_counts":"{\"317\": 265}","source":16,"target":15,"layer":"L","from":"Frederiksberg St. (Metro)","to":"Aksel Møllers Have St. (Metro)"},"geometry":{"type":"LineString","coordinates":[[12.531719,55.681223],[12.533187,55.686378]]}},{"type":"Feature","properties":{"shape_id":"{\"1453\": 212, \"1459\": 2, \"1463\": 1, \"1478\": 211, \"1488\": 1}","direction_id":"{\"0\": 427}","headsign":"{\"Christianshavn st. (Metro)\": 1, \"Forum st. (Metro)\": 1, \"Lufthavnen st.\": 212, \"Nørreport st. (Metro)\": 2, \"Vestamager st.\": 211}","duration_avg":120.0,"n_vehicles":427,"d":1301,"route_I_counts":"{\"318\": 215, \"319\": 212}","source":16,"target":23,"layer":"L","from":"Frederiksberg St. (Metro)","to":"Forum St. (Metro)"},"geometry":{"type":"LineString","coordinates":[[12.531719,55.681223],[12.55243,55.681821]]}},{"type":"Feature","properties":{"shape_id":"{\"1465\": 212, \"1467\": 1, \"1492\": 213}","direction_id":"{\"1\": 426}","headsign":"{\"Vanløse st. (Metro)\": 426}","duration_avg":61.267605633802816,"n_vehicles":426,"d":543,"route_I_counts":"{\"318\": 214, \"319\": 212}","source":16,"target":22,"layer":"L","from":"Frederiksberg St. (Metro)","to":"Fasanvej St. (Metro)"},"geometry":{"type":"LineString","coordinates":[[12.531719,55.681223],[12.523102,55.681669]]}},{"type":"Feature","properties":{"shape_id":"{\"1504\": 275}","direction_id":"{\"0\": 275}","headsign":"{\"København H (Metro)\": 275}","duration_avg":120.0,"n_vehicles":275,"d":795,"route_I_counts":"{\"317\": 275}","source":17,"target":18,"layer":"L","from":"Frederiksberg Allé St. (Metro)","to":"Enghave Plads St. (Metro)"},"geometry":{"type":"LineString","coordinates":[[12.540351,55.673727],[12.545814,55.667284]]}},{"type":"Feature","properties":{"shape_id":"{\"1514\": 263}","direction_id":"{\"1\": 263}","headsign":"{\"København H (Metro)\": 263}","duration_avg":60.0,"n_vehicles":263,"d":994,"route_I_counts":"{\"317\": 263}","source":17,"target":16,"layer":"L","from":"Frederiksberg Allé St. (Metro)","to":"Frederiksberg St. (Metro)"},"geometry":{"type":"LineString","coordinates":[[12.540351,55.673727],[12.531719,55.681223]]}},{"type":"Feature","properties":{"shape_id":"{\"1504\": 275}","direction_id":"{\"0\": 275}","headsign":"{\"København H (Metro)\": 275}","duration_avg":120.0,"n_vehicles":275,"d":1260,"route_I_counts":"{\"317\": 275}","source":18,"target":0,"layer":"L","from":"Enghave Plads St. (Metro)","to":"København H (Metro)"},"geometry":{"type":"LineString","coordinates":[[12.545814,55.667284],[12.56412,55.671941]]}},{"type":"Feature","properties":{"shape_id":"{\"1514\": 264}","direction_id":"{\"1\": 264}","headsign":"{\"København H (Metro)\": 264}","duration_avg":60.0,"n_vehicles":264,"d":795,"route_I_counts":"{\"317\": 264}","source":18,"target":17,"layer":"L","from":"Enghave Plads St. (Metro)","to":"Frederiksberg Allé St. (Metro)"},"geometry":{"type":"LineString","coordinates":[[12.545814,55.667284],[12.540351,55.673727]]}},{"type":"Feature","properties":{"shape_id":"{\"1453\": 213, \"1459\": 2, \"1478\": 211, \"1488\": 1}","direction_id":"{\"0\": 427}","headsign":"{\"Forum st. (Metro)\": 1, \"Lufthavnen st.\": 213, \"Nørreport st. (Metro)\": 2, \"Vestamager st.\": 211}","duration_avg":60.0,"n_vehicles":427,"d":518,"route_I_counts":"{\"318\": 214, \"319\": 213}","source":19,"target":20,"layer":"L","from":"Vanløse St. (Metro)","to":"Flintholm St. (Metro)"},"geometry":{"type":"LineString","coordinates":[[12.491664,55.687297],[12.499527,55.685869]]}},{"type":"Feature","properties":{"shape_id":"{\"1453\": 213, \"1459\": 2, \"1463\": 1, \"1478\": 211, \"1488\": 1}","direction_id":"{\"0\": 428}","headsign":"{\"Christianshavn st. (Metro)\": 1, \"Forum st. (Metro)\": 1, \"Lufthavnen st.\": 213, \"Nørreport st. (Metro)\": 2, \"Vestamager st.\": 211}","duration_avg":61.26168224299065,"n_vehicles":428,"d":878,"route_I_counts":"{\"318\": 215, \"319\": 213}","source":20,"target":21,"layer":"L","from":"Flintholm St. (Metro)","to":"Lindevang St. (Metro)"},"geometry":{"type":"LineString","coordinates":[[12.499527,55.685869],[12.512873,55.683482]]}},{"type":"Feature","properties":{"shape_id":"{\"1465\": 211, \"1467\": 1, \"1492\": 212}","direction_id":"{\"1\": 424}","headsign":"{\"Vanløse st. (Metro)\": 424}","duration_avg":80.66037735849056,"n_vehicles":424,"d":518,"route_I_counts":"{\"318\": 213, \"319\": 211}","source":20,"target":19,"layer":"L","from":"Flintholm St. (Metro)","to":"Vanløse St. (Metro)"},"geometry":{"type":"LineString","coordinates":[[12.499527,55.685869],[12.491664,55.687297]]}},{"type":"Feature","properties":{"shape_id":"{\"1453\": 212, \"1459\": 2, \"1463\": 1, \"1478\": 211, \"1488\": 1}","direction_id":"{\"0\": 427}","headsign":"{\"Christianshavn st. (Metro)\": 1, \"Forum st. (Metro)\": 1, \"Lufthavnen st.\": 212, \"Nørreport st. (Metro)\": 2, \"Vestamager st.\": 211}","duration_avg":118.73536299765809,"n_vehicles":427,"d":672,"route_I_counts":"{\"318\": 215, \"319\": 212}","source":21,"target":22,"layer":"L","from":"Lindevang St. (Metro)","to":"Fasanvej St. (Metro)"},"geometry":{"type":"LineString","coordinates":[[12.512873,55.683482],[12.523102,55.681669]]}},{"type":"Feature","properties":{"shape_id":"{\"1465\": 212, \"1467\": 1, \"1492\": 212}","direction_id":"{\"1\": 425}","headsign":"{\"Vanløse st. (Metro)\": 425}","duration_avg":61.411764705882355,"n_vehicles":425,"d":878,"route_I_counts":"{\"318\": 213, \"319\": 212}","source":21,"target":20,"layer":"L","from":"Lindevang St. (Metro)","to":"Flintholm St. (Metro)"},"geometry":{"type":"LineString","coordinates":[[12.512873,55.683482],[12.499527,55.685869]]}},{"type":"Feature","properties":{"shape_id":"{\"1453\": 212, \"1459\": 2, \"1463\": 1, \"1478\": 211, \"1488\": 1}","direction_id":"{\"0\": 427}","headsign":"{\"Christianshavn st. (Metro)\": 1, \"Forum st. (Metro)\": 1, \"Lufthavnen st.\": 212, \"Nørreport st. (Metro)\": 2, \"Vestamager st.\": 211}","duration_avg":60.0,"n_vehicles":427,"d":543,"route_I_counts":"{\"318\": 215, \"319\": 212}","source":22,"target":16,"layer":"L","from":"Fasanvej St. (Metro)","to":"Frederiksberg St. (Metro)"},"geometry":{"type":"LineString","coordinates":[[12.523102,55.681669],[12.531719,55.681223]]}},{"type":"Feature","properties":{"shape_id":"{\"1465\": 212, \"1467\": 1, \"1492\": 212}","direction_id":"{\"1\": 425}","headsign":"{\"Vanløse st. (Metro)\": 425}","duration_avg":60.84705882352941,"n_vehicles":425,"d":672,"route_I_counts":"{\"318\": 213, \"319\": 212}","source":22,"target":21,"layer":"L","from":"Fasanvej St. (Metro)","to":"Lindevang St. (Metro)"},"geometry":{"type":"LineString","coordinates":[[12.523102,55.681669],[12.512873,55.683482]]}},{"type":"Feature","properties":{"shape_id":"{\"1453\": 211, \"1459\": 2, \"1463\": 1, \"1478\": 211}","direction_id":"{\"0\": 425}","headsign":"{\"Christianshavn st. (Metro)\": 1, \"Lufthavnen st.\": 211, \"Nørreport st. (Metro)\": 2, \"Vestamager st.\": 211}","duration_avg":60.0,"n_vehicles":425,"d":1189,"route_I_counts":"{\"318\": 214, \"319\": 211}","source":23,"target":24,"layer":"L","from":"Forum St. (Metro)","to":"Nørreport St. (Metro)"},"geometry":{"type":"LineString","coordinates":[[12.55243,55.681821],[12.571044,55.683843]]}},{"type":"Feature","properties":{"shape_id":"{\"1465\": 212, \"1467\": 1, \"1492\": 213}","direction_id":"{\"1\": 426}","headsign":"{\"Vanløse st. (Metro)\": 426}","duration_avg":84.22535211267606,"n_vehicles":426,"d":1301,"route_I_counts":"{\"318\": 214, \"319\": 212}","source":23,"target":16,"layer":"L","from":"Forum St. (Metro)","to":"Frederiksberg St. (Metro)"},"geometry":{"type":"LineString","coordinates":[[12.55243,55.681821],[12.531719,55.681223]]}},{"type":"Feature","properties":{"shape_id":"{\"1453\": 211, \"1463\": 1, \"1478\": 211}","direction_id":"{\"0\": 423}","headsign":"{\"Christianshavn st. (Metro)\": 1, \"Lufthavnen st.\": 211, \"Vestamager st.\": 211}","duration_avg":62.97872340425532,"n_vehicles":423,"d":1030,"route_I_counts":"{\"318\": 212, \"319\": 211}","source":24,"target":3,"layer":"L","from":"Nørreport St. (Metro)","to":"Kongens Nytorv St. (Metro)"},"geometry":{"type":"LineString","coordinates":[[12.571044,55.683843],[12.585228,55.679185]]}},{"type":"Feature","properties":{"shape_id":"{\"1465\": 213, \"1467\": 1, \"1492\": 213}","direction_id":"{\"1\": 427}","headsign":"{\"Vanløse st. (Metro)\": 427}","duration_avg":84.16861826697892,"n_vehicles":427,"d":1189,"route_I_counts":"{\"318\": 214, \"319\": 213}","source":24,"target":23,"layer":"L","from":"Nørreport St. (Metro)","to":"Forum St. (Metro)"},"geometry":{"type":"LineString","coordinates":[[12.571044,55.683843],[12.55243,55.681821]]}},{"type":"Feature","properties":{"shape_id":"{\"1478\": 210}","direction_id":"{\"0\": 210}","headsign":"{\"Vestamager st.\": 210}","duration_avg":63.714285714285715,"n_vehicles":210,"d":1035,"route_I_counts":"{\"318\": 210}","source":25,"target":26,"layer":"L","from":"Christianshavn St. (Metro)","to":"Islands Brygge St. (Metro)"},"geometry":{"type":"LineString","coordinates":[[12.591385,55.672054],[12.585217,55.663422]]}},{"type":"Feature","properties":{"shape_id":"{\"1465\": 213, \"1492\": 213}","direction_id":"{\"1\": 426}","headsign":"{\"Vanløse st. (Metro)\": 426}","duration_avg":61.971830985915496,"n_vehicles":426,"d":882,"route_I_counts":"{\"318\": 213, \"319\": 213}","source":25,"target":3,"layer":"L","from":"Christianshavn St. (Metro)","to":"Kongens Nytorv St. (Metro)"},"geometry":{"type":"LineString","coordinates":[[12.591385,55.672054],[12.585228,55.679185]]}},{"type":"Feature","properties":{"shape_id":"{\"1453\": 210, \"1456\": 2}","direction_id":"{\"0\": 212}","headsign":"{\"Lufthavnen st.\": 212}","duration_avg":61.9811320754717,"n_vehicles":212,"d":1212,"route_I_counts":"{\"319\": 212}","source":25,"target":32,"layer":"L","from":"Christianshavn St. (Metro)","to":"Amagerbro St. (Metro)"},"geometry":{"type":"LineString","coordinates":[[12.591385,55.672054],[12.602929,55.663326]]}},{"type":"Feature","properties":{"shape_id":"{\"1478\": 210}","direction_id":"{\"0\": 210}","headsign":"{\"Vestamager st.\": 210}","duration_avg":62.57142857142857,"n_vehicles":210,"d":879,"route_I_counts":"{\"318\": 210}","source":26,"target":27,"layer":"L","from":"Islands Brygge St. (Metro)","to":"DR Byen St. (Metro)"},"geometry":{"type":"LineString","coordinates":[[12.585217,55.663422],[12.58899,55.655813]]}},{"type":"Feature","properties":{"shape_id":"{\"1492\": 213, \"1494\": 1}","direction_id":"{\"1\": 214}","headsign":"{\"Christianshavn st. (Metro)\": 1, \"Vanløse st. (Metro)\": 213}","duration_avg":65.32710280373831,"n_vehicles":214,"d":1035,"route_I_counts":"{\"318\": 214}","source":26,"target":25,"layer":"L","from":"Islands Brygge St. (Metro)","to":"Christianshavn St. (Metro)"},"geometry":{"type":"LineString","coordinates":[[12.585217,55.663422],[12.591385,55.672054]]}},{"type":"Feature","properties":{"shape_id":"{\"1478\": 209, \"1485\": 1}","direction_id":"{\"0\": 210}","headsign":"{\"Vestamager st.\": 210}","duration_avg":116.0,"n_vehicles":210,"d":1199,"route_I_counts":"{\"318\": 210}","source":27,"target":28,"layer":"L","from":"DR Byen St. (Metro)","to":"Sundby St. (Metro)"},"geometry":{"type":"LineString","coordinates":[[12.58899,55.655813],[12.585728,55.645199]]}},{"type":"Feature","properties":{"shape_id":"{\"1492\": 213, \"1494\": 1}","direction_id":"{\"1\": 214}","headsign":"{\"Christianshavn st. (Metro)\": 1, \"Vanløse st. (Metro)\": 213}","duration_avg":62.52336448598131,"n_vehicles":214,"d":879,"route_I_counts":"{\"318\": 214}","source":27,"target":26,"layer":"L","from":"DR Byen St. (Metro)","to":"Islands Brygge St. (Metro)"},"geometry":{"type":"LineString","coordinates":[[12.58899,55.655813],[12.585217,55.663422]]}},{"type":"Feature","properties":{"shape_id":"{\"1478\": 209, \"1485\": 1}","direction_id":"{\"0\": 210}","headsign":"{\"Vestamager st.\": 210}","duration_avg":60.285714285714285,"n_vehicles":210,"d":814,"route_I_counts":"{\"318\": 210}","source":28,"target":29,"layer":"L","from":"Sundby St. (Metro)","to":"Bella Center St. (Metro)"},"geometry":{"type":"LineString","coordinates":[[12.585728,55.645199],[12.582928,55.638051]]}},{"type":"Feature","properties":{"shape_id":"{\"1492\": 214, \"1499\": 1}","direction_id":"{\"1\": 215}","headsign":"{\"DR Byen St. (Metro)\": 1, \"Vanløse st. (Metro)\": 214}","duration_avg":101.86046511627907,"n_vehicles":215,"d":1199,"route_I_counts":"{\"318\": 215}","source":28,"target":27,"layer":"L","from":"Sundby St. (Metro)","to":"DR Byen St. (Metro)"},"geometry":{"type":"LineString","coordinates":[[12.585728,55.645199],[12.58899,55.655813]]}},{"type":"Feature","properties":{"shape_id":"{\"1478\": 209, \"1485\": 1}","direction_id":"{\"0\": 210}","headsign":"{\"Vestamager st.\": 210}","duration_avg":62.57142857142857,"n_vehicles":210,"d":1025,"route_I_counts":"{\"318\": 210}","source":29,"target":30,"layer":"L","from":"Bella Center St. (Metro)","to":"Ørestad St. (Metro)"},"geometry":{"type":"LineString","coordinates":[[12.582928,55.638051],[12.579389,55.629055]]}},{"type":"Feature","properties":{"shape_id":"{\"1492\": 214, \"1499\": 1}","direction_id":"{\"1\": 215}","headsign":"{\"DR Byen St. (Metro)\": 1, \"Vanløse st. (Metro)\": 214}","duration_avg":117.48837209302326,"n_vehicles":215,"d":814,"route_I_counts":"{\"318\": 215}","source":29,"target":28,"layer":"L","from":"Bella Center St. (Metro)","to":"Sundby St. (Metro)"},"geometry":{"type":"LineString","coordinates":[[12.582928,55.638051],[12.585728,55.645199]]}},{"type":"Feature","properties":{"shape_id":"{\"1478\": 209, \"1485\": 1}","direction_id":"{\"0\": 210}","headsign":"{\"Vestamager st.\": 210}","duration_avg":63.714285714285715,"n_vehicles":210,"d":1106,"route_I_counts":"{\"318\": 210}","source":30,"target":31,"layer":"L","from":"Ørestad St. (Metro)","to":"Vestamager St. (Metro)"},"geometry":{"type":"LineString","coordinates":[[12.579389,55.629055],[12.575297,55.619391]]}},{"type":"Feature","properties":{"shape_id":"{\"1492\": 214, \"1499\": 1}","direction_id":"{\"1\": 215}","headsign":"{\"DR Byen St. (Metro)\": 1, \"Vanløse st. (Metro)\": 214}","duration_avg":62.51162790697674,"n_vehicles":215,"d":1025,"route_I_counts":"{\"318\": 215}","source":30,"target":29,"layer":"L","from":"Ørestad St. (Metro)","to":"Bella Center St. (Metro)"},"geometry":{"type":"LineString","coordinates":[[12.579389,55.629055],[12.582928,55.638051]]}},{"type":"Feature","properties":{"shape_id":"{\"1492\": 215, \"1499\": 1}","direction_id":"{\"1\": 216}","headsign":"{\"DR Byen St. (Metro)\": 1, \"Vanløse st. (Metro)\": 215}","duration_avg":76.66666666666667,"n_vehicles":216,"d":1106,"route_I_counts":"{\"318\": 216}","source":31,"target":30,"layer":"L","from":"Vestamager St. (Metro)","to":"Ørestad St. (Metro)"},"geometry":{"type":"LineString","coordinates":[[12.575297,55.619391],[12.579389,55.629055]]}},{"type":"Feature","properties":{"shape_id":"{\"1453\": 210, \"1456\": 2}","direction_id":"{\"0\": 212}","headsign":"{\"Lufthavnen st.\": 212}","duration_avg":60.0,"n_vehicles":212,"d":857,"route_I_counts":"{\"319\": 212}","source":32,"target":33,"layer":"L","from":"Amagerbro St. (Metro)","to":"Lergravsparken St. (Metro)"},"geometry":{"type":"LineString","coordinates":[[12.602929,55.663326],[12.616417,55.662101]]}},{"type":"Feature","properties":{"shape_id":"{\"1465\": 214}","direction_id":"{\"1\": 214}","headsign":"{\"Vanløse st. (Metro)\": 214}","duration_avg":120.0,"n_vehicles":214,"d":1212,"route_I_counts":"{\"319\": 214}","source":32,"target":25,"layer":"L","from":"Amagerbro St. (Metro)","to":"Christianshavn St. (Metro)"},"geometry":{"type":"LineString","coordinates":[[12.602929,55.663326],[12.591385,55.672054]]}},{"type":"Feature","properties":{"shape_id":"{\"1453\": 210, \"1456\": 2}","direction_id":"{\"0\": 212}","headsign":"{\"Lufthavnen st.\": 212}","duration_avg":118.01886792452831,"n_vehicles":212,"d":757,"route_I_counts":"{\"319\": 212}","source":33,"target":34,"layer":"L","from":"Lergravsparken St. (Metro)","to":"Øresund St. (Metro)"},"geometry":{"type":"LineString","coordinates":[[12.616417,55.662101],[12.628453,55.661701]]}},{"type":"Feature","properties":{"shape_id":"{\"1465\": 214}","direction_id":"{\"1\": 214}","headsign":"{\"Vanløse st. (Metro)\": 214}","duration_avg":61.96261682242991,"n_vehicles":214,"d":857,"route_I_counts":"{\"319\": 214}","source":33,"target":32,"layer":"L","from":"Lergravsparken St. (Metro)","to":"Amagerbro St. (Metro)"},"geometry":{"type":"LineString","coordinates":[[12.616417,55.662101],[12.602929,55.663326]]}},{"type":"Feature","properties":{"shape_id":"{\"1453\": 210, \"1456\": 2}","direction_id":"{\"0\": 212}","headsign":"{\"Lufthavnen st.\": 212}","duration_avg":60.0,"n_vehicles":212,"d":609,"route_I_counts":"{\"319\": 212}","source":34,"target":35,"layer":"L","from":"Øresund St. (Metro)","to":"Amager Strand St. (Metro)"},"geometry":{"type":"LineString","coordinates":[[12.628453,55.661701],[12.631584,55.656518]]}},{"type":"Feature","properties":{"shape_id":"{\"1465\": 214}","direction_id":"{\"1\": 214}","headsign":"{\"Vanløse st. (Metro)\": 214}","duration_avg":60.0,"n_vehicles":214,"d":757,"route_I_counts":"{\"319\": 214}","source":34,"target":33,"layer":"L","from":"Øresund St. (Metro)","to":"Lergravsparken St. (Metro)"},"geometry":{"type":"LineString","coordinates":[[12.628453,55.661701],[12.616417,55.662101]]}},{"type":"Feature","properties":{"shape_id":"{\"1453\": 209, \"1456\": 3, \"1458\": 3}","direction_id":"{\"0\": 215}","headsign":"{\"Lufthavnen st.\": 215}","duration_avg":117.20930232558139,"n_vehicles":215,"d":1313,"route_I_counts":"{\"319\": 215}","source":35,"target":36,"layer":"L","from":"Amager Strand St. (Metro)","to":"Femøren St. (Metro)"},"geometry":{"type":"LineString","coordinates":[[12.631584,55.656518],[12.638324,55.645348]]}},{"type":"Feature","properties":{"shape_id":"{\"1465\": 215}","direction_id":"{\"1\": 215}","headsign":"{\"Vanløse st. (Metro)\": 215}","duration_avg":60.0,"n_vehicles":215,"d":609,"route_I_counts":"{\"319\": 215}","source":35,"target":34,"layer":"L","from":"Amager Strand St. (Metro)","to":"Øresund St. (Metro)"},"geometry":{"type":"LineString","coordinates":[[12.631584,55.656518],[12.628453,55.661701]]}},{"type":"Feature","properties":{"shape_id":"{\"1453\": 209, \"1456\": 3, \"1458\": 3}","direction_id":"{\"0\": 215}","headsign":"{\"Lufthavnen st.\": 215}","duration_avg":118.04651162790698,"n_vehicles":215,"d":1192,"route_I_counts":"{\"319\": 215}","source":36,"target":37,"layer":"L","from":"Femøren St. (Metro)","to":"Kastrup St. (Metro)"},"geometry":{"type":"LineString","coordinates":[[12.638324,55.645348],[12.646732,55.635747]]}},{"type":"Feature","properties":{"shape_id":"{\"1465\": 215, \"1476\": 3}","direction_id":"{\"1\": 218}","headsign":"{\"Amager Strand st.\": 3, \"Vanløse st. (Metro)\": 215}","duration_avg":60.0,"n_vehicles":218,"d":1313,"route_I_counts":"{\"319\": 218}","source":36,"target":35,"layer":"L","from":"Femøren St. (Metro)","to":"Amager Strand St. (Metro)"},"geometry":{"type":"LineString","coordinates":[[12.638324,55.645348],[12.631584,55.656518]]}},{"type":"Feature","properties":{"shape_id":"{\"1453\": 209, \"1456\": 3, \"1458\": 3}","direction_id":"{\"0\": 215}","headsign":"{\"Lufthavnen st.\": 215}","duration_avg":119.16279069767442,"n_vehicles":215,"d":646,"route_I_counts":"{\"319\": 215}","source":37,"target":38,"layer":"L","from":"Kastrup St. (Metro)","to":"Lufthavnen St. (Metro)"},"geometry":{"type":"LineString","coordinates":[[12.646732,55.635747],[12.64939,55.630137]]}},{"type":"Feature","properties":{"shape_id":"{\"1465\": 215, \"1476\": 3}","direction_id":"{\"1\": 218}","headsign":"{\"Amager Strand st.\": 3, \"Vanløse st. (Metro)\": 215}","duration_avg":60.0,"n_vehicles":218,"d":1192,"route_I_counts":"{\"319\": 218}","source":37,"target":36,"layer":"L","from":"Kastrup St. (Metro)","to":"Femøren St. (Metro)"},"geometry":{"type":"LineString","coordinates":[[12.646732,55.635747],[12.638324,55.645348]]}},{"type":"Feature","properties":{"shape_id":"{\"1465\": 215, \"1476\": 3}","direction_id":"{\"1\": 218}","headsign":"{\"Amager Strand st.\": 3, \"Vanløse st. (Metro)\": 215}","duration_avg":60.0,"n_vehicles":218,"d":646,"route_I_counts":"{\"319\": 218}","source":38,"target":37,"layer":"L","from":"Lufthavnen St. (Metro)","to":"Kastrup St. (Metro)"},"geometry":{"type":"LineString","coordinates":[[12.64939,55.630137],[12.646732,55.635747]]}}]}