{"type":"FeatureCollection","features":[{"type":"Feature","geometry":{"type":"Point","coordinates":[55.400992,25.254842]},"properties":{"name":"Etisalat Metro Station 1","original_ids":"[61, 62]","id":0,"layer":"stop"}},{"type":"Feature","geometry":{"type":"Point","coordinates":[55.387764,25.262566]},"properties":{"name":"Al Qusais Metro Station 1","original_ids":"[63, 64]","id":1,"layer":"stop"}},{"type":"Feature","geometry":{"type":"Point","coordinates":[55.375258,25.269855]},"properties":{"name":"Dubai Airport Free Zone Metro Station 1","original_ids":"[65, 66]","id":2,"layer":"stop"}},{"type":"Feature","geometry":{"type":"Point","coordinates":[55.369461,25.273278]},"properties":{"name":"Al Nahda Metro Station 1","original_ids":"[67, 68]","id":3,"layer":"stop"}},{"type":"Feature","geometry":{"type":"Point","coordinates":[55.361828,25.277721]},"properties":{"name":"Stadium Metro Station 1","original_ids":"[69, 70]","id":4,"layer":"stop"}},{"type":"Feature","geometry":{"type":"Point","coordinates":[55.352922,25.277894]},"properties":{"name":"Al Qiyadah Metro Station 1","original_ids":"[71, 72]","id":5,"layer":"stop"}},{"type":"Feature","geometry":{"type":"Point","coordinates":[55.346389,25.275322]},"properties":{"name":"Abu Hail Metro Station 1","original_ids":"[73, 74]","id":6,"layer":"stop"}},{"type":"Feature","geometry":{"type":"Point","coordinates":[55.332837,25.270881]},"properties":{"name":"Abu Baker Al Siddique Metro Station 1","original_ids":"[75, 76]","id":7,"layer":"stop"}},{"type":"Feature","geometry":{"type":"Point","coordinates":[55.321053,25.270393]},"properties":{"name":"Salah Al Din Metro Station 1","original_ids":"[77, 78]","id":8,"layer":"stop"}},{"type":"Feature","geometry":{"type":"Point","coordinates":[55.313747,25.26624]},"properties":{"name":"Union  (Green Line ) Metro Station 1","original_ids":"[79, 80, 15, 16]","id":9,"layer":"stop"}},{"type":"Feature","geometry":{"type":"Point","coordinates":[55.307462,25.26892]},"properties":{"name":"Baniyas Square Metro Station 1","original_ids":"[81, 82]","id":10,"layer":"stop"}},{"type":"Feature","geometry":{"type":"Point","coordinates":[55.301533,25.27596]},"properties":{"name":"Gold Souq Metro Station 1","original_ids":"[83, 84]","id":11,"layer":"stop"}},{"type":"Feature","geometry":{"type":"Point","coordinates":[55.293841,25.268727]},"properties":{"name":"Al Ras Metro Station 1","original_ids":"[85, 86]","id":12,"layer":"stop"}},{"type":"Feature","geometry":{"type":"Point","coordinates":[55.289177,25.26535]},"properties":{"name":"Al Ghubaiba Metro Station 1","original_ids":"[87, 88]","id":13,"layer":"stop"}},{"type":"Feature","geometry":{"type":"Point","coordinates":[55.297438,25.258401]},"properties":{"name":"Sharaf DG Metro Station 1","original_ids":"[89, 90]","id":14,"layer":"stop"}},{"type":"Feature","geometry":{"type":"Point","coordinates":[55.30408,25.254927]},"properties":{"name":"BurJuman Metro Station 1","original_ids":"[91, 17, 92, 18]","id":15,"layer":"stop"}},{"type":"Feature","geometry":{"type":"Point","coordinates":[55.315825,25.244051]},"properties":{"name":"Oud Metha Metro Station 1","original_ids":"[93, 94]","id":16,"layer":"stop"}},{"type":"Feature","geometry":{"type":"Point","coordinates":[55.322794,25.23089]},"properties":{"name":"Dubai Healthcare City Metro Station 1","original_ids":"[95, 96]","id":17,"layer":"stop"}},{"type":"Feature","geometry":{"type":"Point","coordinates":[55.333423,25.22514]},"properties":{"name":"Al Jadaf Metro Station 1","original_ids":"[97, 98]","id":18,"layer":"stop"}},{"type":"Feature","geometry":{"type":"Point","coordinates":[55.33891,25.218966]},"properties":{"name":"Creek Metro Station 1","original_ids":"[99, 100]","id":19,"layer":"stop"}},{"type":"Feature","geometry":{"type":"Point","coordinates":[55.152239,25.030437]},"properties":{"name":"Al Furjan Metro Station 1","original_ids":"[105, 106]","id":20,"layer":"stop"}},{"type":"Feature","geometry":{"type":"Point","coordinates":[55.145355,25.035213]},"properties":{"name":"Discovery Gardens Metro Station 1","original_ids":"[103, 104]","id":21,"layer":"stop"}},{"type":"Feature","geometry":{"type":"Point","coordinates":[55.135126,25.043541]},"properties":{"name":"The Gardens Metro Station 1","original_ids":"[101, 102]","id":22,"layer":"stop"}},{"type":"Feature","geometry":{"type":"Point","coordinates":[55.127205,25.05755]},"properties":{"name":"Jabal Ali Metro Station 3","original_ids":"[51, 52, 49, 50]","id":23,"layer":"stop"}},{"type":"Feature","geometry":{"type":"Point","coordinates":[55.139086,25.071251]},"properties":{"name":"DMCC Metro Station 1","original_ids":"[47, 48]","id":24,"layer":"stop"}},{"type":"Feature","geometry":{"type":"Point","coordinates":[55.148072,25.080308]},"properties":{"name":"Sobha Realty Metro Station 1","original_ids":"[45, 46]","id":25,"layer":"stop"}},{"type":"Feature","geometry":{"type":"Point","coordinates":[55.157903,25.088797]},"properties":{"name":"Al Khail Metro Station 1","original_ids":"[43, 44]","id":26,"layer":"stop"}},{"type":"Feature","geometry":{"type":"Point","coordinates":[55.173657,25.101823]},"properties":{"name":"Dubai Internet City  Metro Station  1","original_ids":"[41, 42]","id":27,"layer":"stop"}},{"type":"Feature","geometry":{"type":"Point","coordinates":[55.190516,25.114533]},"properties":{"name":"Mashreq Metro Station 1","original_ids":"[39, 40]","id":28,"layer":"stop"}},{"type":"Feature","geometry":{"type":"Point","coordinates":[55.199374,25.120499]},"properties":{"name":"Mall of the Emirates Metro Station 1","original_ids":"[37, 38]","id":29,"layer":"stop"}},{"type":"Feature","geometry":{"type":"Point","coordinates":[55.207528,25.126509]},"properties":{"name":"Umm Al Sheif Metro Station 1","original_ids":"[35, 36]","id":30,"layer":"stop"}},{"type":"Feature","geometry":{"type":"Point","coordinates":[55.228466,25.155241]},"properties":{"name":"Al Safa Metro Station 1","original_ids":"[33, 34]","id":31,"layer":"stop"}},{"type":"Feature","geometry":{"type":"Point","coordinates":[55.260451,25.191379]},"properties":{"name":"Business Bay Metro Station 1","original_ids":"[31, 32]","id":32,"layer":"stop"}},{"type":"Feature","geometry":{"type":"Point","coordinates":[55.269574,25.201457]},"properties":{"name":"Burj Khalifa/ Dubai Mall Metro Station 1","original_ids":"[29, 30]","id":33,"layer":"stop"}},{"type":"Feature","geometry":{"type":"Point","coordinates":[55.275463,25.21092]},"properties":{"name":"Financial Centre Metro Station 1","original_ids":"[27, 28]","id":34,"layer":"stop"}},{"type":"Feature","geometry":{"type":"Point","coordinates":[55.279787,25.217178]},"properties":{"name":"Emirates Towers Metro Station 1","original_ids":"[25, 26]","id":35,"layer":"stop"}},{"type":"Feature","geometry":{"type":"Point","coordinates":[55.285479,25.225476]},"properties":{"name":"World Trade Centre Metro Station 1","original_ids":"[23, 24]","id":36,"layer":"stop"}},{"type":"Feature","geometry":{"type":"Point","coordinates":[55.291789,25.233006]},"properties":{"name":"max Metro Station 1","original_ids":"[21, 22]","id":37,"layer":"stop"}},{"type":"Feature","geometry":{"type":"Point","coordinates":[55.298236,25.244716]},"properties":{"name":"ADCB Metro Station 1","original_ids":"[19, 20]","id":38,"layer":"stop"}},{"type":"Feature","geometry":{"type":"Point","coordinates":[55.324151,25.26319]},"properties":{"name":"Al Rigga Metro Station 1","original_ids":"[13, 14]","id":39,"layer":"stop"}},{"type":"Feature","geometry":{"type":"Point","coordinates":[55.330276,25.254289]},"properties":{"name":"Deira City Centre Metro Station 1","original_ids":"[11, 12]","id":40,"layer":"stop"}},{"type":"Feature","geometry":{"type":"Point","coordinates":[55.339865,25.249469]},"properties":{"name":"GGICO Metro Station 1","original_ids":"[9, 10]","id":41,"layer":"stop"}},{"type":"Feature","geometry":{"type":"Point","coordinates":[55.352729,25.24824]},"properties":{"name":"Airport Terminal 1 Metro Station 1","original_ids":"[7, 8]","id":42,"layer":"stop"}},{"type":"Feature","geometry":{"type":"Point","coordinates":[55.359428,25.245142]},"properties":{"name":"Airport Terminal 3 Metro Station 1","original_ids":"[5, 6]","id":43,"layer":"stop"}},{"type":"Feature","geometry":{"type":"Point","coordinates":[55.36572,25.241097]},"properties":{"name":"Emirates Metro Station 1","original_ids":"[3, 4]","id":44,"layer":"stop"}},{"type":"Feature","geometry":{"type":"Point","coordinates":[55.39158,25.230103]},"properties":{"name":"centrepoint Metro Station 1","original_ids":"[1, 2]","id":45,"layer":"stop"}},{"type":"Feature","geometry":{"type":"Point","coordinates":[55.146207,24.963491]},"properties":{"name":"EXPO Metro Station 1","original_ids":"[111, 112]","id":46,"layer":"stop"}},{"type":"Feature","geometry":{"type":"Point","coordinates":[55.155733,25.005625]},"properties":{"name":"Dubai Investment Park Metro Station 1","original_ids":"[109, 110]","id":47,"layer":"stop"}},{"type":"Feature","geometry":{"type":"Point","coordinates":[55.163274,25.017902]},"properties":{"name":"Jumeirah Golf Estates Metro Station 1","original_ids":"[107, 108]","id":48,"layer":"stop"}},{"type":"Feature","geometry":{"type":"Point","coordinates":[55.090873,24.977187]},"properties":{"name":"UAE Exchange Metro Station 1","original_ids":"[59, 60]","id":49,"layer":"stop"}},{"type":"Feature","geometry":{"type":"Point","coordinates":[55.095581,25.000865]},"properties":{"name":"Danube Metro Station 1","original_ids":"[57, 58]","id":50,"layer":"stop"}},{"type":"Feature","geometry":{"type":"Point","coordinates":[55.10117,25.026159]},"properties":{"name":"Energy  Metro Station 1","original_ids":"[55, 56]","id":51,"layer":"stop"}},{"type":"Feature","geometry":{"type":"Point","coordinates":[55.117324,25.046568]},"properties":{"name":"Ibn Battuta Metro Station 1","original_ids":"[53, 54]","id":52,"layer":"stop"}},{"type":"Feature","properties":{"shape_id":"{\"11-MGr-n-y08-1.1.H\": 136}","direction_id":"{\"0\": 136}","headsign":"{\"Creek Metro Station\": 136}","duration_avg":173.3235294117647,"n_vehicles":136,"d":1585,"route_I_counts":"{\"2\": 136}","source":0,"target":1,"layer":"L","from":"Etisalat Metro Station 1","to":"Al Qusais Metro Station 1"},"geometry":{"type":"LineString","coordinates":[[55.400992,25.254842],[55.387764,25.262566]]}},{"type":"Feature","properties":{"shape_id":"{\"11-MGr-n-y08-1.1.H\": 136}","direction_id":"{\"0\": 136}","headsign":"{\"Creek Metro Station\": 136}","duration_avg":133.0,"n_vehicles":136,"d":1497,"route_I_counts":"{\"2\": 136}","source":1,"target":2,"layer":"L","from":"Al Qusais Metro Station 1","to":"Dubai Airport Free Zone Metro Station 1"},"geometry":{"type":"LineString","coordinates":[[55.387764,25.262566],[55.375258,25.269855]]}},{"type":"Feature","properties":{"duration_avg":148.0,"n_vehicles":132,"d":1600,"route_I_counts":"{\"2\": 132}","shape_id":"{\"11-MGr-n-y08-1.12.R\": 1, \"11-MGr-n-y08-1.15.R\": 1, \"11-MGr-n-y08-1.2.R\": 130}","direction_id":"{\"1\": 132}","headsign":"{\"Etisalat Metro Station\": 132}","source":1,"target":0,"layer":"L","from":"Al Qusais Metro Station 1","to":"Etisalat Metro Station 1"},"geometry":{"type":"LineString","coordinates":[[55.387764,25.262566],[55.400992,25.254842]]}},{"type":"Feature","properties":{"shape_id":"{\"11-MGr-n-y08-1.1.H\": 135}","direction_id":"{\"0\": 135}","headsign":"{\"Creek Metro Station\": 135}","duration_avg":96.0,"n_vehicles":135,"d":696,"route_I_counts":"{\"2\": 135}","source":2,"target":3,"layer":"L","from":"Dubai Airport Free Zone Metro Station 1","to":"Al Nahda Metro Station 1"},"geometry":{"type":"LineString","coordinates":[[55.375258,25.269855],[55.369461,25.273278]]}},{"type":"Feature","properties":{"duration_avg":133.0,"n_vehicles":132,"d":1492,"route_I_counts":"{\"2\": 132}","shape_id":"{\"11-MGr-n-y08-1.12.R\": 1, \"11-MGr-n-y08-1.15.R\": 1, \"11-MGr-n-y08-1.2.R\": 130}","direction_id":"{\"1\": 132}","headsign":"{\"Etisalat Metro Station\": 132}","source":2,"target":1,"layer":"L","from":"Dubai Airport Free Zone Metro Station 1","to":"Al Qusais Metro Station 1"},"geometry":{"type":"LineString","coordinates":[[55.375258,25.269855],[55.387764,25.262566]]}},{"type":"Feature","properties":{"shape_id":"{\"11-MGr-n-y08-1.1.H\": 135}","direction_id":"{\"0\": 135}","headsign":"{\"Creek Metro Station\": 135}","duration_avg":107.0,"n_vehicles":135,"d":913,"route_I_counts":"{\"2\": 135}","source":3,"target":4,"layer":"L","from":"Al Nahda Metro Station 1","to":"Stadium Metro Station 1"},"geometry":{"type":"LineString","coordinates":[[55.369461,25.273278],[55.361828,25.277721]]}},{"type":"Feature","properties":{"duration_avg":94.0,"n_vehicles":133,"d":685,"route_I_counts":"{\"2\": 133}","shape_id":"{\"11-MGr-n-y08-1.12.R\": 1, \"11-MGr-n-y08-1.15.R\": 1, \"11-MGr-n-y08-1.2.R\": 131}","direction_id":"{\"1\": 133}","headsign":"{\"Etisalat Metro Station\": 133}","source":3,"target":2,"layer":"L","from":"Al Nahda Metro Station 1","to":"Dubai Airport Free Zone Metro Station 1"},"geometry":{"type":"LineString","coordinates":[[55.369461,25.273278],[55.375258,25.269855]]}},{"type":"Feature","properties":{"shape_id":"{\"11-MGr-n-y08-1.1.H\": 135, \"11-MGr-n-y08-1.10.H\": 1}","direction_id":"{\"0\": 136}","headsign":"{\"Creek Metro Station\": 136}","duration_avg":112.0,"n_vehicles":136,"d":896,"route_I_counts":"{\"2\": 136}","source":4,"target":5,"layer":"L","from":"Stadium Metro Station 1","to":"Al Qiyadah Metro Station 1"},"geometry":{"type":"LineString","coordinates":[[55.361828,25.277721],[55.352922,25.277894]]}},{"type":"Feature","properties":{"duration_avg":108.0,"n_vehicles":133,"d":923,"route_I_counts":"{\"2\": 133}","shape_id":"{\"11-MGr-n-y08-1.12.R\": 1, \"11-MGr-n-y08-1.15.R\": 1, \"11-MGr-n-y08-1.2.R\": 131}","direction_id":"{\"1\": 133}","headsign":"{\"Etisalat Metro Station\": 133}","source":4,"target":3,"layer":"L","from":"Stadium Metro Station 1","to":"Al Nahda Metro Station 1"},"geometry":{"type":"LineString","coordinates":[[55.361828,25.277721],[55.369461,25.273278]]}},{"type":"Feature","properties":{"shape_id":"{\"11-MGr-n-y08-1.1.H\": 135, \"11-MGr-n-y08-1.10.H\": 1}","direction_id":"{\"0\": 136}","headsign":"{\"Creek Metro Station\": 136}","duration_avg":106.0,"n_vehicles":136,"d":717,"route_I_counts":"{\"2\": 136}","source":5,"target":6,"layer":"L","from":"Al Qiyadah Metro Station 1","to":"Abu Hail Metro Station 1"},"geometry":{"type":"LineString","coordinates":[[55.352922,25.277894],[55.346389,25.275322]]}},{"type":"Feature","properties":{"duration_avg":122.0,"n_vehicles":133,"d":886,"route_I_counts":"{\"2\": 133}","shape_id":"{\"11-MGr-n-y08-1.12.R\": 1, \"11-MGr-n-y08-1.15.R\": 1, \"11-MGr-n-y08-1.2.R\": 131}","direction_id":"{\"1\": 133}","headsign":"{\"Etisalat Metro Station\": 133}","source":5,"target":4,"layer":"L","from":"Al Qiyadah Metro Station 1","to":"Stadium Metro Station 1"},"geometry":{"type":"LineString","coordinates":[[55.352922,25.277894],[55.361828,25.277721]]}},{"type":"Feature","properties":{"shape_id":"{\"11-MGr-n-y08-1.1.H\": 135, \"11-MGr-n-y08-1.10.H\": 1}","direction_id":"{\"0\": 136}","headsign":"{\"Creek Metro Station\": 136}","duration_avg":129.0,"n_vehicles":136,"d":1450,"route_I_counts":"{\"2\": 136}","source":6,"target":7,"layer":"L","from":"Abu Hail Metro Station 1","to":"Abu Baker Al Siddique Metro Station 1"},"geometry":{"type":"LineString","coordinates":[[55.346389,25.275322],[55.332837,25.270881]]}},{"type":"Feature","properties":{"duration_avg":94.0,"n_vehicles":133,"d":719,"route_I_counts":"{\"2\": 133}","shape_id":"{\"11-MGr-n-y08-1.12.R\": 1, \"11-MGr-n-y08-1.15.R\": 1, \"11-MGr-n-y08-1.2.R\": 131}","direction_id":"{\"1\": 133}","headsign":"{\"Etisalat Metro Station\": 133}","source":6,"target":5,"layer":"L","from":"Abu Hail Metro Station 1","to":"Al Qiyadah Metro Station 1"},"geometry":{"type":"LineString","coordinates":[[55.346389,25.275322],[55.352922,25.277894]]}},{"type":"Feature","properties":{"shape_id":"{\"11-MGr-n-y08-1.1.H\": 134, \"11-MGr-n-y08-1.10.H\": 1}","direction_id":"{\"0\": 135}","headsign":"{\"Creek Metro Station\": 135}","duration_avg":124.0,"n_vehicles":135,"d":1187,"route_I_counts":"{\"2\": 135}","source":7,"target":8,"layer":"L","from":"Abu Baker Al Siddique Metro Station 1","to":"Salah Al Din Metro Station 1"},"geometry":{"type":"LineString","coordinates":[[55.332837,25.270881],[55.321053,25.270393]]}},{"type":"Feature","properties":{"duration_avg":135.0,"n_vehicles":134,"d":1446,"route_I_counts":"{\"2\": 134}","shape_id":"{\"11-MGr-n-y08-1.12.R\": 1, \"11-MGr-n-y08-1.15.R\": 1, \"11-MGr-n-y08-1.2.R\": 132}","direction_id":"{\"1\": 134}","headsign":"{\"Etisalat Metro Station\": 134}","source":7,"target":6,"layer":"L","from":"Abu Baker Al Siddique Metro Station 1","to":"Abu Hail Metro Station 1"},"geometry":{"type":"LineString","coordinates":[[55.332837,25.270881],[55.346389,25.275322]]}},{"type":"Feature","properties":{"shape_id":"{\"11-MGr-n-y08-1.1.H\": 134, \"11-MGr-n-y08-1.10.H\": 1}","direction_id":"{\"0\": 135}","headsign":"{\"Creek Metro Station\": 135}","duration_avg":134.0,"n_vehicles":135,"d":868,"route_I_counts":"{\"2\": 135}","source":8,"target":9,"layer":"L","from":"Salah Al Din Metro Station 1","to":"Union  (Green Line ) Metro Station 1"},"geometry":{"type":"LineString","coordinates":[[55.321053,25.270393],[55.313747,25.26624]]}},{"type":"Feature","properties":{"duration_avg":123.0,"n_vehicles":134,"d":1189,"route_I_counts":"{\"2\": 134}","shape_id":"{\"11-MGr-n-y08-1.12.R\": 1, \"11-MGr-n-y08-1.15.R\": 1, \"11-MGr-n-y08-1.2.R\": 132}","direction_id":"{\"1\": 134}","headsign":"{\"Etisalat Metro Station\": 134}","source":8,"target":7,"layer":"L","from":"Salah Al Din Metro Station 1","to":"Abu Baker Al Siddique Metro Station 1"},"geometry":{"type":"LineString","coordinates":[[55.321053,25.270393],[55.332837,25.270881]]}},{"type":"Feature","properties":{"shape_id":"{\"11-MGr-n-y08-1.1.H\": 134, \"11-MGr-n-y08-1.10.H\": 1, \"11-MGr-n-y08-1.9.H\": 1}","direction_id":"{\"0\": 136}","headsign":"{\"Creek Metro Station\": 136}","duration_avg":111.0,"n_vehicles":136,"d":699,"route_I_counts":"{\"2\": 136}","source":9,"target":10,"layer":"L","from":"Union  (Green Line ) Metro Station 1","to":"Baniyas Square Metro Station 1"},"geometry":{"type":"LineString","coordinates":[[55.313747,25.26624],[55.307462,25.26892]]}},{"type":"Feature","properties":{"duration_avg":116.0,"n_vehicles":133,"d":861,"route_I_counts":"{\"2\": 133}","shape_id":"{\"11-MGr-n-y08-1.12.R\": 1, \"11-MGr-n-y08-1.2.R\": 132}","direction_id":"{\"1\": 133}","headsign":"{\"Etisalat Metro Station\": 133}","source":9,"target":8,"layer":"L","from":"Union  (Green Line ) Metro Station 1","to":"Salah Al Din Metro Station 1"},"geometry":{"type":"LineString","coordinates":[[55.313747,25.26624],[55.321053,25.270393]]}},{"type":"Feature","properties":{"duration_avg":126.0,"n_vehicles":232,"d":1095,"route_I_counts":"{\"3\": 232}","shape_id":"{\"11-MRe-d-y08-1.21.R\": 1, \"11-MRe-d-y08-1.22.R\": 1, \"11-MRe-d-y08-1.23.R\": 1, \"11-MRe-d-y08-1.41.R\": 228, \"11-MRe-d-y08-1.46.R\": 1}","direction_id":"{\"1\": 232}","headsign":"{\"centrepoint Metro Station\": 232}","source":9,"target":39,"layer":"L","from":"Union  (Green Line ) Metro Station 1","to":"Al Rigga Metro Station 1"},"geometry":{"type":"LineString","coordinates":[[55.313747,25.26624],[55.324151,25.26319]]}},{"type":"Feature","properties":{"duration_avg":161.0,"n_vehicles":243,"d":1554,"route_I_counts":"{\"3\": 243}","shape_id":"{\"11-MRe-d-y08-1.38.H\": 242, \"11-MRe-d-y08-1.45.H\": 1}","direction_id":"{\"0\": 243}","headsign":"{\"EXPO Metro Station\": 243}","source":9,"target":15,"layer":"L","from":"Union  (Green Line ) Metro Station 1","to":"BurJuman Metro Station 1"},"geometry":{"type":"LineString","coordinates":[[55.313747,25.26624],[55.30408,25.254927]]}},{"type":"Feature","properties":{"shape_id":"{\"11-MGr-n-y08-1.1.H\": 133, \"11-MGr-n-y08-1.10.H\": 1, \"11-MGr-n-y08-1.9.H\": 1}","direction_id":"{\"0\": 135}","headsign":"{\"Creek Metro Station\": 135}","duration_avg":130.0,"n_vehicles":135,"d":985,"route_I_counts":"{\"2\": 135}","source":10,"target":11,"layer":"L","from":"Baniyas Square Metro Station 1","to":"Gold Souq Metro Station 1"},"geometry":{"type":"LineString","coordinates":[[55.307462,25.26892],[55.301533,25.27596]]}},{"type":"Feature","properties":{"duration_avg":126.0,"n_vehicles":133,"d":704,"route_I_counts":"{\"2\": 133}","shape_id":"{\"11-MGr-n-y08-1.12.R\": 1, \"11-MGr-n-y08-1.2.R\": 132}","direction_id":"{\"1\": 133}","headsign":"{\"Etisalat Metro Station\": 133}","source":10,"target":9,"layer":"L","from":"Baniyas Square Metro Station 1","to":"Union  (Green Line ) Metro Station 1"},"geometry":{"type":"LineString","coordinates":[[55.307462,25.26892],[55.313747,25.26624]]}},{"type":"Feature","properties":{"shape_id":"{\"11-MGr-n-y08-1.1.H\": 133, \"11-MGr-n-y08-1.10.H\": 1, \"11-MGr-n-y08-1.9.H\": 1}","direction_id":"{\"0\": 135}","headsign":"{\"Creek Metro Station\": 135}","duration_avg":124.0,"n_vehicles":135,"d":1117,"route_I_counts":"{\"2\": 135}","source":11,"target":12,"layer":"L","from":"Gold Souq Metro Station 1","to":"Al Ras Metro Station 1"},"geometry":{"type":"LineString","coordinates":[[55.301533,25.27596],[55.293841,25.268727]]}},{"type":"Feature","properties":{"duration_avg":129.0,"n_vehicles":134,"d":983,"route_I_counts":"{\"2\": 134}","shape_id":"{\"11-MGr-n-y08-1.12.R\": 1, \"11-MGr-n-y08-1.2.R\": 133}","direction_id":"{\"1\": 134}","headsign":"{\"Etisalat Metro Station\": 134}","source":11,"target":10,"layer":"L","from":"Gold Souq Metro Station 1","to":"Baniyas Square Metro Station 1"},"geometry":{"type":"LineString","coordinates":[[55.301533,25.27596],[55.307462,25.26892]]}},{"type":"Feature","properties":{"shape_id":"{\"11-MGr-n-y08-1.1.H\": 133, \"11-MGr-n-y08-1.10.H\": 1, \"11-MGr-n-y08-1.9.H\": 1}","direction_id":"{\"0\": 135}","headsign":"{\"Creek Metro Station\": 135}","duration_avg":98.0,"n_vehicles":135,"d":601,"route_I_counts":"{\"2\": 135}","source":12,"target":13,"layer":"L","from":"Al Ras Metro Station 1","to":"Al Ghubaiba Metro Station 1"},"geometry":{"type":"LineString","coordinates":[[55.293841,25.268727],[55.289177,25.26535]]}},{"type":"Feature","properties":{"duration_avg":124.0,"n_vehicles":134,"d":1124,"route_I_counts":"{\"2\": 134}","shape_id":"{\"11-MGr-n-y08-1.12.R\": 1, \"11-MGr-n-y08-1.2.R\": 133}","direction_id":"{\"1\": 134}","headsign":"{\"Etisalat Metro Station\": 134}","source":12,"target":11,"layer":"L","from":"Al Ras Metro Station 1","to":"Gold Souq Metro Station 1"},"geometry":{"type":"LineString","coordinates":[[55.293841,25.268727],[55.301533,25.27596]]}},{"type":"Feature","properties":{"shape_id":"{\"11-MGr-n-y08-1.1.H\": 133, \"11-MGr-n-y08-1.10.H\": 1, \"11-MGr-n-y08-1.9.H\": 1}","direction_id":"{\"0\": 135}","headsign":"{\"Creek Metro Station\": 135}","duration_avg":132.0,"n_vehicles":135,"d":1135,"route_I_counts":"{\"2\": 135}","source":13,"target":14,"layer":"L","from":"Al Ghubaiba Metro Station 1","to":"Sharaf DG Metro Station 1"},"geometry":{"type":"LineString","coordinates":[[55.289177,25.26535],[55.297438,25.258401]]}},{"type":"Feature","properties":{"duration_avg":97.0,"n_vehicles":134,"d":600,"route_I_counts":"{\"2\": 134}","shape_id":"{\"11-MGr-n-y08-1.12.R\": 1, \"11-MGr-n-y08-1.2.R\": 133}","direction_id":"{\"1\": 134}","headsign":"{\"Etisalat Metro Station\": 134}","source":13,"target":12,"layer":"L","from":"Al Ghubaiba Metro Station 1","to":"Al Ras Metro Station 1"},"geometry":{"type":"LineString","coordinates":[[55.289177,25.26535],[55.293841,25.268727]]}},{"type":"Feature","properties":{"shape_id":"{\"11-MGr-n-y08-1.1.H\": 132, \"11-MGr-n-y08-1.10.H\": 1, \"11-MGr-n-y08-1.9.H\": 1}","direction_id":"{\"0\": 134}","headsign":"{\"Creek Metro Station\": 134}","duration_avg":128.0,"n_vehicles":134,"d":772,"route_I_counts":"{\"2\": 134}","source":14,"target":15,"layer":"L","from":"Sharaf DG Metro Station 1","to":"BurJuman Metro Station 1"},"geometry":{"type":"LineString","coordinates":[[55.297438,25.258401],[55.30408,25.254927]]}},{"type":"Feature","properties":{"duration_avg":133.0,"n_vehicles":134,"d":1135,"route_I_counts":"{\"2\": 134}","shape_id":"{\"11-MGr-n-y08-1.12.R\": 1, \"11-MGr-n-y08-1.2.R\": 133}","direction_id":"{\"1\": 134}","headsign":"{\"Etisalat Metro Station\": 134}","source":14,"target":13,"layer":"L","from":"Sharaf DG Metro Station 1","to":"Al Ghubaiba Metro Station 1"},"geometry":{"type":"LineString","coordinates":[[55.297438,25.258401],[55.289177,25.26535]]}},{"type":"Feature","properties":{"shape_id":"{\"11-MGr-n-y08-1.1.H\": 132, \"11-MGr-n-y08-1.10.H\": 1, \"11-MGr-n-y08-1.8.H\": 1, \"11-MGr-n-y08-1.9.H\": 1}","direction_id":"{\"0\": 135}","headsign":"{\"Creek Metro Station\": 135}","duration_avg":154.0,"n_vehicles":135,"d":1692,"route_I_counts":"{\"2\": 135}","source":15,"target":16,"layer":"L","from":"BurJuman Metro Station 1","to":"Oud Metha Metro Station 1"},"geometry":{"type":"LineString","coordinates":[[55.30408,25.254927],[55.315825,25.244051]]}},{"type":"Feature","properties":{"duration_avg":167.0,"n_vehicles":232,"d":1551,"route_I_counts":"{\"3\": 232}","shape_id":"{\"11-MRe-d-y08-1.21.R\": 1, \"11-MRe-d-y08-1.22.R\": 1, \"11-MRe-d-y08-1.23.R\": 1, \"11-MRe-d-y08-1.41.R\": 228, \"11-MRe-d-y08-1.46.R\": 1}","direction_id":"{\"1\": 232}","headsign":"{\"centrepoint Metro Station\": 232}","source":15,"target":9,"layer":"L","from":"BurJuman Metro Station 1","to":"Union  (Green Line ) Metro Station 1"},"geometry":{"type":"LineString","coordinates":[[55.30408,25.254927],[55.313747,25.26624]]}},{"type":"Feature","properties":{"duration_avg":102.0,"n_vehicles":135,"d":776,"route_I_counts":"{\"2\": 135}","shape_id":"{\"11-MGr-n-y08-1.12.R\": 1, \"11-MGr-n-y08-1.2.R\": 134}","direction_id":"{\"1\": 135}","headsign":"{\"Etisalat Metro Station\": 135}","source":15,"target":14,"layer":"L","from":"BurJuman Metro Station 1","to":"Sharaf DG Metro Station 1"},"geometry":{"type":"LineString","coordinates":[[55.30408,25.254927],[55.297438,25.258401]]}},{"type":"Feature","properties":{"duration_avg":124.0,"n_vehicles":243,"d":1292,"route_I_counts":"{\"3\": 243}","shape_id":"{\"11-MRe-d-y08-1.38.H\": 242, \"11-MRe-d-y08-1.45.H\": 1}","direction_id":"{\"0\": 243}","headsign":"{\"EXPO Metro Station\": 243}","source":15,"target":38,"layer":"L","from":"BurJuman Metro Station 1","to":"ADCB Metro Station 1"},"geometry":{"type":"LineString","coordinates":[[55.30408,25.254927],[55.298236,25.244716]]}},{"type":"Feature","properties":{"shape_id":"{\"11-MGr-n-y08-1.1.H\": 132, \"11-MGr-n-y08-1.10.H\": 1, \"11-MGr-n-y08-1.8.H\": 1, \"11-MGr-n-y08-1.9.H\": 1}","direction_id":"{\"0\": 135}","headsign":"{\"Creek Metro Station\": 135}","duration_avg":162.0,"n_vehicles":135,"d":1624,"route_I_counts":"{\"2\": 135}","source":16,"target":17,"layer":"L","from":"Oud Metha Metro Station 1","to":"Dubai Healthcare City Metro Station 1"},"geometry":{"type":"LineString","coordinates":[[55.315825,25.244051],[55.322794,25.23089]]}},{"type":"Feature","properties":{"duration_avg":169.0,"n_vehicles":134,"d":1690,"route_I_counts":"{\"2\": 134}","shape_id":"{\"11-MGr-n-y08-1.2.R\": 134}","direction_id":"{\"1\": 134}","headsign":"{\"Etisalat Metro Station\": 134}","source":16,"target":15,"layer":"L","from":"Oud Metha Metro Station 1","to":"BurJuman Metro Station 1"},"geometry":{"type":"LineString","coordinates":[[55.315825,25.244051],[55.30408,25.254927]]}},{"type":"Feature","properties":{"shape_id":"{\"11-MGr-n-y08-1.1.H\": 132, \"11-MGr-n-y08-1.10.H\": 1, \"11-MGr-n-y08-1.8.H\": 1, \"11-MGr-n-y08-1.9.H\": 1}","direction_id":"{\"0\": 135}","headsign":"{\"Creek Metro Station\": 135}","duration_avg":138.0,"n_vehicles":135,"d":1247,"route_I_counts":"{\"2\": 135}","source":17,"target":18,"layer":"L","from":"Dubai Healthcare City Metro Station 1","to":"Al Jadaf Metro Station 1"},"geometry":{"type":"LineString","coordinates":[[55.322794,25.23089],[55.333423,25.22514]]}},{"type":"Feature","properties":{"duration_avg":170.0,"n_vehicles":134,"d":1620,"route_I_counts":"{\"2\": 134}","shape_id":"{\"11-MGr-n-y08-1.2.R\": 134}","direction_id":"{\"1\": 134}","headsign":"{\"Etisalat Metro Station\": 134}","source":17,"target":16,"layer":"L","from":"Dubai Healthcare City Metro Station 1","to":"Oud Metha Metro Station 1"},"geometry":{"type":"LineString","coordinates":[[55.322794,25.23089],[55.315825,25.244051]]}},{"type":"Feature","properties":{"shape_id":"{\"11-MGr-n-y08-1.1.H\": 131, \"11-MGr-n-y08-1.10.H\": 1, \"11-MGr-n-y08-1.8.H\": 1, \"11-MGr-n-y08-1.9.H\": 1}","direction_id":"{\"0\": 134}","headsign":"{\"Creek Metro Station\": 134}","duration_avg":106.0,"n_vehicles":134,"d":881,"route_I_counts":"{\"2\": 134}","source":18,"target":19,"layer":"L","from":"Al Jadaf Metro Station 1","to":"Creek Metro Station 1"},"geometry":{"type":"LineString","coordinates":[[55.333423,25.22514],[55.33891,25.218966]]}},{"type":"Feature","properties":{"duration_avg":120.0,"n_vehicles":135,"d":1253,"route_I_counts":"{\"2\": 135}","shape_id":"{\"11-MGr-n-y08-1.2.R\": 135}","direction_id":"{\"1\": 135}","headsign":"{\"Etisalat Metro Station\": 135}","source":18,"target":17,"layer":"L","from":"Al Jadaf Metro Station 1","to":"Dubai Healthcare City Metro Station 1"},"geometry":{"type":"LineString","coordinates":[[55.333423,25.22514],[55.322794,25.23089]]}},{"type":"Feature","properties":{"duration_avg":119.0,"n_vehicles":135,"d":882,"route_I_counts":"{\"2\": 135}","shape_id":"{\"11-MGr-n-y08-1.2.R\": 135}","direction_id":"{\"1\": 135}","headsign":"{\"Etisalat Metro Station\": 135}","source":19,"target":18,"layer":"L","from":"Creek Metro Station 1","to":"Al Jadaf Metro Station 1"},"geometry":{"type":"LineString","coordinates":[[55.33891,25.218966],[55.333423,25.22514]]}},{"type":"Feature","properties":{"shape_id":"{\"11-MRe-d-y08-1.41.R\": 240, \"11-MRe-d-y08-1.46.R\": 1}","direction_id":"{\"1\": 241}","headsign":"{\"centrepoint Metro Station\": 241}","duration_avg":108.0,"n_vehicles":241,"d":874,"route_I_counts":"{\"3\": 241}","source":20,"target":21,"layer":"L","from":"Al Furjan Metro Station 1","to":"Discovery Gardens Metro Station 1"},"geometry":{"type":"LineString","coordinates":[[55.152239,25.030437],[55.145355,25.035213]]}},{"type":"Feature","properties":{"duration_avg":186.0,"n_vehicles":235,"d":1803,"route_I_counts":"{\"3\": 235}","shape_id":"{\"11-MRe-d-y08-1.38.H\": 231, \"11-MRe-d-y08-1.42.H\": 1, \"11-MRe-d-y08-1.43.H\": 1, \"11-MRe-d-y08-1.44.H\": 1, \"11-MRe-d-y08-1.45.H\": 1}","direction_id":"{\"0\": 235}","headsign":"{\"EXPO Metro Station\": 235}","source":20,"target":48,"layer":"L","from":"Al Furjan Metro Station 1","to":"Jumeirah Golf Estates Metro Station 1"},"geometry":{"type":"LineString","coordinates":[[55.152239,25.030437],[55.163274,25.017902]]}},{"type":"Feature","properties":{"shape_id":"{\"11-MRe-d-y08-1.41.R\": 239, \"11-MRe-d-y08-1.46.R\": 1}","direction_id":"{\"1\": 240}","headsign":"{\"centrepoint Metro Station\": 240}","duration_avg":130.0,"n_vehicles":240,"d":1387,"route_I_counts":"{\"3\": 240}","source":21,"target":22,"layer":"L","from":"Discovery Gardens Metro Station 1","to":"The Gardens Metro Station 1"},"geometry":{"type":"LineString","coordinates":[[55.145355,25.035213],[55.135126,25.043541]]}},{"type":"Feature","properties":{"duration_avg":115.0,"n_vehicles":236,"d":869,"route_I_counts":"{\"3\": 236}","shape_id":"{\"11-MRe-d-y08-1.38.H\": 232, \"11-MRe-d-y08-1.42.H\": 1, \"11-MRe-d-y08-1.43.H\": 1, \"11-MRe-d-y08-1.44.H\": 1, \"11-MRe-d-y08-1.45.H\": 1}","direction_id":"{\"0\": 236}","headsign":"{\"EXPO Metro Station\": 236}","source":21,"target":20,"layer":"L","from":"Discovery Gardens Metro Station 1","to":"Al Furjan Metro Station 1"},"geometry":{"type":"LineString","coordinates":[[55.145355,25.035213],[55.152239,25.030437]]}},{"type":"Feature","properties":{"shape_id":"{\"11-MRe-d-y08-1.41.R\": 239, \"11-MRe-d-y08-1.46.R\": 1}","direction_id":"{\"1\": 240}","headsign":"{\"centrepoint Metro Station\": 240}","duration_avg":166.0,"n_vehicles":240,"d":1752,"route_I_counts":"{\"3\": 240}","source":22,"target":23,"layer":"L","from":"The Gardens Metro Station 1","to":"Jabal Ali Metro Station 3"},"geometry":{"type":"LineString","coordinates":[[55.135126,25.043541],[55.127205,25.05755]]}},{"type":"Feature","properties":{"duration_avg":130.0,"n_vehicles":237,"d":1378,"route_I_counts":"{\"3\": 237}","shape_id":"{\"11-MRe-d-y08-1.38.H\": 233, \"11-MRe-d-y08-1.42.H\": 1, \"11-MRe-d-y08-1.43.H\": 1, \"11-MRe-d-y08-1.44.H\": 1, \"11-MRe-d-y08-1.45.H\": 1}","direction_id":"{\"0\": 237}","headsign":"{\"EXPO Metro Station\": 237}","source":22,"target":21,"layer":"L","from":"The Gardens Metro Station 1","to":"Discovery Gardens Metro Station 1"},"geometry":{"type":"LineString","coordinates":[[55.135126,25.043541],[55.145355,25.035213]]}},{"type":"Feature","properties":{"shape_id":"{\"11-MRe-d-y08-1.41.R\": 238, \"11-MRe-d-y08-1.46.R\": 1}","direction_id":"{\"1\": 239}","headsign":"{\"centrepoint Metro Station\": 239}","duration_avg":164.0,"n_vehicles":239,"d":1939,"route_I_counts":"{\"3\": 239}","source":23,"target":24,"layer":"L","from":"Jabal Ali Metro Station 3","to":"DMCC Metro Station 1"},"geometry":{"type":"LineString","coordinates":[[55.127205,25.05755],[55.139086,25.071251]]}},{"type":"Feature","properties":{"duration_avg":168.0,"n_vehicles":237,"d":1759,"route_I_counts":"{\"3\": 237}","shape_id":"{\"11-MRe-d-y08-1.38.H\": 233, \"11-MRe-d-y08-1.42.H\": 1, \"11-MRe-d-y08-1.43.H\": 1, \"11-MRe-d-y08-1.44.H\": 1, \"11-MRe-d-y08-1.45.H\": 1}","direction_id":"{\"0\": 237}","headsign":"{\"EXPO Metro Station\": 237}","source":23,"target":22,"layer":"L","from":"Jabal Ali Metro Station 3","to":"The Gardens Metro Station 1"},"geometry":{"type":"LineString","coordinates":[[55.127205,25.05755],[55.135126,25.043541]]}},{"type":"Feature","properties":{"duration_avg":151.0,"n_vehicles":128,"d":1579,"route_I_counts":"{\"4\": 128}","shape_id":"{\"11-MBr-c-y08-1.1.H\": 128}","direction_id":"{\"0\": 128}","headsign":"{\"UAE Exchange Metro Station\": 128}","source":23,"target":52,"layer":"L","from":"Jabal Ali Metro Station 3","to":"Ibn Battuta Metro Station 1"},"geometry":{"type":"LineString","coordinates":[[55.127205,25.05755],[55.117324,25.046568]]}},{"type":"Feature","properties":{"shape_id":"{\"11-MRe-d-y08-1.23.R\": 1, \"11-MRe-d-y08-1.41.R\": 237, \"11-MRe-d-y08-1.46.R\": 1}","direction_id":"{\"1\": 239}","headsign":"{\"centrepoint Metro Station\": 239}","duration_avg":121.0,"n_vehicles":239,"d":1355,"route_I_counts":"{\"3\": 239}","source":24,"target":25,"layer":"L","from":"DMCC Metro Station 1","to":"Sobha Realty Metro Station 1"},"geometry":{"type":"LineString","coordinates":[[55.139086,25.071251],[55.148072,25.080308]]}},{"type":"Feature","properties":{"duration_avg":164.0,"n_vehicles":238,"d":1948,"route_I_counts":"{\"3\": 238}","shape_id":"{\"11-MRe-d-y08-1.38.H\": 234, \"11-MRe-d-y08-1.42.H\": 1, \"11-MRe-d-y08-1.43.H\": 1, \"11-MRe-d-y08-1.44.H\": 1, \"11-MRe-d-y08-1.45.H\": 1}","direction_id":"{\"0\": 238}","headsign":"{\"EXPO Metro Station\": 238}","source":24,"target":23,"layer":"L","from":"DMCC Metro Station 1","to":"Jabal Ali Metro Station 3"},"geometry":{"type":"LineString","coordinates":[[55.139086,25.071251],[55.127205,25.05755]]}},{"type":"Feature","properties":{"shape_id":"{\"11-MRe-d-y08-1.23.R\": 1, \"11-MRe-d-y08-1.41.R\": 237, \"11-MRe-d-y08-1.46.R\": 1}","direction_id":"{\"1\": 239}","headsign":"{\"centrepoint Metro Station\": 239}","duration_avg":124.0,"n_vehicles":239,"d":1369,"route_I_counts":"{\"3\": 239}","source":25,"target":26,"layer":"L","from":"Sobha Realty Metro Station 1","to":"Al Khail Metro Station 1"},"geometry":{"type":"LineString","coordinates":[[55.148072,25.080308],[55.157903,25.088797]]}},{"type":"Feature","properties":{"duration_avg":122.0,"n_vehicles":238,"d":1343,"route_I_counts":"{\"3\": 238}","shape_id":"{\"11-MRe-d-y08-1.38.H\": 235, \"11-MRe-d-y08-1.43.H\": 1, \"11-MRe-d-y08-1.44.H\": 1, \"11-MRe-d-y08-1.45.H\": 1}","direction_id":"{\"0\": 238}","headsign":"{\"EXPO Metro Station\": 238}","source":25,"target":24,"layer":"L","from":"Sobha Realty Metro Station 1","to":"DMCC Metro Station 1"},"geometry":{"type":"LineString","coordinates":[[55.148072,25.080308],[55.139086,25.071251]]}},{"type":"Feature","properties":{"shape_id":"{\"11-MRe-d-y08-1.23.R\": 1, \"11-MRe-d-y08-1.41.R\": 236, \"11-MRe-d-y08-1.46.R\": 1}","direction_id":"{\"1\": 238}","headsign":"{\"centrepoint Metro Station\": 238}","duration_avg":160.0,"n_vehicles":238,"d":2150,"route_I_counts":"{\"3\": 238}","source":26,"target":27,"layer":"L","from":"Al Khail Metro Station 1","to":"Dubai Internet City  Metro Station  1"},"geometry":{"type":"LineString","coordinates":[[55.157903,25.088797],[55.173657,25.101823]]}},{"type":"Feature","properties":{"duration_avg":126.0,"n_vehicles":238,"d":1388,"route_I_counts":"{\"3\": 238}","shape_id":"{\"11-MRe-d-y08-1.38.H\": 235, \"11-MRe-d-y08-1.43.H\": 1, \"11-MRe-d-y08-1.44.H\": 1, \"11-MRe-d-y08-1.45.H\": 1}","direction_id":"{\"0\": 238}","headsign":"{\"EXPO Metro Station\": 238}","source":26,"target":25,"layer":"L","from":"Al Khail Metro Station 1","to":"Sobha Realty Metro Station 1"},"geometry":{"type":"LineString","coordinates":[[55.157903,25.088797],[55.148072,25.080308]]}},{"type":"Feature","properties":{"shape_id":"{\"11-MRe-d-y08-1.23.R\": 1, \"11-MRe-d-y08-1.41.R\": 236, \"11-MRe-d-y08-1.46.R\": 1}","direction_id":"{\"1\": 238}","headsign":"{\"centrepoint Metro Station\": 238}","duration_avg":158.0,"n_vehicles":238,"d":2211,"route_I_counts":"{\"3\": 238}","source":27,"target":28,"layer":"L","from":"Dubai Internet City  Metro Station  1","to":"Mashreq Metro Station 1"},"geometry":{"type":"LineString","coordinates":[[55.173657,25.101823],[55.190516,25.114533]]}},{"type":"Feature","properties":{"duration_avg":155.0,"n_vehicles":239,"d":2139,"route_I_counts":"{\"3\": 239}","shape_id":"{\"11-MRe-d-y08-1.38.H\": 236, \"11-MRe-d-y08-1.43.H\": 1, \"11-MRe-d-y08-1.44.H\": 1, \"11-MRe-d-y08-1.45.H\": 1}","direction_id":"{\"0\": 239}","headsign":"{\"EXPO Metro Station\": 239}","source":27,"target":26,"layer":"L","from":"Dubai Internet City  Metro Station  1","to":"Al Khail Metro Station 1"},"geometry":{"type":"LineString","coordinates":[[55.173657,25.101823],[55.157903,25.088797]]}},{"type":"Feature","properties":{"shape_id":"{\"11-MRe-d-y08-1.23.R\": 1, \"11-MRe-d-y08-1.41.R\": 235, \"11-MRe-d-y08-1.46.R\": 1}","direction_id":"{\"1\": 237}","headsign":"{\"centrepoint Metro Station\": 237}","duration_avg":118.0,"n_vehicles":237,"d":1112,"route_I_counts":"{\"3\": 237}","source":28,"target":29,"layer":"L","from":"Mashreq Metro Station 1","to":"Mall of the Emirates Metro Station 1"},"geometry":{"type":"LineString","coordinates":[[55.190516,25.114533],[55.199374,25.120499]]}},{"type":"Feature","properties":{"duration_avg":163.0,"n_vehicles":239,"d":2209,"route_I_counts":"{\"3\": 239}","shape_id":"{\"11-MRe-d-y08-1.38.H\": 236, \"11-MRe-d-y08-1.43.H\": 1, \"11-MRe-d-y08-1.44.H\": 1, \"11-MRe-d-y08-1.45.H\": 1}","direction_id":"{\"0\": 239}","headsign":"{\"EXPO Metro Station\": 239}","source":28,"target":27,"layer":"L","from":"Mashreq Metro Station 1","to":"Dubai Internet City  Metro Station  1"},"geometry":{"type":"LineString","coordinates":[[55.190516,25.114533],[55.173657,25.101823]]}},{"type":"Feature","properties":{"shape_id":"{\"11-MRe-d-y08-1.23.R\": 1, \"11-MRe-d-y08-1.41.R\": 235, \"11-MRe-d-y08-1.46.R\": 1}","direction_id":"{\"1\": 237}","headsign":"{\"centrepoint Metro Station\": 237}","duration_avg":102.0,"n_vehicles":237,"d":1059,"route_I_counts":"{\"3\": 237}","source":29,"target":30,"layer":"L","from":"Mall of the Emirates Metro Station 1","to":"Umm Al Sheif Metro Station 1"},"geometry":{"type":"LineString","coordinates":[[55.199374,25.120499],[55.207528,25.126509]]}},{"type":"Feature","properties":{"duration_avg":113.0,"n_vehicles":240,"d":1111,"route_I_counts":"{\"3\": 240}","shape_id":"{\"11-MRe-d-y08-1.38.H\": 237, \"11-MRe-d-y08-1.43.H\": 1, \"11-MRe-d-y08-1.44.H\": 1, \"11-MRe-d-y08-1.45.H\": 1}","direction_id":"{\"0\": 240}","headsign":"{\"EXPO Metro Station\": 240}","source":29,"target":28,"layer":"L","from":"Mall of the Emirates Metro Station 1","to":"Mashreq Metro Station 1"},"geometry":{"type":"LineString","coordinates":[[55.199374,25.120499],[55.190516,25.114533]]}},{"type":"Feature","properties":{"shape_id":"{\"11-MRe-d-y08-1.22.R\": 1, \"11-MRe-d-y08-1.23.R\": 1, \"11-MRe-d-y08-1.41.R\": 234, \"11-MRe-d-y08-1.46.R\": 1}","direction_id":"{\"1\": 237}","headsign":"{\"centrepoint Metro Station\": 237}","duration_avg":233.0,"n_vehicles":237,"d":3831,"route_I_counts":"{\"3\": 237}","source":30,"target":31,"layer":"L","from":"Umm Al Sheif Metro Station 1","to":"Al Safa Metro Station 1"},"geometry":{"type":"LineString","coordinates":[[55.207528,25.126509],[55.228466,25.155241]]}},{"type":"Feature","properties":{"duration_avg":108.0,"n_vehicles":240,"d":1047,"route_I_counts":"{\"3\": 240}","shape_id":"{\"11-MRe-d-y08-1.38.H\": 237, \"11-MRe-d-y08-1.43.H\": 1, \"11-MRe-d-y08-1.44.H\": 1, \"11-MRe-d-y08-1.45.H\": 1}","direction_id":"{\"0\": 240}","headsign":"{\"EXPO Metro Station\": 240}","source":30,"target":29,"layer":"L","from":"Umm Al Sheif Metro Station 1","to":"Mall of the Emirates Metro Station 1"},"geometry":{"type":"LineString","coordinates":[[55.207528,25.126509],[55.199374,25.120499]]}},{"type":"Feature","properties":{"shape_id":"{\"11-MRe-d-y08-1.22.R\": 1, \"11-MRe-d-y08-1.23.R\": 1, \"11-MRe-d-y08-1.41.R\": 233, \"11-MRe-d-y08-1.46.R\": 1}","direction_id":"{\"1\": 236}","headsign":"{\"centrepoint Metro Station\": 236}","duration_avg":287.0,"n_vehicles":236,"d":5154,"route_I_counts":"{\"3\": 236}","source":31,"target":32,"layer":"L","from":"Al Safa Metro Station 1","to":"Business Bay Metro Station 1"},"geometry":{"type":"LineString","coordinates":[[55.228466,25.155241],[55.260451,25.191379]]}},{"type":"Feature","properties":{"duration_avg":229.0,"n_vehicles":240,"d":3827,"route_I_counts":"{\"3\": 240}","shape_id":"{\"11-MRe-d-y08-1.38.H\": 238, \"11-MRe-d-y08-1.44.H\": 1, \"11-MRe-d-y08-1.45.H\": 1}","direction_id":"{\"0\": 240}","headsign":"{\"EXPO Metro Station\": 240}","source":31,"target":30,"layer":"L","from":"Al Safa Metro Station 1","to":"Umm Al Sheif Metro Station 1"},"geometry":{"type":"LineString","coordinates":[[55.228466,25.155241],[55.207528,25.126509]]}},{"type":"Feature","properties":{"shape_id":"{\"11-MRe-d-y08-1.22.R\": 1, \"11-MRe-d-y08-1.23.R\": 1, \"11-MRe-d-y08-1.41.R\": 232, \"11-MRe-d-y08-1.46.R\": 1}","direction_id":"{\"1\": 235}","headsign":"{\"centrepoint Metro Station\": 235}","duration_avg":131.0,"n_vehicles":235,"d":1450,"route_I_counts":"{\"3\": 235}","source":32,"target":33,"layer":"L","from":"Business Bay Metro Station 1","to":"Burj Khalifa/ Dubai Mall Metro Station 1"},"geometry":{"type":"LineString","coordinates":[[55.260451,25.191379],[55.269574,25.201457]]}},{"type":"Feature","properties":{"duration_avg":287.0,"n_vehicles":241,"d":5168,"route_I_counts":"{\"3\": 241}","shape_id":"{\"11-MRe-d-y08-1.38.H\": 239, \"11-MRe-d-y08-1.44.H\": 1, \"11-MRe-d-y08-1.45.H\": 1}","direction_id":"{\"0\": 241}","headsign":"{\"EXPO Metro Station\": 241}","source":32,"target":31,"layer":"L","from":"Business Bay Metro Station 1","to":"Al Safa Metro Station 1"},"geometry":{"type":"LineString","coordinates":[[55.260451,25.191379],[55.228466,25.155241]]}},{"type":"Feature","properties":{"shape_id":"{\"11-MRe-d-y08-1.22.R\": 1, \"11-MRe-d-y08-1.23.R\": 1, \"11-MRe-d-y08-1.41.R\": 232, \"11-MRe-d-y08-1.46.R\": 1}","direction_id":"{\"1\": 235}","headsign":"{\"centrepoint Metro Station\": 235}","duration_avg":116.0,"n_vehicles":235,"d":1208,"route_I_counts":"{\"3\": 235}","source":33,"target":34,"layer":"L","from":"Burj Khalifa/ Dubai Mall Metro Station 1","to":"Financial Centre Metro Station 1"},"geometry":{"type":"LineString","coordinates":[[55.269574,25.201457],[55.275463,25.21092]]}},{"type":"Feature","properties":{"duration_avg":129.0,"n_vehicles":242,"d":1458,"route_I_counts":"{\"3\": 242}","shape_id":"{\"11-MRe-d-y08-1.38.H\": 240, \"11-MRe-d-y08-1.44.H\": 1, \"11-MRe-d-y08-1.45.H\": 1}","direction_id":"{\"0\": 242}","headsign":"{\"EXPO Metro Station\": 242}","source":33,"target":32,"layer":"L","from":"Burj Khalifa/ Dubai Mall Metro Station 1","to":"Business Bay Metro Station 1"},"geometry":{"type":"LineString","coordinates":[[55.269574,25.201457],[55.260451,25.191379]]}},{"type":"Feature","properties":{"shape_id":"{\"11-MRe-d-y08-1.22.R\": 1, \"11-MRe-d-y08-1.23.R\": 1, \"11-MRe-d-y08-1.41.R\": 231, \"11-MRe-d-y08-1.46.R\": 1}","direction_id":"{\"1\": 234}","headsign":"{\"centrepoint Metro Station\": 234}","duration_avg":96.0,"n_vehicles":234,"d":821,"route_I_counts":"{\"3\": 234}","source":34,"target":35,"layer":"L","from":"Financial Centre Metro Station 1","to":"Emirates Towers Metro Station 1"},"geometry":{"type":"LineString","coordinates":[[55.275463,25.21092],[55.279787,25.217178]]}},{"type":"Feature","properties":{"duration_avg":120.0,"n_vehicles":242,"d":1216,"route_I_counts":"{\"3\": 242}","shape_id":"{\"11-MRe-d-y08-1.38.H\": 240, \"11-MRe-d-y08-1.44.H\": 1, \"11-MRe-d-y08-1.45.H\": 1}","direction_id":"{\"0\": 242}","headsign":"{\"EXPO Metro Station\": 242}","source":34,"target":33,"layer":"L","from":"Financial Centre Metro Station 1","to":"Burj Khalifa/ Dubai Mall Metro Station 1"},"geometry":{"type":"LineString","coordinates":[[55.275463,25.21092],[55.269574,25.201457]]}},{"type":"Feature","properties":{"shape_id":"{\"11-MRe-d-y08-1.21.R\": 1, \"11-MRe-d-y08-1.22.R\": 1, \"11-MRe-d-y08-1.23.R\": 1, \"11-MRe-d-y08-1.41.R\": 231, \"11-MRe-d-y08-1.46.R\": 1}","direction_id":"{\"1\": 235}","headsign":"{\"centrepoint Metro Station\": 235}","duration_avg":108.0,"n_vehicles":235,"d":1087,"route_I_counts":"{\"3\": 235}","source":35,"target":36,"layer":"L","from":"Emirates Towers Metro Station 1","to":"World Trade Centre Metro Station 1"},"geometry":{"type":"LineString","coordinates":[[55.279787,25.217178],[55.285479,25.225476]]}},{"type":"Feature","properties":{"duration_avg":95.0,"n_vehicles":242,"d":812,"route_I_counts":"{\"3\": 242}","shape_id":"{\"11-MRe-d-y08-1.38.H\": 240, \"11-MRe-d-y08-1.44.H\": 1, \"11-MRe-d-y08-1.45.H\": 1}","direction_id":"{\"0\": 242}","headsign":"{\"EXPO Metro Station\": 242}","source":35,"target":34,"layer":"L","from":"Emirates Towers Metro Station 1","to":"Financial Centre Metro Station 1"},"geometry":{"type":"LineString","coordinates":[[55.279787,25.217178],[55.275463,25.21092]]}},{"type":"Feature","properties":{"shape_id":"{\"11-MRe-d-y08-1.21.R\": 1, \"11-MRe-d-y08-1.22.R\": 1, \"11-MRe-d-y08-1.23.R\": 1, \"11-MRe-d-y08-1.41.R\": 230, \"11-MRe-d-y08-1.46.R\": 1}","direction_id":"{\"1\": 234}","headsign":"{\"centrepoint Metro Station\": 234}","duration_avg":120.0,"n_vehicles":234,"d":1051,"route_I_counts":"{\"3\": 234}","source":36,"target":37,"layer":"L","from":"World Trade Centre Metro Station 1","to":"max Metro Station 1"},"geometry":{"type":"LineString","coordinates":[[55.285479,25.225476],[55.291789,25.233006]]}},{"type":"Feature","properties":{"duration_avg":105.0,"n_vehicles":242,"d":1090,"route_I_counts":"{\"3\": 242}","shape_id":"{\"11-MRe-d-y08-1.38.H\": 241, \"11-MRe-d-y08-1.45.H\": 1}","direction_id":"{\"0\": 242}","headsign":"{\"EXPO Metro Station\": 242}","source":36,"target":35,"layer":"L","from":"World Trade Centre Metro Station 1","to":"Emirates Towers Metro Station 1"},"geometry":{"type":"LineString","coordinates":[[55.285479,25.225476],[55.279787,25.217178]]}},{"type":"Feature","properties":{"shape_id":"{\"11-MRe-d-y08-1.21.R\": 1, \"11-MRe-d-y08-1.22.R\": 1, \"11-MRe-d-y08-1.23.R\": 1, \"11-MRe-d-y08-1.41.R\": 230, \"11-MRe-d-y08-1.46.R\": 1}","direction_id":"{\"1\": 234}","headsign":"{\"centrepoint Metro Station\": 234}","duration_avg":130.0,"n_vehicles":234,"d":1456,"route_I_counts":"{\"3\": 234}","source":37,"target":38,"layer":"L","from":"max Metro Station 1","to":"ADCB Metro Station 1"},"geometry":{"type":"LineString","coordinates":[[55.291789,25.233006],[55.298236,25.244716]]}},{"type":"Feature","properties":{"duration_avg":124.0,"n_vehicles":242,"d":1042,"route_I_counts":"{\"3\": 242}","shape_id":"{\"11-MRe-d-y08-1.38.H\": 241, \"11-MRe-d-y08-1.45.H\": 1}","direction_id":"{\"0\": 242}","headsign":"{\"EXPO Metro Station\": 242}","source":37,"target":36,"layer":"L","from":"max Metro Station 1","to":"World Trade Centre Metro Station 1"},"geometry":{"type":"LineString","coordinates":[[55.291789,25.233006],[55.285479,25.225476]]}},{"type":"Feature","properties":{"duration_avg":159.0,"n_vehicles":233,"d":1310,"route_I_counts":"{\"3\": 233}","shape_id":"{\"11-MRe-d-y08-1.21.R\": 1, \"11-MRe-d-y08-1.22.R\": 1, \"11-MRe-d-y08-1.23.R\": 1, \"11-MRe-d-y08-1.41.R\": 229, \"11-MRe-d-y08-1.46.R\": 1}","direction_id":"{\"1\": 233}","headsign":"{\"centrepoint Metro Station\": 233}","source":38,"target":15,"layer":"L","from":"ADCB Metro Station 1","to":"BurJuman Metro Station 1"},"geometry":{"type":"LineString","coordinates":[[55.298236,25.244716],[55.30408,25.254927]]}},{"type":"Feature","properties":{"duration_avg":120.0,"n_vehicles":242,"d":1475,"route_I_counts":"{\"3\": 242}","shape_id":"{\"11-MRe-d-y08-1.38.H\": 241, \"11-MRe-d-y08-1.45.H\": 1}","direction_id":"{\"0\": 242}","headsign":"{\"EXPO Metro Station\": 242}","source":38,"target":37,"layer":"L","from":"ADCB Metro Station 1","to":"max Metro Station 1"},"geometry":{"type":"LineString","coordinates":[[55.298236,25.244716],[55.291789,25.233006]]}},{"type":"Feature","properties":{"shape_id":"{\"11-MRe-d-y08-1.20.R\": 1, \"11-MRe-d-y08-1.21.R\": 1, \"11-MRe-d-y08-1.22.R\": 1, \"11-MRe-d-y08-1.23.R\": 1, \"11-MRe-d-y08-1.41.R\": 227, \"11-MRe-d-y08-1.46.R\": 1}","direction_id":"{\"1\": 232}","headsign":"{\"centrepoint Metro Station\": 232}","duration_avg":121.0,"n_vehicles":232,"d":1167,"route_I_counts":"{\"3\": 232}","source":39,"target":40,"layer":"L","from":"Al Rigga Metro Station 1","to":"Deira City Centre Metro Station 1"},"geometry":{"type":"LineString","coordinates":[[55.324151,25.26319],[55.330276,25.254289]]}},{"type":"Feature","properties":{"duration_avg":142.0,"n_vehicles":243,"d":1099,"route_I_counts":"{\"3\": 243}","shape_id":"{\"11-MRe-d-y08-1.38.H\": 242, \"11-MRe-d-y08-1.45.H\": 1}","direction_id":"{\"0\": 243}","headsign":"{\"EXPO Metro Station\": 243}","source":39,"target":9,"layer":"L","from":"Al Rigga Metro Station 1","to":"Union  (Green Line ) Metro Station 1"},"geometry":{"type":"LineString","coordinates":[[55.324151,25.26319],[55.313747,25.26624]]}},{"type":"Feature","properties":{"shape_id":"{\"11-MRe-d-y08-1.20.R\": 1, \"11-MRe-d-y08-1.21.R\": 1, \"11-MRe-d-y08-1.22.R\": 1, \"11-MRe-d-y08-1.23.R\": 1, \"11-MRe-d-y08-1.41.R\": 227, \"11-MRe-d-y08-1.46.R\": 1}","direction_id":"{\"1\": 232}","headsign":"{\"centrepoint Metro Station\": 232}","duration_avg":130.0,"n_vehicles":232,"d":1104,"route_I_counts":"{\"3\": 232}","source":40,"target":41,"layer":"L","from":"Deira City Centre Metro Station 1","to":"GGICO Metro Station 1"},"geometry":{"type":"LineString","coordinates":[[55.330276,25.254289],[55.339865,25.249469]]}},{"type":"Feature","properties":{"duration_avg":120.0,"n_vehicles":243,"d":1174,"route_I_counts":"{\"3\": 243}","shape_id":"{\"11-MRe-d-y08-1.38.H\": 243}","direction_id":"{\"0\": 243}","headsign":"{\"EXPO Metro Station\": 243}","source":40,"target":39,"layer":"L","from":"Deira City Centre Metro Station 1","to":"Al Rigga Metro Station 1"},"geometry":{"type":"LineString","coordinates":[[55.330276,25.254289],[55.324151,25.26319]]}},{"type":"Feature","properties":{"shape_id":"{\"11-MRe-d-y08-1.20.R\": 1, \"11-MRe-d-y08-1.21.R\": 1, \"11-MRe-d-y08-1.22.R\": 1, \"11-MRe-d-y08-1.23.R\": 1, \"11-MRe-d-y08-1.41.R\": 226, \"11-MRe-d-y08-1.46.R\": 1}","direction_id":"{\"1\": 231}","headsign":"{\"centrepoint Metro Station\": 231}","duration_avg":130.0,"n_vehicles":231,"d":1302,"route_I_counts":"{\"3\": 231}","source":41,"target":42,"layer":"L","from":"GGICO Metro Station 1","to":"Airport Terminal 1 Metro Station 1"},"geometry":{"type":"LineString","coordinates":[[55.339865,25.249469],[55.352729,25.24824]]}},{"type":"Feature","properties":{"duration_avg":132.0,"n_vehicles":243,"d":1112,"route_I_counts":"{\"3\": 243}","shape_id":"{\"11-MRe-d-y08-1.38.H\": 243}","direction_id":"{\"0\": 243}","headsign":"{\"EXPO Metro Station\": 243}","source":41,"target":40,"layer":"L","from":"GGICO Metro Station 1","to":"Deira City Centre Metro Station 1"},"geometry":{"type":"LineString","coordinates":[[55.339865,25.249469],[55.330276,25.254289]]}},{"type":"Feature","properties":{"shape_id":"{\"11-MRe-d-y08-1.20.R\": 1, \"11-MRe-d-y08-1.21.R\": 1, \"11-MRe-d-y08-1.22.R\": 1, \"11-MRe-d-y08-1.23.R\": 1, \"11-MRe-d-y08-1.41.R\": 226, \"11-MRe-d-y08-1.46.R\": 1}","direction_id":"{\"1\": 231}","headsign":"{\"centrepoint Metro Station\": 231}","duration_avg":113.0,"n_vehicles":231,"d":757,"route_I_counts":"{\"3\": 231}","source":42,"target":43,"layer":"L","from":"Airport Terminal 1 Metro Station 1","to":"Airport Terminal 3 Metro Station 1"},"geometry":{"type":"LineString","coordinates":[[55.352729,25.24824],[55.359428,25.245142]]}},{"type":"Feature","properties":{"duration_avg":123.0,"n_vehicles":244,"d":1268,"route_I_counts":"{\"3\": 244}","shape_id":"{\"11-MRe-d-y08-1.38.H\": 244}","direction_id":"{\"0\": 244}","headsign":"{\"EXPO Metro Station\": 244}","source":42,"target":41,"layer":"L","from":"Airport Terminal 1 Metro Station 1","to":"GGICO Metro Station 1"},"geometry":{"type":"LineString","coordinates":[[55.352729,25.24824],[55.339865,25.249469]]}},{"type":"Feature","properties":{"shape_id":"{\"11-MRe-d-y08-1.20.R\": 1, \"11-MRe-d-y08-1.21.R\": 1, \"11-MRe-d-y08-1.22.R\": 1, \"11-MRe-d-y08-1.23.R\": 1, \"11-MRe-d-y08-1.41.R\": 225, \"11-MRe-d-y08-1.46.R\": 1}","direction_id":"{\"1\": 230}","headsign":"{\"centrepoint Metro Station\": 230}","duration_avg":97.0,"n_vehicles":230,"d":777,"route_I_counts":"{\"3\": 230}","source":43,"target":44,"layer":"L","from":"Airport Terminal 3 Metro Station 1","to":"Emirates Metro Station 1"},"geometry":{"type":"LineString","coordinates":[[55.359428,25.245142],[55.36572,25.241097]]}},{"type":"Feature","properties":{"duration_avg":102.0,"n_vehicles":244,"d":769,"route_I_counts":"{\"3\": 244}","shape_id":"{\"11-MRe-d-y08-1.38.H\": 244}","direction_id":"{\"0\": 244}","headsign":"{\"EXPO Metro Station\": 244}","source":43,"target":42,"layer":"L","from":"Airport Terminal 3 Metro Station 1","to":"Airport Terminal 1 Metro Station 1"},"geometry":{"type":"LineString","coordinates":[[55.359428,25.245142],[55.352729,25.24824]]}},{"type":"Feature","properties":{"shape_id":"{\"11-MRe-d-y08-1.20.R\": 1, \"11-MRe-d-y08-1.21.R\": 1, \"11-MRe-d-y08-1.22.R\": 1, \"11-MRe-d-y08-1.23.R\": 1, \"11-MRe-d-y08-1.41.R\": 224, \"11-MRe-d-y08-1.46.R\": 1}","direction_id":"{\"1\": 229}","headsign":"{\"centrepoint Metro Station\": 229}","duration_avg":213.0,"n_vehicles":229,"d":2877,"route_I_counts":"{\"3\": 229}","source":44,"target":45,"layer":"L","from":"Emirates Metro Station 1","to":"centrepoint Metro Station 1"},"geometry":{"type":"LineString","coordinates":[[55.36572,25.241097],[55.39158,25.230103]]}},{"type":"Feature","properties":{"duration_avg":106.0,"n_vehicles":244,"d":772,"route_I_counts":"{\"3\": 244}","shape_id":"{\"11-MRe-d-y08-1.38.H\": 244}","direction_id":"{\"0\": 244}","headsign":"{\"EXPO Metro Station\": 244}","source":44,"target":43,"layer":"L","from":"Emirates Metro Station 1","to":"Airport Terminal 3 Metro Station 1"},"geometry":{"type":"LineString","coordinates":[[55.36572,25.241097],[55.359428,25.245142]]}},{"type":"Feature","properties":{"duration_avg":209.0,"n_vehicles":244,"d":2881,"route_I_counts":"{\"3\": 244}","shape_id":"{\"11-MRe-d-y08-1.38.H\": 244}","direction_id":"{\"0\": 244}","headsign":"{\"EXPO Metro Station\": 244}","source":45,"target":44,"layer":"L","from":"centrepoint Metro Station 1","to":"Emirates Metro Station 1"},"geometry":{"type":"LineString","coordinates":[[55.39158,25.230103],[55.36572,25.241097]]}},{"type":"Feature","properties":{"shape_id":"{\"11-MRe-d-y08-1.41.R\": 242}","direction_id":"{\"1\": 242}","headsign":"{\"centrepoint Metro Station\": 242}","duration_avg":346.0,"n_vehicles":242,"d":4787,"route_I_counts":"{\"3\": 242}","source":46,"target":47,"layer":"L","from":"EXPO Metro Station 1","to":"Dubai Investment Park Metro Station 1"},"geometry":{"type":"LineString","coordinates":[[55.146207,24.963491],[55.155733,25.005625]]}},{"type":"Feature","properties":{"shape_id":"{\"11-MRe-d-y08-1.41.R\": 241}","direction_id":"{\"1\": 241}","headsign":"{\"centrepoint Metro Station\": 241}","duration_avg":143.0,"n_vehicles":241,"d":1564,"route_I_counts":"{\"3\": 241}","source":47,"target":48,"layer":"L","from":"Dubai Investment Park Metro Station 1","to":"Jumeirah Golf Estates Metro Station 1"},"geometry":{"type":"LineString","coordinates":[[55.155733,25.005625],[55.163274,25.017902]]}},{"type":"Feature","properties":{"duration_avg":303.0,"n_vehicles":234,"d":4768,"route_I_counts":"{\"3\": 234}","shape_id":"{\"11-MRe-d-y08-1.38.H\": 230, \"11-MRe-d-y08-1.42.H\": 1, \"11-MRe-d-y08-1.43.H\": 1, \"11-MRe-d-y08-1.44.H\": 1, \"11-MRe-d-y08-1.45.H\": 1}","direction_id":"{\"0\": 234}","headsign":"{\"EXPO Metro Station\": 234}","source":47,"target":46,"layer":"L","from":"Dubai Investment Park Metro Station 1","to":"EXPO Metro Station 1"},"geometry":{"type":"LineString","coordinates":[[55.155733,25.005625],[55.146207,24.963491]]}},{"type":"Feature","properties":{"shape_id":"{\"11-MRe-d-y08-1.41.R\": 240}","direction_id":"{\"1\": 240}","headsign":"{\"centrepoint Metro Station\": 240}","duration_avg":159.0,"n_vehicles":240,"d":1784,"route_I_counts":"{\"3\": 240}","source":48,"target":20,"layer":"L","from":"Jumeirah Golf Estates Metro Station 1","to":"Al Furjan Metro Station 1"},"geometry":{"type":"LineString","coordinates":[[55.163274,25.017902],[55.152239,25.030437]]}},{"type":"Feature","properties":{"duration_avg":139.0,"n_vehicles":235,"d":1557,"route_I_counts":"{\"3\": 235}","shape_id":"{\"11-MRe-d-y08-1.38.H\": 231, \"11-MRe-d-y08-1.42.H\": 1, \"11-MRe-d-y08-1.43.H\": 1, \"11-MRe-d-y08-1.44.H\": 1, \"11-MRe-d-y08-1.45.H\": 1}","direction_id":"{\"0\": 235}","headsign":"{\"EXPO Metro Station\": 235}","source":48,"target":47,"layer":"L","from":"Jumeirah Golf Estates Metro Station 1","to":"Dubai Investment Park Metro Station 1"},"geometry":{"type":"LineString","coordinates":[[55.163274,25.017902],[55.155733,25.005625]]}},{"type":"Feature","properties":{"shape_id":"{\"11-MBr-c-y08-1.2.R\": 128}","direction_id":"{\"1\": 128}","headsign":"{\"Jabal Ali Metro Station\": 128}","duration_avg":169.0,"n_vehicles":128,"d":2678,"route_I_counts":"{\"4\": 128}","source":49,"target":50,"layer":"L","from":"UAE Exchange Metro Station 1","to":"Danube Metro Station 1"},"geometry":{"type":"LineString","coordinates":[[55.090873,24.977187],[55.095581,25.000865]]}},{"type":"Feature","properties":{"shape_id":"{\"11-MBr-c-y08-1.2.R\": 128}","direction_id":"{\"1\": 128}","headsign":"{\"Jabal Ali Metro Station\": 128}","duration_avg":178.0,"n_vehicles":128,"d":2871,"route_I_counts":"{\"4\": 128}","source":50,"target":51,"layer":"L","from":"Danube Metro Station 1","to":"Energy  Metro Station 1"},"geometry":{"type":"LineString","coordinates":[[55.095581,25.000865],[55.10117,25.026159]]}},{"type":"Feature","properties":{"duration_avg":183.0,"n_vehicles":127,"d":2680,"route_I_counts":"{\"4\": 127}","shape_id":"{\"11-MBr-c-y08-1.1.H\": 127}","direction_id":"{\"0\": 127}","headsign":"{\"UAE Exchange Metro Station\": 127}","source":50,"target":49,"layer":"L","from":"Danube Metro Station 1","to":"UAE Exchange Metro Station 1"},"geometry":{"type":"LineString","coordinates":[[55.095581,25.000865],[55.090873,24.977187]]}},{"type":"Feature","properties":{"shape_id":"{\"11-MBr-c-y08-1.2.R\": 127}","direction_id":"{\"1\": 127}","headsign":"{\"Jabal Ali Metro Station\": 127}","duration_avg":181.0,"n_vehicles":127,"d":2795,"route_I_counts":"{\"4\": 127}","source":51,"target":52,"layer":"L","from":"Energy  Metro Station 1","to":"Ibn Battuta Metro Station 1"},"geometry":{"type":"LineString","coordinates":[[55.10117,25.026159],[55.117324,25.046568]]}},{"type":"Feature","properties":{"duration_avg":182.0,"n_vehicles":127,"d":2852,"route_I_counts":"{\"4\": 127}","shape_id":"{\"11-MBr-c-y08-1.1.H\": 127}","direction_id":"{\"0\": 127}","headsign":"{\"UAE Exchange Metro Station\": 127}","source":51,"target":50,"layer":"L","from":"Energy  Metro Station 1","to":"Danube Metro Station 1"},"geometry":{"type":"LineString","coordinates":[[55.10117,25.026159],[55.095581,25.000865]]}},{"type":"Feature","properties":{"duration_avg":186.0,"n_vehicles":128,"d":2803,"route_I_counts":"{\"4\": 128}","shape_id":"{\"11-MBr-c-y08-1.1.H\": 128}","direction_id":"{\"0\": 128}","headsign":"{\"UAE Exchange Metro Station\": 128}","source":52,"target":51,"layer":"L","from":"Ibn Battuta Metro Station 1","to":"Energy  Metro Station 1"},"geometry":{"type":"LineString","coordinates":[[55.117324,25.046568],[55.10117,25.026159]]}},{"type":"Feature","properties":{"duration_avg":130.0,"n_vehicles":127,"d":1569,"route_I_counts":"{\"4\": 127}","shape_id":"{\"11-MBr-c-y08-1.2.R\": 127}","direction_id":"{\"1\": 127}","headsign":"{\"Jabal Ali Metro Station\": 127}","source":52,"target":23,"layer":"L","from":"Ibn Battuta Metro Station 1","to":"Jabal Ali Metro Station 3"},"geometry":{"type":"LineString","coordinates":[[55.117324,25.046568],[55.127205,25.05755]]}}]}