{"type":"FeatureCollection","features":[{"type":"Feature","geometry":{"type":"Point","coordinates":[8.946647,44.406506]},"properties":{"name":"BRIGNOLE/METRO","original_ids":"[3030]","id":0,"layer":"stop"}},{"type":"Feature","geometry":{"type":"Point","coordinates":[8.934238,44.4077]},"properties":{"name":"DE FERRARI/METRO","original_ids":"[3028]","id":1,"layer":"stop"}},{"type":"Feature","geometry":{"type":"Point","coordinates":[8.931859,44.404243]},"properties":{"name":"S. AGOSTINO/METRO","original_ids":"[3029]","id":2,"layer":"stop"}},{"type":"Feature","geometry":{"type":"Point","coordinates":[8.928676,44.408951]},"properties":{"name":"SAN GIORGIO/METRO","original_ids":"[3027]","id":3,"layer":"stop"}},{"type":"Feature","geometry":{"type":"Point","coordinates":[8.926686,44.412964]},"properties":{"name":"DARSENA/METRO","original_ids":"[3026]","id":4,"layer":"stop"}},{"type":"Feature","geometry":{"type":"Point","coordinates":[8.919032,44.416496]},"properties":{"name":"PRINCIPE/METRO","original_ids":"[3023]","id":5,"layer":"stop"}},{"type":"Feature","geometry":{"type":"Point","coordinates":[8.911743,44.413807]},"properties":{"name":"DINEGRO/METRO","original_ids":"[3024]","id":6,"layer":"stop"}},{"type":"Feature","geometry":{"type":"Point","coordinates":[8.894957,44.428612]},"properties":{"name":"BRIN/METRO","original_ids":"[3025]","id":7,"layer":"stop"}},{"type":"Feature","properties":{"shape_id":"{}","direction_id":"{}","headsign":"{\"BRIN\": 156}","duration_avg":300.0,"n_vehicles":156,"d":995,"route_I_counts":"{\"167\": 156}","source":0,"target":1,"layer":"L","from":"BRIGNOLE/METRO","to":"DE FERRARI/METRO"},"geometry":{"type":"LineString","coordinates":[[8.946647,44.406506],[8.934238,44.4077]]}},{"type":"Feature","properties":{"shape_id":"{}","direction_id":"{}","headsign":"{\"BRIN\": 156}","duration_avg":46.0,"n_vehicles":156,"d":428,"route_I_counts":"{\"167\": 156}","source":1,"target":2,"layer":"L","from":"DE FERRARI/METRO","to":"S. AGOSTINO/METRO"},"geometry":{"type":"LineString","coordinates":[[8.934238,44.4077],[8.931859,44.404243]]}},{"type":"Feature","properties":{"shape_id":"{}","direction_id":"{}","headsign":"{\"BRIGNOLE\": 153}","duration_avg":360.0,"n_vehicles":153,"d":995,"route_I_counts":"{\"167\": 153}","source":1,"target":0,"layer":"L","from":"DE FERRARI/METRO","to":"BRIGNOLE/METRO"},"geometry":{"type":"LineString","coordinates":[[8.934238,44.4077],[8.946647,44.406506]]}},{"type":"Feature","properties":{"shape_id":"{}","direction_id":"{}","headsign":"{\"BRIN\": 156}","duration_avg":74.0,"n_vehicles":156,"d":582,"route_I_counts":"{\"167\": 156}","source":2,"target":3,"layer":"L","from":"S. AGOSTINO/METRO","to":"SAN GIORGIO/METRO"},"geometry":{"type":"LineString","coordinates":[[8.931859,44.404243],[8.928676,44.408951]]}},{"type":"Feature","properties":{"shape_id":"{}","direction_id":"{}","headsign":"{\"BRIGNOLE\": 154}","duration_avg":69.0,"n_vehicles":154,"d":428,"route_I_counts":"{\"167\": 154}","source":2,"target":1,"layer":"L","from":"S. AGOSTINO/METRO","to":"DE FERRARI/METRO"},"geometry":{"type":"LineString","coordinates":[[8.931859,44.404243],[8.934238,44.4077]]}},{"type":"Feature","properties":{"shape_id":"{}","direction_id":"{}","headsign":"{\"BRIN\": 156}","duration_avg":82.0,"n_vehicles":156,"d":473,"route_I_counts":"{\"167\": 156}","source":3,"target":4,"layer":"L","from":"SAN GIORGIO/METRO","to":"DARSENA/METRO"},"geometry":{"type":"LineString","coordinates":[[8.928676,44.408951],[8.926686,44.412964]]}},{"type":"Feature","properties":{"shape_id":"{}","direction_id":"{}","headsign":"{\"BRIGNOLE\": 154}","duration_avg":111.0,"n_vehicles":154,"d":582,"route_I_counts":"{\"167\": 154}","source":3,"target":2,"layer":"L","from":"SAN GIORGIO/METRO","to":"S. AGOSTINO/METRO"},"geometry":{"type":"LineString","coordinates":[[8.928676,44.408951],[8.931859,44.404243]]}},{"type":"Feature","properties":{"shape_id":"{}","direction_id":"{}","headsign":"{\"BRIN\": 155}","duration_avg":98.0,"n_vehicles":155,"d":724,"route_I_counts":"{\"167\": 155}","source":4,"target":5,"layer":"L","from":"DARSENA/METRO","to":"PRINCIPE/METRO"},"geometry":{"type":"LineString","coordinates":[[8.926686,44.412964],[8.919032,44.416496]]}},{"type":"Feature","properties":{"shape_id":"{}","direction_id":"{}","headsign":"{\"BRIGNOLE\": 154}","duration_avg":82.0,"n_vehicles":154,"d":473,"route_I_counts":"{\"167\": 154}","source":4,"target":3,"layer":"L","from":"DARSENA/METRO","to":"SAN GIORGIO/METRO"},"geometry":{"type":"LineString","coordinates":[[8.926686,44.412964],[8.928676,44.408951]]}},{"type":"Feature","properties":{"shape_id":"{}","direction_id":"{}","headsign":"{\"BRIN\": 155}","duration_avg":60.38709677419355,"n_vehicles":155,"d":652,"route_I_counts":"{\"167\": 155}","source":5,"target":6,"layer":"L","from":"PRINCIPE/METRO","to":"DINEGRO/METRO"},"geometry":{"type":"LineString","coordinates":[[8.919032,44.416496],[8.911743,44.413807]]}},{"type":"Feature","properties":{"shape_id":"{}","direction_id":"{}","headsign":"{\"BRIGNOLE\": 154}","duration_avg":98.0,"n_vehicles":154,"d":724,"route_I_counts":"{\"167\": 154}","source":5,"target":4,"layer":"L","from":"PRINCIPE/METRO","to":"DARSENA/METRO"},"geometry":{"type":"LineString","coordinates":[[8.919032,44.416496],[8.926686,44.412964]]}},{"type":"Feature","properties":{"shape_id":"{}","direction_id":"{}","headsign":"{\"BRIN\": 155}","duration_avg":299.61290322580646,"n_vehicles":155,"d":2120,"route_I_counts":"{\"167\": 155}","source":6,"target":7,"layer":"L","from":"DINEGRO/METRO","to":"BRIN/METRO"},"geometry":{"type":"LineString","coordinates":[[8.911743,44.413807],[8.894957,44.428612]]}},{"type":"Feature","properties":{"shape_id":"{}","direction_id":"{}","headsign":"{\"BRIGNOLE\": 154}","duration_avg":120.0,"n_vehicles":154,"d":652,"route_I_counts":"{\"167\": 154}","source":6,"target":5,"layer":"L","from":"DINEGRO/METRO","to":"PRINCIPE/METRO"},"geometry":{"type":"LineString","coordinates":[[8.911743,44.413807],[8.919032,44.416496]]}},{"type":"Feature","properties":{"shape_id":"{}","direction_id":"{}","headsign":"{\"BRIGNOLE\": 155}","duration_avg":240.0,"n_vehicles":155,"d":2120,"route_I_counts":"{\"167\": 155}","source":7,"target":6,"layer":"L","from":"BRIN/METRO","to":"DINEGRO/METRO"},"geometry":{"type":"LineString","coordinates":[[8.894957,44.428612],[8.911743,44.413807]]}}]}