{"type":"FeatureCollection","features":[{"type":"Feature","geometry":{"type":"Point","coordinates":[24.739485,60.159788]},"properties":{"name":"Matinkylä","original_ids":"[4446, 4447]","id":0,"layer":"stop"}},{"type":"Feature","geometry":{"type":"Point","coordinates":[24.763266,60.170497]},"properties":{"name":"Niittykumpu","original_ids":"[4444, 4445]","id":1,"layer":"stop"}},{"type":"Feature","geometry":{"type":"Point","coordinates":[24.780567,60.174588]},"properties":{"name":"Urheilupuisto","original_ids":"[4442, 4443]","id":2,"layer":"stop"}},{"type":"Feature","geometry":{"type":"Point","coordinates":[24.803463,60.175017]},"properties":{"name":"Tapiola","original_ids":"[4440, 4441]","id":3,"layer":"stop"}},{"type":"Feature","geometry":{"type":"Point","coordinates":[24.823515,60.184516]},"properties":{"name":"Aalto-yliopisto","original_ids":"[4351, 4352]","id":4,"layer":"stop"}},{"type":"Feature","geometry":{"type":"Point","coordinates":[24.82936,60.175405]},"properties":{"name":"Keilaniemi","original_ids":"[4438, 4439]","id":5,"layer":"stop"}},{"type":"Feature","geometry":{"type":"Point","coordinates":[24.85361,60.163538]},"properties":{"name":"Koivusaari","original_ids":"[2675, 2676]","id":6,"layer":"stop"}},{"type":"Feature","geometry":{"type":"Point","coordinates":[24.87857,60.159362]},"properties":{"name":"Lauttasaari","original_ids":"[2673, 2674]","id":7,"layer":"stop"}},{"type":"Feature","geometry":{"type":"Point","coordinates":[24.915567,60.163178]},"properties":{"name":"Ruoholahti","original_ids":"[2639, 2640]","id":8,"layer":"stop"}},{"type":"Feature","geometry":{"type":"Point","coordinates":[24.931215,60.16883]},"properties":{"name":"Kamppi","original_ids":"[2667, 2668]","id":9,"layer":"stop"}},{"type":"Feature","geometry":{"type":"Point","coordinates":[24.939846,60.170379]},"properties":{"name":"Rautatientori","original_ids":"[2669, 2670]","id":10,"layer":"stop"}},{"type":"Feature","geometry":{"type":"Point","coordinates":[24.947915,60.172009]},"properties":{"name":"Helsingin yliopisto","original_ids":"[2641, 2642]","id":11,"layer":"stop"}},{"type":"Feature","geometry":{"type":"Point","coordinates":[24.950188,60.180481]},"properties":{"name":"Hakaniemi","original_ids":"[2671, 2672]","id":12,"layer":"stop"}},{"type":"Feature","geometry":{"type":"Point","coordinates":[24.959708,60.187124]},"properties":{"name":"Sörnäinen","original_ids":"[2643, 2644]","id":13,"layer":"stop"}},{"type":"Feature","geometry":{"type":"Point","coordinates":[24.977068,60.187389]},"properties":{"name":"Kalasatama","original_ids":"[2645, 2646]","id":14,"layer":"stop"}},{"type":"Feature","geometry":{"type":"Point","coordinates":[25.008191,60.188834]},"properties":{"name":"Kulosaari","original_ids":"[2647, 2648]","id":15,"layer":"stop"}},{"type":"Feature","geometry":{"type":"Point","coordinates":[25.030764,60.194802]},"properties":{"name":"Herttoniemi","original_ids":"[2649, 2650]","id":16,"layer":"stop"}},{"type":"Feature","geometry":{"type":"Point","coordinates":[25.044593,60.205676]},"properties":{"name":"Siilitie","original_ids":"[2651, 2652]","id":17,"layer":"stop"}},{"type":"Feature","geometry":{"type":"Point","coordinates":[25.077784,60.210024]},"properties":{"name":"Itäkeskus","original_ids":"[2653, 2654]","id":18,"layer":"stop"}},{"type":"Feature","geometry":{"type":"Point","coordinates":[25.093072,60.214693]},"properties":{"name":"Puotila","original_ids":"[2661, 2662]","id":19,"layer":"stop"}},{"type":"Feature","geometry":{"type":"Point","coordinates":[25.120661,60.205509]},"properties":{"name":"Rastila","original_ids":"[2663, 2664]","id":20,"layer":"stop"}},{"type":"Feature","geometry":{"type":"Point","coordinates":[25.143076,60.207216]},"properties":{"name":"Vuosaari","original_ids":"[2665, 2666]","id":21,"layer":"stop"}},{"type":"Feature","geometry":{"type":"Point","coordinates":[25.075778,60.22501]},"properties":{"name":"Myllypuro","original_ids":"[2655, 2656]","id":22,"layer":"stop"}},{"type":"Feature","geometry":{"type":"Point","coordinates":[25.083694,60.23596]},"properties":{"name":"Kontula","original_ids":"[2657, 2658]","id":23,"layer":"stop"}},{"type":"Feature","geometry":{"type":"Point","coordinates":[25.110213,60.238896]},"properties":{"name":"Mellunmäki","original_ids":"[2659, 2660]","id":24,"layer":"stop"}},{"type":"Feature","properties":{"shape_id":"{\"31M1_20200806_1\": 138}","direction_id":"{\"0\": 138}","headsign":"{\"Vuosaari\": 138}","duration_avg":120.0,"n_vehicles":138,"d":1776,"route_I_counts":"{\"262\": 138}","source":0,"target":1,"layer":"L","from":"Matinkylä","to":"Niittykumpu"},"geometry":{"type":"LineString","coordinates":[[24.739485,60.159788],[24.763266,60.170497]]}},{"type":"Feature","properties":{"shape_id":"{\"31M1_20200806_1\": 138}","direction_id":"{\"0\": 138}","headsign":"{\"Vuosaari\": 138}","duration_avg":73.47826086956522,"n_vehicles":138,"d":1060,"route_I_counts":"{\"262\": 138}","source":1,"target":2,"layer":"L","from":"Niittykumpu","to":"Urheilupuisto"},"geometry":{"type":"LineString","coordinates":[[24.763266,60.170497],[24.780567,60.174588]]}},{"type":"Feature","properties":{"duration_avg":120.0,"n_vehicles":134,"d":1778,"route_I_counts":"{\"262\": 134}","shape_id":"{\"31M1_20200806_2\": 134}","direction_id":"{\"1\": 134}","headsign":"{\"Matinkylä\": 134}","source":1,"target":0,"layer":"L","from":"Niittykumpu","to":"Matinkylä"},"geometry":{"type":"LineString","coordinates":[[24.763266,60.170497],[24.739485,60.159788]]}},{"type":"Feature","properties":{"shape_id":"{\"31M1_20200806_1\": 138}","direction_id":"{\"0\": 138}","headsign":"{\"Vuosaari\": 138}","duration_avg":120.0,"n_vehicles":138,"d":1268,"route_I_counts":"{\"262\": 138}","source":2,"target":3,"layer":"L","from":"Urheilupuisto","to":"Tapiola"},"geometry":{"type":"LineString","coordinates":[[24.780567,60.174588],[24.803463,60.175017]]}},{"type":"Feature","properties":{"duration_avg":120.0,"n_vehicles":135,"d":1055,"route_I_counts":"{\"262\": 135}","shape_id":"{\"31M1_20200806_2\": 135}","direction_id":"{\"1\": 135}","headsign":"{\"Matinkylä\": 135}","source":2,"target":1,"layer":"L","from":"Urheilupuisto","to":"Niittykumpu"},"geometry":{"type":"LineString","coordinates":[[24.780567,60.174588],[24.763266,60.170497]]}},{"type":"Feature","properties":{"shape_id":"{\"31M1_20200806_1\": 138, \"31M2_20200806_1\": 133}","direction_id":"{\"0\": 271}","headsign":"{\"Mellunmäki\": 133, \"Vuosaari\": 138}","duration_avg":120.0,"n_vehicles":271,"d":1533,"route_I_counts":"{\"262\": 138, \"264\": 133}","source":3,"target":4,"layer":"L","from":"Tapiola","to":"Aalto-yliopisto"},"geometry":{"type":"LineString","coordinates":[[24.803463,60.175017],[24.823515,60.184516]]}},{"type":"Feature","properties":{"duration_avg":120.0,"n_vehicles":135,"d":1271,"route_I_counts":"{\"262\": 135}","shape_id":"{\"31M1_20200806_2\": 135}","direction_id":"{\"1\": 135}","headsign":"{\"Matinkylä\": 135}","source":3,"target":2,"layer":"L","from":"Tapiola","to":"Urheilupuisto"},"geometry":{"type":"LineString","coordinates":[[24.803463,60.175017],[24.780567,60.174588]]}},{"type":"Feature","properties":{"shape_id":"{\"31M1_20200806_1\": 138, \"31M2_20200806_1\": 133}","direction_id":"{\"0\": 271}","headsign":"{\"Mellunmäki\": 133, \"Vuosaari\": 138}","duration_avg":120.0,"n_vehicles":271,"d":1064,"route_I_counts":"{\"262\": 138, \"264\": 133}","source":4,"target":5,"layer":"L","from":"Aalto-yliopisto","to":"Keilaniemi"},"geometry":{"type":"LineString","coordinates":[[24.823515,60.184516],[24.82936,60.175405]]}},{"type":"Feature","properties":{"duration_avg":120.0,"n_vehicles":269,"d":1530,"route_I_counts":"{\"262\": 135, \"264\": 134}","shape_id":"{\"31M1_20200806_2\": 135, \"31M2_20200806_2\": 134}","direction_id":"{\"1\": 269}","headsign":"{\"Matinkylä\": 135, \"Tapiola\": 134}","source":4,"target":3,"layer":"L","from":"Aalto-yliopisto","to":"Tapiola"},"geometry":{"type":"LineString","coordinates":[[24.823515,60.184516],[24.803463,60.175017]]}},{"type":"Feature","properties":{"shape_id":"{\"31M1_20200806_1\": 137, \"31M2_20200806_1\": 133}","direction_id":"{\"0\": 270}","headsign":"{\"Mellunmäki\": 133, \"Vuosaari\": 137}","duration_avg":158.0,"n_vehicles":270,"d":1883,"route_I_counts":"{\"262\": 137, \"264\": 133}","source":5,"target":6,"layer":"L","from":"Keilaniemi","to":"Koivusaari"},"geometry":{"type":"LineString","coordinates":[[24.82936,60.175405],[24.85361,60.163538]]}},{"type":"Feature","properties":{"duration_avg":120.0,"n_vehicles":269,"d":1051,"route_I_counts":"{\"262\": 135, \"264\": 134}","shape_id":"{\"31M1_20200806_2\": 135, \"31M2_20200806_2\": 134}","direction_id":"{\"1\": 269}","headsign":"{\"Matinkylä\": 135, \"Tapiola\": 134}","source":5,"target":4,"layer":"L","from":"Keilaniemi","to":"Aalto-yliopisto"},"geometry":{"type":"LineString","coordinates":[[24.82936,60.175405],[24.823515,60.184516]]}},{"type":"Feature","properties":{"shape_id":"{\"31M1_20200806_1\": 137, \"31M2_20200806_1\": 133}","direction_id":"{\"0\": 270}","headsign":"{\"Mellunmäki\": 133, \"Vuosaari\": 137}","duration_avg":120.0,"n_vehicles":270,"d":1458,"route_I_counts":"{\"262\": 137, \"264\": 133}","source":6,"target":7,"layer":"L","from":"Koivusaari","to":"Lauttasaari"},"geometry":{"type":"LineString","coordinates":[[24.85361,60.163538],[24.87857,60.159362]]}},{"type":"Feature","properties":{"duration_avg":164.88888888888889,"n_vehicles":270,"d":1886,"route_I_counts":"{\"262\": 135, \"264\": 135}","shape_id":"{\"31M1_20200806_2\": 135, \"31M2_20200806_2\": 135}","direction_id":"{\"1\": 270}","headsign":"{\"Matinkylä\": 135, \"Tapiola\": 135}","source":6,"target":5,"layer":"L","from":"Koivusaari","to":"Keilaniemi"},"geometry":{"type":"LineString","coordinates":[[24.85361,60.163538],[24.82936,60.175405]]}},{"type":"Feature","properties":{"shape_id":"{\"31M1_20200806_1\": 137, \"31M2_20200806_1\": 133}","direction_id":"{\"0\": 270}","headsign":"{\"Mellunmäki\": 133, \"Vuosaari\": 137}","duration_avg":165.55555555555554,"n_vehicles":270,"d":2092,"route_I_counts":"{\"262\": 137, \"264\": 133}","source":7,"target":8,"layer":"L","from":"Lauttasaari","to":"Ruoholahti"},"geometry":{"type":"LineString","coordinates":[[24.87857,60.159362],[24.915567,60.163178]]}},{"type":"Feature","properties":{"duration_avg":120.0,"n_vehicles":270,"d":1451,"route_I_counts":"{\"262\": 135, \"264\": 135}","shape_id":"{\"31M1_20200806_2\": 135, \"31M2_20200806_2\": 135}","direction_id":"{\"1\": 270}","headsign":"{\"Matinkylä\": 135, \"Tapiola\": 135}","source":7,"target":6,"layer":"L","from":"Lauttasaari","to":"Koivusaari"},"geometry":{"type":"LineString","coordinates":[[24.87857,60.159362],[24.85361,60.163538]]}},{"type":"Feature","properties":{"shape_id":"{\"31M1_20200806_1\": 137, \"31M2_20200806_1\": 132}","direction_id":"{\"0\": 269}","headsign":"{\"Mellunmäki\": 132, \"Vuosaari\": 137}","duration_avg":120.0,"n_vehicles":269,"d":1070,"route_I_counts":"{\"262\": 137, \"264\": 132}","source":8,"target":9,"layer":"L","from":"Ruoholahti","to":"Kamppi"},"geometry":{"type":"LineString","coordinates":[[24.915567,60.163178],[24.931215,60.16883]]}},{"type":"Feature","properties":{"duration_avg":135.11111111111111,"n_vehicles":270,"d":2095,"route_I_counts":"{\"262\": 135, \"264\": 135}","shape_id":"{\"31M1_20200806_2\": 135, \"31M2_20200806_2\": 135}","direction_id":"{\"1\": 270}","headsign":"{\"Matinkylä\": 135, \"Tapiola\": 135}","source":8,"target":7,"layer":"L","from":"Ruoholahti","to":"Lauttasaari"},"geometry":{"type":"LineString","coordinates":[[24.915567,60.163178],[24.87857,60.159362]]}},{"type":"Feature","properties":{"shape_id":"{\"31M1_20200806_1\": 137, \"31M2_20200806_1\": 132}","direction_id":"{\"0\": 269}","headsign":"{\"Mellunmäki\": 132, \"Vuosaari\": 137}","duration_avg":67.36059479553903,"n_vehicles":269,"d":508,"route_I_counts":"{\"262\": 137, \"264\": 132}","source":9,"target":10,"layer":"L","from":"Kamppi","to":"Rautatientori"},"geometry":{"type":"LineString","coordinates":[[24.931215,60.16883],[24.939846,60.170379]]}},{"type":"Feature","properties":{"duration_avg":104.94464944649447,"n_vehicles":271,"d":1068,"route_I_counts":"{\"262\": 136, \"264\": 135}","shape_id":"{\"31M1_20200806_2\": 136, \"31M2_20200806_2\": 135}","direction_id":"{\"1\": 271}","headsign":"{\"Matinkylä\": 136, \"Tapiola\": 135}","source":9,"target":8,"layer":"L","from":"Kamppi","to":"Ruoholahti"},"geometry":{"type":"LineString","coordinates":[[24.931215,60.16883],[24.915567,60.163178]]}},{"type":"Feature","properties":{"shape_id":"{\"31M1_20200806_1\": 137, \"31M2_20200806_1\": 132}","direction_id":"{\"0\": 269}","headsign":"{\"Mellunmäki\": 132, \"Vuosaari\": 137}","duration_avg":66.91449814126393,"n_vehicles":269,"d":482,"route_I_counts":"{\"262\": 137, \"264\": 132}","source":10,"target":11,"layer":"L","from":"Rautatientori","to":"Helsingin yliopisto"},"geometry":{"type":"LineString","coordinates":[[24.939846,60.170379],[24.947915,60.172009]]}},{"type":"Feature","properties":{"duration_avg":75.05535055350553,"n_vehicles":271,"d":509,"route_I_counts":"{\"262\": 136, \"264\": 135}","shape_id":"{\"31M1_20200806_2\": 136, \"31M2_20200806_2\": 135}","direction_id":"{\"1\": 271}","headsign":"{\"Matinkylä\": 136, \"Tapiola\": 135}","source":10,"target":9,"layer":"L","from":"Rautatientori","to":"Kamppi"},"geometry":{"type":"LineString","coordinates":[[24.939846,60.170379],[24.931215,60.16883]]}},{"type":"Feature","properties":{"shape_id":"{\"31M1_20200806_1\": 137, \"31M2_20200806_1\": 132}","direction_id":"{\"0\": 269}","headsign":"{\"Mellunmäki\": 132, \"Vuosaari\": 137}","duration_avg":105.72490706319702,"n_vehicles":269,"d":951,"route_I_counts":"{\"262\": 137, \"264\": 132}","source":11,"target":12,"layer":"L","from":"Helsingin yliopisto","to":"Hakaniemi"},"geometry":{"type":"LineString","coordinates":[[24.947915,60.172009],[24.950188,60.180481]]}},{"type":"Feature","properties":{"duration_avg":104.94464944649447,"n_vehicles":271,"d":479,"route_I_counts":"{\"262\": 136, \"264\": 135}","shape_id":"{\"31M1_20200806_2\": 136, \"31M2_20200806_2\": 135}","direction_id":"{\"1\": 271}","headsign":"{\"Matinkylä\": 136, \"Tapiola\": 135}","source":11,"target":10,"layer":"L","from":"Helsingin yliopisto","to":"Rautatientori"},"geometry":{"type":"LineString","coordinates":[[24.947915,60.172009],[24.939846,60.170379]]}},{"type":"Feature","properties":{"shape_id":"{\"31M1_20200806_1\": 137, \"31M2_20200806_1\": 132}","direction_id":"{\"0\": 269}","headsign":"{\"Mellunmäki\": 132, \"Vuosaari\": 137}","duration_avg":74.27509293680298,"n_vehicles":269,"d":908,"route_I_counts":"{\"262\": 137, \"264\": 132}","source":12,"target":13,"layer":"L","from":"Hakaniemi","to":"Sörnäinen"},"geometry":{"type":"LineString","coordinates":[[24.950188,60.180481],[24.959708,60.187124]]}},{"type":"Feature","properties":{"duration_avg":75.05535055350553,"n_vehicles":271,"d":949,"route_I_counts":"{\"262\": 136, \"264\": 135}","shape_id":"{\"31M1_20200806_2\": 136, \"31M2_20200806_2\": 135}","direction_id":"{\"1\": 271}","headsign":"{\"Matinkylä\": 136, \"Tapiola\": 135}","source":12,"target":11,"layer":"L","from":"Hakaniemi","to":"Helsingin yliopisto"},"geometry":{"type":"LineString","coordinates":[[24.950188,60.180481],[24.947915,60.172009]]}},{"type":"Feature","properties":{"shape_id":"{\"31M1_20200806_1\": 136, \"31M2_20200806_1\": 132}","direction_id":"{\"0\": 268}","headsign":"{\"Mellunmäki\": 132, \"Vuosaari\": 136}","duration_avg":113.05970149253731,"n_vehicles":268,"d":961,"route_I_counts":"{\"262\": 136, \"264\": 132}","source":13,"target":14,"layer":"L","from":"Sörnäinen","to":"Kalasatama"},"geometry":{"type":"LineString","coordinates":[[24.959708,60.187124],[24.977068,60.187389]]}},{"type":"Feature","properties":{"duration_avg":104.94464944649447,"n_vehicles":271,"d":909,"route_I_counts":"{\"262\": 136, \"264\": 135}","shape_id":"{\"31M1_20200806_2\": 136, \"31M2_20200806_2\": 135}","direction_id":"{\"1\": 271}","headsign":"{\"Matinkylä\": 136, \"Tapiola\": 135}","source":13,"target":12,"layer":"L","from":"Sörnäinen","to":"Hakaniemi"},"geometry":{"type":"LineString","coordinates":[[24.959708,60.187124],[24.950188,60.180481]]}},{"type":"Feature","properties":{"shape_id":"{\"31M1_20200806_1\": 136, \"31M2_20200806_1\": 132}","direction_id":"{\"0\": 268}","headsign":"{\"Mellunmäki\": 132, \"Vuosaari\": 136}","duration_avg":120.0,"n_vehicles":268,"d":1729,"route_I_counts":"{\"262\": 136, \"264\": 132}","source":14,"target":15,"layer":"L","from":"Kalasatama","to":"Kulosaari"},"geometry":{"type":"LineString","coordinates":[[24.977068,60.187389],[25.008191,60.188834]]}},{"type":"Feature","properties":{"duration_avg":120.0,"n_vehicles":272,"d":966,"route_I_counts":"{\"262\": 136, \"264\": 136}","shape_id":"{\"31M1_20200806_2\": 136, \"31M2_20200806_2\": 136}","direction_id":"{\"1\": 272}","headsign":"{\"Matinkylä\": 136, \"Tapiola\": 136}","source":14,"target":13,"layer":"L","from":"Kalasatama","to":"Sörnäinen"},"geometry":{"type":"LineString","coordinates":[[24.977068,60.187389],[24.959708,60.187124]]}},{"type":"Feature","properties":{"shape_id":"{\"31M1_20200806_1\": 136, \"31M2_20200806_1\": 132}","direction_id":"{\"0\": 268}","headsign":"{\"Mellunmäki\": 132, \"Vuosaari\": 136}","duration_avg":126.94029850746269,"n_vehicles":268,"d":1414,"route_I_counts":"{\"262\": 136, \"264\": 132}","source":15,"target":16,"layer":"L","from":"Kulosaari","to":"Herttoniemi"},"geometry":{"type":"LineString","coordinates":[[25.008191,60.188834],[25.030764,60.194802]]}},{"type":"Feature","properties":{"duration_avg":120.0,"n_vehicles":272,"d":1724,"route_I_counts":"{\"262\": 136, \"264\": 136}","shape_id":"{\"31M1_20200806_2\": 136, \"31M2_20200806_2\": 136}","direction_id":"{\"1\": 272}","headsign":"{\"Matinkylä\": 136, \"Tapiola\": 136}","source":15,"target":14,"layer":"L","from":"Kulosaari","to":"Kalasatama"},"geometry":{"type":"LineString","coordinates":[[25.008191,60.188834],[24.977068,60.187389]]}},{"type":"Feature","properties":{"shape_id":"{\"31M1_20200806_1\": 136, \"31M2_20200806_1\": 132}","direction_id":"{\"0\": 268}","headsign":"{\"Mellunmäki\": 132, \"Vuosaari\": 136}","duration_avg":113.05970149253731,"n_vehicles":268,"d":1431,"route_I_counts":"{\"262\": 136, \"264\": 132}","source":16,"target":17,"layer":"L","from":"Herttoniemi","to":"Siilitie"},"geometry":{"type":"LineString","coordinates":[[25.030764,60.194802],[25.044593,60.205676]]}},{"type":"Feature","properties":{"duration_avg":120.0,"n_vehicles":272,"d":1413,"route_I_counts":"{\"262\": 136, \"264\": 136}","shape_id":"{\"31M1_20200806_2\": 136, \"31M2_20200806_2\": 136}","direction_id":"{\"1\": 272}","headsign":"{\"Matinkylä\": 136, \"Tapiola\": 136}","source":16,"target":15,"layer":"L","from":"Herttoniemi","to":"Kulosaari"},"geometry":{"type":"LineString","coordinates":[[25.030764,60.194802],[25.008191,60.188834]]}},{"type":"Feature","properties":{"shape_id":"{\"31M1_20200806_1\": 136, \"31M2_20200806_1\": 131}","direction_id":"{\"0\": 267}","headsign":"{\"Mellunmäki\": 131, \"Vuosaari\": 136}","duration_avg":172.80898876404495,"n_vehicles":267,"d":1898,"route_I_counts":"{\"262\": 136, \"264\": 131}","source":17,"target":18,"layer":"L","from":"Siilitie","to":"Itäkeskus"},"geometry":{"type":"LineString","coordinates":[[25.044593,60.205676],[25.077784,60.210024]]}},{"type":"Feature","properties":{"duration_avg":120.0,"n_vehicles":272,"d":1430,"route_I_counts":"{\"262\": 136, \"264\": 136}","shape_id":"{\"31M1_20200806_2\": 136, \"31M2_20200806_2\": 136}","direction_id":"{\"1\": 272}","headsign":"{\"Matinkylä\": 136, \"Tapiola\": 136}","source":17,"target":16,"layer":"L","from":"Siilitie","to":"Herttoniemi"},"geometry":{"type":"LineString","coordinates":[[25.044593,60.205676],[25.030764,60.194802]]}},{"type":"Feature","properties":{"shape_id":"{\"31M1B_20160815_1\": 5, \"31M1_20200806_1\": 136}","direction_id":"{\"0\": 141}","headsign":"{\"Vuosaari\": 141}","duration_avg":73.19148936170212,"n_vehicles":141,"d":992,"route_I_counts":"{\"262\": 136, \"263\": 5}","source":18,"target":19,"layer":"L","from":"Itäkeskus","to":"Puotila"},"geometry":{"type":"LineString","coordinates":[[25.077784,60.210024],[25.093072,60.214693]]}},{"type":"Feature","properties":{"shape_id":"{\"31M2B_20160815_1\": 8, \"31M2_20200806_1\": 131}","direction_id":"{\"0\": 139}","headsign":"{\"Mellunmäki\": 139}","duration_avg":133.81294964028777,"n_vehicles":139,"d":1671,"route_I_counts":"{\"264\": 131, \"265\": 8}","source":18,"target":22,"layer":"L","from":"Itäkeskus","to":"Myllypuro"},"geometry":{"type":"LineString","coordinates":[[25.077784,60.210024],[25.075778,60.22501]]}},{"type":"Feature","properties":{"duration_avg":135.16483516483515,"n_vehicles":273,"d":1898,"route_I_counts":"{\"262\": 137, \"264\": 136}","shape_id":"{\"31M1_20200806_2\": 137, \"31M2_20200806_2\": 136}","direction_id":"{\"1\": 273}","headsign":"{\"Matinkylä\": 137, \"Tapiola\": 136}","source":18,"target":17,"layer":"L","from":"Itäkeskus","to":"Siilitie"},"geometry":{"type":"LineString","coordinates":[[25.077784,60.210024],[25.044593,60.205676]]}},{"type":"Feature","properties":{"shape_id":"{\"31M1B_20160815_1\": 5, \"31M1_20200806_1\": 136}","direction_id":"{\"0\": 141}","headsign":"{\"Vuosaari\": 141}","duration_avg":166.80851063829786,"n_vehicles":141,"d":1836,"route_I_counts":"{\"262\": 136, \"263\": 5}","source":19,"target":20,"layer":"L","from":"Puotila","to":"Rastila"},"geometry":{"type":"LineString","coordinates":[[25.093072,60.214693],[25.120661,60.205509]]}},{"type":"Feature","properties":{"duration_avg":165.98540145985402,"n_vehicles":137,"d":993,"route_I_counts":"{\"262\": 137}","shape_id":"{\"31M1_20200806_2\": 137}","direction_id":"{\"1\": 137}","headsign":"{\"Matinkylä\": 137}","source":19,"target":18,"layer":"L","from":"Puotila","to":"Itäkeskus"},"geometry":{"type":"LineString","coordinates":[[25.093072,60.214693],[25.077784,60.210024]]}},{"type":"Feature","properties":{"shape_id":"{\"31M1B_20160815_1\": 5, \"31M1_20200806_1\": 135}","direction_id":"{\"0\": 140}","headsign":"{\"Vuosaari\": 140}","duration_avg":120.0,"n_vehicles":140,"d":1254,"route_I_counts":"{\"262\": 135, \"263\": 5}","source":20,"target":21,"layer":"L","from":"Rastila","to":"Vuosaari"},"geometry":{"type":"LineString","coordinates":[[25.120661,60.205509],[25.143076,60.207216]]}},{"type":"Feature","properties":{"duration_avg":120.0,"n_vehicles":137,"d":1837,"route_I_counts":"{\"262\": 137}","shape_id":"{\"31M1_20200806_2\": 137}","direction_id":"{\"1\": 137}","headsign":"{\"Matinkylä\": 137}","source":20,"target":19,"layer":"L","from":"Rastila","to":"Puotila"},"geometry":{"type":"LineString","coordinates":[[25.120661,60.205509],[25.093072,60.214693]]}},{"type":"Feature","properties":{"duration_avg":74.01459854014598,"n_vehicles":137,"d":1253,"route_I_counts":"{\"262\": 137}","shape_id":"{\"31M1_20200806_2\": 137}","direction_id":"{\"1\": 137}","headsign":"{\"Matinkylä\": 137}","source":21,"target":20,"layer":"L","from":"Vuosaari","to":"Rastila"},"geometry":{"type":"LineString","coordinates":[[25.143076,60.207216],[25.120661,60.205509]]}},{"type":"Feature","properties":{"shape_id":"{\"31M2B_20160815_1\": 8, \"31M2_20200806_1\": 131}","direction_id":"{\"0\": 139}","headsign":"{\"Mellunmäki\": 139}","duration_avg":106.18705035971223,"n_vehicles":139,"d":1295,"route_I_counts":"{\"264\": 131, \"265\": 8}","source":22,"target":23,"layer":"L","from":"Myllypuro","to":"Kontula"},"geometry":{"type":"LineString","coordinates":[[25.075778,60.22501],[25.083694,60.23596]]}},{"type":"Feature","properties":{"duration_avg":163.6764705882353,"n_vehicles":136,"d":1661,"route_I_counts":"{\"264\": 136}","shape_id":"{\"31M2_20200806_2\": 136}","direction_id":"{\"1\": 136}","headsign":"{\"Tapiola\": 136}","source":22,"target":18,"layer":"L","from":"Myllypuro","to":"Itäkeskus"},"geometry":{"type":"LineString","coordinates":[[25.075778,60.22501],[25.077784,60.210024]]}},{"type":"Feature","properties":{"shape_id":"{\"31M2B_20160815_1\": 8, \"31M2_20200806_1\": 131}","direction_id":"{\"0\": 139}","headsign":"{\"Mellunmäki\": 139}","duration_avg":120.0,"n_vehicles":139,"d":1501,"route_I_counts":"{\"264\": 131, \"265\": 8}","source":23,"target":24,"layer":"L","from":"Kontula","to":"Mellunmäki"},"geometry":{"type":"LineString","coordinates":[[25.083694,60.23596],[25.110213,60.238896]]}},{"type":"Feature","properties":{"duration_avg":76.32352941176471,"n_vehicles":136,"d":1297,"route_I_counts":"{\"264\": 136}","shape_id":"{\"31M2_20200806_2\": 136}","direction_id":"{\"1\": 136}","headsign":"{\"Tapiola\": 136}","source":23,"target":22,"layer":"L","from":"Kontula","to":"Myllypuro"},"geometry":{"type":"LineString","coordinates":[[25.083694,60.23596],[25.075778,60.22501]]}},{"type":"Feature","properties":{"duration_avg":120.0,"n_vehicles":137,"d":1501,"route_I_counts":"{\"264\": 137}","shape_id":"{\"31M2_20200806_2\": 137}","direction_id":"{\"1\": 137}","headsign":"{\"Tapiola\": 137}","source":24,"target":23,"layer":"L","from":"Mellunmäki","to":"Kontula"},"geometry":{"type":"LineString","coordinates":[[25.110213,60.238896],[25.083694,60.23596]]}}]}