{"type":"FeatureCollection","features":[{"type":"Feature","geometry":{"type":"Point","coordinates":[78.503179,17.373445]},"properties":{"name":"New Market","original_ids":"[55]","id":0,"layer":"stop"}},{"type":"Feature","geometry":{"type":"Point","coordinates":[78.511955,17.371087]},"properties":{"name":"Musarambagh","original_ids":"[56]","id":1,"layer":"stop"}},{"type":"Feature","geometry":{"type":"Point","coordinates":[78.525387,17.368549]},"properties":{"name":"Dilsukh Nagar","original_ids":"[57]","id":2,"layer":"stop"}},{"type":"Feature","geometry":{"type":"Point","coordinates":[78.538134,17.36815]},"properties":{"name":"Chaitanyapuri","original_ids":"[58]","id":3,"layer":"stop"}},{"type":"Feature","geometry":{"type":"Point","coordinates":[78.543962,17.361856]},"properties":{"name":"Victoria Memorial","original_ids":"[59]","id":4,"layer":"stop"}},{"type":"Feature","geometry":{"type":"Point","coordinates":[78.547941,17.349846]},"properties":{"name":"L. B. Nagar","original_ids":"[60]","id":5,"layer":"stop"}},{"type":"Feature","geometry":{"type":"Point","coordinates":[78.47088,17.397991]},"properties":{"name":"Assembly","original_ids":"[49]","id":6,"layer":"stop"}},{"type":"Feature","geometry":{"type":"Point","coordinates":[78.470161,17.392222]},"properties":{"name":"Nampally","original_ids":"[50]","id":7,"layer":"stop"}},{"type":"Feature","geometry":{"type":"Point","coordinates":[78.473335,17.385825]},"properties":{"name":"Gandhi Bhavan","original_ids":"[51]","id":8,"layer":"stop"}},{"type":"Feature","geometry":{"type":"Point","coordinates":[78.481701,17.382077]},"properties":{"name":"Osmania Medical College","original_ids":"[52]","id":9,"layer":"stop"}},{"type":"Feature","geometry":{"type":"Point","coordinates":[78.486157,17.379789]},"properties":{"name":"Mahatma Gandhi Bus Station (Red Line)","original_ids":"[53, 24]","id":10,"layer":"stop"}},{"type":"Feature","geometry":{"type":"Point","coordinates":[78.493936,17.377189]},"properties":{"name":"Malakpet","original_ids":"[54]","id":11,"layer":"stop"}},{"type":"Feature","geometry":{"type":"Point","coordinates":[78.444793,17.435721]},"properties":{"name":"Ameerpet (Red Line)","original_ids":"[44, 14]","id":12,"layer":"stop"}},{"type":"Feature","geometry":{"type":"Point","coordinates":[78.450955,17.428936]},"properties":{"name":"Panjagutta","original_ids":"[45]","id":13,"layer":"stop"}},{"type":"Feature","geometry":{"type":"Point","coordinates":[78.456349,17.420229]},"properties":{"name":"Erra Manzil","original_ids":"[46]","id":14,"layer":"stop"}},{"type":"Feature","geometry":{"type":"Point","coordinates":[78.460868,17.411632]},"properties":{"name":"Khairatabad","original_ids":"[47]","id":15,"layer":"stop"}},{"type":"Feature","geometry":{"type":"Point","coordinates":[78.464944,17.404043]},"properties":{"name":"Lakdi-ka-pul","original_ids":"[48]","id":16,"layer":"stop"}},{"type":"Feature","geometry":{"type":"Point","coordinates":[78.422108,17.476746]},"properties":{"name":"Balanagar","original_ids":"[38]","id":17,"layer":"stop"}},{"type":"Feature","geometry":{"type":"Point","coordinates":[78.426118,17.471885]},"properties":{"name":"Moosapet","original_ids":"[39]","id":18,"layer":"stop"}},{"type":"Feature","geometry":{"type":"Point","coordinates":[78.430536,17.462909]},"properties":{"name":"Bharat Nagar","original_ids":"[40]","id":19,"layer":"stop"}},{"type":"Feature","geometry":{"type":"Point","coordinates":[78.433581,17.457049]},"properties":{"name":"Erragadda","original_ids":"[41]","id":20,"layer":"stop"}},{"type":"Feature","geometry":{"type":"Point","coordinates":[78.437628,17.448697]},"properties":{"name":"ESI Hospital","original_ids":"[42]","id":21,"layer":"stop"}},{"type":"Feature","geometry":{"type":"Point","coordinates":[78.440724,17.44312]},"properties":{"name":"S. R. Nagar","original_ids":"[43]","id":22,"layer":"stop"}},{"type":"Feature","geometry":{"type":"Point","coordinates":[78.373026,17.496545]},"properties":{"name":"Miyapur","original_ids":"[34]","id":23,"layer":"stop"}},{"type":"Feature","geometry":{"type":"Point","coordinates":[78.388867,17.498704]},"properties":{"name":"JNTU College","original_ids":"[35]","id":24,"layer":"stop"}},{"type":"Feature","geometry":{"type":"Point","coordinates":[78.401826,17.49376]},"properties":{"name":"KPHB Colony","original_ids":"[36]","id":25,"layer":"stop"}},{"type":"Feature","geometry":{"type":"Point","coordinates":[78.41179,17.484903]},"properties":{"name":"Kukatpally","original_ids":"[37]","id":26,"layer":"stop"}},{"type":"Feature","geometry":{"type":"Point","coordinates":[78.494896,17.400363]},"properties":{"name":"Chikkadpally","original_ids":"[27]","id":27,"layer":"stop"}},{"type":"Feature","geometry":{"type":"Point","coordinates":[78.496802,17.407032]},"properties":{"name":"RTC Cross Roads","original_ids":"[28]","id":28,"layer":"stop"}},{"type":"Feature","geometry":{"type":"Point","coordinates":[78.499505,17.417874]},"properties":{"name":"Musheerabad","original_ids":"[29]","id":29,"layer":"stop"}},{"type":"Feature","geometry":{"type":"Point","coordinates":[78.501956,17.425515]},"properties":{"name":"Gandhi Hospital","original_ids":"[30]","id":30,"layer":"stop"}},{"type":"Feature","geometry":{"type":"Point","coordinates":[78.499518,17.433803]},"properties":{"name":"Secunderabad West","original_ids":"[31]","id":31,"layer":"stop"}},{"type":"Feature","geometry":{"type":"Point","coordinates":[78.497584,17.444478]},"properties":{"name":"Parade Grounds (Green Line)","original_ids":"[32, 9]","id":32,"layer":"stop"}},{"type":"Feature","geometry":{"type":"Point","coordinates":[78.484024,17.384447]},"properties":{"name":"Sultan Bazar","original_ids":"[25]","id":33,"layer":"stop"}},{"type":"Feature","geometry":{"type":"Point","coordinates":[78.489958,17.394366]},"properties":{"name":"Narayanaguda","original_ids":"[26]","id":34,"layer":"stop"}},{"type":"Feature","geometry":{"type":"Point","coordinates":[78.408372,17.430651]},"properties":{"name":"Peddamma Gudi","original_ids":"[19]","id":35,"layer":"stop"}},{"type":"Feature","geometry":{"type":"Point","coordinates":[78.400426,17.437264]},"properties":{"name":"Madhapur","original_ids":"[20]","id":36,"layer":"stop"}},{"type":"Feature","geometry":{"type":"Point","coordinates":[78.387572,17.442947]},"properties":{"name":"Durgam Cheruvu","original_ids":"[21]","id":37,"layer":"stop"}},{"type":"Feature","geometry":{"type":"Point","coordinates":[78.383138,17.449005]},"properties":{"name":"HITEC City","original_ids":"[22]","id":38,"layer":"stop"}},{"type":"Feature","geometry":{"type":"Point","coordinates":[78.3772,17.4422]},"properties":{"name":"Raidurg","original_ids":"[23]","id":39,"layer":"stop"}},{"type":"Feature","geometry":{"type":"Point","coordinates":[78.439099,17.436965]},"properties":{"name":"Madhura Nagar","original_ids":"[15]","id":40,"layer":"stop"}},{"type":"Feature","geometry":{"type":"Point","coordinates":[78.427322,17.435113]},"properties":{"name":"Yusufguda","original_ids":"[16]","id":41,"layer":"stop"}},{"type":"Feature","geometry":{"type":"Point","coordinates":[78.423207,17.430049]},"properties":{"name":"Road No 5 Jubilee Hills","original_ids":"[17]","id":42,"layer":"stop"}},{"type":"Feature","geometry":{"type":"Point","coordinates":[78.413714,17.428197]},"properties":{"name":"Jubilee Hills Checkpost","original_ids":"[18]","id":43,"layer":"stop"}},{"type":"Feature","geometry":{"type":"Point","coordinates":[78.486244,17.443467]},"properties":{"name":"Paradise","original_ids":"[10]","id":44,"layer":"stop"}},{"type":"Feature","geometry":{"type":"Point","coordinates":[78.476405,17.443612]},"properties":{"name":"Rasoolpura","original_ids":"[11]","id":45,"layer":"stop"}},{"type":"Feature","geometry":{"type":"Point","coordinates":[78.465875,17.444889]},"properties":{"name":"Prakash Nagar","original_ids":"[12]","id":46,"layer":"stop"}},{"type":"Feature","geometry":{"type":"Point","coordinates":[78.456934,17.437566]},"properties":{"name":"Begumpet","original_ids":"[13]","id":47,"layer":"stop"}},{"type":"Feature","geometry":{"type":"Point","coordinates":[78.530008,17.427442]},"properties":{"name":"Tarnaka","original_ids":"[6]","id":48,"layer":"stop"}},{"type":"Feature","geometry":{"type":"Point","coordinates":[78.519575,17.435521]},"properties":{"name":"Mettuguda","original_ids":"[7]","id":49,"layer":"stop"}},{"type":"Feature","geometry":{"type":"Point","coordinates":[78.505462,17.435718]},"properties":{"name":"Secunderabad East","original_ids":"[8]","id":50,"layer":"stop"}},{"type":"Feature","geometry":{"type":"Point","coordinates":[78.558822,17.390768]},"properties":{"name":"Nagole","original_ids":"[1]","id":51,"layer":"stop"}},{"type":"Feature","geometry":{"type":"Point","coordinates":[78.560187,17.400067]},"properties":{"name":"Uppal","original_ids":"[2]","id":52,"layer":"stop"}},{"type":"Feature","geometry":{"type":"Point","coordinates":[78.554253,17.4074]},"properties":{"name":"Stadium","original_ids":"[3]","id":53,"layer":"stop"}},{"type":"Feature","geometry":{"type":"Point","coordinates":[78.546335,17.414826]},"properties":{"name":"NGRI","original_ids":"[4]","id":54,"layer":"stop"}},{"type":"Feature","geometry":{"type":"Point","coordinates":[78.540548,17.42018]},"properties":{"name":"Habsiguda","original_ids":"[5]","id":55,"layer":"stop"}},{"type":"Feature","properties":{"shape_id":"{}","direction_id":"{\"0\": 201}","headsign":"{\"LBN\": 201}","duration_avg":87.0,"n_vehicles":201,"d":968,"route_I_counts":"{\"1\": 201}","source":0,"target":1,"layer":"L","from":"New Market","to":"Musarambagh"},"geometry":{"type":"LineString","coordinates":[[78.503179,17.373445],[78.511955,17.371087]]}},{"type":"Feature","properties":{"shape_id":"{}","direction_id":"{\"1\": 199}","headsign":"{\"MYP\": 199}","duration_avg":121.0,"n_vehicles":199,"d":1066,"route_I_counts":"{\"1\": 199}","source":0,"target":11,"layer":"L","from":"New Market","to":"Malakpet"},"geometry":{"type":"LineString","coordinates":[[78.503179,17.373445],[78.493936,17.377189]]}},{"type":"Feature","properties":{"shape_id":"{}","direction_id":"{\"0\": 202}","headsign":"{\"LBN\": 202}","duration_avg":114.0,"n_vehicles":202,"d":1454,"route_I_counts":"{\"1\": 202}","source":1,"target":2,"layer":"L","from":"Musarambagh","to":"Dilsukh Nagar"},"geometry":{"type":"LineString","coordinates":[[78.511955,17.371087],[78.525387,17.368549]]}},{"type":"Feature","properties":{"shape_id":"{}","direction_id":"{\"1\": 201}","headsign":"{\"MYP\": 201}","duration_avg":87.0,"n_vehicles":201,"d":968,"route_I_counts":"{\"1\": 201}","source":1,"target":0,"layer":"L","from":"Musarambagh","to":"New Market"},"geometry":{"type":"LineString","coordinates":[[78.511955,17.371087],[78.503179,17.373445]]}},{"type":"Feature","properties":{"shape_id":"{}","direction_id":"{\"0\": 202}","headsign":"{\"LBN\": 202}","duration_avg":89.0,"n_vehicles":202,"d":1354,"route_I_counts":"{\"1\": 202}","source":2,"target":3,"layer":"L","from":"Dilsukh Nagar","to":"Chaitanyapuri"},"geometry":{"type":"LineString","coordinates":[[78.525387,17.368549],[78.538134,17.36815]]}},{"type":"Feature","properties":{"shape_id":"{}","direction_id":"{\"1\": 201}","headsign":"{\"MYP\": 201}","duration_avg":110.0,"n_vehicles":201,"d":1454,"route_I_counts":"{\"1\": 201}","source":2,"target":1,"layer":"L","from":"Dilsukh Nagar","to":"Musarambagh"},"geometry":{"type":"LineString","coordinates":[[78.525387,17.368549],[78.511955,17.371087]]}},{"type":"Feature","properties":{"shape_id":"{}","direction_id":"{\"0\": 200}","headsign":"{\"LBN\": 200}","duration_avg":94.0,"n_vehicles":200,"d":935,"route_I_counts":"{\"1\": 200}","source":3,"target":4,"layer":"L","from":"Chaitanyapuri","to":"Victoria Memorial"},"geometry":{"type":"LineString","coordinates":[[78.538134,17.36815],[78.543962,17.361856]]}},{"type":"Feature","properties":{"shape_id":"{}","direction_id":"{\"1\": 201}","headsign":"{\"MYP\": 201}","duration_avg":84.0,"n_vehicles":201,"d":1354,"route_I_counts":"{\"1\": 201}","source":3,"target":2,"layer":"L","from":"Chaitanyapuri","to":"Dilsukh Nagar"},"geometry":{"type":"LineString","coordinates":[[78.538134,17.36815],[78.525387,17.368549]]}},{"type":"Feature","properties":{"shape_id":"{}","direction_id":"{\"0\": 200}","headsign":"{\"LBN\": 200}","duration_avg":79.0,"n_vehicles":200,"d":1402,"route_I_counts":"{\"1\": 200}","source":4,"target":5,"layer":"L","from":"Victoria Memorial","to":"L. B. Nagar"},"geometry":{"type":"LineString","coordinates":[[78.543962,17.361856],[78.547941,17.349846]]}},{"type":"Feature","properties":{"shape_id":"{}","direction_id":"{\"1\": 201}","headsign":"{\"MYP\": 201}","duration_avg":94.0,"n_vehicles":201,"d":935,"route_I_counts":"{\"1\": 201}","source":4,"target":3,"layer":"L","from":"Victoria Memorial","to":"Chaitanyapuri"},"geometry":{"type":"LineString","coordinates":[[78.543962,17.361856],[78.538134,17.36815]]}},{"type":"Feature","properties":{"shape_id":"{}","direction_id":"{\"1\": 201}","headsign":"{\"MYP\": 201}","duration_avg":107.0,"n_vehicles":201,"d":1402,"route_I_counts":"{\"1\": 201}","source":5,"target":4,"layer":"L","from":"L. B. Nagar","to":"Victoria Memorial"},"geometry":{"type":"LineString","coordinates":[[78.547941,17.349846],[78.543962,17.361856]]}},{"type":"Feature","properties":{"shape_id":"{}","direction_id":"{\"0\": 202}","headsign":"{\"LBN\": 202}","duration_avg":70.0,"n_vehicles":202,"d":646,"route_I_counts":"{\"1\": 202}","source":6,"target":7,"layer":"L","from":"Assembly","to":"Nampally"},"geometry":{"type":"LineString","coordinates":[[78.47088,17.397991],[78.470161,17.392222]]}},{"type":"Feature","properties":{"shape_id":"{}","direction_id":"{\"1\": 200}","headsign":"{\"MYP\": 200}","duration_avg":129.0,"n_vehicles":200,"d":922,"route_I_counts":"{\"1\": 200}","source":6,"target":16,"layer":"L","from":"Assembly","to":"Lakdi-ka-pul"},"geometry":{"type":"LineString","coordinates":[[78.47088,17.397991],[78.464944,17.404043]]}},{"type":"Feature","properties":{"shape_id":"{}","direction_id":"{\"0\": 202}","headsign":"{\"LBN\": 202}","duration_avg":73.0,"n_vehicles":202,"d":787,"route_I_counts":"{\"1\": 202}","source":7,"target":8,"layer":"L","from":"Nampally","to":"Gandhi Bhavan"},"geometry":{"type":"LineString","coordinates":[[78.470161,17.392222],[78.473335,17.385825]]}},{"type":"Feature","properties":{"shape_id":"{}","direction_id":"{\"1\": 199}","headsign":"{\"MYP\": 199}","duration_avg":70.0,"n_vehicles":199,"d":646,"route_I_counts":"{\"1\": 199}","source":7,"target":6,"layer":"L","from":"Nampally","to":"Assembly"},"geometry":{"type":"LineString","coordinates":[[78.470161,17.392222],[78.47088,17.397991]]}},{"type":"Feature","properties":{"shape_id":"{}","direction_id":"{\"0\": 203}","headsign":"{\"LBN\": 203}","duration_avg":83.0,"n_vehicles":203,"d":981,"route_I_counts":"{\"1\": 203}","source":8,"target":9,"layer":"L","from":"Gandhi Bhavan","to":"Osmania Medical College"},"geometry":{"type":"LineString","coordinates":[[78.473335,17.385825],[78.481701,17.382077]]}},{"type":"Feature","properties":{"shape_id":"{}","direction_id":"{\"1\": 199}","headsign":"{\"MYP\": 199}","duration_avg":75.0,"n_vehicles":199,"d":787,"route_I_counts":"{\"1\": 199}","source":8,"target":7,"layer":"L","from":"Gandhi Bhavan","to":"Nampally"},"geometry":{"type":"LineString","coordinates":[[78.473335,17.385825],[78.470161,17.392222]]}},{"type":"Feature","properties":{"shape_id":"{}","direction_id":"{\"0\": 202}","headsign":"{\"LBN\": 202}","duration_avg":74.0,"n_vehicles":202,"d":537,"route_I_counts":"{\"1\": 202}","source":9,"target":10,"layer":"L","from":"Osmania Medical College","to":"Mahatma Gandhi Bus Station (Red Line)"},"geometry":{"type":"LineString","coordinates":[[78.481701,17.382077],[78.486157,17.379789]]}},{"type":"Feature","properties":{"shape_id":"{}","direction_id":"{\"1\": 200}","headsign":"{\"MYP\": 200}","duration_avg":86.0,"n_vehicles":200,"d":981,"route_I_counts":"{\"1\": 200}","source":9,"target":8,"layer":"L","from":"Osmania Medical College","to":"Gandhi Bhavan"},"geometry":{"type":"LineString","coordinates":[[78.481701,17.382077],[78.473335,17.385825]]}},{"type":"Feature","properties":{"shape_id":"{}","direction_id":"{\"0\": 202}","headsign":"{\"LBN\": 202}","duration_avg":84.0,"n_vehicles":202,"d":875,"route_I_counts":"{\"1\": 202}","source":10,"target":11,"layer":"L","from":"Mahatma Gandhi Bus Station (Red Line)","to":"Malakpet"},"geometry":{"type":"LineString","coordinates":[[78.486157,17.379789],[78.493936,17.377189]]}},{"type":"Feature","properties":{"shape_id":"{}","direction_id":"{\"1\": 201}","headsign":"{\"MYP\": 201}","duration_avg":76.0,"n_vehicles":201,"d":537,"route_I_counts":"{\"1\": 201}","source":10,"target":9,"layer":"L","from":"Mahatma Gandhi Bus Station (Red Line)","to":"Osmania Medical College"},"geometry":{"type":"LineString","coordinates":[[78.486157,17.379789],[78.481701,17.382077]]}},{"type":"Feature","properties":{"duration_avg":88.0,"n_vehicles":166,"d":560,"route_I_counts":"{\"2\": 166}","shape_id":"{}","direction_id":"{\"0\": 166}","headsign":"{\"PRG_G\": 166}","source":10,"target":33,"layer":"L","from":"Mahatma Gandhi Bus Station (Red Line)","to":"Sultan Bazar"},"geometry":{"type":"LineString","coordinates":[[78.486157,17.379789],[78.484024,17.384447]]}},{"type":"Feature","properties":{"shape_id":"{}","direction_id":"{\"0\": 201}","headsign":"{\"LBN\": 201}","duration_avg":126.0,"n_vehicles":201,"d":1066,"route_I_counts":"{\"1\": 201}","source":11,"target":0,"layer":"L","from":"Malakpet","to":"New Market"},"geometry":{"type":"LineString","coordinates":[[78.493936,17.377189],[78.503179,17.373445]]}},{"type":"Feature","properties":{"shape_id":"{}","direction_id":"{\"1\": 200}","headsign":"{\"MYP\": 200}","duration_avg":78.0,"n_vehicles":200,"d":875,"route_I_counts":"{\"1\": 200}","source":11,"target":10,"layer":"L","from":"Malakpet","to":"Mahatma Gandhi Bus Station (Red Line)"},"geometry":{"type":"LineString","coordinates":[[78.493936,17.377189],[78.486157,17.379789]]}},{"type":"Feature","properties":{"shape_id":"{}","direction_id":"{\"0\": 204}","headsign":"{\"LBN\": 204}","duration_avg":85.0,"n_vehicles":204,"d":999,"route_I_counts":"{\"1\": 204}","source":12,"target":13,"layer":"L","from":"Ameerpet (Red Line)","to":"Panjagutta"},"geometry":{"type":"LineString","coordinates":[[78.444793,17.435721],[78.450955,17.428936]]}},{"type":"Feature","properties":{"shape_id":"{}","direction_id":"{\"1\": 200}","headsign":"{\"MYP\": 200}","duration_avg":70.0,"n_vehicles":200,"d":930,"route_I_counts":"{\"1\": 200}","source":12,"target":22,"layer":"L","from":"Ameerpet (Red Line)","to":"S. R. Nagar"},"geometry":{"type":"LineString","coordinates":[[78.444793,17.435721],[78.440724,17.44312]]}},{"type":"Feature","properties":{"duration_avg":97.0,"n_vehicles":201,"d":631,"route_I_counts":"{\"3\": 201}","shape_id":"{}","direction_id":"{\"0\": 201}","headsign":"{\"RDG\": 201}","source":12,"target":40,"layer":"L","from":"Ameerpet (Red Line)","to":"Madhura Nagar"},"geometry":{"type":"LineString","coordinates":[[78.444793,17.435721],[78.439099,17.436965]]}},{"type":"Feature","properties":{"duration_avg":194.0,"n_vehicles":199,"d":1315,"route_I_counts":"{\"3\": 199}","shape_id":"{}","direction_id":"{\"1\": 199}","headsign":"{\"NAG\": 199}","source":12,"target":47,"layer":"L","from":"Ameerpet (Red Line)","to":"Begumpet"},"geometry":{"type":"LineString","coordinates":[[78.444793,17.435721],[78.456934,17.437566]]}},{"type":"Feature","properties":{"shape_id":"{}","direction_id":"{\"0\": 204}","headsign":"{\"LBN\": 204}","duration_avg":84.0,"n_vehicles":204,"d":1125,"route_I_counts":"{\"1\": 204}","source":13,"target":14,"layer":"L","from":"Panjagutta","to":"Erra Manzil"},"geometry":{"type":"LineString","coordinates":[[78.450955,17.428936],[78.456349,17.420229]]}},{"type":"Feature","properties":{"shape_id":"{}","direction_id":"{\"1\": 198}","headsign":"{\"MYP\": 198}","duration_avg":87.0,"n_vehicles":198,"d":999,"route_I_counts":"{\"1\": 198}","source":13,"target":12,"layer":"L","from":"Panjagutta","to":"Ameerpet (Red Line)"},"geometry":{"type":"LineString","coordinates":[[78.450955,17.428936],[78.444793,17.435721]]}},{"type":"Feature","properties":{"shape_id":"{}","direction_id":"{\"0\": 202}","headsign":"{\"LBN\": 202}","duration_avg":136.0,"n_vehicles":202,"d":1070,"route_I_counts":"{\"1\": 202}","source":14,"target":15,"layer":"L","from":"Erra Manzil","to":"Khairatabad"},"geometry":{"type":"LineString","coordinates":[[78.456349,17.420229],[78.460868,17.411632]]}},{"type":"Feature","properties":{"shape_id":"{}","direction_id":"{\"1\": 199}","headsign":"{\"MYP\": 199}","duration_avg":84.0,"n_vehicles":199,"d":1125,"route_I_counts":"{\"1\": 199}","source":14,"target":13,"layer":"L","from":"Erra Manzil","to":"Panjagutta"},"geometry":{"type":"LineString","coordinates":[[78.456349,17.420229],[78.450955,17.428936]]}},{"type":"Feature","properties":{"shape_id":"{}","direction_id":"{\"0\": 203}","headsign":"{\"LBN\": 203}","duration_avg":132.0,"n_vehicles":203,"d":949,"route_I_counts":"{\"1\": 203}","source":15,"target":16,"layer":"L","from":"Khairatabad","to":"Lakdi-ka-pul"},"geometry":{"type":"LineString","coordinates":[[78.460868,17.411632],[78.464944,17.404043]]}},{"type":"Feature","properties":{"shape_id":"{}","direction_id":"{\"1\": 199}","headsign":"{\"MYP\": 199}","duration_avg":127.0,"n_vehicles":199,"d":1070,"route_I_counts":"{\"1\": 199}","source":15,"target":14,"layer":"L","from":"Khairatabad","to":"Erra Manzil"},"geometry":{"type":"LineString","coordinates":[[78.460868,17.411632],[78.456349,17.420229]]}},{"type":"Feature","properties":{"shape_id":"{}","direction_id":"{\"0\": 202}","headsign":"{\"LBN\": 202}","duration_avg":130.0,"n_vehicles":202,"d":922,"route_I_counts":"{\"1\": 202}","source":16,"target":6,"layer":"L","from":"Lakdi-ka-pul","to":"Assembly"},"geometry":{"type":"LineString","coordinates":[[78.464944,17.404043],[78.47088,17.397991]]}},{"type":"Feature","properties":{"shape_id":"{}","direction_id":"{\"1\": 199}","headsign":"{\"MYP\": 199}","duration_avg":138.0,"n_vehicles":199,"d":949,"route_I_counts":"{\"1\": 199}","source":16,"target":15,"layer":"L","from":"Lakdi-ka-pul","to":"Khairatabad"},"geometry":{"type":"LineString","coordinates":[[78.464944,17.404043],[78.460868,17.411632]]}},{"type":"Feature","properties":{"shape_id":"{}","direction_id":"{\"0\": 205}","headsign":"{\"LBN\": 205}","duration_avg":67.0,"n_vehicles":205,"d":688,"route_I_counts":"{\"1\": 205}","source":17,"target":18,"layer":"L","from":"Balanagar","to":"Moosapet"},"geometry":{"type":"LineString","coordinates":[[78.422108,17.476746],[78.426118,17.471885]]}},{"type":"Feature","properties":{"shape_id":"{}","direction_id":"{\"1\": 197}","headsign":"{\"MYP\": 197}","duration_avg":109.0,"n_vehicles":197,"d":1422,"route_I_counts":"{\"1\": 197}","source":17,"target":26,"layer":"L","from":"Balanagar","to":"Kukatpally"},"geometry":{"type":"LineString","coordinates":[[78.422108,17.476746],[78.41179,17.484903]]}},{"type":"Feature","properties":{"shape_id":"{}","direction_id":"{\"0\": 204}","headsign":"{\"LBN\": 204}","duration_avg":81.0,"n_vehicles":204,"d":1103,"route_I_counts":"{\"1\": 204}","source":18,"target":19,"layer":"L","from":"Moosapet","to":"Bharat Nagar"},"geometry":{"type":"LineString","coordinates":[[78.426118,17.471885],[78.430536,17.462909]]}},{"type":"Feature","properties":{"shape_id":"{}","direction_id":"{\"1\": 198}","headsign":"{\"MYP\": 198}","duration_avg":65.0,"n_vehicles":198,"d":688,"route_I_counts":"{\"1\": 198}","source":18,"target":17,"layer":"L","from":"Moosapet","to":"Balanagar"},"geometry":{"type":"LineString","coordinates":[[78.426118,17.471885],[78.422108,17.476746]]}},{"type":"Feature","properties":{"shape_id":"{}","direction_id":"{\"0\": 204}","headsign":"{\"LBN\": 204}","duration_avg":74.0,"n_vehicles":204,"d":728,"route_I_counts":"{\"1\": 204}","source":19,"target":20,"layer":"L","from":"Bharat Nagar","to":"Erragadda"},"geometry":{"type":"LineString","coordinates":[[78.430536,17.462909],[78.433581,17.457049]]}},{"type":"Feature","properties":{"shape_id":"{}","direction_id":"{\"1\": 198}","headsign":"{\"MYP\": 198}","duration_avg":84.0,"n_vehicles":198,"d":1103,"route_I_counts":"{\"1\": 198}","source":19,"target":18,"layer":"L","from":"Bharat Nagar","to":"Moosapet"},"geometry":{"type":"LineString","coordinates":[[78.430536,17.462909],[78.426118,17.471885]]}},{"type":"Feature","properties":{"shape_id":"{}","direction_id":"{\"0\": 203}","headsign":"{\"LBN\": 203}","duration_avg":97.0,"n_vehicles":203,"d":1024,"route_I_counts":"{\"1\": 203}","source":20,"target":21,"layer":"L","from":"Erragadda","to":"ESI Hospital"},"geometry":{"type":"LineString","coordinates":[[78.433581,17.457049],[78.437628,17.448697]]}},{"type":"Feature","properties":{"shape_id":"{}","direction_id":"{\"1\": 198}","headsign":"{\"MYP\": 198}","duration_avg":82.0,"n_vehicles":198,"d":728,"route_I_counts":"{\"1\": 198}","source":20,"target":19,"layer":"L","from":"Erragadda","to":"Bharat Nagar"},"geometry":{"type":"LineString","coordinates":[[78.433581,17.457049],[78.430536,17.462909]]}},{"type":"Feature","properties":{"shape_id":"{}","direction_id":"{\"0\": 202}","headsign":"{\"LBN\": 202}","duration_avg":67.0,"n_vehicles":202,"d":702,"route_I_counts":"{\"1\": 202}","source":21,"target":22,"layer":"L","from":"ESI Hospital","to":"S. R. Nagar"},"geometry":{"type":"LineString","coordinates":[[78.437628,17.448697],[78.440724,17.44312]]}},{"type":"Feature","properties":{"shape_id":"{}","direction_id":"{\"1\": 198}","headsign":"{\"MYP\": 198}","duration_avg":95.0,"n_vehicles":198,"d":1024,"route_I_counts":"{\"1\": 198}","source":21,"target":20,"layer":"L","from":"ESI Hospital","to":"Erragadda"},"geometry":{"type":"LineString","coordinates":[[78.437628,17.448697],[78.433581,17.457049]]}},{"type":"Feature","properties":{"shape_id":"{}","direction_id":"{\"0\": 203}","headsign":"{\"LBN\": 203}","duration_avg":79.0,"n_vehicles":203,"d":930,"route_I_counts":"{\"1\": 203}","source":22,"target":12,"layer":"L","from":"S. R. Nagar","to":"Ameerpet (Red Line)"},"geometry":{"type":"LineString","coordinates":[[78.440724,17.44312],[78.444793,17.435721]]}},{"type":"Feature","properties":{"shape_id":"{}","direction_id":"{\"1\": 200}","headsign":"{\"MYP\": 200}","duration_avg":69.0,"n_vehicles":200,"d":702,"route_I_counts":"{\"1\": 200}","source":22,"target":21,"layer":"L","from":"S. R. Nagar","to":"ESI Hospital"},"geometry":{"type":"LineString","coordinates":[[78.440724,17.44312],[78.437628,17.448697]]}},{"type":"Feature","properties":{"shape_id":"{}","direction_id":"{\"0\": 205}","headsign":"{\"LBN\": 205}","duration_avg":141.0,"n_vehicles":205,"d":1698,"route_I_counts":"{\"1\": 205}","source":23,"target":24,"layer":"L","from":"Miyapur","to":"JNTU College"},"geometry":{"type":"LineString","coordinates":[[78.373026,17.496545],[78.388867,17.498704]]}},{"type":"Feature","properties":{"shape_id":"{}","direction_id":"{\"0\": 204}","headsign":"{\"LBN\": 204}","duration_avg":114.0,"n_vehicles":204,"d":1481,"route_I_counts":"{\"1\": 204}","source":24,"target":25,"layer":"L","from":"JNTU College","to":"KPHB Colony"},"geometry":{"type":"LineString","coordinates":[[78.388867,17.498704],[78.401826,17.49376]]}},{"type":"Feature","properties":{"shape_id":"{}","direction_id":"{\"1\": 195}","headsign":"{\"MYP\": 195}","duration_avg":98.0,"n_vehicles":195,"d":1698,"route_I_counts":"{\"1\": 195}","source":24,"target":23,"layer":"L","from":"JNTU College","to":"Miyapur"},"geometry":{"type":"LineString","coordinates":[[78.388867,17.498704],[78.373026,17.496545]]}},{"type":"Feature","properties":{"shape_id":"{}","direction_id":"{\"0\": 203}","headsign":"{\"LBN\": 203}","duration_avg":113.0,"n_vehicles":203,"d":1446,"route_I_counts":"{\"1\": 203}","source":25,"target":26,"layer":"L","from":"KPHB Colony","to":"Kukatpally"},"geometry":{"type":"LineString","coordinates":[[78.401826,17.49376],[78.41179,17.484903]]}},{"type":"Feature","properties":{"shape_id":"{}","direction_id":"{\"1\": 196}","headsign":"{\"MYP\": 196}","duration_avg":113.0,"n_vehicles":196,"d":1481,"route_I_counts":"{\"1\": 196}","source":25,"target":24,"layer":"L","from":"KPHB Colony","to":"JNTU College"},"geometry":{"type":"LineString","coordinates":[[78.401826,17.49376],[78.388867,17.498704]]}},{"type":"Feature","properties":{"shape_id":"{}","direction_id":"{\"0\": 204}","headsign":"{\"LBN\": 204}","duration_avg":107.0,"n_vehicles":204,"d":1422,"route_I_counts":"{\"1\": 204}","source":26,"target":17,"layer":"L","from":"Kukatpally","to":"Balanagar"},"geometry":{"type":"LineString","coordinates":[[78.41179,17.484903],[78.422108,17.476746]]}},{"type":"Feature","properties":{"shape_id":"{}","direction_id":"{\"1\": 196}","headsign":"{\"MYP\": 196}","duration_avg":128.0,"n_vehicles":196,"d":1446,"route_I_counts":"{\"1\": 196}","source":26,"target":25,"layer":"L","from":"Kukatpally","to":"KPHB Colony"},"geometry":{"type":"LineString","coordinates":[[78.41179,17.484903],[78.401826,17.49376]]}},{"type":"Feature","properties":{"shape_id":"{}","direction_id":"{\"0\": 167}","headsign":"{\"PRG_G\": 167}","duration_avg":72.0,"n_vehicles":167,"d":769,"route_I_counts":"{\"2\": 167}","source":27,"target":28,"layer":"L","from":"Chikkadpally","to":"RTC Cross Roads"},"geometry":{"type":"LineString","coordinates":[[78.494896,17.400363],[78.496802,17.407032]]}},{"type":"Feature","properties":{"shape_id":"{}","direction_id":"{\"1\": 167}","headsign":"{\"MGB_G\": 167}","duration_avg":91.0,"n_vehicles":167,"d":849,"route_I_counts":"{\"2\": 167}","source":27,"target":34,"layer":"L","from":"Chikkadpally","to":"Narayanaguda"},"geometry":{"type":"LineString","coordinates":[[78.494896,17.400363],[78.489958,17.394366]]}},{"type":"Feature","properties":{"shape_id":"{}","direction_id":"{\"0\": 168}","headsign":"{\"PRG_G\": 168}","duration_avg":92.0,"n_vehicles":168,"d":1240,"route_I_counts":"{\"2\": 168}","source":28,"target":29,"layer":"L","from":"RTC Cross Roads","to":"Musheerabad"},"geometry":{"type":"LineString","coordinates":[[78.496802,17.407032],[78.499505,17.417874]]}},{"type":"Feature","properties":{"shape_id":"{}","direction_id":"{\"1\": 167}","headsign":"{\"MGB_G\": 167}","duration_avg":74.0,"n_vehicles":167,"d":769,"route_I_counts":"{\"2\": 167}","source":28,"target":27,"layer":"L","from":"RTC Cross Roads","to":"Chikkadpally"},"geometry":{"type":"LineString","coordinates":[[78.496802,17.407032],[78.494896,17.400363]]}},{"type":"Feature","properties":{"shape_id":"{}","direction_id":"{\"0\": 166}","headsign":"{\"PRG_G\": 166}","duration_avg":76.0,"n_vehicles":166,"d":889,"route_I_counts":"{\"2\": 166}","source":29,"target":30,"layer":"L","from":"Musheerabad","to":"Gandhi Hospital"},"geometry":{"type":"LineString","coordinates":[[78.499505,17.417874],[78.501956,17.425515]]}},{"type":"Feature","properties":{"shape_id":"{}","direction_id":"{\"1\": 166}","headsign":"{\"MGB_G\": 166}","duration_avg":92.0,"n_vehicles":166,"d":1240,"route_I_counts":"{\"2\": 166}","source":29,"target":28,"layer":"L","from":"Musheerabad","to":"RTC Cross Roads"},"geometry":{"type":"LineString","coordinates":[[78.499505,17.417874],[78.496802,17.407032]]}},{"type":"Feature","properties":{"shape_id":"{}","direction_id":"{\"0\": 166}","headsign":"{\"PRG_G\": 166}","duration_avg":140.0,"n_vehicles":166,"d":958,"route_I_counts":"{\"2\": 166}","source":30,"target":31,"layer":"L","from":"Gandhi Hospital","to":"Secunderabad West"},"geometry":{"type":"LineString","coordinates":[[78.501956,17.425515],[78.499518,17.433803]]}},{"type":"Feature","properties":{"shape_id":"{}","direction_id":"{\"1\": 166}","headsign":"{\"MGB_G\": 166}","duration_avg":77.0,"n_vehicles":166,"d":889,"route_I_counts":"{\"2\": 166}","source":30,"target":29,"layer":"L","from":"Gandhi Hospital","to":"Musheerabad"},"geometry":{"type":"LineString","coordinates":[[78.501956,17.425515],[78.499505,17.417874]]}},{"type":"Feature","properties":{"shape_id":"{}","direction_id":"{\"0\": 166}","headsign":"{\"PRG_G\": 166}","duration_avg":125.0,"n_vehicles":166,"d":1205,"route_I_counts":"{\"2\": 166}","source":31,"target":32,"layer":"L","from":"Secunderabad West","to":"Parade Grounds (Green Line)"},"geometry":{"type":"LineString","coordinates":[[78.499518,17.433803],[78.497584,17.444478]]}},{"type":"Feature","properties":{"shape_id":"{}","direction_id":"{\"1\": 166}","headsign":"{\"MGB_G\": 166}","duration_avg":140.0,"n_vehicles":166,"d":958,"route_I_counts":"{\"2\": 166}","source":31,"target":30,"layer":"L","from":"Secunderabad West","to":"Gandhi Hospital"},"geometry":{"type":"LineString","coordinates":[[78.499518,17.433803],[78.501956,17.425515]]}},{"type":"Feature","properties":{"shape_id":"{}","direction_id":"{\"1\": 167}","headsign":"{\"MGB_G\": 167}","duration_avg":117.0,"n_vehicles":167,"d":1205,"route_I_counts":"{\"2\": 167}","source":32,"target":31,"layer":"L","from":"Parade Grounds (Green Line)","to":"Secunderabad West"},"geometry":{"type":"LineString","coordinates":[[78.497584,17.444478],[78.499518,17.433803]]}},{"type":"Feature","properties":{"duration_avg":91.0,"n_vehicles":202,"d":1192,"route_I_counts":"{\"3\": 202}","shape_id":"{}","direction_id":"{\"0\": 202}","headsign":"{\"RDG\": 202}","source":32,"target":44,"layer":"L","from":"Parade Grounds (Green Line)","to":"Paradise"},"geometry":{"type":"LineString","coordinates":[[78.497584,17.444478],[78.486244,17.443467]]}},{"type":"Feature","properties":{"duration_avg":162.0,"n_vehicles":196,"d":1188,"route_I_counts":"{\"3\": 196}","shape_id":"{}","direction_id":"{\"1\": 196}","headsign":"{\"NAG\": 196}","source":32,"target":50,"layer":"L","from":"Parade Grounds (Green Line)","to":"Secunderabad East"},"geometry":{"type":"LineString","coordinates":[[78.497584,17.444478],[78.505462,17.435718]]}},{"type":"Feature","properties":{"shape_id":"{}","direction_id":"{\"0\": 166}","headsign":"{\"PRG_G\": 166}","duration_avg":98.0,"n_vehicles":166,"d":1271,"route_I_counts":"{\"2\": 166}","source":33,"target":34,"layer":"L","from":"Sultan Bazar","to":"Narayanaguda"},"geometry":{"type":"LineString","coordinates":[[78.484024,17.384447],[78.489958,17.394366]]}},{"type":"Feature","properties":{"duration_avg":87.0,"n_vehicles":166,"d":560,"route_I_counts":"{\"2\": 166}","shape_id":"{}","direction_id":"{\"1\": 166}","headsign":"{\"MGB_G\": 166}","source":33,"target":10,"layer":"L","from":"Sultan Bazar","to":"Mahatma Gandhi Bus Station (Red Line)"},"geometry":{"type":"LineString","coordinates":[[78.484024,17.384447],[78.486157,17.379789]]}},{"type":"Feature","properties":{"shape_id":"{}","direction_id":"{\"0\": 166}","headsign":"{\"PRG_G\": 166}","duration_avg":91.0,"n_vehicles":166,"d":849,"route_I_counts":"{\"2\": 166}","source":34,"target":27,"layer":"L","from":"Narayanaguda","to":"Chikkadpally"},"geometry":{"type":"LineString","coordinates":[[78.489958,17.394366],[78.494896,17.400363]]}},{"type":"Feature","properties":{"shape_id":"{}","direction_id":"{\"1\": 166}","headsign":"{\"MGB_G\": 166}","duration_avg":102.0,"n_vehicles":166,"d":1271,"route_I_counts":"{\"2\": 166}","source":34,"target":33,"layer":"L","from":"Narayanaguda","to":"Sultan Bazar"},"geometry":{"type":"LineString","coordinates":[[78.489958,17.394366],[78.484024,17.384447]]}},{"type":"Feature","properties":{"shape_id":"{}","direction_id":"{\"0\": 201}","headsign":"{\"RDG\": 201}","duration_avg":132.0,"n_vehicles":201,"d":1119,"route_I_counts":"{\"3\": 201}","source":35,"target":36,"layer":"L","from":"Peddamma Gudi","to":"Madhapur"},"geometry":{"type":"LineString","coordinates":[[78.408372,17.430651],[78.400426,17.437264]]}},{"type":"Feature","properties":{"shape_id":"{}","direction_id":"{\"1\": 200}","headsign":"{\"NAG\": 200}","duration_avg":105.0,"n_vehicles":200,"d":629,"route_I_counts":"{\"3\": 200}","source":35,"target":43,"layer":"L","from":"Peddamma Gudi","to":"Jubilee Hills Checkpost"},"geometry":{"type":"LineString","coordinates":[[78.408372,17.430651],[78.413714,17.428197]]}},{"type":"Feature","properties":{"shape_id":"{}","direction_id":"{\"0\": 201}","headsign":"{\"RDG\": 201}","duration_avg":168.0,"n_vehicles":201,"d":1504,"route_I_counts":"{\"3\": 201}","source":36,"target":37,"layer":"L","from":"Madhapur","to":"Durgam Cheruvu"},"geometry":{"type":"LineString","coordinates":[[78.400426,17.437264],[78.387572,17.442947]]}},{"type":"Feature","properties":{"shape_id":"{}","direction_id":"{\"1\": 199}","headsign":"{\"NAG\": 199}","duration_avg":132.0,"n_vehicles":199,"d":1119,"route_I_counts":"{\"3\": 199}","source":36,"target":35,"layer":"L","from":"Madhapur","to":"Peddamma Gudi"},"geometry":{"type":"LineString","coordinates":[[78.400426,17.437264],[78.408372,17.430651]]}},{"type":"Feature","properties":{"shape_id":"{}","direction_id":"{\"0\": 200}","headsign":"{\"RDG\": 200}","duration_avg":90.0,"n_vehicles":200,"d":822,"route_I_counts":"{\"3\": 200}","source":37,"target":38,"layer":"L","from":"Durgam Cheruvu","to":"HITEC City"},"geometry":{"type":"LineString","coordinates":[[78.387572,17.442947],[78.383138,17.449005]]}},{"type":"Feature","properties":{"shape_id":"{}","direction_id":"{\"1\": 201}","headsign":"{\"NAG\": 201}","duration_avg":160.0,"n_vehicles":201,"d":1504,"route_I_counts":"{\"3\": 201}","source":37,"target":36,"layer":"L","from":"Durgam Cheruvu","to":"Madhapur"},"geometry":{"type":"LineString","coordinates":[[78.387572,17.442947],[78.400426,17.437264]]}},{"type":"Feature","properties":{"shape_id":"{}","direction_id":"{\"0\": 200}","headsign":"{\"RDG\": 200}","duration_avg":77.0,"n_vehicles":200,"d":985,"route_I_counts":"{\"3\": 200}","source":38,"target":39,"layer":"L","from":"HITEC City","to":"Raidurg"},"geometry":{"type":"LineString","coordinates":[[78.383138,17.449005],[78.3772,17.4422]]}},{"type":"Feature","properties":{"shape_id":"{}","direction_id":"{\"1\": 200}","headsign":"{\"NAG\": 200}","duration_avg":85.0,"n_vehicles":200,"d":822,"route_I_counts":"{\"3\": 200}","source":38,"target":37,"layer":"L","from":"HITEC City","to":"Durgam Cheruvu"},"geometry":{"type":"LineString","coordinates":[[78.383138,17.449005],[78.387572,17.442947]]}},{"type":"Feature","properties":{"shape_id":"{}","direction_id":"{\"1\": 200}","headsign":"{\"NAG\": 200}","duration_avg":175.0,"n_vehicles":200,"d":985,"route_I_counts":"{\"3\": 200}","source":39,"target":38,"layer":"L","from":"Raidurg","to":"HITEC City"},"geometry":{"type":"LineString","coordinates":[[78.3772,17.4422],[78.383138,17.449005]]}},{"type":"Feature","properties":{"shape_id":"{}","direction_id":"{\"0\": 202}","headsign":"{\"RDG\": 202}","duration_avg":175.0,"n_vehicles":202,"d":1267,"route_I_counts":"{\"3\": 202}","source":40,"target":41,"layer":"L","from":"Madhura Nagar","to":"Yusufguda"},"geometry":{"type":"LineString","coordinates":[[78.439099,17.436965],[78.427322,17.435113]]}},{"type":"Feature","properties":{"duration_avg":97.0,"n_vehicles":198,"d":631,"route_I_counts":"{\"3\": 198}","shape_id":"{}","direction_id":"{\"1\": 198}","headsign":"{\"NAG\": 198}","source":40,"target":12,"layer":"L","from":"Madhura Nagar","to":"Ameerpet (Red Line)"},"geometry":{"type":"LineString","coordinates":[[78.439099,17.436965],[78.444793,17.435721]]}},{"type":"Feature","properties":{"shape_id":"{}","direction_id":"{\"0\": 201}","headsign":"{\"RDG\": 201}","duration_avg":94.0,"n_vehicles":201,"d":713,"route_I_counts":"{\"3\": 201}","source":41,"target":42,"layer":"L","from":"Yusufguda","to":"Road No 5 Jubilee Hills"},"geometry":{"type":"LineString","coordinates":[[78.427322,17.435113],[78.423207,17.430049]]}},{"type":"Feature","properties":{"shape_id":"{}","direction_id":"{\"1\": 199}","headsign":"{\"NAG\": 199}","duration_avg":170.0,"n_vehicles":199,"d":1267,"route_I_counts":"{\"3\": 199}","source":41,"target":40,"layer":"L","from":"Yusufguda","to":"Madhura Nagar"},"geometry":{"type":"LineString","coordinates":[[78.427322,17.435113],[78.439099,17.436965]]}},{"type":"Feature","properties":{"shape_id":"{}","direction_id":"{\"0\": 200}","headsign":"{\"RDG\": 200}","duration_avg":143.0,"n_vehicles":200,"d":1029,"route_I_counts":"{\"3\": 200}","source":42,"target":43,"layer":"L","from":"Road No 5 Jubilee Hills","to":"Jubilee Hills Checkpost"},"geometry":{"type":"LineString","coordinates":[[78.423207,17.430049],[78.413714,17.428197]]}},{"type":"Feature","properties":{"shape_id":"{}","direction_id":"{\"1\": 198}","headsign":"{\"NAG\": 198}","duration_avg":104.0,"n_vehicles":198,"d":713,"route_I_counts":"{\"3\": 198}","source":42,"target":41,"layer":"L","from":"Road No 5 Jubilee Hills","to":"Yusufguda"},"geometry":{"type":"LineString","coordinates":[[78.423207,17.430049],[78.427322,17.435113]]}},{"type":"Feature","properties":{"shape_id":"{}","direction_id":"{\"0\": 200}","headsign":"{\"RDG\": 200}","duration_avg":89.0,"n_vehicles":200,"d":629,"route_I_counts":"{\"3\": 200}","source":43,"target":35,"layer":"L","from":"Jubilee Hills Checkpost","to":"Peddamma Gudi"},"geometry":{"type":"LineString","coordinates":[[78.413714,17.428197],[78.408372,17.430651]]}},{"type":"Feature","properties":{"shape_id":"{}","direction_id":"{\"1\": 199}","headsign":"{\"NAG\": 199}","duration_avg":150.0,"n_vehicles":199,"d":1029,"route_I_counts":"{\"3\": 199}","source":43,"target":42,"layer":"L","from":"Jubilee Hills Checkpost","to":"Road No 5 Jubilee Hills"},"geometry":{"type":"LineString","coordinates":[[78.413714,17.428197],[78.423207,17.430049]]}},{"type":"Feature","properties":{"shape_id":"{}","direction_id":"{\"0\": 203}","headsign":"{\"RDG\": 203}","duration_avg":72.0,"n_vehicles":203,"d":1044,"route_I_counts":"{\"3\": 203}","source":44,"target":45,"layer":"L","from":"Paradise","to":"Rasoolpura"},"geometry":{"type":"LineString","coordinates":[[78.486244,17.443467],[78.476405,17.443612]]}},{"type":"Feature","properties":{"duration_avg":95.0,"n_vehicles":196,"d":1192,"route_I_counts":"{\"3\": 196}","shape_id":"{}","direction_id":"{\"1\": 196}","headsign":"{\"NAG\": 196}","source":44,"target":32,"layer":"L","from":"Paradise","to":"Parade Grounds (Green Line)"},"geometry":{"type":"LineString","coordinates":[[78.486244,17.443467],[78.497584,17.444478]]}},{"type":"Feature","properties":{"shape_id":"{}","direction_id":"{\"0\": 202}","headsign":"{\"RDG\": 202}","duration_avg":112.0,"n_vehicles":202,"d":1127,"route_I_counts":"{\"3\": 202}","source":45,"target":46,"layer":"L","from":"Rasoolpura","to":"Prakash Nagar"},"geometry":{"type":"LineString","coordinates":[[78.476405,17.443612],[78.465875,17.444889]]}},{"type":"Feature","properties":{"shape_id":"{}","direction_id":"{\"1\": 198}","headsign":"{\"NAG\": 198}","duration_avg":85.0,"n_vehicles":198,"d":1044,"route_I_counts":"{\"3\": 198}","source":45,"target":44,"layer":"L","from":"Rasoolpura","to":"Paradise"},"geometry":{"type":"LineString","coordinates":[[78.476405,17.443612],[78.486244,17.443467]]}},{"type":"Feature","properties":{"shape_id":"{}","direction_id":"{\"0\": 202}","headsign":"{\"RDG\": 202}","duration_avg":137.0,"n_vehicles":202,"d":1251,"route_I_counts":"{\"3\": 202}","source":46,"target":47,"layer":"L","from":"Prakash Nagar","to":"Begumpet"},"geometry":{"type":"LineString","coordinates":[[78.465875,17.444889],[78.456934,17.437566]]}},{"type":"Feature","properties":{"shape_id":"{}","direction_id":"{\"1\": 198}","headsign":"{\"NAG\": 198}","duration_avg":116.0,"n_vehicles":198,"d":1127,"route_I_counts":"{\"3\": 198}","source":46,"target":45,"layer":"L","from":"Prakash Nagar","to":"Rasoolpura"},"geometry":{"type":"LineString","coordinates":[[78.465875,17.444889],[78.476405,17.443612]]}},{"type":"Feature","properties":{"shape_id":"{}","direction_id":"{\"1\": 198}","headsign":"{\"NAG\": 198}","duration_avg":132.0,"n_vehicles":198,"d":1251,"route_I_counts":"{\"3\": 198}","source":47,"target":46,"layer":"L","from":"Begumpet","to":"Prakash Nagar"},"geometry":{"type":"LineString","coordinates":[[78.456934,17.437566],[78.465875,17.444889]]}},{"type":"Feature","properties":{"duration_avg":205.0,"n_vehicles":202,"d":1315,"route_I_counts":"{\"3\": 202}","shape_id":"{}","direction_id":"{\"0\": 202}","headsign":"{\"RDG\": 202}","source":47,"target":12,"layer":"L","from":"Begumpet","to":"Ameerpet (Red Line)"},"geometry":{"type":"LineString","coordinates":[[78.456934,17.437566],[78.444793,17.435721]]}},{"type":"Feature","properties":{"shape_id":"{}","direction_id":"{\"0\": 204}","headsign":"{\"RDG\": 204}","duration_avg":115.0,"n_vehicles":204,"d":1427,"route_I_counts":"{\"3\": 204}","source":48,"target":49,"layer":"L","from":"Tarnaka","to":"Mettuguda"},"geometry":{"type":"LineString","coordinates":[[78.530008,17.427442],[78.519575,17.435521]]}},{"type":"Feature","properties":{"shape_id":"{}","direction_id":"{\"1\": 194}","headsign":"{\"NAG\": 194}","duration_avg":140.0,"n_vehicles":194,"d":1380,"route_I_counts":"{\"3\": 194}","source":48,"target":55,"layer":"L","from":"Tarnaka","to":"Habsiguda"},"geometry":{"type":"LineString","coordinates":[[78.530008,17.427442],[78.540548,17.42018]]}},{"type":"Feature","properties":{"shape_id":"{}","direction_id":"{\"0\": 202}","headsign":"{\"RDG\": 202}","duration_avg":187.0,"n_vehicles":202,"d":1499,"route_I_counts":"{\"3\": 202}","source":49,"target":50,"layer":"L","from":"Mettuguda","to":"Secunderabad East"},"geometry":{"type":"LineString","coordinates":[[78.519575,17.435521],[78.505462,17.435718]]}},{"type":"Feature","properties":{"shape_id":"{}","direction_id":"{\"1\": 194}","headsign":"{\"NAG\": 194}","duration_avg":111.0,"n_vehicles":194,"d":1427,"route_I_counts":"{\"3\": 194}","source":49,"target":48,"layer":"L","from":"Mettuguda","to":"Tarnaka"},"geometry":{"type":"LineString","coordinates":[[78.519575,17.435521],[78.530008,17.427442]]}},{"type":"Feature","properties":{"shape_id":"{}","direction_id":"{\"1\": 195}","headsign":"{\"NAG\": 195}","duration_avg":175.0,"n_vehicles":195,"d":1499,"route_I_counts":"{\"3\": 195}","source":50,"target":49,"layer":"L","from":"Secunderabad East","to":"Mettuguda"},"geometry":{"type":"LineString","coordinates":[[78.505462,17.435718],[78.519575,17.435521]]}},{"type":"Feature","properties":{"duration_avg":167.0,"n_vehicles":203,"d":1188,"route_I_counts":"{\"3\": 203}","shape_id":"{}","direction_id":"{\"0\": 203}","headsign":"{\"RDG\": 203}","source":50,"target":32,"layer":"L","from":"Secunderabad East","to":"Parade Grounds (Green Line)"},"geometry":{"type":"LineString","coordinates":[[78.505462,17.435718],[78.497584,17.444478]]}},{"type":"Feature","properties":{"shape_id":"{}","direction_id":"{\"0\": 204}","headsign":"{\"RDG\": 204}","duration_avg":83.0,"n_vehicles":204,"d":1045,"route_I_counts":"{\"3\": 204}","source":51,"target":52,"layer":"L","from":"Nagole","to":"Uppal"},"geometry":{"type":"LineString","coordinates":[[78.558822,17.390768],[78.560187,17.400067]]}},{"type":"Feature","properties":{"shape_id":"{}","direction_id":"{\"0\": 204}","headsign":"{\"RDG\": 204}","duration_avg":106.0,"n_vehicles":204,"d":1031,"route_I_counts":"{\"3\": 204}","source":52,"target":53,"layer":"L","from":"Uppal","to":"Stadium"},"geometry":{"type":"LineString","coordinates":[[78.560187,17.400067],[78.554253,17.4074]]}},{"type":"Feature","properties":{"shape_id":"{}","direction_id":"{\"1\": 191}","headsign":"{\"NAG\": 191}","duration_avg":94.0,"n_vehicles":191,"d":1045,"route_I_counts":"{\"3\": 191}","source":52,"target":51,"layer":"L","from":"Uppal","to":"Nagole"},"geometry":{"type":"LineString","coordinates":[[78.560187,17.400067],[78.558822,17.390768]]}},{"type":"Feature","properties":{"shape_id":"{}","direction_id":"{\"0\": 204}","headsign":"{\"RDG\": 204}","duration_avg":95.0,"n_vehicles":204,"d":1179,"route_I_counts":"{\"3\": 204}","source":53,"target":54,"layer":"L","from":"Stadium","to":"NGRI"},"geometry":{"type":"LineString","coordinates":[[78.554253,17.4074],[78.546335,17.414826]]}},{"type":"Feature","properties":{"shape_id":"{}","direction_id":"{\"1\": 192}","headsign":"{\"NAG\": 192}","duration_avg":107.0,"n_vehicles":192,"d":1031,"route_I_counts":"{\"3\": 192}","source":53,"target":52,"layer":"L","from":"Stadium","to":"Uppal"},"geometry":{"type":"LineString","coordinates":[[78.554253,17.4074],[78.560187,17.400067]]}},{"type":"Feature","properties":{"shape_id":"{}","direction_id":"{\"0\": 202}","headsign":"{\"RDG\": 202}","duration_avg":77.0,"n_vehicles":202,"d":856,"route_I_counts":"{\"3\": 202}","source":54,"target":55,"layer":"L","from":"NGRI","to":"Habsiguda"},"geometry":{"type":"LineString","coordinates":[[78.546335,17.414826],[78.540548,17.42018]]}},{"type":"Feature","properties":{"shape_id":"{}","direction_id":"{\"1\": 193}","headsign":"{\"NAG\": 193}","duration_avg":92.0,"n_vehicles":193,"d":1179,"route_I_counts":"{\"3\": 193}","source":54,"target":53,"layer":"L","from":"NGRI","to":"Stadium"},"geometry":{"type":"LineString","coordinates":[[78.546335,17.414826],[78.554253,17.4074]]}},{"type":"Feature","properties":{"shape_id":"{}","direction_id":"{\"0\": 203}","headsign":"{\"RDG\": 203}","duration_avg":137.0,"n_vehicles":203,"d":1380,"route_I_counts":"{\"3\": 203}","source":55,"target":48,"layer":"L","from":"Habsiguda","to":"Tarnaka"},"geometry":{"type":"LineString","coordinates":[[78.540548,17.42018],[78.530008,17.427442]]}},{"type":"Feature","properties":{"shape_id":"{}","direction_id":"{\"1\": 193}","headsign":"{\"NAG\": 193}","duration_avg":80.0,"n_vehicles":193,"d":856,"route_I_counts":"{\"3\": 193}","source":55,"target":54,"layer":"L","from":"Habsiguda","to":"NGRI"},"geometry":{"type":"LineString","coordinates":[[78.540548,17.42018],[78.546335,17.414826]]}}]}