{"type":"FeatureCollection","features":[{"type":"Feature","geometry":{"type":"Point","coordinates":[135.094211,34.679328]},"properties":{"name":"名谷","original_ids":"[42]","id":0,"layer":"stop"}},{"type":"Feature","geometry":{"type":"Point","coordinates":[135.11,34.675]},"properties":{"name":"妙法寺","original_ids":"[43]","id":1,"layer":"stop"}},{"type":"Feature","geometry":{"type":"Point","coordinates":[135.133,34.6601]},"properties":{"name":"板宿","original_ids":"[44]","id":2,"layer":"stop"}},{"type":"Feature","geometry":{"type":"Point","coordinates":[135.14441,34.657747]},"properties":{"name":"新長田","original_ids":"[45, 27]","id":3,"layer":"stop"}},{"type":"Feature","geometry":{"type":"Point","coordinates":[135.152,34.6685]},"properties":{"name":"長田","original_ids":"[46]","id":4,"layer":"stop"}},{"type":"Feature","geometry":{"type":"Point","coordinates":[135.158,34.6732]},"properties":{"name":"上沢","original_ids":"[47]","id":5,"layer":"stop"}},{"type":"Feature","geometry":{"type":"Point","coordinates":[135.167,34.6794]},"properties":{"name":"湊川公園","original_ids":"[48]","id":6,"layer":"stop"}},{"type":"Feature","geometry":{"type":"Point","coordinates":[135.175,34.6846]},"properties":{"name":"大倉山","original_ids":"[49]","id":7,"layer":"stop"}},{"type":"Feature","geometry":{"type":"Point","coordinates":[135.184,34.6909]},"properties":{"name":"県庁前","original_ids":"[50]","id":8,"layer":"stop"}},{"type":"Feature","geometry":{"type":"Point","coordinates":[135.193753,34.694583]},"properties":{"name":"三宮","original_ids":"[51]","id":9,"layer":"stop"}},{"type":"Feature","geometry":{"type":"Point","coordinates":[135.196,34.7067]},"properties":{"name":"新神戸","original_ids":"[52]","id":10,"layer":"stop"}},{"type":"Feature","geometry":{"type":"Point","coordinates":[135.171344,34.761831]},"properties":{"name":"谷上","original_ids":"[53]","id":11,"layer":"stop"}},{"type":"Feature","geometry":{"type":"Point","coordinates":[135.017,34.7195]},"properties":{"name":"西神中央","original_ids":"[37]","id":12,"layer":"stop"}},{"type":"Feature","geometry":{"type":"Point","coordinates":[135.03,34.6994]},"properties":{"name":"西神南","original_ids":"[38]","id":13,"layer":"stop"}},{"type":"Feature","geometry":{"type":"Point","coordinates":[135.041,34.6879]},"properties":{"name":"伊川谷","original_ids":"[39]","id":14,"layer":"stop"}},{"type":"Feature","geometry":{"type":"Point","coordinates":[135.057,34.6815]},"properties":{"name":"学園都市","original_ids":"[40]","id":15,"layer":"stop"}},{"type":"Feature","geometry":{"type":"Point","coordinates":[135.076,34.6817]},"properties":{"name":"総合運動公園","original_ids":"[41]","id":16,"layer":"stop"}},{"type":"Feature","geometry":{"type":"Point","coordinates":[135.15,34.6521]},"properties":{"name":"駒ヶ林","original_ids":"[28]","id":17,"layer":"stop"}},{"type":"Feature","geometry":{"type":"Point","coordinates":[135.157,34.6536]},"properties":{"name":"苅藻","original_ids":"[29]","id":18,"layer":"stop"}},{"type":"Feature","geometry":{"type":"Point","coordinates":[135.165,34.6546]},"properties":{"name":"御崎公園","original_ids":"[30]","id":19,"layer":"stop"}},{"type":"Feature","geometry":{"type":"Point","coordinates":[135.175,34.6569]},"properties":{"name":"和田岬","original_ids":"[31]","id":20,"layer":"stop"}},{"type":"Feature","geometry":{"type":"Point","coordinates":[135.176,34.6662]},"properties":{"name":"中央市場前","original_ids":"[32]","id":21,"layer":"stop"}},{"type":"Feature","geometry":{"type":"Point","coordinates":[135.179,34.6785]},"properties":{"name":"ハーバーランド","original_ids":"[33]","id":22,"layer":"stop"}},{"type":"Feature","geometry":{"type":"Point","coordinates":[135.184,34.6859]},"properties":{"name":"みなと元町","original_ids":"[34]","id":23,"layer":"stop"}},{"type":"Feature","geometry":{"type":"Point","coordinates":[135.191,34.6896]},"properties":{"name":"旧居留地・大丸前","original_ids":"[35]","id":24,"layer":"stop"}},{"type":"Feature","geometry":{"type":"Point","coordinates":[135.196,34.6916]},"properties":{"name":"三宮・花時計前","original_ids":"[36]","id":25,"layer":"stop"}},{"type":"Feature","properties":{"shape_id":"{}","direction_id":"{\"0\": 95}","headsign":"{\"新神戸\": 46, \"谷上\": 49}","duration_avg":128.21052631578948,"n_vehicles":95,"d":1523,"route_I_counts":"{\"1\": 95}","source":0,"target":1,"layer":"L","from":"名谷","to":"妙法寺"},"geometry":{"type":"LineString","coordinates":[[135.094211,34.679328],[135.11,34.675]]}},{"type":"Feature","properties":{"shape_id":"{}","direction_id":"{\"1\": 89}","headsign":"{\"西神中央\": 89}","duration_avg":152.35955056179776,"n_vehicles":89,"d":1687,"route_I_counts":"{\"1\": 89}","source":0,"target":16,"layer":"L","from":"名谷","to":"総合運動公園"},"geometry":{"type":"LineString","coordinates":[[135.094211,34.679328],[135.076,34.6817]]}},{"type":"Feature","properties":{"shape_id":"{}","direction_id":"{\"0\": 94}","headsign":"{\"新神戸\": 45, \"谷上\": 49}","duration_avg":227.2340425531915,"n_vehicles":94,"d":2680,"route_I_counts":"{\"1\": 94}","source":1,"target":2,"layer":"L","from":"妙法寺","to":"板宿"},"geometry":{"type":"LineString","coordinates":[[135.11,34.675],[135.133,34.6601]]}},{"type":"Feature","properties":{"shape_id":"{}","direction_id":"{\"1\": 89}","headsign":"{\"名谷\": 10, \"西神中央\": 79}","duration_avg":144.9438202247191,"n_vehicles":89,"d":1523,"route_I_counts":"{\"1\": 89}","source":1,"target":0,"layer":"L","from":"妙法寺","to":"名谷"},"geometry":{"type":"LineString","coordinates":[[135.11,34.675],[135.094211,34.679328]]}},{"type":"Feature","properties":{"shape_id":"{}","direction_id":"{\"0\": 94}","headsign":"{\"新神戸\": 45, \"谷上\": 49}","duration_avg":127.65957446808511,"n_vehicles":94,"d":1077,"route_I_counts":"{\"1\": 94}","source":2,"target":3,"layer":"L","from":"板宿","to":"新長田"},"geometry":{"type":"LineString","coordinates":[[135.133,34.6601],[135.14441,34.657747]]}},{"type":"Feature","properties":{"shape_id":"{}","direction_id":"{\"1\": 89}","headsign":"{\"名谷\": 10, \"西神中央\": 79}","duration_avg":225.1685393258427,"n_vehicles":89,"d":2680,"route_I_counts":"{\"1\": 89}","source":2,"target":1,"layer":"L","from":"板宿","to":"妙法寺"},"geometry":{"type":"LineString","coordinates":[[135.133,34.6601],[135.11,34.675]]}},{"type":"Feature","properties":{"shape_id":"{}","direction_id":"{\"0\": 93}","headsign":"{\"新神戸\": 45, \"谷上\": 48}","duration_avg":142.58064516129033,"n_vehicles":93,"d":1384,"route_I_counts":"{\"1\": 93}","source":3,"target":4,"layer":"L","from":"新長田","to":"長田"},"geometry":{"type":"LineString","coordinates":[[135.14441,34.657747],[135.152,34.6685]]}},{"type":"Feature","properties":{"shape_id":"{}","direction_id":"{\"1\": 90}","headsign":"{\"名谷\": 10, \"西神中央\": 80}","duration_avg":124.66666666666667,"n_vehicles":90,"d":1077,"route_I_counts":"{\"1\": 90}","source":3,"target":2,"layer":"L","from":"新長田","to":"板宿"},"geometry":{"type":"LineString","coordinates":[[135.14441,34.657747],[135.133,34.6601]]}},{"type":"Feature","properties":{"duration_avg":60.9375,"n_vehicles":64,"d":766,"route_I_counts":"{\"2\": 64}","shape_id":"{}","direction_id":"{\"0\": 64}","headsign":"{\"三宮・花時計前\": 62, \"御崎公園\": 2}","source":3,"target":17,"layer":"L","from":"新長田","to":"駒ヶ林"},"geometry":{"type":"LineString","coordinates":[[135.14441,34.657747],[135.15,34.6521]]}},{"type":"Feature","properties":{"shape_id":"{}","direction_id":"{\"0\": 93}","headsign":"{\"新神戸\": 45, \"谷上\": 48}","duration_avg":98.70967741935483,"n_vehicles":93,"d":758,"route_I_counts":"{\"1\": 93}","source":4,"target":5,"layer":"L","from":"長田","to":"上沢"},"geometry":{"type":"LineString","coordinates":[[135.152,34.6685],[135.158,34.6732]]}},{"type":"Feature","properties":{"shape_id":"{}","direction_id":"{\"1\": 90}","headsign":"{\"名谷\": 10, \"西神中央\": 80}","duration_avg":163.33333333333334,"n_vehicles":90,"d":1384,"route_I_counts":"{\"1\": 90}","source":4,"target":3,"layer":"L","from":"長田","to":"新長田"},"geometry":{"type":"LineString","coordinates":[[135.152,34.6685],[135.14441,34.657747]]}},{"type":"Feature","properties":{"shape_id":"{}","direction_id":"{\"0\": 93}","headsign":"{\"新神戸\": 45, \"谷上\": 48}","duration_avg":88.38709677419355,"n_vehicles":93,"d":1074,"route_I_counts":"{\"1\": 93}","source":5,"target":6,"layer":"L","from":"上沢","to":"湊川公園"},"geometry":{"type":"LineString","coordinates":[[135.158,34.6732],[135.167,34.6794]]}},{"type":"Feature","properties":{"shape_id":"{}","direction_id":"{\"1\": 91}","headsign":"{\"名谷\": 10, \"西神中央\": 81}","duration_avg":73.84615384615384,"n_vehicles":91,"d":758,"route_I_counts":"{\"1\": 91}","source":5,"target":4,"layer":"L","from":"上沢","to":"長田"},"geometry":{"type":"LineString","coordinates":[[135.158,34.6732],[135.152,34.6685]]}},{"type":"Feature","properties":{"shape_id":"{}","direction_id":"{\"0\": 93}","headsign":"{\"新神戸\": 45, \"谷上\": 48}","duration_avg":112.25806451612904,"n_vehicles":93,"d":933,"route_I_counts":"{\"1\": 93}","source":6,"target":7,"layer":"L","from":"湊川公園","to":"大倉山"},"geometry":{"type":"LineString","coordinates":[[135.167,34.6794],[135.175,34.6846]]}},{"type":"Feature","properties":{"shape_id":"{}","direction_id":"{\"1\": 91}","headsign":"{\"名谷\": 10, \"西神中央\": 81}","duration_avg":106.15384615384616,"n_vehicles":91,"d":1074,"route_I_counts":"{\"1\": 91}","source":6,"target":5,"layer":"L","from":"湊川公園","to":"上沢"},"geometry":{"type":"LineString","coordinates":[[135.167,34.6794],[135.158,34.6732]]}},{"type":"Feature","properties":{"shape_id":"{}","direction_id":"{\"0\": 93}","headsign":"{\"新神戸\": 45, \"谷上\": 48}","duration_avg":115.48387096774194,"n_vehicles":93,"d":1081,"route_I_counts":"{\"1\": 93}","source":7,"target":8,"layer":"L","from":"大倉山","to":"県庁前"},"geometry":{"type":"LineString","coordinates":[[135.175,34.6846],[135.184,34.6909]]}},{"type":"Feature","properties":{"shape_id":"{}","direction_id":"{\"1\": 91}","headsign":"{\"名谷\": 10, \"西神中央\": 81}","duration_avg":83.07692307692308,"n_vehicles":91,"d":933,"route_I_counts":"{\"1\": 91}","source":7,"target":6,"layer":"L","from":"大倉山","to":"湊川公園"},"geometry":{"type":"LineString","coordinates":[[135.175,34.6846],[135.167,34.6794]]}},{"type":"Feature","properties":{"shape_id":"{}","direction_id":"{\"0\": 92}","headsign":"{\"新神戸\": 44, \"谷上\": 48}","duration_avg":103.04347826086956,"n_vehicles":92,"d":982,"route_I_counts":"{\"1\": 92}","source":8,"target":9,"layer":"L","from":"県庁前","to":"三宮"},"geometry":{"type":"LineString","coordinates":[[135.184,34.6909],[135.193753,34.694583]]}},{"type":"Feature","properties":{"shape_id":"{}","direction_id":"{\"1\": 91}","headsign":"{\"名谷\": 10, \"西神中央\": 81}","duration_avg":120.0,"n_vehicles":91,"d":1081,"route_I_counts":"{\"1\": 91}","source":8,"target":7,"layer":"L","from":"県庁前","to":"大倉山"},"geometry":{"type":"LineString","coordinates":[[135.184,34.6909],[135.175,34.6846]]}},{"type":"Feature","properties":{"shape_id":"{}","direction_id":"{\"0\": 92}","headsign":"{\"新神戸\": 44, \"谷上\": 48}","duration_avg":142.82608695652175,"n_vehicles":92,"d":1364,"route_I_counts":"{\"1\": 92}","source":9,"target":10,"layer":"L","from":"三宮","to":"新神戸"},"geometry":{"type":"LineString","coordinates":[[135.193753,34.694583],[135.196,34.7067]]}},{"type":"Feature","properties":{"shape_id":"{}","direction_id":"{\"1\": 91}","headsign":"{\"名谷\": 10, \"西神中央\": 81}","duration_avg":97.58241758241758,"n_vehicles":91,"d":982,"route_I_counts":"{\"1\": 91}","source":9,"target":8,"layer":"L","from":"三宮","to":"県庁前"},"geometry":{"type":"LineString","coordinates":[[135.193753,34.694583],[135.184,34.6909]]}},{"type":"Feature","properties":{"shape_id":"{}","direction_id":"{\"0\": 47}","headsign":"{\"谷上\": 47}","duration_avg":480.0,"n_vehicles":47,"d":6538,"route_I_counts":"{\"1\": 47}","source":10,"target":11,"layer":"L","from":"新神戸","to":"谷上"},"geometry":{"type":"LineString","coordinates":[[135.196,34.7067],[135.171344,34.761831]]}},{"type":"Feature","properties":{"shape_id":"{}","direction_id":"{\"1\": 92}","headsign":"{\"名谷\": 10, \"西神中央\": 82}","duration_avg":132.3913043478261,"n_vehicles":92,"d":1364,"route_I_counts":"{\"1\": 92}","source":10,"target":9,"layer":"L","from":"新神戸","to":"三宮"},"geometry":{"type":"LineString","coordinates":[[135.196,34.7067],[135.193753,34.694583]]}},{"type":"Feature","properties":{"shape_id":"{}","direction_id":"{\"1\": 47}","headsign":"{\"名谷\": 3, \"西神中央\": 44}","duration_avg":482.5531914893617,"n_vehicles":47,"d":6538,"route_I_counts":"{\"1\": 47}","source":11,"target":10,"layer":"L","from":"谷上","to":"新神戸"},"geometry":{"type":"LineString","coordinates":[[135.171344,34.761831],[135.196,34.7067]]}},{"type":"Feature","properties":{"shape_id":"{}","direction_id":"{\"0\": 92}","headsign":"{\"名谷\": 1, \"新神戸\": 44, \"谷上\": 47}","duration_avg":174.7826086956522,"n_vehicles":92,"d":2534,"route_I_counts":"{\"1\": 92}","source":12,"target":13,"layer":"L","from":"西神中央","to":"西神南"},"geometry":{"type":"LineString","coordinates":[[135.017,34.7195],[135.03,34.6994]]}},{"type":"Feature","properties":{"shape_id":"{}","direction_id":"{\"0\": 92}","headsign":"{\"名谷\": 1, \"新神戸\": 44, \"谷上\": 47}","duration_avg":123.91304347826087,"n_vehicles":92,"d":1628,"route_I_counts":"{\"1\": 92}","source":13,"target":14,"layer":"L","from":"西神南","to":"伊川谷"},"geometry":{"type":"LineString","coordinates":[[135.03,34.6994],[135.041,34.6879]]}},{"type":"Feature","properties":{"shape_id":"{}","direction_id":"{\"1\": 88}","headsign":"{\"西神中央\": 88}","duration_avg":173.1818181818182,"n_vehicles":88,"d":2534,"route_I_counts":"{\"1\": 88}","source":13,"target":12,"layer":"L","from":"西神南","to":"西神中央"},"geometry":{"type":"LineString","coordinates":[[135.03,34.6994],[135.017,34.7195]]}},{"type":"Feature","properties":{"shape_id":"{}","direction_id":"{\"0\": 91}","headsign":"{\"名谷\": 1, \"新神戸\": 44, \"谷上\": 46}","duration_avg":123.95604395604396,"n_vehicles":91,"d":1628,"route_I_counts":"{\"1\": 91}","source":14,"target":15,"layer":"L","from":"伊川谷","to":"学園都市"},"geometry":{"type":"LineString","coordinates":[[135.041,34.6879],[135.057,34.6815]]}},{"type":"Feature","properties":{"shape_id":"{}","direction_id":"{\"1\": 88}","headsign":"{\"西神中央\": 88}","duration_avg":126.81818181818181,"n_vehicles":88,"d":1628,"route_I_counts":"{\"1\": 88}","source":14,"target":13,"layer":"L","from":"伊川谷","to":"西神南"},"geometry":{"type":"LineString","coordinates":[[135.041,34.6879],[135.03,34.6994]]}},{"type":"Feature","properties":{"shape_id":"{}","direction_id":"{\"0\": 91}","headsign":"{\"名谷\": 1, \"新神戸\": 44, \"谷上\": 46}","duration_avg":137.8021978021978,"n_vehicles":91,"d":1739,"route_I_counts":"{\"1\": 91}","source":15,"target":16,"layer":"L","from":"学園都市","to":"総合運動公園"},"geometry":{"type":"LineString","coordinates":[[135.057,34.6815],[135.076,34.6817]]}},{"type":"Feature","properties":{"shape_id":"{}","direction_id":"{\"1\": 88}","headsign":"{\"西神中央\": 88}","duration_avg":120.0,"n_vehicles":88,"d":1628,"route_I_counts":"{\"1\": 88}","source":15,"target":14,"layer":"L","from":"学園都市","to":"伊川谷"},"geometry":{"type":"LineString","coordinates":[[135.057,34.6815],[135.041,34.6879]]}},{"type":"Feature","properties":{"shape_id":"{}","direction_id":"{\"0\": 91}","headsign":"{\"名谷\": 1, \"新神戸\": 44, \"谷上\": 46}","duration_avg":175.3846153846154,"n_vehicles":91,"d":1687,"route_I_counts":"{\"1\": 91}","source":16,"target":0,"layer":"L","from":"総合運動公園","to":"名谷"},"geometry":{"type":"LineString","coordinates":[[135.076,34.6817],[135.094211,34.679328]]}},{"type":"Feature","properties":{"shape_id":"{}","direction_id":"{\"1\": 88}","headsign":"{\"西神中央\": 88}","duration_avg":120.68181818181819,"n_vehicles":88,"d":1739,"route_I_counts":"{\"1\": 88}","source":16,"target":15,"layer":"L","from":"総合運動公園","to":"学園都市"},"geometry":{"type":"LineString","coordinates":[[135.076,34.6817],[135.057,34.6815]]}},{"type":"Feature","properties":{"shape_id":"{}","direction_id":"{\"0\": 64}","headsign":"{\"三宮・花時計前\": 62, \"御崎公園\": 2}","duration_avg":119.0625,"n_vehicles":64,"d":662,"route_I_counts":"{\"2\": 64}","source":17,"target":18,"layer":"L","from":"駒ヶ林","to":"苅藻"},"geometry":{"type":"LineString","coordinates":[[135.15,34.6521],[135.157,34.6536]]}},{"type":"Feature","properties":{"duration_avg":101.25,"n_vehicles":64,"d":766,"route_I_counts":"{\"2\": 64}","shape_id":"{}","direction_id":"{\"1\": 64}","headsign":"{\"新長田\": 64}","source":17,"target":3,"layer":"L","from":"駒ヶ林","to":"新長田"},"geometry":{"type":"LineString","coordinates":[[135.15,34.6521],[135.14441,34.657747]]}},{"type":"Feature","properties":{"shape_id":"{}","direction_id":"{\"0\": 64}","headsign":"{\"三宮・花時計前\": 62, \"御崎公園\": 2}","duration_avg":61.875,"n_vehicles":64,"d":740,"route_I_counts":"{\"2\": 64}","source":18,"target":19,"layer":"L","from":"苅藻","to":"御崎公園"},"geometry":{"type":"LineString","coordinates":[[135.157,34.6536],[135.165,34.6546]]}},{"type":"Feature","properties":{"shape_id":"{}","direction_id":"{\"1\": 64}","headsign":"{\"新長田\": 64}","duration_avg":79.6875,"n_vehicles":64,"d":662,"route_I_counts":"{\"2\": 64}","source":18,"target":17,"layer":"L","from":"苅藻","to":"駒ヶ林"},"geometry":{"type":"LineString","coordinates":[[135.157,34.6536],[135.15,34.6521]]}},{"type":"Feature","properties":{"shape_id":"{}","direction_id":"{\"0\": 63}","headsign":"{\"三宮・花時計前\": 63}","duration_avg":118.0952380952381,"n_vehicles":63,"d":950,"route_I_counts":"{\"2\": 63}","source":19,"target":20,"layer":"L","from":"御崎公園","to":"和田岬"},"geometry":{"type":"LineString","coordinates":[[135.165,34.6546],[135.175,34.6569]]}},{"type":"Feature","properties":{"shape_id":"{}","direction_id":"{\"1\": 64}","headsign":"{\"新長田\": 64}","duration_avg":113.4375,"n_vehicles":64,"d":740,"route_I_counts":"{\"2\": 64}","source":19,"target":18,"layer":"L","from":"御崎公園","to":"苅藻"},"geometry":{"type":"LineString","coordinates":[[135.165,34.6546],[135.157,34.6536]]}},{"type":"Feature","properties":{"shape_id":"{}","direction_id":"{\"0\": 63}","headsign":"{\"三宮・花時計前\": 63}","duration_avg":80.95238095238095,"n_vehicles":63,"d":1039,"route_I_counts":"{\"2\": 63}","source":20,"target":21,"layer":"L","from":"和田岬","to":"中央市場前"},"geometry":{"type":"LineString","coordinates":[[135.175,34.6569],[135.176,34.6662]]}},{"type":"Feature","properties":{"shape_id":"{}","direction_id":"{\"1\": 61}","headsign":"{\"御崎公園\": 1, \"新長田\": 60}","duration_avg":106.22950819672131,"n_vehicles":61,"d":950,"route_I_counts":"{\"2\": 61}","source":20,"target":19,"layer":"L","from":"和田岬","to":"御崎公園"},"geometry":{"type":"LineString","coordinates":[[135.175,34.6569],[135.165,34.6546]]}},{"type":"Feature","properties":{"shape_id":"{}","direction_id":"{\"0\": 62}","headsign":"{\"三宮・花時計前\": 62}","duration_avg":158.70967741935485,"n_vehicles":62,"d":1396,"route_I_counts":"{\"2\": 62}","source":21,"target":22,"layer":"L","from":"中央市場前","to":"ハーバーランド"},"geometry":{"type":"LineString","coordinates":[[135.176,34.6662],[135.179,34.6785]]}},{"type":"Feature","properties":{"shape_id":"{}","direction_id":"{\"1\": 62}","headsign":"{\"御崎公園\": 1, \"新長田\": 61}","duration_avg":120.0,"n_vehicles":62,"d":1039,"route_I_counts":"{\"2\": 62}","source":21,"target":20,"layer":"L","from":"中央市場前","to":"和田岬"},"geometry":{"type":"LineString","coordinates":[[135.176,34.6662],[135.175,34.6569]]}},{"type":"Feature","properties":{"shape_id":"{}","direction_id":"{\"0\": 62}","headsign":"{\"三宮・花時計前\": 62}","duration_avg":80.3225806451613,"n_vehicles":62,"d":942,"route_I_counts":"{\"2\": 62}","source":22,"target":23,"layer":"L","from":"ハーバーランド","to":"みなと元町"},"geometry":{"type":"LineString","coordinates":[[135.179,34.6785],[135.184,34.6859]]}},{"type":"Feature","properties":{"shape_id":"{}","direction_id":"{\"1\": 62}","headsign":"{\"御崎公園\": 1, \"新長田\": 61}","duration_avg":133.5483870967742,"n_vehicles":62,"d":1396,"route_I_counts":"{\"2\": 62}","source":22,"target":21,"layer":"L","from":"ハーバーランド","to":"中央市場前"},"geometry":{"type":"LineString","coordinates":[[135.179,34.6785],[135.176,34.6662]]}},{"type":"Feature","properties":{"shape_id":"{}","direction_id":"{\"0\": 62}","headsign":"{\"三宮・花時計前\": 62}","duration_avg":104.51612903225806,"n_vehicles":62,"d":761,"route_I_counts":"{\"2\": 62}","source":23,"target":24,"layer":"L","from":"みなと元町","to":"旧居留地・大丸前"},"geometry":{"type":"LineString","coordinates":[[135.184,34.6859],[135.191,34.6896]]}},{"type":"Feature","properties":{"shape_id":"{}","direction_id":"{\"1\": 62}","headsign":"{\"御崎公園\": 1, \"新長田\": 61}","duration_avg":63.87096774193548,"n_vehicles":62,"d":942,"route_I_counts":"{\"2\": 62}","source":23,"target":22,"layer":"L","from":"みなと元町","to":"ハーバーランド"},"geometry":{"type":"LineString","coordinates":[[135.184,34.6859],[135.179,34.6785]]}},{"type":"Feature","properties":{"shape_id":"{}","direction_id":"{\"0\": 62}","headsign":"{\"三宮・花時計前\": 62}","duration_avg":75.48387096774194,"n_vehicles":62,"d":508,"route_I_counts":"{\"2\": 62}","source":24,"target":25,"layer":"L","from":"旧居留地・大丸前","to":"三宮・花時計前"},"geometry":{"type":"LineString","coordinates":[[135.191,34.6896],[135.196,34.6916]]}},{"type":"Feature","properties":{"shape_id":"{}","direction_id":"{\"1\": 62}","headsign":"{\"御崎公園\": 1, \"新長田\": 61}","duration_avg":120.0,"n_vehicles":62,"d":761,"route_I_counts":"{\"2\": 62}","source":24,"target":23,"layer":"L","from":"旧居留地・大丸前","to":"みなと元町"},"geometry":{"type":"LineString","coordinates":[[135.191,34.6896],[135.184,34.6859]]}},{"type":"Feature","properties":{"shape_id":"{}","direction_id":"{\"1\": 62}","headsign":"{\"御崎公園\": 1, \"新長田\": 61}","duration_avg":60.0,"n_vehicles":62,"d":508,"route_I_counts":"{\"2\": 62}","source":25,"target":24,"layer":"L","from":"三宮・花時計前","to":"旧居留地・大丸前"},"geometry":{"type":"LineString","coordinates":[[135.196,34.6916],[135.191,34.6896]]}}]}