{"type":"FeatureCollection","features":[{"type":"Feature","geometry":{"type":"Point","coordinates":[3.03892,50.607932]},"properties":{"name":"Chu-Eurasante","original_ids":"[2703, 2916]","id":0,"layer":"stop"}},{"type":"Feature","geometry":{"type":"Point","coordinates":[3.036062,50.613222]},"properties":{"name":"Chu-Centre O. Lambret","original_ids":"[2802, 2720]","id":1,"layer":"stop"}},{"type":"Feature","geometry":{"type":"Point","coordinates":[3.049986,50.61875]},"properties":{"name":"Porte Des Postes","original_ids":"[2792, 2701, 2746, 2745]","id":2,"layer":"stop"}},{"type":"Feature","geometry":{"type":"Point","coordinates":[3.051348,50.623272]},"properties":{"name":"Wazemmes","original_ids":"[2731, 2847]","id":3,"layer":"stop"}},{"type":"Feature","geometry":{"type":"Point","coordinates":[3.052322,50.626343]},"properties":{"name":"Gambetta","original_ids":"[2765, 2756]","id":4,"layer":"stop"}},{"type":"Feature","geometry":{"type":"Point","coordinates":[3.060608,50.631776]},"properties":{"name":"Republique Beaux-Arts","original_ids":"[2700, 2950]","id":5,"layer":"stop"}},{"type":"Feature","geometry":{"type":"Point","coordinates":[3.062908,50.6357]},"properties":{"name":"Rihour","original_ids":"[2922, 2804]","id":6,"layer":"stop"}},{"type":"Feature","geometry":{"type":"Point","coordinates":[3.071067,50.637096]},"properties":{"name":"Gare Lille Flandres","original_ids":"[2705, 2699, 2747, 2744]","id":7,"layer":"stop"}},{"type":"Feature","geometry":{"type":"Point","coordinates":[3.087406,50.636514]},"properties":{"name":"Caulier","original_ids":"[2855, 2797]","id":8,"layer":"stop"}},{"type":"Feature","geometry":{"type":"Point","coordinates":[3.090754,50.633103]},"properties":{"name":"Fives","original_ids":"[2768, 2831]","id":9,"layer":"stop"}},{"type":"Feature","geometry":{"type":"Point","coordinates":[3.097836,50.630395]},"properties":{"name":"Marbrerie","original_ids":"[2294, 2785]","id":10,"layer":"stop"}},{"type":"Feature","geometry":{"type":"Point","coordinates":[3.108889,50.627384]},"properties":{"name":"Mairie D'Hellemmes","original_ids":"[2302, 2299]","id":11,"layer":"stop"}},{"type":"Feature","geometry":{"type":"Point","coordinates":[3.115992,50.625258]},"properties":{"name":"Square Flandres","original_ids":"[2685, 2295]","id":12,"layer":"stop"}},{"type":"Feature","geometry":{"type":"Point","coordinates":[3.128232,50.624355]},"properties":{"name":"Pont De Bois","original_ids":"[4352, 4339]","id":13,"layer":"stop"}},{"type":"Feature","geometry":{"type":"Point","coordinates":[3.13255,50.618344]},"properties":{"name":"Hotel De Ville","original_ids":"[4486, 4455]","id":14,"layer":"stop"}},{"type":"Feature","geometry":{"type":"Point","coordinates":[3.14164,50.616294]},"properties":{"name":"Triolo","original_ids":"[4418, 4396]","id":15,"layer":"stop"}},{"type":"Feature","geometry":{"type":"Point","coordinates":[3.142695,50.61173]},"properties":{"name":"Cte Scientifique","original_ids":"[4470, 4377]","id":16,"layer":"stop"}},{"type":"Feature","geometry":{"type":"Point","coordinates":[3.13866,50.605423]},"properties":{"name":"4 Cantons Stade","original_ids":"[4342, 4370]","id":17,"layer":"stop"}},{"type":"Feature","geometry":{"type":"Point","coordinates":[2.97442,50.651697]},"properties":{"name":"St. Philibert","original_ids":"[3028, 3031]","id":18,"layer":"stop"}},{"type":"Feature","geometry":{"type":"Point","coordinates":[2.985164,50.645721]},"properties":{"name":"Bourg","original_ids":"[3041, 3049]","id":19,"layer":"stop"}},{"type":"Feature","geometry":{"type":"Point","coordinates":[2.99536,50.646502]},"properties":{"name":"Maison Des Enfants","original_ids":"[3059, 3090]","id":20,"layer":"stop"}},{"type":"Feature","geometry":{"type":"Point","coordinates":[3.007556,50.646938]},"properties":{"name":"Mitterie","original_ids":"[3042, 3047]","id":21,"layer":"stop"}},{"type":"Feature","geometry":{"type":"Point","coordinates":[3.014056,50.644607]},"properties":{"name":"Pont Superieur","original_ids":"[3036, 3027]","id":22,"layer":"stop"}},{"type":"Feature","geometry":{"type":"Point","coordinates":[3.018871,50.640822]},"properties":{"name":"Lomme Lambersart","original_ids":"[3076, 3030]","id":23,"layer":"stop"}},{"type":"Feature","geometry":{"type":"Point","coordinates":[3.024167,50.63715]},"properties":{"name":"Canteleu","original_ids":"[2540, 2727]","id":24,"layer":"stop"}},{"type":"Feature","geometry":{"type":"Point","coordinates":[3.030981,50.634125]},"properties":{"name":"Bois Blancs","original_ids":"[2567, 2726]","id":25,"layer":"stop"}},{"type":"Feature","geometry":{"type":"Point","coordinates":[3.035916,50.630034]},"properties":{"name":"Port De Lille","original_ids":"[2814, 2725]","id":26,"layer":"stop"}},{"type":"Feature","geometry":{"type":"Point","coordinates":[3.040825,50.626095]},"properties":{"name":"Cormontaigne","original_ids":"[2732, 2898]","id":27,"layer":"stop"}},{"type":"Feature","geometry":{"type":"Point","coordinates":[3.045775,50.622084]},"properties":{"name":"Montebello","original_ids":"[2888, 2909]","id":28,"layer":"stop"}},{"type":"Feature","geometry":{"type":"Point","coordinates":[3.062349,50.617583]},"properties":{"name":"Porte D'Arras","original_ids":"[2835, 2980]","id":29,"layer":"stop"}},{"type":"Feature","geometry":{"type":"Point","coordinates":[3.072479,50.618035]},"properties":{"name":"Porte De Douai","original_ids":"[2968, 2879]","id":30,"layer":"stop"}},{"type":"Feature","geometry":{"type":"Point","coordinates":[3.079066,50.621036]},"properties":{"name":"Porte De Valenciennes","original_ids":"[2978, 2743]","id":31,"layer":"stop"}},{"type":"Feature","geometry":{"type":"Point","coordinates":[3.074886,50.629215]},"properties":{"name":"Grand Palais","original_ids":"[2718, 2742]","id":32,"layer":"stop"}},{"type":"Feature","geometry":{"type":"Point","coordinates":[3.071125,50.632422]},"properties":{"name":"Mairie De Lille","original_ids":"[2807, 2969]","id":33,"layer":"stop"}},{"type":"Feature","geometry":{"type":"Point","coordinates":[3.076774,50.639583]},"properties":{"name":"Lille Europe","original_ids":"[2850, 2963]","id":34,"layer":"stop"}},{"type":"Feature","geometry":{"type":"Point","coordinates":[3.088244,50.64251]},"properties":{"name":"St Maurice Pellevoisin","original_ids":"[2777, 2739]","id":35,"layer":"stop"}},{"type":"Feature","geometry":{"type":"Point","coordinates":[3.099201,50.642272]},"properties":{"name":"Mons Sarts","original_ids":"[3390, 3357]","id":36,"layer":"stop"}},{"type":"Feature","geometry":{"type":"Point","coordinates":[3.109543,50.642387]},"properties":{"name":"Mairie De Mons","original_ids":"[3367, 3383]","id":37,"layer":"stop"}},{"type":"Feature","geometry":{"type":"Point","coordinates":[3.119443,50.642182]},"properties":{"name":"Fort De Mons","original_ids":"[3358, 3362]","id":38,"layer":"stop"}},{"type":"Feature","geometry":{"type":"Point","coordinates":[3.126386,50.650345]},"properties":{"name":"Les Pres-E. Pisani","original_ids":"[4429, 4468]","id":39,"layer":"stop"}},{"type":"Feature","geometry":{"type":"Point","coordinates":[3.134911,50.658507]},"properties":{"name":"Jean Jaures","original_ids":"[4366, 4390]","id":40,"layer":"stop"}},{"type":"Feature","geometry":{"type":"Point","coordinates":[3.130533,50.663604]},"properties":{"name":"Pave De Lille","original_ids":"[4611, 4630]","id":41,"layer":"stop"}},{"type":"Feature","geometry":{"type":"Point","coordinates":[3.130983,50.669709]},"properties":{"name":"Hotel De Ville","original_ids":"[4639, 4641]","id":42,"layer":"stop"}},{"type":"Feature","geometry":{"type":"Point","coordinates":[3.14647,50.674309]},"properties":{"name":"Centre","original_ids":"[1978, 2000]","id":43,"layer":"stop"}},{"type":"Feature","geometry":{"type":"Point","coordinates":[3.156578,50.67949]},"properties":{"name":"Mairie De Croix","original_ids":"[1979, 1995]","id":44,"layer":"stop"}},{"type":"Feature","geometry":{"type":"Point","coordinates":[3.163133,50.684021]},"properties":{"name":"Ep. Montesquieu","original_ids":"[3879, 3868]","id":45,"layer":"stop"}},{"type":"Feature","geometry":{"type":"Point","coordinates":[3.169981,50.686621]},"properties":{"name":"Charles De Gaulle","original_ids":"[3730, 3806]","id":46,"layer":"stop"}},{"type":"Feature","geometry":{"type":"Point","coordinates":[3.179832,50.691344]},"properties":{"name":"Euroteleport","original_ids":"[3835, 3704]","id":47,"layer":"stop"}},{"type":"Feature","geometry":{"type":"Point","coordinates":[3.174202,50.691598]},"properties":{"name":"Roubaix Place","original_ids":"[3844, 3827]","id":48,"layer":"stop"}},{"type":"Feature","geometry":{"type":"Point","coordinates":[3.163823,50.695865]},"properties":{"name":"Gare Jean Lebas","original_ids":"[3779, 3746]","id":49,"layer":"stop"}},{"type":"Feature","geometry":{"type":"Point","coordinates":[3.161274,50.700591]},"properties":{"name":"Alsace","original_ids":"[3864, 3815]","id":50,"layer":"stop"}},{"type":"Feature","geometry":{"type":"Point","coordinates":[3.160544,50.705153]},"properties":{"name":"Mercure","original_ids":"[4176, 4164]","id":51,"layer":"stop"}},{"type":"Feature","geometry":{"type":"Point","coordinates":[3.159908,50.710252]},"properties":{"name":"Carliers","original_ids":"[4235, 4080]","id":52,"layer":"stop"}},{"type":"Feature","geometry":{"type":"Point","coordinates":[3.162584,50.71662]},"properties":{"name":"Gare De Tourcoing","original_ids":"[4292, 4104]","id":53,"layer":"stop"}},{"type":"Feature","geometry":{"type":"Point","coordinates":[3.160445,50.720554]},"properties":{"name":"Tourcoing Centre","original_ids":"[4168, 4268]","id":54,"layer":"stop"}},{"type":"Feature","geometry":{"type":"Point","coordinates":[3.156935,50.725349]},"properties":{"name":"Colbert","original_ids":"[4269, 4291]","id":55,"layer":"stop"}},{"type":"Feature","geometry":{"type":"Point","coordinates":[3.157744,50.73242]},"properties":{"name":"Phalempins","original_ids":"[4132, 4112]","id":56,"layer":"stop"}},{"type":"Feature","geometry":{"type":"Point","coordinates":[3.170593,50.736792]},"properties":{"name":"Pont De Neuville","original_ids":"[4088, 4089]","id":57,"layer":"stop"}},{"type":"Feature","geometry":{"type":"Point","coordinates":[3.179274,50.739496]},"properties":{"name":"Bourgogne","original_ids":"[4145, 4248]","id":58,"layer":"stop"}},{"type":"Feature","geometry":{"type":"Point","coordinates":[3.180479,50.743874]},"properties":{"name":"C.H. Dron","original_ids":"[4144, 4116]","id":59,"layer":"stop"}},{"type":"Feature","properties":{"shape_id":"{}","direction_id":"{\"1\": 602}","headsign":"{\"Villeneuve D Ascq 4 Cantons Stade\": 602}","duration_avg":69.0,"n_vehicles":602,"d":622,"route_I_counts":"{\"82\": 602}","source":0,"target":1,"layer":"L","from":"Chu-Eurasante","to":"Chu-Centre O. Lambret"},"geometry":{"type":"LineString","coordinates":[[3.03892,50.607932],[3.036062,50.613222]]}},{"type":"Feature","properties":{"shape_id":"{}","direction_id":"{\"1\": 602}","headsign":"{\"Villeneuve D Ascq 4 Cantons Stade\": 602}","duration_avg":109.0,"n_vehicles":602,"d":1160,"route_I_counts":"{\"82\": 602}","source":1,"target":2,"layer":"L","from":"Chu-Centre O. Lambret","to":"Porte Des Postes"},"geometry":{"type":"LineString","coordinates":[[3.036062,50.613222],[3.049986,50.61875]]}},{"type":"Feature","properties":{"duration_avg":70.0,"n_vehicles":595,"d":622,"route_I_counts":"{\"82\": 595}","shape_id":"{}","direction_id":"{\"0\": 595}","headsign":"{\"Lille Chu-Eurasante\": 595}","source":1,"target":0,"layer":"L","from":"Chu-Centre O. Lambret","to":"Chu-Eurasante"},"geometry":{"type":"LineString","coordinates":[[3.036062,50.613222],[3.03892,50.607932]]}},{"type":"Feature","properties":{"shape_id":"{}","direction_id":"{\"1\": 601}","headsign":"{\"Villeneuve D Ascq 4 Cantons Stade\": 601}","duration_avg":71.0,"n_vehicles":601,"d":512,"route_I_counts":"{\"82\": 601}","source":2,"target":3,"layer":"L","from":"Porte Des Postes","to":"Wazemmes"},"geometry":{"type":"LineString","coordinates":[[3.049986,50.61875],[3.051348,50.623272]]}},{"type":"Feature","properties":{"duration_avg":117.0,"n_vehicles":595,"d":1157,"route_I_counts":"{\"82\": 595}","shape_id":"{}","direction_id":"{\"0\": 595}","headsign":"{\"Lille Chu-Eurasante\": 595}","source":2,"target":1,"layer":"L","from":"Porte Des Postes","to":"Chu-Centre O. Lambret"},"geometry":{"type":"LineString","coordinates":[[3.049986,50.61875],[3.036062,50.613222]]}},{"type":"Feature","properties":{"duration_avg":92.0,"n_vehicles":421,"d":826,"route_I_counts":"{\"133\": 421}","shape_id":"{}","direction_id":"{\"1\": 421}","headsign":"{\"Roubaix Roubaix Place\": 94, \"Tourcoing C.H. Dron\": 327}","source":2,"target":29,"layer":"L","from":"Porte Des Postes","to":"Porte D'Arras"},"geometry":{"type":"LineString","coordinates":[[3.049986,50.61875],[3.062349,50.617583]]}},{"type":"Feature","properties":{"duration_avg":71.0,"n_vehicles":424,"d":575,"route_I_counts":"{\"133\": 424}","shape_id":"{}","direction_id":"{\"0\": 424}","headsign":"{\"Lomme Lomme Lambersart\": 94, \"Lomme St. Philibert\": 330}","source":2,"target":28,"layer":"L","from":"Porte Des Postes","to":"Montebello"},"geometry":{"type":"LineString","coordinates":[[3.049986,50.61875],[3.045775,50.622084]]}},{"type":"Feature","properties":{"shape_id":"{}","direction_id":"{\"1\": 601}","headsign":"{\"Villeneuve D Ascq 4 Cantons Stade\": 601}","duration_avg":61.0,"n_vehicles":601,"d":348,"route_I_counts":"{\"82\": 601}","source":3,"target":4,"layer":"L","from":"Wazemmes","to":"Gambetta"},"geometry":{"type":"LineString","coordinates":[[3.051348,50.623272],[3.052322,50.626343]]}},{"type":"Feature","properties":{"duration_avg":66.0,"n_vehicles":595,"d":594,"route_I_counts":"{\"82\": 595}","shape_id":"{}","direction_id":"{\"0\": 595}","headsign":"{\"Lille Chu-Eurasante\": 595}","source":3,"target":2,"layer":"L","from":"Wazemmes","to":"Porte Des Postes"},"geometry":{"type":"LineString","coordinates":[[3.051348,50.623272],[3.049986,50.61875]]}},{"type":"Feature","properties":{"shape_id":"{}","direction_id":"{\"1\": 601}","headsign":"{\"Villeneuve D Ascq 4 Cantons Stade\": 601}","duration_avg":83.0,"n_vehicles":601,"d":841,"route_I_counts":"{\"82\": 601}","source":4,"target":5,"layer":"L","from":"Gambetta","to":"Republique Beaux-Arts"},"geometry":{"type":"LineString","coordinates":[[3.052322,50.626343],[3.060608,50.631776]]}},{"type":"Feature","properties":{"duration_avg":61.0,"n_vehicles":596,"d":351,"route_I_counts":"{\"82\": 596}","shape_id":"{}","direction_id":"{\"0\": 596}","headsign":"{\"Lille Chu-Eurasante\": 596}","source":4,"target":3,"layer":"L","from":"Gambetta","to":"Wazemmes"},"geometry":{"type":"LineString","coordinates":[[3.052322,50.626343],[3.051348,50.623272]]}},{"type":"Feature","properties":{"shape_id":"{}","direction_id":"{\"1\": 601}","headsign":"{\"Villeneuve D Ascq 4 Cantons Stade\": 601}","duration_avg":59.0,"n_vehicles":601,"d":466,"route_I_counts":"{\"82\": 601}","source":5,"target":6,"layer":"L","from":"Republique Beaux-Arts","to":"Rihour"},"geometry":{"type":"LineString","coordinates":[[3.060608,50.631776],[3.062908,50.6357]]}},{"type":"Feature","properties":{"duration_avg":80.0,"n_vehicles":596,"d":847,"route_I_counts":"{\"82\": 596}","shape_id":"{}","direction_id":"{\"0\": 596}","headsign":"{\"Lille Chu-Eurasante\": 596}","source":5,"target":4,"layer":"L","from":"Republique Beaux-Arts","to":"Gambetta"},"geometry":{"type":"LineString","coordinates":[[3.060608,50.631776],[3.052322,50.626343]]}},{"type":"Feature","properties":{"shape_id":"{}","direction_id":"{\"1\": 601}","headsign":"{\"Villeneuve D Ascq 4 Cantons Stade\": 601}","duration_avg":83.0,"n_vehicles":601,"d":596,"route_I_counts":"{\"82\": 601}","source":6,"target":7,"layer":"L","from":"Rihour","to":"Gare Lille Flandres"},"geometry":{"type":"LineString","coordinates":[[3.062908,50.6357],[3.071067,50.637096]]}},{"type":"Feature","properties":{"duration_avg":67.0,"n_vehicles":596,"d":466,"route_I_counts":"{\"82\": 596}","shape_id":"{}","direction_id":"{\"0\": 596}","headsign":"{\"Lille Chu-Eurasante\": 596}","source":6,"target":5,"layer":"L","from":"Rihour","to":"Republique Beaux-Arts"},"geometry":{"type":"LineString","coordinates":[[3.062908,50.6357],[3.060608,50.631776]]}},{"type":"Feature","properties":{"shape_id":"{}","direction_id":"{\"1\": 600}","headsign":"{\"Villeneuve D Ascq 4 Cantons Stade\": 600}","duration_avg":116.0,"n_vehicles":600,"d":1155,"route_I_counts":"{\"82\": 600}","source":7,"target":8,"layer":"L","from":"Gare Lille Flandres","to":"Caulier"},"geometry":{"type":"LineString","coordinates":[[3.071067,50.637096],[3.087406,50.636514]]}},{"type":"Feature","properties":{"duration_avg":78.0,"n_vehicles":420,"d":488,"route_I_counts":"{\"133\": 420}","shape_id":"{}","direction_id":"{\"1\": 420}","headsign":"{\"Roubaix Roubaix Place\": 94, \"Tourcoing C.H. Dron\": 326}","source":7,"target":34,"layer":"L","from":"Gare Lille Flandres","to":"Lille Europe"},"geometry":{"type":"LineString","coordinates":[[3.071067,50.637096],[3.076774,50.639583]]}},{"type":"Feature","properties":{"duration_avg":92.0,"n_vehicles":425,"d":520,"route_I_counts":"{\"133\": 425}","shape_id":"{}","direction_id":"{\"0\": 425}","headsign":"{\"Lomme Lomme Lambersart\": 94, \"Lomme St. Philibert\": 331}","source":7,"target":33,"layer":"L","from":"Gare Lille Flandres","to":"Mairie De Lille"},"geometry":{"type":"LineString","coordinates":[[3.071067,50.637096],[3.071125,50.632422]]}},{"type":"Feature","properties":{"duration_avg":87.0,"n_vehicles":596,"d":596,"route_I_counts":"{\"82\": 596}","shape_id":"{}","direction_id":"{\"0\": 596}","headsign":"{\"Lille Chu-Eurasante\": 596}","source":7,"target":6,"layer":"L","from":"Gare Lille Flandres","to":"Rihour"},"geometry":{"type":"LineString","coordinates":[[3.071067,50.637096],[3.062908,50.6357]]}},{"type":"Feature","properties":{"shape_id":"{}","direction_id":"{\"1\": 600}","headsign":"{\"Villeneuve D Ascq 4 Cantons Stade\": 600}","duration_avg":65.0,"n_vehicles":600,"d":447,"route_I_counts":"{\"82\": 600}","source":8,"target":9,"layer":"L","from":"Caulier","to":"Fives"},"geometry":{"type":"LineString","coordinates":[[3.087406,50.636514],[3.090754,50.633103]]}},{"type":"Feature","properties":{"duration_avg":100.0,"n_vehicles":596,"d":1163,"route_I_counts":"{\"82\": 596}","shape_id":"{}","direction_id":"{\"0\": 596}","headsign":"{\"Lille Chu-Eurasante\": 596}","source":8,"target":7,"layer":"L","from":"Caulier","to":"Gare Lille Flandres"},"geometry":{"type":"LineString","coordinates":[[3.087406,50.636514],[3.071067,50.637096]]}},{"type":"Feature","properties":{"shape_id":"{}","direction_id":"{\"1\": 600}","headsign":"{\"Villeneuve D Ascq 4 Cantons Stade\": 600}","duration_avg":70.0,"n_vehicles":600,"d":583,"route_I_counts":"{\"82\": 600}","source":9,"target":10,"layer":"L","from":"Fives","to":"Marbrerie"},"geometry":{"type":"LineString","coordinates":[[3.090754,50.633103],[3.097836,50.630395]]}},{"type":"Feature","properties":{"duration_avg":67.0,"n_vehicles":597,"d":442,"route_I_counts":"{\"82\": 597}","shape_id":"{}","direction_id":"{\"0\": 597}","headsign":"{\"Lille Chu-Eurasante\": 597}","source":9,"target":8,"layer":"L","from":"Fives","to":"Caulier"},"geometry":{"type":"LineString","coordinates":[[3.090754,50.633103],[3.087406,50.636514]]}},{"type":"Feature","properties":{"shape_id":"{}","direction_id":"{\"1\": 600}","headsign":"{\"Villeneuve D Ascq 4 Cantons Stade\": 600}","duration_avg":87.0,"n_vehicles":600,"d":849,"route_I_counts":"{\"82\": 600}","source":10,"target":11,"layer":"L","from":"Marbrerie","to":"Mairie D'Hellemmes"},"geometry":{"type":"LineString","coordinates":[[3.097836,50.630395],[3.108889,50.627384]]}},{"type":"Feature","properties":{"duration_avg":68.0,"n_vehicles":597,"d":591,"route_I_counts":"{\"82\": 597}","shape_id":"{}","direction_id":"{\"0\": 597}","headsign":"{\"Lille Chu-Eurasante\": 597}","source":10,"target":9,"layer":"L","from":"Marbrerie","to":"Fives"},"geometry":{"type":"LineString","coordinates":[[3.097836,50.630395],[3.090754,50.633103]]}},{"type":"Feature","properties":{"shape_id":"{}","direction_id":"{\"1\": 599}","headsign":"{\"Villeneuve D Ascq 4 Cantons Stade\": 599}","duration_avg":68.0,"n_vehicles":599,"d":554,"route_I_counts":"{\"82\": 599}","source":11,"target":12,"layer":"L","from":"Mairie D'Hellemmes","to":"Square Flandres"},"geometry":{"type":"LineString","coordinates":[[3.108889,50.627384],[3.115992,50.625258]]}},{"type":"Feature","properties":{"duration_avg":86.0,"n_vehicles":597,"d":851,"route_I_counts":"{\"82\": 597}","shape_id":"{}","direction_id":"{\"0\": 597}","headsign":"{\"Lille Chu-Eurasante\": 597}","source":11,"target":10,"layer":"L","from":"Mairie D'Hellemmes","to":"Marbrerie"},"geometry":{"type":"LineString","coordinates":[[3.108889,50.627384],[3.097836,50.630395]]}},{"type":"Feature","properties":{"shape_id":"{}","direction_id":"{\"1\": 599}","headsign":"{\"Villeneuve D Ascq 4 Cantons Stade\": 599}","duration_avg":82.0,"n_vehicles":599,"d":870,"route_I_counts":"{\"82\": 599}","source":12,"target":13,"layer":"L","from":"Square Flandres","to":"Pont De Bois"},"geometry":{"type":"LineString","coordinates":[[3.115992,50.625258],[3.128232,50.624355]]}},{"type":"Feature","properties":{"duration_avg":65.0,"n_vehicles":597,"d":561,"route_I_counts":"{\"82\": 597}","shape_id":"{}","direction_id":"{\"0\": 597}","headsign":"{\"Lille Chu-Eurasante\": 597}","source":12,"target":11,"layer":"L","from":"Square Flandres","to":"Mairie D'Hellemmes"},"geometry":{"type":"LineString","coordinates":[[3.115992,50.625258],[3.108889,50.627384]]}},{"type":"Feature","properties":{"shape_id":"{}","direction_id":"{\"1\": 599}","headsign":"{\"Villeneuve D Ascq 4 Cantons Stade\": 599}","duration_avg":82.0,"n_vehicles":599,"d":735,"route_I_counts":"{\"82\": 599}","source":13,"target":14,"layer":"L","from":"Pont De Bois","to":"Hotel De Ville"},"geometry":{"type":"LineString","coordinates":[[3.128232,50.624355],[3.13255,50.618344]]}},{"type":"Feature","properties":{"duration_avg":87.0,"n_vehicles":598,"d":861,"route_I_counts":"{\"82\": 598}","shape_id":"{}","direction_id":"{\"0\": 598}","headsign":"{\"Lille Chu-Eurasante\": 598}","source":13,"target":12,"layer":"L","from":"Pont De Bois","to":"Square Flandres"},"geometry":{"type":"LineString","coordinates":[[3.128232,50.624355],[3.115992,50.625258]]}},{"type":"Feature","properties":{"shape_id":"{}","direction_id":"{\"1\": 599}","headsign":"{\"Villeneuve D Ascq 4 Cantons Stade\": 599}","duration_avg":93.0,"n_vehicles":599,"d":681,"route_I_counts":"{\"82\": 599}","source":14,"target":15,"layer":"L","from":"Hotel De Ville","to":"Triolo"},"geometry":{"type":"LineString","coordinates":[[3.13255,50.618344],[3.14164,50.616294]]}},{"type":"Feature","properties":{"duration_avg":80.0,"n_vehicles":598,"d":711,"route_I_counts":"{\"82\": 598}","shape_id":"{}","direction_id":"{\"0\": 598}","headsign":"{\"Lille Chu-Eurasante\": 598}","source":14,"target":13,"layer":"L","from":"Hotel De Ville","to":"Pont De Bois"},"geometry":{"type":"LineString","coordinates":[[3.13255,50.618344],[3.128232,50.624355]]}},{"type":"Feature","properties":{"shape_id":"{}","direction_id":"{\"1\": 598}","headsign":"{\"Villeneuve D Ascq 4 Cantons Stade\": 598}","duration_avg":73.0,"n_vehicles":598,"d":513,"route_I_counts":"{\"82\": 598}","source":15,"target":16,"layer":"L","from":"Triolo","to":"Cte Scientifique"},"geometry":{"type":"LineString","coordinates":[[3.14164,50.616294],[3.142695,50.61173]]}},{"type":"Feature","properties":{"duration_avg":87.0,"n_vehicles":598,"d":729,"route_I_counts":"{\"82\": 598}","shape_id":"{}","direction_id":"{\"0\": 598}","headsign":"{\"Lille Chu-Eurasante\": 598}","source":15,"target":14,"layer":"L","from":"Triolo","to":"Hotel De Ville"},"geometry":{"type":"LineString","coordinates":[[3.14164,50.616294],[3.13255,50.618344]]}},{"type":"Feature","properties":{"shape_id":"{}","direction_id":"{\"1\": 598}","headsign":"{\"Villeneuve D Ascq 4 Cantons Stade\": 598}","duration_avg":83.0,"n_vehicles":598,"d":757,"route_I_counts":"{\"82\": 598}","source":16,"target":17,"layer":"L","from":"Cte Scientifique","to":"4 Cantons Stade"},"geometry":{"type":"LineString","coordinates":[[3.142695,50.61173],[3.13866,50.605423]]}},{"type":"Feature","properties":{"duration_avg":72.0,"n_vehicles":598,"d":511,"route_I_counts":"{\"82\": 598}","shape_id":"{}","direction_id":"{\"0\": 598}","headsign":"{\"Lille Chu-Eurasante\": 598}","source":16,"target":15,"layer":"L","from":"Cte Scientifique","to":"Triolo"},"geometry":{"type":"LineString","coordinates":[[3.142695,50.61173],[3.14164,50.616294]]}},{"type":"Feature","properties":{"duration_avg":81.0,"n_vehicles":598,"d":752,"route_I_counts":"{\"82\": 598}","shape_id":"{}","direction_id":"{\"0\": 598}","headsign":"{\"Lille Chu-Eurasante\": 598}","source":17,"target":16,"layer":"L","from":"4 Cantons Stade","to":"Cte Scientifique"},"geometry":{"type":"LineString","coordinates":[[3.13866,50.605423],[3.142695,50.61173]]}},{"type":"Feature","properties":{"shape_id":"{}","direction_id":"{\"1\": 329}","headsign":"{\"Tourcoing C.H. Dron\": 329}","duration_avg":92.0,"n_vehicles":329,"d":1008,"route_I_counts":"{\"133\": 329}","source":18,"target":19,"layer":"L","from":"St. Philibert","to":"Bourg"},"geometry":{"type":"LineString","coordinates":[[2.97442,50.651697],[2.985164,50.645721]]}},{"type":"Feature","properties":{"shape_id":"{}","direction_id":"{\"1\": 328}","headsign":"{\"Tourcoing C.H. Dron\": 328}","duration_avg":74.0,"n_vehicles":328,"d":724,"route_I_counts":"{\"133\": 328}","source":19,"target":20,"layer":"L","from":"Bourg","to":"Maison Des Enfants"},"geometry":{"type":"LineString","coordinates":[[2.985164,50.645721],[2.99536,50.646502]]}},{"type":"Feature","properties":{"duration_avg":95.0,"n_vehicles":329,"d":1008,"route_I_counts":"{\"133\": 329}","shape_id":"{}","direction_id":"{\"0\": 329}","headsign":"{\"Lomme St. Philibert\": 329}","source":19,"target":18,"layer":"L","from":"Bourg","to":"St. Philibert"},"geometry":{"type":"LineString","coordinates":[[2.985164,50.645721],[2.97442,50.651697]]}},{"type":"Feature","properties":{"shape_id":"{}","direction_id":"{\"1\": 328}","headsign":"{\"Tourcoing C.H. Dron\": 328}","duration_avg":78.0,"n_vehicles":328,"d":862,"route_I_counts":"{\"133\": 328}","source":20,"target":21,"layer":"L","from":"Maison Des Enfants","to":"Mitterie"},"geometry":{"type":"LineString","coordinates":[[2.99536,50.646502],[3.007556,50.646938]]}},{"type":"Feature","properties":{"duration_avg":75.0,"n_vehicles":329,"d":724,"route_I_counts":"{\"133\": 329}","shape_id":"{}","direction_id":"{\"0\": 329}","headsign":"{\"Lomme St. Philibert\": 329}","source":20,"target":19,"layer":"L","from":"Maison Des Enfants","to":"Bourg"},"geometry":{"type":"LineString","coordinates":[[2.99536,50.646502],[2.985164,50.645721]]}},{"type":"Feature","properties":{"shape_id":"{}","direction_id":"{\"1\": 328}","headsign":"{\"Tourcoing C.H. Dron\": 328}","duration_avg":65.0,"n_vehicles":328,"d":527,"route_I_counts":"{\"133\": 328}","source":21,"target":22,"layer":"L","from":"Mitterie","to":"Pont Superieur"},"geometry":{"type":"LineString","coordinates":[[3.007556,50.646938],[3.014056,50.644607]]}},{"type":"Feature","properties":{"duration_avg":80.0,"n_vehicles":329,"d":862,"route_I_counts":"{\"133\": 329}","shape_id":"{}","direction_id":"{\"0\": 329}","headsign":"{\"Lomme St. Philibert\": 329}","source":21,"target":20,"layer":"L","from":"Mitterie","to":"Maison Des Enfants"},"geometry":{"type":"LineString","coordinates":[[3.007556,50.646938],[2.99536,50.646502]]}},{"type":"Feature","properties":{"shape_id":"{}","direction_id":"{\"1\": 328}","headsign":"{\"Tourcoing C.H. Dron\": 328}","duration_avg":65.0,"n_vehicles":328,"d":541,"route_I_counts":"{\"133\": 328}","source":22,"target":23,"layer":"L","from":"Pont Superieur","to":"Lomme Lambersart"},"geometry":{"type":"LineString","coordinates":[[3.014056,50.644607],[3.018871,50.640822]]}},{"type":"Feature","properties":{"duration_avg":66.0,"n_vehicles":329,"d":527,"route_I_counts":"{\"133\": 329}","shape_id":"{}","direction_id":"{\"0\": 329}","headsign":"{\"Lomme St. Philibert\": 329}","source":22,"target":21,"layer":"L","from":"Pont Superieur","to":"Mitterie"},"geometry":{"type":"LineString","coordinates":[[3.014056,50.644607],[3.007556,50.646938]]}},{"type":"Feature","properties":{"shape_id":"{}","direction_id":"{\"1\": 422}","headsign":"{\"Roubaix Roubaix Place\": 94, \"Tourcoing C.H. Dron\": 328}","duration_avg":64.0,"n_vehicles":422,"d":553,"route_I_counts":"{\"133\": 422}","source":23,"target":24,"layer":"L","from":"Lomme Lambersart","to":"Canteleu"},"geometry":{"type":"LineString","coordinates":[[3.018871,50.640822],[3.024167,50.63715]]}},{"type":"Feature","properties":{"duration_avg":65.0,"n_vehicles":329,"d":541,"route_I_counts":"{\"133\": 329}","shape_id":"{}","direction_id":"{\"0\": 329}","headsign":"{\"Lomme St. Philibert\": 329}","source":23,"target":22,"layer":"L","from":"Lomme Lambersart","to":"Pont Superieur"},"geometry":{"type":"LineString","coordinates":[[3.018871,50.640822],[3.014056,50.644607]]}},{"type":"Feature","properties":{"shape_id":"{}","direction_id":"{\"1\": 422}","headsign":"{\"Roubaix Roubaix Place\": 94, \"Tourcoing C.H. Dron\": 328}","duration_avg":68.0,"n_vehicles":422,"d":587,"route_I_counts":"{\"133\": 422}","source":24,"target":25,"layer":"L","from":"Canteleu","to":"Bois Blancs"},"geometry":{"type":"LineString","coordinates":[[3.024167,50.63715],[3.030981,50.634125]]}},{"type":"Feature","properties":{"duration_avg":66.0,"n_vehicles":423,"d":553,"route_I_counts":"{\"133\": 423}","shape_id":"{}","direction_id":"{\"0\": 423}","headsign":"{\"Lomme Lomme Lambersart\": 94, \"Lomme St. Philibert\": 329}","source":24,"target":23,"layer":"L","from":"Canteleu","to":"Lomme Lambersart"},"geometry":{"type":"LineString","coordinates":[[3.024167,50.63715],[3.018871,50.640822]]}},{"type":"Feature","properties":{"shape_id":"{}","direction_id":"{\"1\": 422}","headsign":"{\"Roubaix Roubaix Place\": 94, \"Tourcoing C.H. Dron\": 328}","duration_avg":65.0,"n_vehicles":422,"d":573,"route_I_counts":"{\"133\": 422}","source":25,"target":26,"layer":"L","from":"Bois Blancs","to":"Port De Lille"},"geometry":{"type":"LineString","coordinates":[[3.030981,50.634125],[3.035916,50.630034]]}},{"type":"Feature","properties":{"duration_avg":67.0,"n_vehicles":424,"d":587,"route_I_counts":"{\"133\": 424}","shape_id":"{}","direction_id":"{\"0\": 424}","headsign":"{\"Lomme Lomme Lambersart\": 94, \"Lomme St. Philibert\": 330}","source":25,"target":24,"layer":"L","from":"Bois Blancs","to":"Canteleu"},"geometry":{"type":"LineString","coordinates":[[3.030981,50.634125],[3.024167,50.63715]]}},{"type":"Feature","properties":{"shape_id":"{}","direction_id":"{\"1\": 421}","headsign":"{\"Roubaix Roubaix Place\": 94, \"Tourcoing C.H. Dron\": 327}","duration_avg":65.0,"n_vehicles":421,"d":558,"route_I_counts":"{\"133\": 421}","source":26,"target":27,"layer":"L","from":"Port De Lille","to":"Cormontaigne"},"geometry":{"type":"LineString","coordinates":[[3.035916,50.630034],[3.040825,50.626095]]}},{"type":"Feature","properties":{"duration_avg":69.0,"n_vehicles":424,"d":573,"route_I_counts":"{\"133\": 424}","shape_id":"{}","direction_id":"{\"0\": 424}","headsign":"{\"Lomme Lomme Lambersart\": 94, \"Lomme St. Philibert\": 330}","source":26,"target":25,"layer":"L","from":"Port De Lille","to":"Bois Blancs"},"geometry":{"type":"LineString","coordinates":[[3.035916,50.630034],[3.030981,50.634125]]}},{"type":"Feature","properties":{"shape_id":"{}","direction_id":"{\"1\": 421}","headsign":"{\"Roubaix Roubaix Place\": 94, \"Tourcoing C.H. Dron\": 327}","duration_avg":73.0,"n_vehicles":421,"d":567,"route_I_counts":"{\"133\": 421}","source":27,"target":28,"layer":"L","from":"Cormontaigne","to":"Montebello"},"geometry":{"type":"LineString","coordinates":[[3.040825,50.626095],[3.045775,50.622084]]}},{"type":"Feature","properties":{"duration_avg":65.0,"n_vehicles":424,"d":558,"route_I_counts":"{\"133\": 424}","shape_id":"{}","direction_id":"{\"0\": 424}","headsign":"{\"Lomme Lomme Lambersart\": 94, \"Lomme St. Philibert\": 330}","source":27,"target":26,"layer":"L","from":"Cormontaigne","to":"Port De Lille"},"geometry":{"type":"LineString","coordinates":[[3.040825,50.626095],[3.035916,50.630034]]}},{"type":"Feature","properties":{"duration_avg":68.0,"n_vehicles":424,"d":567,"route_I_counts":"{\"133\": 424}","shape_id":"{}","direction_id":"{\"0\": 424}","headsign":"{\"Lomme Lomme Lambersart\": 94, \"Lomme St. Philibert\": 330}","source":28,"target":27,"layer":"L","from":"Montebello","to":"Cormontaigne"},"geometry":{"type":"LineString","coordinates":[[3.045775,50.622084],[3.040825,50.626095]]}},{"type":"Feature","properties":{"duration_avg":63.0,"n_vehicles":421,"d":575,"route_I_counts":"{\"133\": 421}","shape_id":"{}","direction_id":"{\"1\": 421}","headsign":"{\"Roubaix Roubaix Place\": 94, \"Tourcoing C.H. Dron\": 327}","source":28,"target":2,"layer":"L","from":"Montebello","to":"Porte Des Postes"},"geometry":{"type":"LineString","coordinates":[[3.045775,50.622084],[3.049986,50.61875]]}},{"type":"Feature","properties":{"shape_id":"{}","direction_id":"{\"1\": 421}","headsign":"{\"Roubaix Roubaix Place\": 94, \"Tourcoing C.H. Dron\": 327}","duration_avg":73.0,"n_vehicles":421,"d":717,"route_I_counts":"{\"133\": 421}","source":29,"target":30,"layer":"L","from":"Porte D'Arras","to":"Porte De Douai"},"geometry":{"type":"LineString","coordinates":[[3.062349,50.617583],[3.072479,50.618035]]}},{"type":"Feature","properties":{"duration_avg":81.0,"n_vehicles":424,"d":826,"route_I_counts":"{\"133\": 424}","shape_id":"{}","direction_id":"{\"0\": 424}","headsign":"{\"Lomme Lomme Lambersart\": 94, \"Lomme St. Philibert\": 330}","source":29,"target":2,"layer":"L","from":"Porte D'Arras","to":"Porte Des Postes"},"geometry":{"type":"LineString","coordinates":[[3.062349,50.617583],[3.049986,50.61875]]}},{"type":"Feature","properties":{"shape_id":"{}","direction_id":"{\"1\": 421}","headsign":"{\"Roubaix Roubaix Place\": 94, \"Tourcoing C.H. Dron\": 327}","duration_avg":76.0,"n_vehicles":421,"d":572,"route_I_counts":"{\"133\": 421}","source":30,"target":31,"layer":"L","from":"Porte De Douai","to":"Porte De Valenciennes"},"geometry":{"type":"LineString","coordinates":[[3.072479,50.618035],[3.079066,50.621036]]}},{"type":"Feature","properties":{"duration_avg":77.0,"n_vehicles":424,"d":717,"route_I_counts":"{\"133\": 424}","shape_id":"{}","direction_id":"{\"0\": 424}","headsign":"{\"Lomme Lomme Lambersart\": 94, \"Lomme St. Philibert\": 330}","source":30,"target":29,"layer":"L","from":"Porte De Douai","to":"Porte D'Arras"},"geometry":{"type":"LineString","coordinates":[[3.072479,50.618035],[3.062349,50.617583]]}},{"type":"Feature","properties":{"shape_id":"{}","direction_id":"{\"1\": 420}","headsign":"{\"Roubaix Roubaix Place\": 94, \"Tourcoing C.H. Dron\": 326}","duration_avg":88.0,"n_vehicles":420,"d":957,"route_I_counts":"{\"133\": 420}","source":31,"target":32,"layer":"L","from":"Porte De Valenciennes","to":"Grand Palais"},"geometry":{"type":"LineString","coordinates":[[3.079066,50.621036],[3.074886,50.629215]]}},{"type":"Feature","properties":{"duration_avg":70.0,"n_vehicles":425,"d":572,"route_I_counts":"{\"133\": 425}","shape_id":"{}","direction_id":"{\"0\": 425}","headsign":"{\"Lomme Lomme Lambersart\": 94, \"Lomme St. Philibert\": 331}","source":31,"target":30,"layer":"L","from":"Porte De Valenciennes","to":"Porte De Douai"},"geometry":{"type":"LineString","coordinates":[[3.079066,50.621036],[3.072479,50.618035]]}},{"type":"Feature","properties":{"shape_id":"{}","direction_id":"{\"1\": 420}","headsign":"{\"Roubaix Roubaix Place\": 94, \"Tourcoing C.H. Dron\": 326}","duration_avg":60.0,"n_vehicles":420,"d":444,"route_I_counts":"{\"133\": 420}","source":32,"target":33,"layer":"L","from":"Grand Palais","to":"Mairie De Lille"},"geometry":{"type":"LineString","coordinates":[[3.074886,50.629215],[3.071125,50.632422]]}},{"type":"Feature","properties":{"duration_avg":92.0,"n_vehicles":425,"d":957,"route_I_counts":"{\"133\": 425}","shape_id":"{}","direction_id":"{\"0\": 425}","headsign":"{\"Lomme Lomme Lambersart\": 94, \"Lomme St. Philibert\": 331}","source":32,"target":31,"layer":"L","from":"Grand Palais","to":"Porte De Valenciennes"},"geometry":{"type":"LineString","coordinates":[[3.074886,50.629215],[3.079066,50.621036]]}},{"type":"Feature","properties":{"duration_avg":77.0,"n_vehicles":420,"d":520,"route_I_counts":"{\"133\": 420}","shape_id":"{}","direction_id":"{\"1\": 420}","headsign":"{\"Roubaix Roubaix Place\": 94, \"Tourcoing C.H. Dron\": 326}","source":33,"target":7,"layer":"L","from":"Mairie De Lille","to":"Gare Lille Flandres"},"geometry":{"type":"LineString","coordinates":[[3.071125,50.632422],[3.071067,50.637096]]}},{"type":"Feature","properties":{"duration_avg":67.0,"n_vehicles":425,"d":444,"route_I_counts":"{\"133\": 425}","shape_id":"{}","direction_id":"{\"0\": 425}","headsign":"{\"Lomme Lomme Lambersart\": 94, \"Lomme St. Philibert\": 331}","source":33,"target":32,"layer":"L","from":"Mairie De Lille","to":"Grand Palais"},"geometry":{"type":"LineString","coordinates":[[3.071125,50.632422],[3.074886,50.629215]]}},{"type":"Feature","properties":{"shape_id":"{}","direction_id":"{\"1\": 420}","headsign":"{\"Roubaix Roubaix Place\": 94, \"Tourcoing C.H. Dron\": 326}","duration_avg":95.0,"n_vehicles":420,"d":872,"route_I_counts":"{\"133\": 420}","source":34,"target":35,"layer":"L","from":"Lille Europe","to":"St Maurice Pellevoisin"},"geometry":{"type":"LineString","coordinates":[[3.076774,50.639583],[3.088244,50.64251]]}},{"type":"Feature","properties":{"duration_avg":64.0,"n_vehicles":425,"d":488,"route_I_counts":"{\"133\": 425}","shape_id":"{}","direction_id":"{\"0\": 425}","headsign":"{\"Lomme Lomme Lambersart\": 94, \"Lomme St. Philibert\": 331}","source":34,"target":7,"layer":"L","from":"Lille Europe","to":"Gare Lille Flandres"},"geometry":{"type":"LineString","coordinates":[[3.076774,50.639583],[3.071067,50.637096]]}},{"type":"Feature","properties":{"shape_id":"{}","direction_id":"{\"1\": 420}","headsign":"{\"Roubaix Roubaix Place\": 94, \"Tourcoing C.H. Dron\": 326}","duration_avg":84.0,"n_vehicles":420,"d":773,"route_I_counts":"{\"133\": 420}","source":35,"target":36,"layer":"L","from":"St Maurice Pellevoisin","to":"Mons Sarts"},"geometry":{"type":"LineString","coordinates":[[3.088244,50.64251],[3.099201,50.642272]]}},{"type":"Feature","properties":{"duration_avg":91.0,"n_vehicles":425,"d":872,"route_I_counts":"{\"133\": 425}","shape_id":"{}","direction_id":"{\"0\": 425}","headsign":"{\"Lomme Lomme Lambersart\": 94, \"Lomme St. Philibert\": 331}","source":35,"target":34,"layer":"L","from":"St Maurice Pellevoisin","to":"Lille Europe"},"geometry":{"type":"LineString","coordinates":[[3.088244,50.64251],[3.076774,50.639583]]}},{"type":"Feature","properties":{"shape_id":"{}","direction_id":"{\"1\": 419}","headsign":"{\"Roubaix Roubaix Place\": 94, \"Tourcoing C.H. Dron\": 325}","duration_avg":77.0,"n_vehicles":419,"d":730,"route_I_counts":"{\"133\": 419}","source":36,"target":37,"layer":"L","from":"Mons Sarts","to":"Mairie De Mons"},"geometry":{"type":"LineString","coordinates":[[3.099201,50.642272],[3.109543,50.642387]]}},{"type":"Feature","properties":{"duration_avg":78.0,"n_vehicles":426,"d":773,"route_I_counts":"{\"133\": 426}","shape_id":"{}","direction_id":"{\"0\": 426}","headsign":"{\"Lomme Lomme Lambersart\": 94, \"Lomme St. Philibert\": 332}","source":36,"target":35,"layer":"L","from":"Mons Sarts","to":"St Maurice Pellevoisin"},"geometry":{"type":"LineString","coordinates":[[3.099201,50.642272],[3.088244,50.64251]]}},{"type":"Feature","properties":{"shape_id":"{}","direction_id":"{\"1\": 419}","headsign":"{\"Roubaix Roubaix Place\": 94, \"Tourcoing C.H. Dron\": 325}","duration_avg":72.0,"n_vehicles":419,"d":699,"route_I_counts":"{\"133\": 419}","source":37,"target":38,"layer":"L","from":"Mairie De Mons","to":"Fort De Mons"},"geometry":{"type":"LineString","coordinates":[[3.109543,50.642387],[3.119443,50.642182]]}},{"type":"Feature","properties":{"duration_avg":78.0,"n_vehicles":426,"d":730,"route_I_counts":"{\"133\": 426}","shape_id":"{}","direction_id":"{\"0\": 426}","headsign":"{\"Lomme Lomme Lambersart\": 94, \"Lomme St. Philibert\": 332}","source":37,"target":36,"layer":"L","from":"Mairie De Mons","to":"Mons Sarts"},"geometry":{"type":"LineString","coordinates":[[3.109543,50.642387],[3.099201,50.642272]]}},{"type":"Feature","properties":{"shape_id":"{}","direction_id":"{\"1\": 419}","headsign":"{\"Roubaix Roubaix Place\": 94, \"Tourcoing C.H. Dron\": 325}","duration_avg":99.0,"n_vehicles":419,"d":1032,"route_I_counts":"{\"133\": 419}","source":38,"target":39,"layer":"L","from":"Fort De Mons","to":"Les Pres-E. Pisani"},"geometry":{"type":"LineString","coordinates":[[3.119443,50.642182],[3.126386,50.650345]]}},{"type":"Feature","properties":{"duration_avg":70.0,"n_vehicles":426,"d":699,"route_I_counts":"{\"133\": 426}","shape_id":"{}","direction_id":"{\"0\": 426}","headsign":"{\"Lomme Lomme Lambersart\": 94, \"Lomme St. Philibert\": 332}","source":38,"target":37,"layer":"L","from":"Fort De Mons","to":"Mairie De Mons"},"geometry":{"type":"LineString","coordinates":[[3.119443,50.642182],[3.109543,50.642387]]}},{"type":"Feature","properties":{"shape_id":"{}","direction_id":"{\"1\": 423}","headsign":"{\"Roubaix Roubaix Place\": 94, \"Tourcoing C.H. Dron\": 329}","duration_avg":99.0,"n_vehicles":423,"d":1089,"route_I_counts":"{\"133\": 423}","source":39,"target":40,"layer":"L","from":"Les Pres-E. Pisani","to":"Jean Jaures"},"geometry":{"type":"LineString","coordinates":[[3.126386,50.650345],[3.134911,50.658507]]}},{"type":"Feature","properties":{"duration_avg":104.0,"n_vehicles":422,"d":1032,"route_I_counts":"{\"133\": 422}","shape_id":"{}","direction_id":"{\"0\": 422}","headsign":"{\"Lomme Lomme Lambersart\": 94, \"Lomme St. Philibert\": 328}","source":39,"target":38,"layer":"L","from":"Les Pres-E. Pisani","to":"Fort De Mons"},"geometry":{"type":"LineString","coordinates":[[3.126386,50.650345],[3.119443,50.642182]]}},{"type":"Feature","properties":{"shape_id":"{}","direction_id":"{\"1\": 423}","headsign":"{\"Roubaix Roubaix Place\": 94, \"Tourcoing C.H. Dron\": 329}","duration_avg":80.0,"n_vehicles":423,"d":646,"route_I_counts":"{\"133\": 423}","source":40,"target":41,"layer":"L","from":"Jean Jaures","to":"Pave De Lille"},"geometry":{"type":"LineString","coordinates":[[3.134911,50.658507],[3.130533,50.663604]]}},{"type":"Feature","properties":{"duration_avg":106.0,"n_vehicles":422,"d":1089,"route_I_counts":"{\"133\": 422}","shape_id":"{}","direction_id":"{\"0\": 422}","headsign":"{\"Lomme Lomme Lambersart\": 94, \"Lomme St. Philibert\": 328}","source":40,"target":39,"layer":"L","from":"Jean Jaures","to":"Les Pres-E. Pisani"},"geometry":{"type":"LineString","coordinates":[[3.134911,50.658507],[3.126386,50.650345]]}},{"type":"Feature","properties":{"shape_id":"{}","direction_id":"{\"1\": 423}","headsign":"{\"Roubaix Roubaix Place\": 94, \"Tourcoing C.H. Dron\": 329}","duration_avg":74.0,"n_vehicles":423,"d":680,"route_I_counts":"{\"133\": 423}","source":41,"target":42,"layer":"L","from":"Pave De Lille","to":"Hotel De Ville"},"geometry":{"type":"LineString","coordinates":[[3.130533,50.663604],[3.130983,50.669709]]}},{"type":"Feature","properties":{"duration_avg":81.0,"n_vehicles":422,"d":722,"route_I_counts":"{\"133\": 422}","shape_id":"{}","direction_id":"{\"0\": 422}","headsign":"{\"Lomme Lomme Lambersart\": 94, \"Lomme St. Philibert\": 328}","source":41,"target":40,"layer":"L","from":"Pave De Lille","to":"Jean Jaures"},"geometry":{"type":"LineString","coordinates":[[3.130533,50.663604],[3.134911,50.658507]]}},{"type":"Feature","properties":{"shape_id":"{}","direction_id":"{\"1\": 422}","headsign":"{\"Roubaix Roubaix Place\": 94, \"Tourcoing C.H. Dron\": 328}","duration_avg":100.0,"n_vehicles":422,"d":1206,"route_I_counts":"{\"133\": 422}","source":42,"target":43,"layer":"L","from":"Hotel De Ville","to":"Centre"},"geometry":{"type":"LineString","coordinates":[[3.130983,50.669709],[3.14647,50.674309]]}},{"type":"Feature","properties":{"duration_avg":74.0,"n_vehicles":423,"d":604,"route_I_counts":"{\"133\": 423}","shape_id":"{}","direction_id":"{\"0\": 423}","headsign":"{\"Lomme Lomme Lambersart\": 94, \"Lomme St. Philibert\": 329}","source":42,"target":41,"layer":"L","from":"Hotel De Ville","to":"Pave De Lille"},"geometry":{"type":"LineString","coordinates":[[3.130983,50.669709],[3.130533,50.663604]]}},{"type":"Feature","properties":{"shape_id":"{}","direction_id":"{\"1\": 422}","headsign":"{\"Roubaix Roubaix Place\": 94, \"Tourcoing C.H. Dron\": 328}","duration_avg":86.0,"n_vehicles":422,"d":917,"route_I_counts":"{\"133\": 422}","source":43,"target":44,"layer":"L","from":"Centre","to":"Mairie De Croix"},"geometry":{"type":"LineString","coordinates":[[3.14647,50.674309],[3.156578,50.67949]]}},{"type":"Feature","properties":{"duration_avg":101.0,"n_vehicles":423,"d":1206,"route_I_counts":"{\"133\": 423}","shape_id":"{}","direction_id":"{\"0\": 423}","headsign":"{\"Lomme Lomme Lambersart\": 94, \"Lomme St. Philibert\": 329}","source":43,"target":42,"layer":"L","from":"Centre","to":"Hotel De Ville"},"geometry":{"type":"LineString","coordinates":[[3.14647,50.674309],[3.130983,50.669709]]}},{"type":"Feature","properties":{"shape_id":"{}","direction_id":"{\"1\": 422}","headsign":"{\"Roubaix Roubaix Place\": 94, \"Tourcoing C.H. Dron\": 328}","duration_avg":78.0,"n_vehicles":422,"d":684,"route_I_counts":"{\"133\": 422}","source":44,"target":45,"layer":"L","from":"Mairie De Croix","to":"Ep. Montesquieu"},"geometry":{"type":"LineString","coordinates":[[3.156578,50.67949],[3.163133,50.684021]]}},{"type":"Feature","properties":{"duration_avg":86.0,"n_vehicles":423,"d":856,"route_I_counts":"{\"133\": 423}","shape_id":"{}","direction_id":"{\"0\": 423}","headsign":"{\"Lomme Lomme Lambersart\": 94, \"Lomme St. Philibert\": 329}","source":44,"target":43,"layer":"L","from":"Mairie De Croix","to":"Centre"},"geometry":{"type":"LineString","coordinates":[[3.156578,50.67949],[3.14647,50.674309]]}},{"type":"Feature","properties":{"shape_id":"{}","direction_id":"{\"1\": 422}","headsign":"{\"Roubaix Roubaix Place\": 94, \"Tourcoing C.H. Dron\": 328}","duration_avg":66.0,"n_vehicles":422,"d":563,"route_I_counts":"{\"133\": 422}","source":45,"target":46,"layer":"L","from":"Ep. Montesquieu","to":"Charles De Gaulle"},"geometry":{"type":"LineString","coordinates":[[3.163133,50.684021],[3.169981,50.686621]]}},{"type":"Feature","properties":{"duration_avg":75.0,"n_vehicles":423,"d":737,"route_I_counts":"{\"133\": 423}","shape_id":"{}","direction_id":"{\"0\": 423}","headsign":"{\"Lomme Lomme Lambersart\": 94, \"Lomme St. Philibert\": 329}","source":45,"target":44,"layer":"L","from":"Ep. Montesquieu","to":"Mairie De Croix"},"geometry":{"type":"LineString","coordinates":[[3.163133,50.684021],[3.156578,50.67949]]}},{"type":"Feature","properties":{"shape_id":"{}","direction_id":"{\"1\": 422}","headsign":"{\"Roubaix Roubaix Place\": 94, \"Tourcoing C.H. Dron\": 328}","duration_avg":88.0,"n_vehicles":422,"d":871,"route_I_counts":"{\"133\": 422}","source":46,"target":47,"layer":"L","from":"Charles De Gaulle","to":"Euroteleport"},"geometry":{"type":"LineString","coordinates":[[3.169981,50.686621],[3.179832,50.691344]]}},{"type":"Feature","properties":{"duration_avg":68.0,"n_vehicles":423,"d":568,"route_I_counts":"{\"133\": 423}","shape_id":"{}","direction_id":"{\"0\": 423}","headsign":"{\"Lomme Lomme Lambersart\": 94, \"Lomme St. Philibert\": 329}","source":46,"target":45,"layer":"L","from":"Charles De Gaulle","to":"Ep. Montesquieu"},"geometry":{"type":"LineString","coordinates":[[3.169981,50.686621],[3.163133,50.684021]]}},{"type":"Feature","properties":{"shape_id":"{}","direction_id":"{\"1\": 422}","headsign":"{\"Roubaix Roubaix Place\": 94, \"Tourcoing C.H. Dron\": 328}","duration_avg":66.0,"n_vehicles":422,"d":398,"route_I_counts":"{\"133\": 422}","source":47,"target":48,"layer":"L","from":"Euroteleport","to":"Roubaix Place"},"geometry":{"type":"LineString","coordinates":[[3.179832,50.691344],[3.174202,50.691598]]}},{"type":"Feature","properties":{"duration_avg":93.0,"n_vehicles":423,"d":877,"route_I_counts":"{\"133\": 423}","shape_id":"{}","direction_id":"{\"0\": 423}","headsign":"{\"Lomme Lomme Lambersart\": 94, \"Lomme St. Philibert\": 329}","source":47,"target":46,"layer":"L","from":"Euroteleport","to":"Charles De Gaulle"},"geometry":{"type":"LineString","coordinates":[[3.179832,50.691344],[3.169981,50.686621]]}},{"type":"Feature","properties":{"shape_id":"{}","direction_id":"{\"1\": 327}","headsign":"{\"Tourcoing C.H. Dron\": 327}","duration_avg":85.0,"n_vehicles":327,"d":872,"route_I_counts":"{\"133\": 327}","source":48,"target":49,"layer":"L","from":"Roubaix Place","to":"Gare Jean Lebas"},"geometry":{"type":"LineString","coordinates":[[3.174202,50.691598],[3.163823,50.695865]]}},{"type":"Feature","properties":{"duration_avg":60.0,"n_vehicles":424,"d":423,"route_I_counts":"{\"133\": 424}","shape_id":"{}","direction_id":"{\"0\": 424}","headsign":"{\"Lomme Lomme Lambersart\": 94, \"Lomme St. Philibert\": 330}","source":48,"target":47,"layer":"L","from":"Roubaix Place","to":"Euroteleport"},"geometry":{"type":"LineString","coordinates":[[3.174202,50.691598],[3.179832,50.691344]]}},{"type":"Feature","properties":{"shape_id":"{}","direction_id":"{\"1\": 327}","headsign":"{\"Tourcoing C.H. Dron\": 327}","duration_avg":72.0,"n_vehicles":327,"d":555,"route_I_counts":"{\"133\": 327}","source":49,"target":50,"layer":"L","from":"Gare Jean Lebas","to":"Alsace"},"geometry":{"type":"LineString","coordinates":[[3.163823,50.695865],[3.161274,50.700591]]}},{"type":"Feature","properties":{"duration_avg":84.0,"n_vehicles":330,"d":847,"route_I_counts":"{\"133\": 330}","shape_id":"{}","direction_id":"{\"0\": 330}","headsign":"{\"Lomme St. Philibert\": 330}","source":49,"target":48,"layer":"L","from":"Gare Jean Lebas","to":"Roubaix Place"},"geometry":{"type":"LineString","coordinates":[[3.163823,50.695865],[3.174202,50.691598]]}},{"type":"Feature","properties":{"shape_id":"{}","direction_id":"{\"1\": 327}","headsign":"{\"Tourcoing C.H. Dron\": 327}","duration_avg":61.0,"n_vehicles":327,"d":510,"route_I_counts":"{\"133\": 327}","source":50,"target":51,"layer":"L","from":"Alsace","to":"Mercure"},"geometry":{"type":"LineString","coordinates":[[3.161274,50.700591],[3.160544,50.705153]]}},{"type":"Feature","properties":{"duration_avg":71.0,"n_vehicles":330,"d":555,"route_I_counts":"{\"133\": 330}","shape_id":"{}","direction_id":"{\"0\": 330}","headsign":"{\"Lomme St. Philibert\": 330}","source":50,"target":49,"layer":"L","from":"Alsace","to":"Gare Jean Lebas"},"geometry":{"type":"LineString","coordinates":[[3.161274,50.700591],[3.163823,50.695865]]}},{"type":"Feature","properties":{"shape_id":"{}","direction_id":"{\"1\": 327}","headsign":"{\"Tourcoing C.H. Dron\": 327}","duration_avg":79.0,"n_vehicles":327,"d":569,"route_I_counts":"{\"133\": 327}","source":51,"target":52,"layer":"L","from":"Mercure","to":"Carliers"},"geometry":{"type":"LineString","coordinates":[[3.160544,50.705153],[3.159908,50.710252]]}},{"type":"Feature","properties":{"duration_avg":62.0,"n_vehicles":330,"d":510,"route_I_counts":"{\"133\": 330}","shape_id":"{}","direction_id":"{\"0\": 330}","headsign":"{\"Lomme St. Philibert\": 330}","source":51,"target":50,"layer":"L","from":"Mercure","to":"Alsace"},"geometry":{"type":"LineString","coordinates":[[3.160544,50.705153],[3.161274,50.700591]]}},{"type":"Feature","properties":{"shape_id":"{}","direction_id":"{\"1\": 327}","headsign":"{\"Tourcoing C.H. Dron\": 327}","duration_avg":78.0,"n_vehicles":327,"d":733,"route_I_counts":"{\"133\": 327}","source":52,"target":53,"layer":"L","from":"Carliers","to":"Gare De Tourcoing"},"geometry":{"type":"LineString","coordinates":[[3.159908,50.710252],[3.162584,50.71662]]}},{"type":"Feature","properties":{"duration_avg":79.0,"n_vehicles":330,"d":569,"route_I_counts":"{\"133\": 330}","shape_id":"{}","direction_id":"{\"0\": 330}","headsign":"{\"Lomme St. Philibert\": 330}","source":52,"target":51,"layer":"L","from":"Carliers","to":"Mercure"},"geometry":{"type":"LineString","coordinates":[[3.159908,50.710252],[3.160544,50.705153]]}},{"type":"Feature","properties":{"shape_id":"{}","direction_id":"{\"1\": 327}","headsign":"{\"Tourcoing C.H. Dron\": 327}","duration_avg":61.0,"n_vehicles":327,"d":463,"route_I_counts":"{\"133\": 327}","source":53,"target":54,"layer":"L","from":"Gare De Tourcoing","to":"Tourcoing Centre"},"geometry":{"type":"LineString","coordinates":[[3.162584,50.71662],[3.160445,50.720554]]}},{"type":"Feature","properties":{"duration_avg":76.0,"n_vehicles":330,"d":733,"route_I_counts":"{\"133\": 330}","shape_id":"{}","direction_id":"{\"0\": 330}","headsign":"{\"Lomme St. Philibert\": 330}","source":53,"target":52,"layer":"L","from":"Gare De Tourcoing","to":"Carliers"},"geometry":{"type":"LineString","coordinates":[[3.162584,50.71662],[3.159908,50.710252]]}},{"type":"Feature","properties":{"shape_id":"{}","direction_id":"{\"1\": 326}","headsign":"{\"Tourcoing C.H. Dron\": 326}","duration_avg":76.0,"n_vehicles":326,"d":588,"route_I_counts":"{\"133\": 326}","source":54,"target":55,"layer":"L","from":"Tourcoing Centre","to":"Colbert"},"geometry":{"type":"LineString","coordinates":[[3.160445,50.720554],[3.156935,50.725349]]}},{"type":"Feature","properties":{"duration_avg":65.0,"n_vehicles":331,"d":463,"route_I_counts":"{\"133\": 331}","shape_id":"{}","direction_id":"{\"0\": 331}","headsign":"{\"Lomme St. Philibert\": 331}","source":54,"target":53,"layer":"L","from":"Tourcoing Centre","to":"Gare De Tourcoing"},"geometry":{"type":"LineString","coordinates":[[3.160445,50.720554],[3.162584,50.71662]]}},{"type":"Feature","properties":{"shape_id":"{}","direction_id":"{\"1\": 326}","headsign":"{\"Tourcoing C.H. Dron\": 326}","duration_avg":76.0,"n_vehicles":326,"d":789,"route_I_counts":"{\"133\": 326}","source":55,"target":56,"layer":"L","from":"Colbert","to":"Phalempins"},"geometry":{"type":"LineString","coordinates":[[3.156935,50.725349],[3.157744,50.73242]]}},{"type":"Feature","properties":{"duration_avg":71.0,"n_vehicles":331,"d":588,"route_I_counts":"{\"133\": 331}","shape_id":"{}","direction_id":"{\"0\": 331}","headsign":"{\"Lomme St. Philibert\": 331}","source":55,"target":54,"layer":"L","from":"Colbert","to":"Tourcoing Centre"},"geometry":{"type":"LineString","coordinates":[[3.156935,50.725349],[3.160445,50.720554]]}},{"type":"Feature","properties":{"shape_id":"{}","direction_id":"{\"1\": 326}","headsign":"{\"Tourcoing C.H. Dron\": 326}","duration_avg":92.0,"n_vehicles":326,"d":1027,"route_I_counts":"{\"133\": 326}","source":56,"target":57,"layer":"L","from":"Phalempins","to":"Pont De Neuville"},"geometry":{"type":"LineString","coordinates":[[3.157744,50.73242],[3.170593,50.736792]]}},{"type":"Feature","properties":{"duration_avg":76.0,"n_vehicles":331,"d":789,"route_I_counts":"{\"133\": 331}","shape_id":"{}","direction_id":"{\"0\": 331}","headsign":"{\"Lomme St. Philibert\": 331}","source":56,"target":55,"layer":"L","from":"Phalempins","to":"Colbert"},"geometry":{"type":"LineString","coordinates":[[3.157744,50.73242],[3.156935,50.725349]]}},{"type":"Feature","properties":{"shape_id":"{}","direction_id":"{\"1\": 326}","headsign":"{\"Tourcoing C.H. Dron\": 326}","duration_avg":77.0,"n_vehicles":326,"d":681,"route_I_counts":"{\"133\": 326}","source":57,"target":58,"layer":"L","from":"Pont De Neuville","to":"Bourgogne"},"geometry":{"type":"LineString","coordinates":[[3.170593,50.736792],[3.179274,50.739496]]}},{"type":"Feature","properties":{"duration_avg":93.0,"n_vehicles":331,"d":1027,"route_I_counts":"{\"133\": 331}","shape_id":"{}","direction_id":"{\"0\": 331}","headsign":"{\"Lomme St. Philibert\": 331}","source":57,"target":56,"layer":"L","from":"Pont De Neuville","to":"Phalempins"},"geometry":{"type":"LineString","coordinates":[[3.170593,50.736792],[3.157744,50.73242]]}},{"type":"Feature","properties":{"shape_id":"{}","direction_id":"{\"1\": 326}","headsign":"{\"Tourcoing C.H. Dron\": 326}","duration_avg":63.0,"n_vehicles":326,"d":494,"route_I_counts":"{\"133\": 326}","source":58,"target":59,"layer":"L","from":"Bourgogne","to":"C.H. Dron"},"geometry":{"type":"LineString","coordinates":[[3.179274,50.739496],[3.180479,50.743874]]}},{"type":"Feature","properties":{"duration_avg":75.0,"n_vehicles":331,"d":716,"route_I_counts":"{\"133\": 331}","shape_id":"{}","direction_id":"{\"0\": 331}","headsign":"{\"Lomme St. Philibert\": 331}","source":58,"target":57,"layer":"L","from":"Bourgogne","to":"Pont De Neuville"},"geometry":{"type":"LineString","coordinates":[[3.179274,50.739496],[3.170593,50.736792]]}},{"type":"Feature","properties":{"duration_avg":67.0,"n_vehicles":331,"d":473,"route_I_counts":"{\"133\": 331}","shape_id":"{}","direction_id":"{\"0\": 331}","headsign":"{\"Lomme St. Philibert\": 331}","source":59,"target":58,"layer":"L","from":"C.H. Dron","to":"Bourgogne"},"geometry":{"type":"LineString","coordinates":[[3.180479,50.743874],[3.179274,50.739496]]}}]}