{"type":"FeatureCollection","features":[{"type":"Feature","geometry":{"type":"Point","coordinates":[-9.15365,38.734]},"properties":{"name":"SÃO SEBASTIÃO","original_ids":"[47]","id":0,"layer":"stop"}},{"type":"Feature","geometry":{"type":"Point","coordinates":[-9.14528,38.73483]},"properties":{"name":"SALDANHA","original_ids":"[45]","id":1,"layer":"stop"}},{"type":"Feature","geometry":{"type":"Point","coordinates":[-9.13389,38.73696]},"properties":{"name":"ALAMEDA","original_ids":"[2]","id":2,"layer":"stop"}},{"type":"Feature","geometry":{"type":"Point","coordinates":[-9.12297,38.74019]},"properties":{"name":"OLAIAS","original_ids":"[32]","id":3,"layer":"stop"}},{"type":"Feature","geometry":{"type":"Point","coordinates":[-9.11772,38.7476]},"properties":{"name":"BELA VISTA","original_ids":"[13]","id":4,"layer":"stop"}},{"type":"Feature","geometry":{"type":"Point","coordinates":[-9.11404,38.75475]},"properties":{"name":"CHELAS","original_ids":"[19]","id":5,"layer":"stop"}},{"type":"Feature","geometry":{"type":"Point","coordinates":[-9.11185,38.76084]},"properties":{"name":"OLIVAIS","original_ids":"[33]","id":6,"layer":"stop"}},{"type":"Feature","geometry":{"type":"Point","coordinates":[-9.10518,38.76294]},"properties":{"name":"CABO RUIVO","original_ids":"[14]","id":7,"layer":"stop"}},{"type":"Feature","geometry":{"type":"Point","coordinates":[-9.09973,38.76786]},"properties":{"name":"ORIENTE","original_ids":"[34]","id":8,"layer":"stop"}},{"type":"Feature","geometry":{"type":"Point","coordinates":[-9.10304,38.77496]},"properties":{"name":"MOSCAVIDE","original_ids":"[30]","id":9,"layer":"stop"}},{"type":"Feature","geometry":{"type":"Point","coordinates":[-9.11538,38.77499]},"properties":{"name":"ENCARNAÇÃO","original_ids":"[22]","id":10,"layer":"stop"}},{"type":"Feature","geometry":{"type":"Point","coordinates":[-9.12833,38.76862]},"properties":{"name":"AEROPORTO","original_ids":"[1]","id":11,"layer":"stop"}},{"type":"Feature","geometry":{"type":"Point","coordinates":[-9.15788,38.76016]},"properties":{"name":"CAMPO GRANDE","original_ids":"[16]","id":12,"layer":"stop"}},{"type":"Feature","geometry":{"type":"Point","coordinates":[-9.15915,38.75144]},"properties":{"name":"CIDADE UNIVERSITÁRIA","original_ids":"[20]","id":13,"layer":"stop"}},{"type":"Feature","geometry":{"type":"Point","coordinates":[-9.14823,38.74698]},"properties":{"name":"ENTRECAMPOS","original_ids":"[23]","id":14,"layer":"stop"}},{"type":"Feature","geometry":{"type":"Point","coordinates":[-9.14673,38.74079]},"properties":{"name":"CAMPO PEQUENO","original_ids":"[17]","id":15,"layer":"stop"}},{"type":"Feature","geometry":{"type":"Point","coordinates":[-9.14703,38.73024]},"properties":{"name":"PICOAS","original_ids":"[36]","id":16,"layer":"stop"}},{"type":"Feature","geometry":{"type":"Point","coordinates":[-9.14965,38.72593]},"properties":{"name":"MARQUÊS DE POMBAL","original_ids":"[28]","id":17,"layer":"stop"}},{"type":"Feature","geometry":{"type":"Point","coordinates":[-9.15486,38.72011]},"properties":{"name":"RATO","original_ids":"[40]","id":18,"layer":"stop"}},{"type":"Feature","geometry":{"type":"Point","coordinates":[-9.15549,38.76745]},"properties":{"name":"QUINTA DAS CONCHAS","original_ids":"[39]","id":19,"layer":"stop"}},{"type":"Feature","geometry":{"type":"Point","coordinates":[-9.15933,38.77329]},"properties":{"name":"LUMIAR","original_ids":"[27]","id":20,"layer":"stop"}},{"type":"Feature","geometry":{"type":"Point","coordinates":[-9.15961,38.77953]},"properties":{"name":"AMEIXOEIRA","original_ids":"[7]","id":21,"layer":"stop"}},{"type":"Feature","geometry":{"type":"Point","coordinates":[-9.1719,38.78576]},"properties":{"name":"SR. ROUBADO","original_ids":"[48]","id":22,"layer":"stop"}},{"type":"Feature","geometry":{"type":"Point","coordinates":[-9.17343,38.79344]},"properties":{"name":"ODIVELAS","original_ids":"[31]","id":23,"layer":"stop"}},{"type":"Feature","geometry":{"type":"Point","coordinates":[-9.22414,38.75221]},"properties":{"name":"REBOLEIRA","original_ids":"[41]","id":24,"layer":"stop"}},{"type":"Feature","geometry":{"type":"Point","coordinates":[-9.21794,38.75855]},"properties":{"name":"AMADORA ESTE","original_ids":"[6]","id":25,"layer":"stop"}},{"type":"Feature","geometry":{"type":"Point","coordinates":[-9.20455,38.76035]},"properties":{"name":"ALFORNELOS","original_ids":"[3]","id":26,"layer":"stop"}},{"type":"Feature","geometry":{"type":"Point","coordinates":[-9.19697,38.76223]},"properties":{"name":"PONTINHA","original_ids":"[37]","id":27,"layer":"stop"}},{"type":"Feature","geometry":{"type":"Point","coordinates":[-9.19276,38.75901]},"properties":{"name":"CARNIDE","original_ids":"[18]","id":28,"layer":"stop"}},{"type":"Feature","geometry":{"type":"Point","coordinates":[-9.18987,38.75372]},"properties":{"name":"COLÉGIO MILITAR-LUZ","original_ids":"[21]","id":29,"layer":"stop"}},{"type":"Feature","geometry":{"type":"Point","coordinates":[-9.18007,38.74993]},"properties":{"name":"ALTO DOS MOINHOS","original_ids":"[4]","id":30,"layer":"stop"}},{"type":"Feature","geometry":{"type":"Point","coordinates":[-9.17252,38.74849]},"properties":{"name":"LARANJEIRAS","original_ids":"[26]","id":31,"layer":"stop"}},{"type":"Feature","geometry":{"type":"Point","coordinates":[-9.16836,38.7412]},"properties":{"name":"JARDIM ZOOLÓGICO","original_ids":"[25]","id":32,"layer":"stop"}},{"type":"Feature","geometry":{"type":"Point","coordinates":[-9.15936,38.7377]},"properties":{"name":"PRAÇA DE ESPANHA","original_ids":"[38]","id":33,"layer":"stop"}},{"type":"Feature","geometry":{"type":"Point","coordinates":[-9.15015,38.72914]},"properties":{"name":"PARQUE","original_ids":"[35]","id":34,"layer":"stop"}},{"type":"Feature","geometry":{"type":"Point","coordinates":[-9.14513,38.71934]},"properties":{"name":"AVENIDA","original_ids":"[11]","id":35,"layer":"stop"}},{"type":"Feature","geometry":{"type":"Point","coordinates":[-9.14239,38.7161]},"properties":{"name":"RESTAURADORES","original_ids":"[42]","id":36,"layer":"stop"}},{"type":"Feature","geometry":{"type":"Point","coordinates":[-9.14018,38.71041]},"properties":{"name":"BAIXA-CHIADO","original_ids":"[12]","id":37,"layer":"stop"}},{"type":"Feature","geometry":{"type":"Point","coordinates":[-9.13286,38.70722]},"properties":{"name":"TERREIRO DO PAÇO","original_ids":"[50]","id":38,"layer":"stop"}},{"type":"Feature","geometry":{"type":"Point","coordinates":[-9.12212,38.71378]},"properties":{"name":"SANTA APOLÓNIA","original_ids":"[46]","id":39,"layer":"stop"}},{"type":"Feature","geometry":{"type":"Point","coordinates":[-9.16609,38.76017]},"properties":{"name":"TELHEIRAS","original_ids":"[49]","id":40,"layer":"stop"}},{"type":"Feature","geometry":{"type":"Point","coordinates":[-9.1441,38.75327]},"properties":{"name":"ALVALADE","original_ids":"[5]","id":41,"layer":"stop"}},{"type":"Feature","geometry":{"type":"Point","coordinates":[-9.1413,38.74808]},"properties":{"name":"ROMA","original_ids":"[43]","id":42,"layer":"stop"}},{"type":"Feature","geometry":{"type":"Point","coordinates":[-9.13349,38.74228]},"properties":{"name":"AREEIRO","original_ids":"[9]","id":43,"layer":"stop"}},{"type":"Feature","geometry":{"type":"Point","coordinates":[-9.1343,38.73285]},"properties":{"name":"ARROIOS","original_ids":"[10]","id":44,"layer":"stop"}},{"type":"Feature","geometry":{"type":"Point","coordinates":[-9.13488,38.72703]},"properties":{"name":"ANJOS","original_ids":"[8]","id":45,"layer":"stop"}},{"type":"Feature","geometry":{"type":"Point","coordinates":[-9.13526,38.72326]},"properties":{"name":"INTENDENTE","original_ids":"[24]","id":46,"layer":"stop"}},{"type":"Feature","geometry":{"type":"Point","coordinates":[-9.1358,38.71762]},"properties":{"name":"MARTIM MONIZ","original_ids":"[29]","id":47,"layer":"stop"}},{"type":"Feature","geometry":{"type":"Point","coordinates":[-9.13796,38.71402]},"properties":{"name":"ROSSIO","original_ids":"[44]","id":48,"layer":"stop"}},{"type":"Feature","geometry":{"type":"Point","coordinates":[-9.14612,38.70611]},"properties":{"name":"CAIS DO SODRÉ","original_ids":"[15]","id":49,"layer":"stop"}},{"type":"Feature","properties":{"shape_id":"{\"166\": 309}","direction_id":"{}","headsign":"{\"\": 309}","duration_avg":61.0,"n_vehicles":309,"d":620,"route_I_counts":"{\"5\": 309}","source":0,"target":34,"layer":"L","from":"SÃO SEBASTIÃO","to":"PARQUE"},"geometry":{"type":"LineString","coordinates":[[-9.15365,38.734],[-9.15015,38.72914]]}},{"type":"Feature","properties":{"shape_id":"{\"167\": 311}","direction_id":"{}","headsign":"{\"\": 311}","duration_avg":74.0,"n_vehicles":311,"d":644,"route_I_counts":"{\"6\": 311}","source":0,"target":33,"layer":"L","from":"SÃO SEBASTIÃO","to":"PRAÇA DE ESPANHA"},"geometry":{"type":"LineString","coordinates":[[-9.15365,38.734],[-9.15936,38.7377]]}},{"type":"Feature","properties":{"shape_id":"{\"170\": 290}","direction_id":"{}","headsign":"{\"\": 290}","duration_avg":87.0,"n_vehicles":290,"d":732,"route_I_counts":"{\"1\": 290}","source":0,"target":1,"layer":"L","from":"SÃO SEBASTIÃO","to":"SALDANHA"},"geometry":{"type":"LineString","coordinates":[[-9.15365,38.734],[-9.14528,38.73483]]}},{"type":"Feature","properties":{"shape_id":"{\"164\": 274, \"4921\": 35}","direction_id":"{}","headsign":"{\"\": 309}","duration_avg":66.0,"n_vehicles":309,"d":675,"route_I_counts":"{\"3\": 274, \"10\": 35}","source":1,"target":15,"layer":"L","from":"SALDANHA","to":"CAMPO PEQUENO"},"geometry":{"type":"LineString","coordinates":[[-9.14528,38.73483],[-9.14673,38.74079]]}},{"type":"Feature","properties":{"shape_id":"{\"165\": 272, \"4922\": 34}","direction_id":"{}","headsign":"{\"\": 306}","duration_avg":56.0,"n_vehicles":306,"d":533,"route_I_counts":"{\"2\": 34, \"4\": 272}","source":1,"target":16,"layer":"L","from":"SALDANHA","to":"PICOAS"},"geometry":{"type":"LineString","coordinates":[[-9.14528,38.73483],[-9.14703,38.73024]]}},{"type":"Feature","properties":{"shape_id":"{\"170\": 290}","direction_id":"{}","headsign":"{\"\": 290}","duration_avg":95.0,"n_vehicles":290,"d":1017,"route_I_counts":"{\"1\": 290}","source":1,"target":2,"layer":"L","from":"SALDANHA","to":"ALAMEDA"},"geometry":{"type":"LineString","coordinates":[[-9.14528,38.73483],[-9.13389,38.73696]]}},{"type":"Feature","properties":{"shape_id":"{\"171\": 286}","direction_id":"{}","headsign":"{\"\": 286}","duration_avg":72.0,"n_vehicles":286,"d":732,"route_I_counts":"{\"9\": 286}","source":1,"target":0,"layer":"L","from":"SALDANHA","to":"SÃO SEBASTIÃO"},"geometry":{"type":"LineString","coordinates":[[-9.14528,38.73483],[-9.15365,38.734]]}},{"type":"Feature","properties":{"shape_id":"{\"168\": 297}","direction_id":"{}","headsign":"{\"\": 297}","duration_avg":38.0,"n_vehicles":297,"d":458,"route_I_counts":"{\"7\": 297}","source":2,"target":44,"layer":"L","from":"ALAMEDA","to":"ARROIOS"},"geometry":{"type":"LineString","coordinates":[[-9.13389,38.73696],[-9.1343,38.73285]]}},{"type":"Feature","properties":{"shape_id":"{\"169\": 297}","direction_id":"{}","headsign":"{\"\": 297}","duration_avg":62.0,"n_vehicles":297,"d":593,"route_I_counts":"{\"8\": 297}","source":2,"target":43,"layer":"L","from":"ALAMEDA","to":"AREEIRO"},"geometry":{"type":"LineString","coordinates":[[-9.13389,38.73696],[-9.13349,38.74228]]}},{"type":"Feature","properties":{"shape_id":"{\"170\": 289}","direction_id":"{}","headsign":"{\"\": 289}","duration_avg":84.0,"n_vehicles":289,"d":1014,"route_I_counts":"{\"1\": 289}","source":2,"target":3,"layer":"L","from":"ALAMEDA","to":"OLAIAS"},"geometry":{"type":"LineString","coordinates":[[-9.13389,38.73696],[-9.12297,38.74019]]}},{"type":"Feature","properties":{"shape_id":"{\"171\": 287}","direction_id":"{}","headsign":"{\"\": 287}","duration_avg":96.0,"n_vehicles":287,"d":1017,"route_I_counts":"{\"9\": 287}","source":2,"target":1,"layer":"L","from":"ALAMEDA","to":"SALDANHA"},"geometry":{"type":"LineString","coordinates":[[-9.13389,38.73696],[-9.14528,38.73483]]}},{"type":"Feature","properties":{"shape_id":"{\"170\": 289}","direction_id":"{}","headsign":"{\"\": 289}","duration_avg":86.0,"n_vehicles":289,"d":942,"route_I_counts":"{\"1\": 289}","source":3,"target":4,"layer":"L","from":"OLAIAS","to":"BELA VISTA"},"geometry":{"type":"LineString","coordinates":[[-9.12297,38.74019],[-9.11772,38.7476]]}},{"type":"Feature","properties":{"shape_id":"{\"171\": 287}","direction_id":"{}","headsign":"{\"\": 287}","duration_avg":84.0,"n_vehicles":287,"d":1014,"route_I_counts":"{\"9\": 287}","source":3,"target":2,"layer":"L","from":"OLAIAS","to":"ALAMEDA"},"geometry":{"type":"LineString","coordinates":[[-9.12297,38.74019],[-9.13389,38.73696]]}},{"type":"Feature","properties":{"shape_id":"{\"170\": 289}","direction_id":"{}","headsign":"{\"\": 289}","duration_avg":83.0,"n_vehicles":289,"d":857,"route_I_counts":"{\"1\": 289}","source":4,"target":5,"layer":"L","from":"BELA VISTA","to":"CHELAS"},"geometry":{"type":"LineString","coordinates":[[-9.11772,38.7476],[-9.11404,38.75475]]}},{"type":"Feature","properties":{"shape_id":"{\"171\": 287}","direction_id":"{}","headsign":"{\"\": 287}","duration_avg":87.0,"n_vehicles":287,"d":942,"route_I_counts":"{\"9\": 287}","source":4,"target":3,"layer":"L","from":"BELA VISTA","to":"OLAIAS"},"geometry":{"type":"LineString","coordinates":[[-9.11772,38.7476],[-9.12297,38.74019]]}},{"type":"Feature","properties":{"shape_id":"{\"170\": 288}","direction_id":"{}","headsign":"{\"\": 288}","duration_avg":67.0,"n_vehicles":288,"d":704,"route_I_counts":"{\"1\": 288}","source":5,"target":6,"layer":"L","from":"CHELAS","to":"OLIVAIS"},"geometry":{"type":"LineString","coordinates":[[-9.11404,38.75475],[-9.11185,38.76084]]}},{"type":"Feature","properties":{"shape_id":"{\"171\": 288}","direction_id":"{}","headsign":"{\"\": 288}","duration_avg":80.0,"n_vehicles":288,"d":857,"route_I_counts":"{\"9\": 288}","source":5,"target":4,"layer":"L","from":"CHELAS","to":"BELA VISTA"},"geometry":{"type":"LineString","coordinates":[[-9.11404,38.75475],[-9.11772,38.7476]]}},{"type":"Feature","properties":{"shape_id":"{\"170\": 288}","direction_id":"{}","headsign":"{\"\": 288}","duration_avg":65.0,"n_vehicles":288,"d":624,"route_I_counts":"{\"1\": 288}","source":6,"target":7,"layer":"L","from":"OLIVAIS","to":"CABO RUIVO"},"geometry":{"type":"LineString","coordinates":[[-9.11185,38.76084],[-9.10518,38.76294]]}},{"type":"Feature","properties":{"shape_id":"{\"171\": 288}","direction_id":"{}","headsign":"{\"\": 288}","duration_avg":66.0,"n_vehicles":288,"d":704,"route_I_counts":"{\"9\": 288}","source":6,"target":5,"layer":"L","from":"OLIVAIS","to":"CHELAS"},"geometry":{"type":"LineString","coordinates":[[-9.11185,38.76084],[-9.11404,38.75475]]}},{"type":"Feature","properties":{"shape_id":"{\"170\": 288}","direction_id":"{}","headsign":"{\"\": 288}","duration_avg":80.0,"n_vehicles":288,"d":723,"route_I_counts":"{\"1\": 288}","source":7,"target":8,"layer":"L","from":"CABO RUIVO","to":"ORIENTE"},"geometry":{"type":"LineString","coordinates":[[-9.10518,38.76294],[-9.09973,38.76786]]}},{"type":"Feature","properties":{"shape_id":"{\"171\": 289}","direction_id":"{}","headsign":"{\"\": 289}","duration_avg":65.0,"n_vehicles":289,"d":624,"route_I_counts":"{\"9\": 289}","source":7,"target":6,"layer":"L","from":"CABO RUIVO","to":"OLIVAIS"},"geometry":{"type":"LineString","coordinates":[[-9.10518,38.76294],[-9.11185,38.76084]]}},{"type":"Feature","properties":{"shape_id":"{\"170\": 287}","direction_id":"{}","headsign":"{\"\": 287}","duration_avg":92.0,"n_vehicles":287,"d":840,"route_I_counts":"{\"1\": 287}","source":8,"target":9,"layer":"L","from":"ORIENTE","to":"MOSCAVIDE"},"geometry":{"type":"LineString","coordinates":[[-9.09973,38.76786],[-9.10304,38.77496]]}},{"type":"Feature","properties":{"shape_id":"{\"171\": 289}","direction_id":"{}","headsign":"{\"\": 289}","duration_avg":82.0,"n_vehicles":289,"d":723,"route_I_counts":"{\"9\": 289}","source":8,"target":7,"layer":"L","from":"ORIENTE","to":"CABO RUIVO"},"geometry":{"type":"LineString","coordinates":[[-9.09973,38.76786],[-9.10518,38.76294]]}},{"type":"Feature","properties":{"shape_id":"{\"170\": 287}","direction_id":"{}","headsign":"{\"\": 287}","duration_avg":104.0,"n_vehicles":287,"d":1070,"route_I_counts":"{\"1\": 287}","source":9,"target":10,"layer":"L","from":"MOSCAVIDE","to":"ENCARNAÇÃO"},"geometry":{"type":"LineString","coordinates":[[-9.10304,38.77496],[-9.11538,38.77499]]}},{"type":"Feature","properties":{"shape_id":"{\"171\": 289}","direction_id":"{}","headsign":"{\"\": 289}","duration_avg":93.0,"n_vehicles":289,"d":840,"route_I_counts":"{\"9\": 289}","source":9,"target":8,"layer":"L","from":"MOSCAVIDE","to":"ORIENTE"},"geometry":{"type":"LineString","coordinates":[[-9.10304,38.77496],[-9.09973,38.76786]]}},{"type":"Feature","properties":{"shape_id":"{\"170\": 286}","direction_id":"{}","headsign":"{\"\": 286}","duration_avg":120.0,"n_vehicles":286,"d":1328,"route_I_counts":"{\"1\": 286}","source":10,"target":11,"layer":"L","from":"ENCARNAÇÃO","to":"AEROPORTO"},"geometry":{"type":"LineString","coordinates":[[-9.11538,38.77499],[-9.12833,38.76862]]}},{"type":"Feature","properties":{"shape_id":"{\"171\": 290}","direction_id":"{}","headsign":"{\"\": 290}","duration_avg":106.0,"n_vehicles":290,"d":1070,"route_I_counts":"{\"9\": 290}","source":10,"target":9,"layer":"L","from":"ENCARNAÇÃO","to":"MOSCAVIDE"},"geometry":{"type":"LineString","coordinates":[[-9.11538,38.77499],[-9.10304,38.77496]]}},{"type":"Feature","properties":{"shape_id":"{\"171\": 290}","direction_id":"{}","headsign":"{\"\": 290}","duration_avg":121.0,"n_vehicles":290,"d":1328,"route_I_counts":"{\"9\": 290}","source":11,"target":10,"layer":"L","from":"AEROPORTO","to":"ENCARNAÇÃO"},"geometry":{"type":"LineString","coordinates":[[-9.12833,38.76862],[-9.11538,38.77499]]}},{"type":"Feature","properties":{"shape_id":"{\"164\": 272}","direction_id":"{}","headsign":"{\"\": 272}","duration_avg":87.0,"n_vehicles":272,"d":837,"route_I_counts":"{\"3\": 272}","source":12,"target":19,"layer":"L","from":"CAMPO GRANDE","to":"QUINTA DAS CONCHAS"},"geometry":{"type":"LineString","coordinates":[[-9.15788,38.76016],[-9.15549,38.76745]]}},{"type":"Feature","properties":{"shape_id":"{\"165\": 273, \"4922\": 34}","direction_id":"{}","headsign":"{\"\": 307}","duration_avg":119.0,"n_vehicles":307,"d":976,"route_I_counts":"{\"2\": 34, \"4\": 273}","source":12,"target":13,"layer":"L","from":"CAMPO GRANDE","to":"CIDADE UNIVERSITÁRIA"},"geometry":{"type":"LineString","coordinates":[[-9.15788,38.76016],[-9.15915,38.75144]]}},{"type":"Feature","properties":{"shape_id":"{\"168\": 298}","direction_id":"{}","headsign":"{\"\": 298}","duration_avg":159.0,"n_vehicles":298,"d":1420,"route_I_counts":"{\"7\": 298}","source":12,"target":41,"layer":"L","from":"CAMPO GRANDE","to":"ALVALADE"},"geometry":{"type":"LineString","coordinates":[[-9.15788,38.76016],[-9.1441,38.75327]]}},{"type":"Feature","properties":{"shape_id":"{\"169\": 296}","direction_id":"{}","headsign":"{\"\": 296}","duration_avg":74.0,"n_vehicles":296,"d":712,"route_I_counts":"{\"8\": 296}","source":12,"target":40,"layer":"L","from":"CAMPO GRANDE","to":"TELHEIRAS"},"geometry":{"type":"LineString","coordinates":[[-9.15788,38.76016],[-9.16609,38.76017]]}},{"type":"Feature","properties":{"shape_id":"{\"164\": 273, \"4921\": 35}","direction_id":"{}","headsign":"{\"\": 308}","duration_avg":120.0,"n_vehicles":308,"d":976,"route_I_counts":"{\"3\": 273, \"10\": 35}","source":13,"target":12,"layer":"L","from":"CIDADE UNIVERSITÁRIA","to":"CAMPO GRANDE"},"geometry":{"type":"LineString","coordinates":[[-9.15915,38.75144],[-9.15788,38.76016]]}},{"type":"Feature","properties":{"shape_id":"{\"165\": 272, \"4922\": 34}","direction_id":"{}","headsign":"{\"\": 306}","duration_avg":117.0,"n_vehicles":306,"d":1070,"route_I_counts":"{\"2\": 34, \"4\": 272}","source":13,"target":14,"layer":"L","from":"CIDADE UNIVERSITÁRIA","to":"ENTRECAMPOS"},"geometry":{"type":"LineString","coordinates":[[-9.15915,38.75144],[-9.14823,38.74698]]}},{"type":"Feature","properties":{"shape_id":"{\"164\": 274, \"4921\": 35}","direction_id":"{}","headsign":"{\"\": 309}","duration_avg":117.0,"n_vehicles":309,"d":1070,"route_I_counts":"{\"3\": 274, \"10\": 35}","source":14,"target":13,"layer":"L","from":"ENTRECAMPOS","to":"CIDADE UNIVERSITÁRIA"},"geometry":{"type":"LineString","coordinates":[[-9.14823,38.74698],[-9.15915,38.75144]]}},{"type":"Feature","properties":{"shape_id":"{\"165\": 272, \"4922\": 34}","direction_id":"{}","headsign":"{\"\": 306}","duration_avg":70.0,"n_vehicles":306,"d":701,"route_I_counts":"{\"2\": 34, \"4\": 272}","source":14,"target":15,"layer":"L","from":"ENTRECAMPOS","to":"CAMPO PEQUENO"},"geometry":{"type":"LineString","coordinates":[[-9.14823,38.74698],[-9.14673,38.74079]]}},{"type":"Feature","properties":{"shape_id":"{\"164\": 274, \"4921\": 35}","direction_id":"{}","headsign":"{\"\": 309}","duration_avg":69.0,"n_vehicles":309,"d":701,"route_I_counts":"{\"3\": 274, \"10\": 35}","source":15,"target":14,"layer":"L","from":"CAMPO PEQUENO","to":"ENTRECAMPOS"},"geometry":{"type":"LineString","coordinates":[[-9.14673,38.74079],[-9.14823,38.74698]]}},{"type":"Feature","properties":{"shape_id":"{\"165\": 272, \"4922\": 34}","direction_id":"{}","headsign":"{\"\": 306}","duration_avg":67.0,"n_vehicles":306,"d":675,"route_I_counts":"{\"2\": 34, \"4\": 272}","source":15,"target":1,"layer":"L","from":"CAMPO PEQUENO","to":"SALDANHA"},"geometry":{"type":"LineString","coordinates":[[-9.14673,38.74079],[-9.14528,38.73483]]}},{"type":"Feature","properties":{"shape_id":"{\"164\": 275, \"4921\": 35}","direction_id":"{}","headsign":"{\"\": 310}","duration_avg":54.0,"n_vehicles":310,"d":533,"route_I_counts":"{\"3\": 275, \"10\": 35}","source":16,"target":1,"layer":"L","from":"PICOAS","to":"SALDANHA"},"geometry":{"type":"LineString","coordinates":[[-9.14703,38.73024],[-9.14528,38.73483]]}},{"type":"Feature","properties":{"shape_id":"{\"165\": 271, \"4922\": 34}","direction_id":"{}","headsign":"{\"\": 305}","duration_avg":66.0,"n_vehicles":305,"d":531,"route_I_counts":"{\"2\": 34, \"4\": 271}","source":16,"target":17,"layer":"L","from":"PICOAS","to":"MARQUÊS DE POMBAL"},"geometry":{"type":"LineString","coordinates":[[-9.14703,38.73024],[-9.14965,38.72593]]}},{"type":"Feature","properties":{"shape_id":"{\"164\": 275, \"4921\": 35}","direction_id":"{}","headsign":"{\"\": 310}","duration_avg":66.0,"n_vehicles":310,"d":531,"route_I_counts":"{\"3\": 275, \"10\": 35}","source":17,"target":16,"layer":"L","from":"MARQUÊS DE POMBAL","to":"PICOAS"},"geometry":{"type":"LineString","coordinates":[[-9.14965,38.72593],[-9.14703,38.73024]]}},{"type":"Feature","properties":{"shape_id":"{\"165\": 270, \"4922\": 34}","direction_id":"{}","headsign":"{\"\": 304}","duration_avg":68.0,"n_vehicles":304,"d":790,"route_I_counts":"{\"2\": 34, \"4\": 270}","source":17,"target":18,"layer":"L","from":"MARQUÊS DE POMBAL","to":"RATO"},"geometry":{"type":"LineString","coordinates":[[-9.14965,38.72593],[-9.15486,38.72011]]}},{"type":"Feature","properties":{"shape_id":"{\"166\": 309}","direction_id":"{}","headsign":"{\"\": 309}","duration_avg":66.0,"n_vehicles":309,"d":832,"route_I_counts":"{\"5\": 309}","source":17,"target":35,"layer":"L","from":"MARQUÊS DE POMBAL","to":"AVENIDA"},"geometry":{"type":"LineString","coordinates":[[-9.14965,38.72593],[-9.14513,38.71934]]}},{"type":"Feature","properties":{"shape_id":"{\"167\": 311}","direction_id":"{}","headsign":"{\"\": 311}","duration_avg":57.0,"n_vehicles":311,"d":359,"route_I_counts":"{\"6\": 311}","source":17,"target":34,"layer":"L","from":"MARQUÊS DE POMBAL","to":"PARQUE"},"geometry":{"type":"LineString","coordinates":[[-9.14965,38.72593],[-9.15015,38.72914]]}},{"type":"Feature","properties":{"shape_id":"{\"164\": 276, \"4921\": 35}","direction_id":"{}","headsign":"{\"\": 311}","duration_avg":68.0,"n_vehicles":311,"d":790,"route_I_counts":"{\"3\": 276, \"10\": 35}","source":18,"target":17,"layer":"L","from":"RATO","to":"MARQUÊS DE POMBAL"},"geometry":{"type":"LineString","coordinates":[[-9.15486,38.72011],[-9.14965,38.72593]]}},{"type":"Feature","properties":{"shape_id":"{\"164\": 272}","direction_id":"{}","headsign":"{\"\": 272}","duration_avg":68.0,"n_vehicles":272,"d":730,"route_I_counts":"{\"3\": 272}","source":19,"target":20,"layer":"L","from":"QUINTA DAS CONCHAS","to":"LUMIAR"},"geometry":{"type":"LineString","coordinates":[[-9.15549,38.76745],[-9.15933,38.77329]]}},{"type":"Feature","properties":{"shape_id":"{\"165\": 274}","direction_id":"{}","headsign":"{\"\": 274}","duration_avg":87.0,"n_vehicles":274,"d":837,"route_I_counts":"{\"4\": 274}","source":19,"target":12,"layer":"L","from":"QUINTA DAS CONCHAS","to":"CAMPO GRANDE"},"geometry":{"type":"LineString","coordinates":[[-9.15549,38.76745],[-9.15788,38.76016]]}},{"type":"Feature","properties":{"shape_id":"{\"164\": 272}","direction_id":"{}","headsign":"{\"\": 272}","duration_avg":71.0,"n_vehicles":272,"d":695,"route_I_counts":"{\"3\": 272}","source":20,"target":21,"layer":"L","from":"LUMIAR","to":"AMEIXOEIRA"},"geometry":{"type":"LineString","coordinates":[[-9.15933,38.77329],[-9.15961,38.77953]]}},{"type":"Feature","properties":{"shape_id":"{\"165\": 274}","direction_id":"{}","headsign":"{\"\": 274}","duration_avg":69.0,"n_vehicles":274,"d":730,"route_I_counts":"{\"4\": 274}","source":20,"target":19,"layer":"L","from":"LUMIAR","to":"QUINTA DAS CONCHAS"},"geometry":{"type":"LineString","coordinates":[[-9.15933,38.77329],[-9.15549,38.76745]]}},{"type":"Feature","properties":{"shape_id":"{\"164\": 271}","direction_id":"{}","headsign":"{\"\": 271}","duration_avg":148.0,"n_vehicles":271,"d":1272,"route_I_counts":"{\"3\": 271}","source":21,"target":22,"layer":"L","from":"AMEIXOEIRA","to":"SR. ROUBADO"},"geometry":{"type":"LineString","coordinates":[[-9.15961,38.77953],[-9.1719,38.78576]]}},{"type":"Feature","properties":{"shape_id":"{\"165\": 274}","direction_id":"{}","headsign":"{\"\": 274}","duration_avg":71.0,"n_vehicles":274,"d":695,"route_I_counts":"{\"4\": 274}","source":21,"target":20,"layer":"L","from":"AMEIXOEIRA","to":"LUMIAR"},"geometry":{"type":"LineString","coordinates":[[-9.15961,38.77953],[-9.15933,38.77329]]}},{"type":"Feature","properties":{"shape_id":"{\"164\": 270}","direction_id":"{}","headsign":"{\"\": 270}","duration_avg":91.0,"n_vehicles":270,"d":865,"route_I_counts":"{\"3\": 270}","source":22,"target":23,"layer":"L","from":"SR. ROUBADO","to":"ODIVELAS"},"geometry":{"type":"LineString","coordinates":[[-9.1719,38.78576],[-9.17343,38.79344]]}},{"type":"Feature","properties":{"shape_id":"{\"165\": 275}","direction_id":"{}","headsign":"{\"\": 275}","duration_avg":149.0,"n_vehicles":275,"d":1272,"route_I_counts":"{\"4\": 275}","source":22,"target":21,"layer":"L","from":"SR. ROUBADO","to":"AMEIXOEIRA"},"geometry":{"type":"LineString","coordinates":[[-9.1719,38.78576],[-9.15961,38.77953]]}},{"type":"Feature","properties":{"shape_id":"{\"165\": 276}","direction_id":"{}","headsign":"{\"\": 276}","duration_avg":92.0,"n_vehicles":276,"d":865,"route_I_counts":"{\"4\": 276}","source":23,"target":22,"layer":"L","from":"ODIVELAS","to":"SR. ROUBADO"},"geometry":{"type":"LineString","coordinates":[[-9.17343,38.79344],[-9.1719,38.78576]]}},{"type":"Feature","properties":{"shape_id":"{\"166\": 313}","direction_id":"{}","headsign":"{\"\": 313}","duration_avg":84.0,"n_vehicles":313,"d":887,"route_I_counts":"{\"5\": 313}","source":24,"target":25,"layer":"L","from":"REBOLEIRA","to":"AMADORA ESTE"},"geometry":{"type":"LineString","coordinates":[[-9.22414,38.75221],[-9.21794,38.75855]]}},{"type":"Feature","properties":{"shape_id":"{\"166\": 313}","direction_id":"{}","headsign":"{\"\": 313}","duration_avg":111.0,"n_vehicles":313,"d":1179,"route_I_counts":"{\"5\": 313}","source":25,"target":26,"layer":"L","from":"AMADORA ESTE","to":"ALFORNELOS"},"geometry":{"type":"LineString","coordinates":[[-9.21794,38.75855],[-9.20455,38.76035]]}},{"type":"Feature","properties":{"shape_id":"{\"167\": 307}","direction_id":"{}","headsign":"{\"\": 307}","duration_avg":84.0,"n_vehicles":307,"d":887,"route_I_counts":"{\"6\": 307}","source":25,"target":24,"layer":"L","from":"AMADORA ESTE","to":"REBOLEIRA"},"geometry":{"type":"LineString","coordinates":[[-9.21794,38.75855],[-9.22414,38.75221]]}},{"type":"Feature","properties":{"shape_id":"{\"166\": 313}","direction_id":"{}","headsign":"{\"\": 313}","duration_avg":72.0,"n_vehicles":313,"d":690,"route_I_counts":"{\"5\": 313}","source":26,"target":27,"layer":"L","from":"ALFORNELOS","to":"PONTINHA"},"geometry":{"type":"LineString","coordinates":[[-9.20455,38.76035],[-9.19697,38.76223]]}},{"type":"Feature","properties":{"shape_id":"{\"167\": 307}","direction_id":"{}","headsign":"{\"\": 307}","duration_avg":113.0,"n_vehicles":307,"d":1179,"route_I_counts":"{\"6\": 307}","source":26,"target":25,"layer":"L","from":"ALFORNELOS","to":"AMADORA ESTE"},"geometry":{"type":"LineString","coordinates":[[-9.20455,38.76035],[-9.21794,38.75855]]}},{"type":"Feature","properties":{"shape_id":"{\"166\": 313}","direction_id":"{}","headsign":"{\"\": 313}","duration_avg":74.0,"n_vehicles":313,"d":511,"route_I_counts":"{\"5\": 313}","source":27,"target":28,"layer":"L","from":"PONTINHA","to":"CARNIDE"},"geometry":{"type":"LineString","coordinates":[[-9.19697,38.76223],[-9.19276,38.75901]]}},{"type":"Feature","properties":{"shape_id":"{\"167\": 309}","direction_id":"{}","headsign":"{\"\": 309}","duration_avg":69.0,"n_vehicles":309,"d":690,"route_I_counts":"{\"6\": 309}","source":27,"target":26,"layer":"L","from":"PONTINHA","to":"ALFORNELOS"},"geometry":{"type":"LineString","coordinates":[[-9.19697,38.76223],[-9.20455,38.76035]]}},{"type":"Feature","properties":{"shape_id":"{\"166\": 311}","direction_id":"{}","headsign":"{\"\": 311}","duration_avg":81.0,"n_vehicles":311,"d":640,"route_I_counts":"{\"5\": 311}","source":28,"target":29,"layer":"L","from":"CARNIDE","to":"COLÉGIO MILITAR-LUZ"},"geometry":{"type":"LineString","coordinates":[[-9.19276,38.75901],[-9.18987,38.75372]]}},{"type":"Feature","properties":{"shape_id":"{\"167\": 309}","direction_id":"{}","headsign":"{\"\": 309}","duration_avg":74.0,"n_vehicles":309,"d":511,"route_I_counts":"{\"6\": 309}","source":28,"target":27,"layer":"L","from":"CARNIDE","to":"PONTINHA"},"geometry":{"type":"LineString","coordinates":[[-9.19276,38.75901],[-9.19697,38.76223]]}},{"type":"Feature","properties":{"shape_id":"{\"166\": 311}","direction_id":"{}","headsign":"{\"\": 311}","duration_avg":84.0,"n_vehicles":311,"d":949,"route_I_counts":"{\"5\": 311}","source":29,"target":30,"layer":"L","from":"COLÉGIO MILITAR-LUZ","to":"ALTO DOS MOINHOS"},"geometry":{"type":"LineString","coordinates":[[-9.18987,38.75372],[-9.18007,38.74993]]}},{"type":"Feature","properties":{"shape_id":"{\"167\": 309}","direction_id":"{}","headsign":"{\"\": 309}","duration_avg":90.0,"n_vehicles":309,"d":640,"route_I_counts":"{\"6\": 309}","source":29,"target":28,"layer":"L","from":"COLÉGIO MILITAR-LUZ","to":"CARNIDE"},"geometry":{"type":"LineString","coordinates":[[-9.18987,38.75372],[-9.19276,38.75901]]}},{"type":"Feature","properties":{"shape_id":"{\"166\": 311}","direction_id":"{}","headsign":"{\"\": 311}","duration_avg":71.0,"n_vehicles":311,"d":674,"route_I_counts":"{\"5\": 311}","source":30,"target":31,"layer":"L","from":"ALTO DOS MOINHOS","to":"LARANJEIRAS"},"geometry":{"type":"LineString","coordinates":[[-9.18007,38.74993],[-9.17252,38.74849]]}},{"type":"Feature","properties":{"shape_id":"{\"167\": 309}","direction_id":"{}","headsign":"{\"\": 309}","duration_avg":86.0,"n_vehicles":309,"d":949,"route_I_counts":"{\"6\": 309}","source":30,"target":29,"layer":"L","from":"ALTO DOS MOINHOS","to":"COLÉGIO MILITAR-LUZ"},"geometry":{"type":"LineString","coordinates":[[-9.18007,38.74993],[-9.18987,38.75372]]}},{"type":"Feature","properties":{"shape_id":"{\"166\": 311}","direction_id":"{}","headsign":"{\"\": 311}","duration_avg":87.0,"n_vehicles":311,"d":888,"route_I_counts":"{\"5\": 311}","source":31,"target":32,"layer":"L","from":"LARANJEIRAS","to":"JARDIM ZOOLÓGICO"},"geometry":{"type":"LineString","coordinates":[[-9.17252,38.74849],[-9.16836,38.7412]]}},{"type":"Feature","properties":{"shape_id":"{\"167\": 309}","direction_id":"{}","headsign":"{\"\": 309}","duration_avg":71.0,"n_vehicles":309,"d":674,"route_I_counts":"{\"6\": 309}","source":31,"target":30,"layer":"L","from":"LARANJEIRAS","to":"ALTO DOS MOINHOS"},"geometry":{"type":"LineString","coordinates":[[-9.17252,38.74849],[-9.18007,38.74993]]}},{"type":"Feature","properties":{"shape_id":"{\"166\": 311}","direction_id":"{}","headsign":"{\"\": 311}","duration_avg":84.0,"n_vehicles":311,"d":873,"route_I_counts":"{\"5\": 311}","source":32,"target":33,"layer":"L","from":"JARDIM ZOOLÓGICO","to":"PRAÇA DE ESPANHA"},"geometry":{"type":"LineString","coordinates":[[-9.16836,38.7412],[-9.15936,38.7377]]}},{"type":"Feature","properties":{"shape_id":"{\"167\": 311}","direction_id":"{}","headsign":"{\"\": 311}","duration_avg":83.0,"n_vehicles":311,"d":888,"route_I_counts":"{\"6\": 311}","source":32,"target":31,"layer":"L","from":"JARDIM ZOOLÓGICO","to":"LARANJEIRAS"},"geometry":{"type":"LineString","coordinates":[[-9.16836,38.7412],[-9.17252,38.74849]]}},{"type":"Feature","properties":{"shape_id":"{\"166\": 310}","direction_id":"{}","headsign":"{\"\": 310}","duration_avg":70.0,"n_vehicles":310,"d":644,"route_I_counts":"{\"5\": 310}","source":33,"target":0,"layer":"L","from":"PRAÇA DE ESPANHA","to":"SÃO SEBASTIÃO"},"geometry":{"type":"LineString","coordinates":[[-9.15936,38.7377],[-9.15365,38.734]]}},{"type":"Feature","properties":{"shape_id":"{\"167\": 311}","direction_id":"{}","headsign":"{\"\": 311}","duration_avg":85.0,"n_vehicles":311,"d":873,"route_I_counts":"{\"6\": 311}","source":33,"target":32,"layer":"L","from":"PRAÇA DE ESPANHA","to":"JARDIM ZOOLÓGICO"},"geometry":{"type":"LineString","coordinates":[[-9.15936,38.7377],[-9.16836,38.7412]]}},{"type":"Feature","properties":{"shape_id":"{\"166\": 309}","direction_id":"{}","headsign":"{\"\": 309}","duration_avg":56.0,"n_vehicles":309,"d":359,"route_I_counts":"{\"5\": 309}","source":34,"target":17,"layer":"L","from":"PARQUE","to":"MARQUÊS DE POMBAL"},"geometry":{"type":"LineString","coordinates":[[-9.15015,38.72914],[-9.14965,38.72593]]}},{"type":"Feature","properties":{"shape_id":"{\"167\": 311}","direction_id":"{}","headsign":"{\"\": 311}","duration_avg":61.0,"n_vehicles":311,"d":620,"route_I_counts":"{\"6\": 311}","source":34,"target":0,"layer":"L","from":"PARQUE","to":"SÃO SEBASTIÃO"},"geometry":{"type":"LineString","coordinates":[[-9.15015,38.72914],[-9.15365,38.734]]}},{"type":"Feature","properties":{"shape_id":"{\"166\": 309}","direction_id":"{}","headsign":"{\"\": 309}","duration_avg":46.0,"n_vehicles":309,"d":432,"route_I_counts":"{\"5\": 309}","source":35,"target":36,"layer":"L","from":"AVENIDA","to":"RESTAURADORES"},"geometry":{"type":"LineString","coordinates":[[-9.14513,38.71934],[-9.14239,38.7161]]}},{"type":"Feature","properties":{"shape_id":"{\"167\": 311}","direction_id":"{}","headsign":"{\"\": 311}","duration_avg":67.0,"n_vehicles":311,"d":832,"route_I_counts":"{\"6\": 311}","source":35,"target":17,"layer":"L","from":"AVENIDA","to":"MARQUÊS DE POMBAL"},"geometry":{"type":"LineString","coordinates":[[-9.14513,38.71934],[-9.14965,38.72593]]}},{"type":"Feature","properties":{"shape_id":"{\"166\": 309}","direction_id":"{}","headsign":"{\"\": 309}","duration_avg":64.0,"n_vehicles":309,"d":661,"route_I_counts":"{\"5\": 309}","source":36,"target":37,"layer":"L","from":"RESTAURADORES","to":"BAIXA-CHIADO"},"geometry":{"type":"LineString","coordinates":[[-9.14239,38.7161],[-9.14018,38.71041]]}},{"type":"Feature","properties":{"shape_id":"{\"167\": 313}","direction_id":"{}","headsign":"{\"\": 313}","duration_avg":46.0,"n_vehicles":313,"d":432,"route_I_counts":"{\"6\": 313}","source":36,"target":35,"layer":"L","from":"RESTAURADORES","to":"AVENIDA"},"geometry":{"type":"LineString","coordinates":[[-9.14239,38.7161],[-9.14513,38.71934]]}},{"type":"Feature","properties":{"shape_id":"{\"166\": 308}","direction_id":"{}","headsign":"{\"\": 308}","duration_avg":80.0,"n_vehicles":308,"d":728,"route_I_counts":"{\"5\": 308}","source":37,"target":38,"layer":"L","from":"BAIXA-CHIADO","to":"TERREIRO DO PAÇO"},"geometry":{"type":"LineString","coordinates":[[-9.14018,38.71041],[-9.13286,38.70722]]}},{"type":"Feature","properties":{"shape_id":"{\"167\": 313}","direction_id":"{}","headsign":"{\"\": 313}","duration_avg":66.0,"n_vehicles":313,"d":661,"route_I_counts":"{\"6\": 313}","source":37,"target":36,"layer":"L","from":"BAIXA-CHIADO","to":"RESTAURADORES"},"geometry":{"type":"LineString","coordinates":[[-9.14018,38.71041],[-9.14239,38.7161]]}},{"type":"Feature","properties":{"shape_id":"{\"168\": 296}","direction_id":"{}","headsign":"{\"\": 296}","duration_avg":88.0,"n_vehicles":296,"d":703,"route_I_counts":"{\"7\": 296}","source":37,"target":49,"layer":"L","from":"BAIXA-CHIADO","to":"CAIS DO SODRÉ"},"geometry":{"type":"LineString","coordinates":[[-9.14018,38.71041],[-9.14612,38.70611]]}},{"type":"Feature","properties":{"shape_id":"{\"169\": 299}","direction_id":"{}","headsign":"{\"\": 299}","duration_avg":50.0,"n_vehicles":299,"d":445,"route_I_counts":"{\"8\": 299}","source":37,"target":48,"layer":"L","from":"BAIXA-CHIADO","to":"ROSSIO"},"geometry":{"type":"LineString","coordinates":[[-9.14018,38.71041],[-9.13796,38.71402]]}},{"type":"Feature","properties":{"shape_id":"{\"166\": 307}","direction_id":"{}","headsign":"{\"\": 307}","duration_avg":130.0,"n_vehicles":307,"d":1184,"route_I_counts":"{\"5\": 307}","source":38,"target":39,"layer":"L","from":"TERREIRO DO PAÇO","to":"SANTA APOLÓNIA"},"geometry":{"type":"LineString","coordinates":[[-9.13286,38.70722],[-9.12212,38.71378]]}},{"type":"Feature","properties":{"shape_id":"{\"167\": 313}","direction_id":"{}","headsign":"{\"\": 313}","duration_avg":81.0,"n_vehicles":313,"d":728,"route_I_counts":"{\"6\": 313}","source":38,"target":37,"layer":"L","from":"TERREIRO DO PAÇO","to":"BAIXA-CHIADO"},"geometry":{"type":"LineString","coordinates":[[-9.13286,38.70722],[-9.14018,38.71041]]}},{"type":"Feature","properties":{"shape_id":"{\"167\": 313}","direction_id":"{}","headsign":"{\"\": 313}","duration_avg":130.0,"n_vehicles":313,"d":1184,"route_I_counts":"{\"6\": 313}","source":39,"target":38,"layer":"L","from":"SANTA APOLÓNIA","to":"TERREIRO DO PAÇO"},"geometry":{"type":"LineString","coordinates":[[-9.12212,38.71378],[-9.13286,38.70722]]}},{"type":"Feature","properties":{"shape_id":"{\"168\": 299}","direction_id":"{}","headsign":"{\"\": 299}","duration_avg":73.0,"n_vehicles":299,"d":712,"route_I_counts":"{\"7\": 299}","source":40,"target":12,"layer":"L","from":"TELHEIRAS","to":"CAMPO GRANDE"},"geometry":{"type":"LineString","coordinates":[[-9.16609,38.76017],[-9.15788,38.76016]]}},{"type":"Feature","properties":{"shape_id":"{\"168\": 298}","direction_id":"{}","headsign":"{\"\": 298}","duration_avg":64.0,"n_vehicles":298,"d":626,"route_I_counts":"{\"7\": 298}","source":41,"target":42,"layer":"L","from":"ALVALADE","to":"ROMA"},"geometry":{"type":"LineString","coordinates":[[-9.1441,38.75327],[-9.1413,38.74808]]}},{"type":"Feature","properties":{"shape_id":"{\"169\": 296}","direction_id":"{}","headsign":"{\"\": 296}","duration_avg":155.0,"n_vehicles":296,"d":1420,"route_I_counts":"{\"8\": 296}","source":41,"target":12,"layer":"L","from":"ALVALADE","to":"CAMPO GRANDE"},"geometry":{"type":"LineString","coordinates":[[-9.1441,38.75327],[-9.15788,38.76016]]}},{"type":"Feature","properties":{"shape_id":"{\"168\": 298}","direction_id":"{}","headsign":"{\"\": 298}","duration_avg":97.0,"n_vehicles":298,"d":936,"route_I_counts":"{\"7\": 298}","source":42,"target":43,"layer":"L","from":"ROMA","to":"AREEIRO"},"geometry":{"type":"LineString","coordinates":[[-9.1413,38.74808],[-9.13349,38.74228]]}},{"type":"Feature","properties":{"shape_id":"{\"169\": 296}","direction_id":"{}","headsign":"{\"\": 296}","duration_avg":58.0,"n_vehicles":296,"d":626,"route_I_counts":"{\"8\": 296}","source":42,"target":41,"layer":"L","from":"ROMA","to":"ALVALADE"},"geometry":{"type":"LineString","coordinates":[[-9.1413,38.74808],[-9.1441,38.75327]]}},{"type":"Feature","properties":{"shape_id":"{\"168\": 298}","direction_id":"{}","headsign":"{\"\": 298}","duration_avg":65.0,"n_vehicles":298,"d":593,"route_I_counts":"{\"7\": 298}","source":43,"target":2,"layer":"L","from":"AREEIRO","to":"ALAMEDA"},"geometry":{"type":"LineString","coordinates":[[-9.13349,38.74228],[-9.13389,38.73696]]}},{"type":"Feature","properties":{"shape_id":"{\"169\": 297}","direction_id":"{}","headsign":"{\"\": 297}","duration_avg":96.0,"n_vehicles":297,"d":936,"route_I_counts":"{\"8\": 297}","source":43,"target":42,"layer":"L","from":"AREEIRO","to":"ROMA"},"geometry":{"type":"LineString","coordinates":[[-9.13349,38.74228],[-9.1413,38.74808]]}},{"type":"Feature","properties":{"shape_id":"{\"168\": 297}","direction_id":"{}","headsign":"{\"\": 297}","duration_avg":60.0,"n_vehicles":297,"d":649,"route_I_counts":"{\"7\": 297}","source":44,"target":45,"layer":"L","from":"ARROIOS","to":"ANJOS"},"geometry":{"type":"LineString","coordinates":[[-9.1343,38.73285],[-9.13488,38.72703]]}},{"type":"Feature","properties":{"shape_id":"{\"169\": 298}","direction_id":"{}","headsign":"{\"\": 298}","duration_avg":38.0,"n_vehicles":298,"d":458,"route_I_counts":"{\"8\": 298}","source":44,"target":2,"layer":"L","from":"ARROIOS","to":"ALAMEDA"},"geometry":{"type":"LineString","coordinates":[[-9.1343,38.73285],[-9.13389,38.73696]]}},{"type":"Feature","properties":{"shape_id":"{\"168\": 297}","direction_id":"{}","headsign":"{\"\": 297}","duration_avg":43.0,"n_vehicles":297,"d":420,"route_I_counts":"{\"7\": 297}","source":45,"target":46,"layer":"L","from":"ANJOS","to":"INTENDENTE"},"geometry":{"type":"LineString","coordinates":[[-9.13488,38.72703],[-9.13526,38.72326]]}},{"type":"Feature","properties":{"shape_id":"{\"169\": 298}","direction_id":"{}","headsign":"{\"\": 298}","duration_avg":60.0,"n_vehicles":298,"d":649,"route_I_counts":"{\"8\": 298}","source":45,"target":44,"layer":"L","from":"ANJOS","to":"ARROIOS"},"geometry":{"type":"LineString","coordinates":[[-9.13488,38.72703],[-9.1343,38.73285]]}},{"type":"Feature","properties":{"shape_id":"{\"168\": 296}","direction_id":"{}","headsign":"{\"\": 296}","duration_avg":60.0,"n_vehicles":296,"d":629,"route_I_counts":"{\"7\": 296}","source":46,"target":47,"layer":"L","from":"INTENDENTE","to":"MARTIM MONIZ"},"geometry":{"type":"LineString","coordinates":[[-9.13526,38.72326],[-9.1358,38.71762]]}},{"type":"Feature","properties":{"shape_id":"{\"169\": 298}","direction_id":"{}","headsign":"{\"\": 298}","duration_avg":45.0,"n_vehicles":298,"d":420,"route_I_counts":"{\"8\": 298}","source":46,"target":45,"layer":"L","from":"INTENDENTE","to":"ANJOS"},"geometry":{"type":"LineString","coordinates":[[-9.13526,38.72326],[-9.13488,38.72703]]}},{"type":"Feature","properties":{"shape_id":"{\"168\": 296}","direction_id":"{}","headsign":"{\"\": 296}","duration_avg":54.0,"n_vehicles":296,"d":442,"route_I_counts":"{\"7\": 296}","source":47,"target":48,"layer":"L","from":"MARTIM MONIZ","to":"ROSSIO"},"geometry":{"type":"LineString","coordinates":[[-9.1358,38.71762],[-9.13796,38.71402]]}},{"type":"Feature","properties":{"shape_id":"{\"169\": 298}","direction_id":"{}","headsign":"{\"\": 298}","duration_avg":61.0,"n_vehicles":298,"d":629,"route_I_counts":"{\"8\": 298}","source":47,"target":46,"layer":"L","from":"MARTIM MONIZ","to":"INTENDENTE"},"geometry":{"type":"LineString","coordinates":[[-9.1358,38.71762],[-9.13526,38.72326]]}},{"type":"Feature","properties":{"shape_id":"{\"168\": 296}","direction_id":"{}","headsign":"{\"\": 296}","duration_avg":50.0,"n_vehicles":296,"d":445,"route_I_counts":"{\"7\": 296}","source":48,"target":37,"layer":"L","from":"ROSSIO","to":"BAIXA-CHIADO"},"geometry":{"type":"LineString","coordinates":[[-9.13796,38.71402],[-9.14018,38.71041]]}},{"type":"Feature","properties":{"shape_id":"{\"169\": 298}","direction_id":"{}","headsign":"{\"\": 298}","duration_avg":50.0,"n_vehicles":298,"d":442,"route_I_counts":"{\"8\": 298}","source":48,"target":47,"layer":"L","from":"ROSSIO","to":"MARTIM MONIZ"},"geometry":{"type":"LineString","coordinates":[[-9.13796,38.71402],[-9.1358,38.71762]]}},{"type":"Feature","properties":{"shape_id":"{\"169\": 299}","direction_id":"{}","headsign":"{\"\": 299}","duration_avg":84.0,"n_vehicles":299,"d":703,"route_I_counts":"{\"8\": 299}","source":49,"target":37,"layer":"L","from":"CAIS DO SODRÉ","to":"BAIXA-CHIADO"},"geometry":{"type":"LineString","coordinates":[[-9.14612,38.70611],[-9.14018,38.71041]]}}]}