{"type":"FeatureCollection","features":[{"type":"Feature","geometry":{"type":"Point","coordinates":[-118.376808,34.168504]},"properties":{"name":"North Hollywood Station","original_ids":"[168]","id":0,"layer":"stop"}},{"type":"Feature","geometry":{"type":"Point","coordinates":[-118.362699,34.140002]},"properties":{"name":"Universal / Studio City Station","original_ids":"[172]","id":1,"layer":"stop"}},{"type":"Feature","geometry":{"type":"Point","coordinates":[-118.338549,34.101547]},"properties":{"name":"Hollywood / Highland Station","original_ids":"[177]","id":2,"layer":"stop"}},{"type":"Feature","geometry":{"type":"Point","coordinates":[-118.32518,34.10163]},"properties":{"name":"Hollywood / Vine Station","original_ids":"[180]","id":3,"layer":"stop"}},{"type":"Feature","geometry":{"type":"Point","coordinates":[-118.308117,34.101737]},"properties":{"name":"Hollywood / Western Station","original_ids":"[184]","id":4,"layer":"stop"}},{"type":"Feature","geometry":{"type":"Point","coordinates":[-118.291756,34.097708]},"properties":{"name":"Vermont / Sunset Station","original_ids":"[188]","id":5,"layer":"stop"}},{"type":"Feature","geometry":{"type":"Point","coordinates":[-118.29173,34.08991]},"properties":{"name":"Vermont / Santa Monica Station","original_ids":"[192]","id":6,"layer":"stop"}},{"type":"Feature","geometry":{"type":"Point","coordinates":[-118.291686,34.076526]},"properties":{"name":"Vermont / Beverly Station","original_ids":"[197]","id":7,"layer":"stop"}},{"type":"Feature","geometry":{"type":"Point","coordinates":[-118.290082,34.062701]},"properties":{"name":"Wilshire / Vermont Station","original_ids":"[200]","id":8,"layer":"stop"}},{"type":"Feature","geometry":{"type":"Point","coordinates":[-118.274879,34.056368]},"properties":{"name":"Westlake / MacArthur Park Station","original_ids":"[204]","id":9,"layer":"stop"}},{"type":"Feature","geometry":{"type":"Point","coordinates":[-118.258682,34.048634]},"properties":{"name":"7th Street / Metro Center Station - Metro Red & Purple Lines","original_ids":"[208]","id":10,"layer":"stop"}},{"type":"Feature","geometry":{"type":"Point","coordinates":[-118.251259,34.049316]},"properties":{"name":"Pershing Square Station","original_ids":"[209]","id":11,"layer":"stop"}},{"type":"Feature","geometry":{"type":"Point","coordinates":[-118.246057,34.0549]},"properties":{"name":"Civic Center / Grand Park Station","original_ids":"[214]","id":12,"layer":"stop"}},{"type":"Feature","geometry":{"type":"Point","coordinates":[-118.234249,34.056197]},"properties":{"name":"Union Station - Metro Red & Purple Lines","original_ids":"[218]","id":13,"layer":"stop"}},{"type":"Feature","geometry":{"type":"Point","coordinates":[-118.301458,34.061753]},"properties":{"name":"Wilshire / Normandie Station","original_ids":"[222]","id":14,"layer":"stop"}},{"type":"Feature","geometry":{"type":"Point","coordinates":[-118.308756,34.061689]},"properties":{"name":"Wilshire / Western Station","original_ids":"[226]","id":15,"layer":"stop"}},{"type":"Feature","properties":{"shape_id":"{\"802EB_190513\": 54}","direction_id":"{\"0\": 54}","headsign":"{\"\": 54}","duration_avg":240.0,"n_vehicles":54,"d":3428,"route_I_counts":"{\"2\": 54}","source":0,"target":1,"layer":"L","from":"North Hollywood Station","to":"Universal / Studio City Station"},"geometry":{"type":"LineString","coordinates":[[-118.376808,34.168504],[-118.362699,34.140002]]}},{"type":"Feature","properties":{"shape_id":"{\"802WB_190513\": 55}","direction_id":"{\"1\": 55}","headsign":"{\"\": 55}","duration_avg":240.0,"n_vehicles":55,"d":3428,"route_I_counts":"{\"2\": 55}","source":1,"target":0,"layer":"L","from":"Universal / Studio City Station","to":"North Hollywood Station"},"geometry":{"type":"LineString","coordinates":[[-118.362699,34.140002],[-118.376808,34.168504]]}},{"type":"Feature","properties":{"shape_id":"{\"802EB_190513\": 55}","direction_id":"{\"0\": 55}","headsign":"{\"\": 55}","duration_avg":240.0,"n_vehicles":55,"d":4824,"route_I_counts":"{\"2\": 55}","source":1,"target":2,"layer":"L","from":"Universal / Studio City Station","to":"Hollywood / Highland Station"},"geometry":{"type":"LineString","coordinates":[[-118.362699,34.140002],[-118.338549,34.101547]]}},{"type":"Feature","properties":{"shape_id":"{\"802WB_190513\": 54}","direction_id":"{\"1\": 54}","headsign":"{\"\": 54}","duration_avg":240.0,"n_vehicles":54,"d":4824,"route_I_counts":"{\"2\": 54}","source":2,"target":1,"layer":"L","from":"Hollywood / Highland Station","to":"Universal / Studio City Station"},"geometry":{"type":"LineString","coordinates":[[-118.338549,34.101547],[-118.362699,34.140002]]}},{"type":"Feature","properties":{"shape_id":"{\"802EB_190513\": 55}","direction_id":"{\"0\": 55}","headsign":"{\"\": 55}","duration_avg":120.0,"n_vehicles":55,"d":1232,"route_I_counts":"{\"2\": 55}","source":2,"target":3,"layer":"L","from":"Hollywood / Highland Station","to":"Hollywood / Vine Station"},"geometry":{"type":"LineString","coordinates":[[-118.338549,34.101547],[-118.32518,34.10163]]}},{"type":"Feature","properties":{"shape_id":"{\"802WB_190513\": 55}","direction_id":"{\"1\": 55}","headsign":"{\"\": 55}","duration_avg":120.0,"n_vehicles":55,"d":1232,"route_I_counts":"{\"2\": 55}","source":3,"target":2,"layer":"L","from":"Hollywood / Vine Station","to":"Hollywood / Highland Station"},"geometry":{"type":"LineString","coordinates":[[-118.32518,34.10163],[-118.338549,34.101547]]}},{"type":"Feature","properties":{"shape_id":"{\"802EB_190513\": 55}","direction_id":"{\"0\": 55}","headsign":"{\"\": 55}","duration_avg":120.0,"n_vehicles":55,"d":1572,"route_I_counts":"{\"2\": 55}","source":3,"target":4,"layer":"L","from":"Hollywood / Vine Station","to":"Hollywood / Western Station"},"geometry":{"type":"LineString","coordinates":[[-118.32518,34.10163],[-118.308117,34.101737]]}},{"type":"Feature","properties":{"shape_id":"{\"802WB_190513\": 55}","direction_id":"{\"1\": 55}","headsign":"{\"\": 55}","duration_avg":180.0,"n_vehicles":55,"d":1572,"route_I_counts":"{\"2\": 55}","source":4,"target":3,"layer":"L","from":"Hollywood / Western Station","to":"Hollywood / Vine Station"},"geometry":{"type":"LineString","coordinates":[[-118.308117,34.101737],[-118.32518,34.10163]]}},{"type":"Feature","properties":{"shape_id":"{\"802EB_190513\": 55}","direction_id":"{\"0\": 55}","headsign":"{\"\": 55}","duration_avg":120.0,"n_vehicles":55,"d":1573,"route_I_counts":"{\"2\": 55}","source":4,"target":5,"layer":"L","from":"Hollywood / Western Station","to":"Vermont / Sunset Station"},"geometry":{"type":"LineString","coordinates":[[-118.308117,34.101737],[-118.291756,34.097708]]}},{"type":"Feature","properties":{"shape_id":"{\"802WB_190513\": 55}","direction_id":"{\"1\": 55}","headsign":"{\"\": 55}","duration_avg":120.0,"n_vehicles":55,"d":1573,"route_I_counts":"{\"2\": 55}","source":5,"target":4,"layer":"L","from":"Vermont / Sunset Station","to":"Hollywood / Western Station"},"geometry":{"type":"LineString","coordinates":[[-118.291756,34.097708],[-118.308117,34.101737]]}},{"type":"Feature","properties":{"shape_id":"{\"802EB_190513\": 55}","direction_id":"{\"0\": 55}","headsign":"{\"\": 55}","duration_avg":60.0,"n_vehicles":55,"d":868,"route_I_counts":"{\"2\": 55}","source":5,"target":6,"layer":"L","from":"Vermont / Sunset Station","to":"Vermont / Santa Monica Station"},"geometry":{"type":"LineString","coordinates":[[-118.291756,34.097708],[-118.29173,34.08991]]}},{"type":"Feature","properties":{"shape_id":"{\"802WB_190513\": 55}","direction_id":"{\"1\": 55}","headsign":"{\"\": 55}","duration_avg":60.0,"n_vehicles":55,"d":868,"route_I_counts":"{\"2\": 55}","source":6,"target":5,"layer":"L","from":"Vermont / Santa Monica Station","to":"Vermont / Sunset Station"},"geometry":{"type":"LineString","coordinates":[[-118.29173,34.08991],[-118.291756,34.097708]]}},{"type":"Feature","properties":{"shape_id":"{\"802EB_190513\": 55}","direction_id":"{\"0\": 55}","headsign":"{\"\": 55}","duration_avg":120.0,"n_vehicles":55,"d":1489,"route_I_counts":"{\"2\": 55}","source":6,"target":7,"layer":"L","from":"Vermont / Santa Monica Station","to":"Vermont / Beverly Station"},"geometry":{"type":"LineString","coordinates":[[-118.29173,34.08991],[-118.291686,34.076526]]}},{"type":"Feature","properties":{"shape_id":"{\"802WB_190513\": 55}","direction_id":"{\"1\": 55}","headsign":"{\"\": 55}","duration_avg":120.0,"n_vehicles":55,"d":1489,"route_I_counts":"{\"2\": 55}","source":7,"target":6,"layer":"L","from":"Vermont / Beverly Station","to":"Vermont / Santa Monica Station"},"geometry":{"type":"LineString","coordinates":[[-118.291686,34.076526],[-118.29173,34.08991]]}},{"type":"Feature","properties":{"shape_id":"{\"802EB_190513\": 54}","direction_id":"{\"0\": 54}","headsign":"{\"\": 54}","duration_avg":180.0,"n_vehicles":54,"d":1546,"route_I_counts":"{\"2\": 54}","source":7,"target":8,"layer":"L","from":"Vermont / Beverly Station","to":"Wilshire / Vermont Station"},"geometry":{"type":"LineString","coordinates":[[-118.291686,34.076526],[-118.290082,34.062701]]}},{"type":"Feature","properties":{"shape_id":"{\"802WB_190513\": 55}","direction_id":"{\"1\": 55}","headsign":"{\"\": 55}","duration_avg":120.0,"n_vehicles":55,"d":1546,"route_I_counts":"{\"2\": 55}","source":8,"target":7,"layer":"L","from":"Wilshire / Vermont Station","to":"Vermont / Beverly Station"},"geometry":{"type":"LineString","coordinates":[[-118.290082,34.062701],[-118.291686,34.076526]]}},{"type":"Feature","properties":{"shape_id":"{\"802EB_190513\": 55, \"805EB_190513\": 54}","direction_id":"{\"0\": 109}","headsign":"{\"\": 109}","duration_avg":120.0,"n_vehicles":109,"d":1569,"route_I_counts":"{\"2\": 55, \"6\": 54}","source":8,"target":9,"layer":"L","from":"Wilshire / Vermont Station","to":"Westlake / MacArthur Park Station"},"geometry":{"type":"LineString","coordinates":[[-118.290082,34.062701],[-118.274879,34.056368]]}},{"type":"Feature","properties":{"shape_id":"{\"805WB_190513\": 53}","direction_id":"{\"1\": 53}","headsign":"{\"\": 53}","duration_avg":120.0,"n_vehicles":53,"d":1054,"route_I_counts":"{\"6\": 53}","source":8,"target":14,"layer":"L","from":"Wilshire / Vermont Station","to":"Wilshire / Normandie Station"},"geometry":{"type":"LineString","coordinates":[[-118.290082,34.062701],[-118.301458,34.061753]]}},{"type":"Feature","properties":{"shape_id":"{\"802WB_190513\": 55, \"805WB_190513\": 53}","direction_id":"{\"1\": 108}","headsign":"{\"\": 108}","duration_avg":120.0,"n_vehicles":108,"d":1569,"route_I_counts":"{\"2\": 55, \"6\": 53}","source":9,"target":8,"layer":"L","from":"Westlake / MacArthur Park Station","to":"Wilshire / Vermont Station"},"geometry":{"type":"LineString","coordinates":[[-118.274879,34.056368],[-118.290082,34.062701]]}},{"type":"Feature","properties":{"shape_id":"{\"802EB_190513\": 55, \"805EB_190513\": 54}","direction_id":"{\"0\": 109}","headsign":"{\"\": 109}","duration_avg":120.0,"n_vehicles":109,"d":1724,"route_I_counts":"{\"2\": 55, \"6\": 54}","source":9,"target":10,"layer":"L","from":"Westlake / MacArthur Park Station","to":"7th Street / Metro Center Station - Metro Red & Purple Lines"},"geometry":{"type":"LineString","coordinates":[[-118.274879,34.056368],[-118.258682,34.048634]]}},{"type":"Feature","properties":{"shape_id":"{\"802WB_190513\": 54, \"805WB_190513\": 53}","direction_id":"{\"1\": 107}","headsign":"{\"\": 107}","duration_avg":120.0,"n_vehicles":107,"d":1724,"route_I_counts":"{\"2\": 54, \"6\": 53}","source":10,"target":9,"layer":"L","from":"7th Street / Metro Center Station - Metro Red & Purple Lines","to":"Westlake / MacArthur Park Station"},"geometry":{"type":"LineString","coordinates":[[-118.258682,34.048634],[-118.274879,34.056368]]}},{"type":"Feature","properties":{"shape_id":"{\"802EB_190513\": 55, \"805EB_190513\": 54}","direction_id":"{\"0\": 109}","headsign":"{\"\": 109}","duration_avg":60.0,"n_vehicles":109,"d":688,"route_I_counts":"{\"2\": 55, \"6\": 54}","source":10,"target":11,"layer":"L","from":"7th Street / Metro Center Station - Metro Red & Purple Lines","to":"Pershing Square Station"},"geometry":{"type":"LineString","coordinates":[[-118.258682,34.048634],[-118.251259,34.049316]]}},{"type":"Feature","properties":{"shape_id":"{\"802WB_190513\": 55, \"805WB_190513\": 53}","direction_id":"{\"1\": 108}","headsign":"{\"\": 108}","duration_avg":120.0,"n_vehicles":108,"d":688,"route_I_counts":"{\"2\": 55, \"6\": 53}","source":11,"target":10,"layer":"L","from":"Pershing Square Station","to":"7th Street / Metro Center Station - Metro Red & Purple Lines"},"geometry":{"type":"LineString","coordinates":[[-118.251259,34.049316],[-118.258682,34.048634]]}},{"type":"Feature","properties":{"shape_id":"{\"802EB_190513\": 55, \"805EB_190513\": 53}","direction_id":"{\"0\": 108}","headsign":"{\"\": 108}","duration_avg":60.0,"n_vehicles":108,"d":785,"route_I_counts":"{\"2\": 55, \"6\": 53}","source":11,"target":12,"layer":"L","from":"Pershing Square Station","to":"Civic Center / Grand Park Station"},"geometry":{"type":"LineString","coordinates":[[-118.251259,34.049316],[-118.246057,34.0549]]}},{"type":"Feature","properties":{"shape_id":"{\"802WB_190513\": 55, \"805WB_190513\": 53}","direction_id":"{\"1\": 108}","headsign":"{\"\": 108}","duration_avg":60.0,"n_vehicles":108,"d":785,"route_I_counts":"{\"2\": 55, \"6\": 53}","source":12,"target":11,"layer":"L","from":"Civic Center / Grand Park Station","to":"Pershing Square Station"},"geometry":{"type":"LineString","coordinates":[[-118.246057,34.0549],[-118.251259,34.049316]]}},{"type":"Feature","properties":{"shape_id":"{\"802EB_190513\": 55, \"805EB_190513\": 54}","direction_id":"{\"0\": 109}","headsign":"{\"\": 109}","duration_avg":180.0,"n_vehicles":109,"d":1098,"route_I_counts":"{\"2\": 55, \"6\": 54}","source":12,"target":13,"layer":"L","from":"Civic Center / Grand Park Station","to":"Union Station - Metro Red & Purple Lines"},"geometry":{"type":"LineString","coordinates":[[-118.246057,34.0549],[-118.234249,34.056197]]}},{"type":"Feature","properties":{"shape_id":"{\"802WB_190513\": 55, \"805WB_190513\": 53}","direction_id":"{\"1\": 108}","headsign":"{\"\": 108}","duration_avg":120.0,"n_vehicles":108,"d":1098,"route_I_counts":"{\"2\": 55, \"6\": 53}","source":13,"target":12,"layer":"L","from":"Union Station - Metro Red & Purple Lines","to":"Civic Center / Grand Park Station"},"geometry":{"type":"LineString","coordinates":[[-118.234249,34.056197],[-118.246057,34.0549]]}},{"type":"Feature","properties":{"shape_id":"{\"805EB_190513\": 54}","direction_id":"{\"0\": 54}","headsign":"{\"\": 54}","duration_avg":120.0,"n_vehicles":54,"d":1054,"route_I_counts":"{\"6\": 54}","source":14,"target":8,"layer":"L","from":"Wilshire / Normandie Station","to":"Wilshire / Vermont Station"},"geometry":{"type":"LineString","coordinates":[[-118.301458,34.061753],[-118.290082,34.062701]]}},{"type":"Feature","properties":{"shape_id":"{\"805WB_190513\": 53}","direction_id":"{\"1\": 53}","headsign":"{\"\": 53}","duration_avg":120.0,"n_vehicles":53,"d":673,"route_I_counts":"{\"6\": 53}","source":14,"target":15,"layer":"L","from":"Wilshire / Normandie Station","to":"Wilshire / Western Station"},"geometry":{"type":"LineString","coordinates":[[-118.301458,34.061753],[-118.308756,34.061689]]}},{"type":"Feature","properties":{"shape_id":"{\"805EB_190513\": 54}","direction_id":"{\"0\": 54}","headsign":"{\"\": 54}","duration_avg":120.0,"n_vehicles":54,"d":673,"route_I_counts":"{\"6\": 54}","source":15,"target":14,"layer":"L","from":"Wilshire / Western Station","to":"Wilshire / Normandie Station"},"geometry":{"type":"LineString","coordinates":[[-118.308756,34.061689],[-118.301458,34.061753]]}}]}