{"type":"FeatureCollection","features":[{"type":"Feature","geometry":{"type":"Point","coordinates":[4.835952,45.768139]},"properties":{"name":"Hôtel de Ville L. Pradel","original_ids":"[112, 102, 101]","id":0,"layer":"stop"}},{"type":"Feature","geometry":{"type":"Point","coordinates":[4.836168,45.770921]},"properties":{"name":"Croix Paquet","original_ids":"[299, 298]","id":1,"layer":"stop"}},{"type":"Feature","geometry":{"type":"Point","coordinates":[4.831821,45.774597]},"properties":{"name":"Croix-Rousse","original_ids":"[301, 303]","id":2,"layer":"stop"}},{"type":"Feature","geometry":{"type":"Point","coordinates":[4.827442,45.779255]},"properties":{"name":"Hénon","original_ids":"[96, 98]","id":3,"layer":"stop"}},{"type":"Feature","geometry":{"type":"Point","coordinates":[4.832498,45.785258]},"properties":{"name":"Cuire","original_ids":"[38]","id":4,"layer":"stop"}},{"type":"Feature","geometry":{"type":"Point","coordinates":[4.803854,45.779792]},"properties":{"name":"Gare de Vaise","original_ids":"[232, 248]","id":5,"layer":"stop"}},{"type":"Feature","geometry":{"type":"Point","coordinates":[4.805529,45.774786]},"properties":{"name":"Valmy","original_ids":"[193, 197]","id":6,"layer":"stop"}},{"type":"Feature","geometry":{"type":"Point","coordinates":[4.805547,45.766433]},"properties":{"name":"Gorge de Loup","original_ids":"[50, 65]","id":7,"layer":"stop"}},{"type":"Feature","geometry":{"type":"Point","coordinates":[4.826536,45.760133]},"properties":{"name":"Vieux Lyon","original_ids":"[200, 201]","id":8,"layer":"stop"}},{"type":"Feature","geometry":{"type":"Point","coordinates":[4.83376,45.756576]},"properties":{"name":"Bellecour","original_ids":"[6, 9, 7, 8]","id":9,"layer":"stop"}},{"type":"Feature","geometry":{"type":"Point","coordinates":[4.842574,45.755473]},"properties":{"name":"Guillotière Gabriel Péri","original_ids":"[88, 89]","id":10,"layer":"stop"}},{"type":"Feature","geometry":{"type":"Point","coordinates":[4.84715,45.753892]},"properties":{"name":"Saxe - Gambetta","original_ids":"[184, 185, 179, 186]","id":11,"layer":"stop"}},{"type":"Feature","geometry":{"type":"Point","coordinates":[4.854206,45.751467]},"properties":{"name":"Garibaldi","original_ids":"[273, 274]","id":12,"layer":"stop"}},{"type":"Feature","geometry":{"type":"Point","coordinates":[4.864889,45.747785]},"properties":{"name":"Sans Souci","original_ids":"[177, 178]","id":13,"layer":"stop"}},{"type":"Feature","geometry":{"type":"Point","coordinates":[4.871873,45.745388]},"properties":{"name":"Monplaisir Lumière","original_ids":"[133, 134]","id":14,"layer":"stop"}},{"type":"Feature","geometry":{"type":"Point","coordinates":[4.878991,45.742954]},"properties":{"name":"Grange Blanche","original_ids":"[68, 80]","id":15,"layer":"stop"}},{"type":"Feature","geometry":{"type":"Point","coordinates":[4.886336,45.738717]},"properties":{"name":"Laennec","original_ids":"[114, 115]","id":16,"layer":"stop"}},{"type":"Feature","geometry":{"type":"Point","coordinates":[4.887291,45.730467]},"properties":{"name":"Mermoz - Pinel","original_ids":"[130, 131]","id":17,"layer":"stop"}},{"type":"Feature","geometry":{"type":"Point","coordinates":[4.8875,45.719782]},"properties":{"name":"Parilly","original_ids":"[143, 144]","id":18,"layer":"stop"}},{"type":"Feature","geometry":{"type":"Point","coordinates":[4.888079,45.705568]},"properties":{"name":"Gare de Vénissieux","original_ids":"[257, 259]","id":19,"layer":"stop"}},{"type":"Feature","geometry":{"type":"Point","coordinates":[4.826904,45.749805]},"properties":{"name":"Perrache","original_ids":"[161, 145]","id":20,"layer":"stop"}},{"type":"Feature","geometry":{"type":"Point","coordinates":[4.829172,45.753124]},"properties":{"name":"Ampère Victor Hugo","original_ids":"[3, 2]","id":21,"layer":"stop"}},{"type":"Feature","geometry":{"type":"Point","coordinates":[4.835735,45.763429]},"properties":{"name":"Cordeliers","original_ids":"[31, 32]","id":22,"layer":"stop"}},{"type":"Feature","geometry":{"type":"Point","coordinates":[4.844456,45.768824]},"properties":{"name":"Foch","original_ids":"[275, 276]","id":23,"layer":"stop"}},{"type":"Feature","geometry":{"type":"Point","coordinates":[4.853316,45.769625]},"properties":{"name":"Masséna","original_ids":"[118, 120]","id":24,"layer":"stop"}},{"type":"Feature","geometry":{"type":"Point","coordinates":[4.864218,45.770631]},"properties":{"name":"Charpennes","original_ids":"[221, 228, 229]","id":25,"layer":"stop"}},{"type":"Feature","geometry":{"type":"Point","coordinates":[4.873672,45.770652]},"properties":{"name":"République Villeurbanne","original_ids":"[279, 280]","id":26,"layer":"stop"}},{"type":"Feature","geometry":{"type":"Point","coordinates":[4.882166,45.769083]},"properties":{"name":"Gratte Ciel","original_ids":"[81, 82]","id":27,"layer":"stop"}},{"type":"Feature","geometry":{"type":"Point","coordinates":[4.890047,45.767626]},"properties":{"name":"Flachet","original_ids":"[44, 45]","id":28,"layer":"stop"}},{"type":"Feature","geometry":{"type":"Point","coordinates":[4.900275,45.765745]},"properties":{"name":"Cusset","original_ids":"[41, 43]","id":29,"layer":"stop"}},{"type":"Feature","geometry":{"type":"Point","coordinates":[4.909506,45.764022]},"properties":{"name":"Laurent Bonnevay","original_ids":"[203, 204]","id":30,"layer":"stop"}},{"type":"Feature","geometry":{"type":"Point","coordinates":[4.92104,45.761025]},"properties":{"name":"Vaulx-en-Velin La Soie","original_ids":"[523, 525]","id":31,"layer":"stop"}},{"type":"Feature","geometry":{"type":"Point","coordinates":[4.859494,45.766921]},"properties":{"name":"Brotteaux","original_ids":"[13, 16]","id":32,"layer":"stop"}},{"type":"Feature","geometry":{"type":"Point","coordinates":[4.857235,45.761688]},"properties":{"name":"Gare Part-Dieu V.Merle","original_ids":"[484, 485]","id":33,"layer":"stop"}},{"type":"Feature","geometry":{"type":"Point","coordinates":[4.847651,45.759364]},"properties":{"name":"Place Guichard","original_ids":"[86, 87]","id":34,"layer":"stop"}},{"type":"Feature","geometry":{"type":"Point","coordinates":[4.842471,45.746149]},"properties":{"name":"Jean Macé","original_ids":"[264, 272]","id":35,"layer":"stop"}},{"type":"Feature","geometry":{"type":"Point","coordinates":[4.837554,45.737825]},"properties":{"name":"Place Jean Jaurès","original_ids":"[295, 297]","id":36,"layer":"stop"}},{"type":"Feature","geometry":{"type":"Point","coordinates":[4.83392,45.731965]},"properties":{"name":"Debourg","original_ids":"[285, 292]","id":37,"layer":"stop"}},{"type":"Feature","geometry":{"type":"Point","coordinates":[4.831334,45.727369]},"properties":{"name":"Stade de Gerland Le LOU","original_ids":"[283, 284]","id":38,"layer":"stop"}},{"type":"Feature","geometry":{"type":"Point","coordinates":[4.814492,45.716679]},"properties":{"name":"Gare d'Oullins","original_ids":"[688, 689]","id":39,"layer":"stop"}},{"type":"Feature","properties":{"shape_id":"{}","direction_id":"{}","headsign":"{\"Cuire\": 136}","duration_avg":120.0,"n_vehicles":136,"d":310,"route_I_counts":"{\"233\": 136}","source":0,"target":1,"layer":"L","from":"Hôtel de Ville L. Pradel","to":"Croix Paquet"},"geometry":{"type":"LineString","coordinates":[[4.835952,45.768139],[4.836168,45.770921]]}},{"type":"Feature","properties":{"duration_avg":94.01574803149606,"n_vehicles":254,"d":678,"route_I_counts":"{\"389\": 254}","shape_id":"{}","direction_id":"{}","headsign":"{\"Vaulx-en-Velin La Soie\": 254}","source":0,"target":23,"layer":"L","from":"Hôtel de Ville L. Pradel","to":"Foch"},"geometry":{"type":"LineString","coordinates":[[4.835952,45.768139],[4.844456,45.768824]]}},{"type":"Feature","properties":{"duration_avg":75.703125,"n_vehicles":256,"d":428,"route_I_counts":"{\"390\": 256}","shape_id":"{}","direction_id":"{}","headsign":"{\"Perrache\": 256}","source":0,"target":22,"layer":"L","from":"Hôtel de Ville L. Pradel","to":"Cordeliers"},"geometry":{"type":"LineString","coordinates":[[4.835952,45.768139],[4.835735,45.763429]]}},{"type":"Feature","properties":{"shape_id":"{}","direction_id":"{}","headsign":"{\"Cuire\": 136}","duration_avg":120.0,"n_vehicles":136,"d":530,"route_I_counts":"{\"233\": 136}","source":1,"target":2,"layer":"L","from":"Croix Paquet","to":"Croix-Rousse"},"geometry":{"type":"LineString","coordinates":[[4.836168,45.770921],[4.831821,45.774597]]}},{"type":"Feature","properties":{"duration_avg":120.0,"n_vehicles":136,"d":315,"route_I_counts":"{\"234\": 136}","shape_id":"{}","direction_id":"{}","headsign":"{\"Hôtel de Ville L. Pradel\": 136}","source":1,"target":0,"layer":"L","from":"Croix Paquet","to":"Hôtel de Ville L. Pradel"},"geometry":{"type":"LineString","coordinates":[[4.836168,45.770921],[4.835952,45.768139]]}},{"type":"Feature","properties":{"shape_id":"{}","direction_id":"{}","headsign":"{\"Cuire\": 135}","duration_avg":120.0,"n_vehicles":135,"d":620,"route_I_counts":"{\"233\": 135}","source":2,"target":3,"layer":"L","from":"Croix-Rousse","to":"Hénon"},"geometry":{"type":"LineString","coordinates":[[4.831821,45.774597],[4.827442,45.779255]]}},{"type":"Feature","properties":{"duration_avg":120.0,"n_vehicles":136,"d":522,"route_I_counts":"{\"234\": 136}","shape_id":"{}","direction_id":"{}","headsign":"{\"Hôtel de Ville L. Pradel\": 136}","source":2,"target":1,"layer":"L","from":"Croix-Rousse","to":"Croix Paquet"},"geometry":{"type":"LineString","coordinates":[[4.831821,45.774597],[4.836168,45.770921]]}},{"type":"Feature","properties":{"shape_id":"{}","direction_id":"{}","headsign":"{\"Cuire\": 135}","duration_avg":120.0,"n_vehicles":135,"d":774,"route_I_counts":"{\"233\": 135}","source":3,"target":4,"layer":"L","from":"Hénon","to":"Cuire"},"geometry":{"type":"LineString","coordinates":[[4.827442,45.779255],[4.832498,45.785258]]}},{"type":"Feature","properties":{"duration_avg":180.0,"n_vehicles":137,"d":628,"route_I_counts":"{\"234\": 137}","shape_id":"{}","direction_id":"{}","headsign":"{\"Hôtel de Ville L. Pradel\": 137}","source":3,"target":2,"layer":"L","from":"Hénon","to":"Croix-Rousse"},"geometry":{"type":"LineString","coordinates":[[4.827442,45.779255],[4.831821,45.774597]]}},{"type":"Feature","properties":{"duration_avg":120.0,"n_vehicles":136,"d":766,"route_I_counts":"{\"234\": 136}","shape_id":"{}","direction_id":"{}","headsign":"{\"Hôtel de Ville L. Pradel\": 136}","source":4,"target":3,"layer":"L","from":"Cuire","to":"Hénon"},"geometry":{"type":"LineString","coordinates":[[4.832498,45.785258],[4.827442,45.779255]]}},{"type":"Feature","properties":{"shape_id":"{}","direction_id":"{}","headsign":"{\"Gare de Vénissieux\": 427}","duration_avg":102.01405152224824,"n_vehicles":427,"d":572,"route_I_counts":"{\"235\": 427}","source":5,"target":6,"layer":"L","from":"Gare de Vaise","to":"Valmy"},"geometry":{"type":"LineString","coordinates":[[4.803854,45.779792],[4.805529,45.774786]]}},{"type":"Feature","properties":{"shape_id":"{}","direction_id":"{}","headsign":"{\"Gare de Vénissieux\": 426}","duration_avg":120.0,"n_vehicles":426,"d":929,"route_I_counts":"{\"235\": 426}","source":6,"target":7,"layer":"L","from":"Valmy","to":"Gorge de Loup"},"geometry":{"type":"LineString","coordinates":[[4.805529,45.774786],[4.805547,45.766433]]}},{"type":"Feature","properties":{"duration_avg":62.269503546099294,"n_vehicles":423,"d":573,"route_I_counts":"{\"236\": 423}","shape_id":"{}","direction_id":"{}","headsign":"{\"Gare de Vaise\": 423}","source":6,"target":5,"layer":"L","from":"Valmy","to":"Gare de Vaise"},"geometry":{"type":"LineString","coordinates":[[4.805529,45.774786],[4.803854,45.779792]]}},{"type":"Feature","properties":{"shape_id":"{}","direction_id":"{}","headsign":"{\"Gare de Vénissieux\": 426}","duration_avg":146.61971830985917,"n_vehicles":426,"d":1774,"route_I_counts":"{\"235\": 426}","source":7,"target":8,"layer":"L","from":"Gorge de Loup","to":"Vieux Lyon"},"geometry":{"type":"LineString","coordinates":[[4.805547,45.766433],[4.826536,45.760133]]}},{"type":"Feature","properties":{"duration_avg":96.31205673758865,"n_vehicles":423,"d":929,"route_I_counts":"{\"236\": 423}","shape_id":"{}","direction_id":"{}","headsign":"{\"Gare de Vaise\": 423}","source":7,"target":6,"layer":"L","from":"Gorge de Loup","to":"Valmy"},"geometry":{"type":"LineString","coordinates":[[4.805547,45.766433],[4.805529,45.774786]]}},{"type":"Feature","properties":{"shape_id":"{}","direction_id":"{}","headsign":"{\"Gare de Vénissieux\": 425}","duration_avg":115.90588235294118,"n_vehicles":425,"d":686,"route_I_counts":"{\"235\": 425}","source":8,"target":9,"layer":"L","from":"Vieux Lyon","to":"Bellecour"},"geometry":{"type":"LineString","coordinates":[[4.826536,45.760133],[4.83376,45.756576]]}},{"type":"Feature","properties":{"duration_avg":175.75471698113208,"n_vehicles":424,"d":1781,"route_I_counts":"{\"236\": 424}","shape_id":"{}","direction_id":"{}","headsign":"{\"Gare de Vaise\": 424}","source":8,"target":7,"layer":"L","from":"Vieux Lyon","to":"Gorge de Loup"},"geometry":{"type":"LineString","coordinates":[[4.826536,45.760133],[4.805547,45.766433]]}},{"type":"Feature","properties":{"shape_id":"{}","direction_id":"{}","headsign":"{\"Gare de Vénissieux\": 425}","duration_avg":99.52941176470588,"n_vehicles":425,"d":695,"route_I_counts":"{\"235\": 425}","source":9,"target":10,"layer":"L","from":"Bellecour","to":"Guillotière Gabriel Péri"},"geometry":{"type":"LineString","coordinates":[[4.83376,45.756576],[4.842574,45.755473]]}},{"type":"Feature","properties":{"duration_avg":91.88976377952756,"n_vehicles":254,"d":679,"route_I_counts":"{\"389\": 254}","shape_id":"{}","direction_id":"{}","headsign":"{\"Vaulx-en-Velin La Soie\": 254}","source":9,"target":22,"layer":"L","from":"Bellecour","to":"Cordeliers"},"geometry":{"type":"LineString","coordinates":[[4.83376,45.756576],[4.835735,45.763429]]}},{"type":"Feature","properties":{"duration_avg":75.0,"n_vehicles":256,"d":584,"route_I_counts":"{\"390\": 256}","shape_id":"{}","direction_id":"{}","headsign":"{\"Perrache\": 256}","source":9,"target":21,"layer":"L","from":"Bellecour","to":"Ampère Victor Hugo"},"geometry":{"type":"LineString","coordinates":[[4.83376,45.756576],[4.829172,45.753124]]}},{"type":"Feature","properties":{"duration_avg":90.14150943396227,"n_vehicles":424,"d":681,"route_I_counts":"{\"236\": 424}","shape_id":"{}","direction_id":"{}","headsign":"{\"Gare de Vaise\": 424}","source":9,"target":8,"layer":"L","from":"Bellecour","to":"Vieux Lyon"},"geometry":{"type":"LineString","coordinates":[[4.83376,45.756576],[4.826536,45.760133]]}},{"type":"Feature","properties":{"shape_id":"{}","direction_id":"{}","headsign":"{\"Gare de Vénissieux\": 425}","duration_avg":86.96470588235294,"n_vehicles":425,"d":396,"route_I_counts":"{\"235\": 425}","source":10,"target":11,"layer":"L","from":"Guillotière Gabriel Péri","to":"Saxe - Gambetta"},"geometry":{"type":"LineString","coordinates":[[4.842574,45.755473],[4.84715,45.753892]]}},{"type":"Feature","properties":{"duration_avg":108.9622641509434,"n_vehicles":424,"d":691,"route_I_counts":"{\"236\": 424}","shape_id":"{}","direction_id":"{}","headsign":"{\"Gare de Vaise\": 424}","source":10,"target":9,"layer":"L","from":"Guillotière Gabriel Péri","to":"Bellecour"},"geometry":{"type":"LineString","coordinates":[[4.842574,45.755473],[4.83376,45.756576]]}},{"type":"Feature","properties":{"shape_id":"{}","direction_id":"{}","headsign":"{\"Gare de Vénissieux\": 425}","duration_avg":79.2,"n_vehicles":425,"d":611,"route_I_counts":"{\"235\": 425}","source":11,"target":12,"layer":"L","from":"Saxe - Gambetta","to":"Garibaldi"},"geometry":{"type":"LineString","coordinates":[[4.84715,45.753892],[4.854206,45.751467]]}},{"type":"Feature","properties":{"duration_avg":72.70588235294117,"n_vehicles":425,"d":397,"route_I_counts":"{\"236\": 425}","shape_id":"{}","direction_id":"{}","headsign":"{\"Gare de Vaise\": 425}","source":11,"target":10,"layer":"L","from":"Saxe - Gambetta","to":"Guillotière Gabriel Péri"},"geometry":{"type":"LineString","coordinates":[[4.84715,45.753892],[4.842574,45.755473]]}},{"type":"Feature","properties":{"duration_avg":93.39622641509433,"n_vehicles":212,"d":908,"route_I_counts":"{\"391\": 212}","shape_id":"{}","direction_id":"{}","headsign":"{\"Gare d'Oullins\": 212}","source":11,"target":35,"layer":"L","from":"Saxe - Gambetta","to":"Jean Macé"},"geometry":{"type":"LineString","coordinates":[[4.84715,45.753892],[4.842471,45.746149]]}},{"type":"Feature","properties":{"duration_avg":70.47169811320755,"n_vehicles":212,"d":642,"route_I_counts":"{\"392\": 212}","shape_id":"{}","direction_id":"{}","headsign":"{\"Charpennes\": 212}","source":11,"target":34,"layer":"L","from":"Saxe - Gambetta","to":"Place Guichard"},"geometry":{"type":"LineString","coordinates":[[4.84715,45.753892],[4.847651,45.759364]]}},{"type":"Feature","properties":{"shape_id":"{}","direction_id":"{}","headsign":"{\"Gare de Vénissieux\": 424}","duration_avg":111.50943396226415,"n_vehicles":424,"d":925,"route_I_counts":"{\"235\": 424}","source":12,"target":13,"layer":"L","from":"Garibaldi","to":"Sans Souci"},"geometry":{"type":"LineString","coordinates":[[4.854206,45.751467],[4.864889,45.747785]]}},{"type":"Feature","properties":{"duration_avg":100.8,"n_vehicles":425,"d":613,"route_I_counts":"{\"236\": 425}","shape_id":"{}","direction_id":"{}","headsign":"{\"Gare de Vaise\": 425}","source":12,"target":11,"layer":"L","from":"Garibaldi","to":"Saxe - Gambetta"},"geometry":{"type":"LineString","coordinates":[[4.854206,45.751467],[4.84715,45.753892]]}},{"type":"Feature","properties":{"shape_id":"{}","direction_id":"{}","headsign":"{\"Gare de Vénissieux\": 424}","duration_avg":79.38679245283019,"n_vehicles":424,"d":604,"route_I_counts":"{\"235\": 424}","source":13,"target":14,"layer":"L","from":"Sans Souci","to":"Monplaisir Lumière"},"geometry":{"type":"LineString","coordinates":[[4.864889,45.747785],[4.871873,45.745388]]}},{"type":"Feature","properties":{"duration_avg":102.3529411764706,"n_vehicles":425,"d":913,"route_I_counts":"{\"236\": 425}","shape_id":"{}","direction_id":"{}","headsign":"{\"Gare de Vaise\": 425}","source":13,"target":12,"layer":"L","from":"Sans Souci","to":"Garibaldi"},"geometry":{"type":"LineString","coordinates":[[4.864889,45.747785],[4.854206,45.751467]]}},{"type":"Feature","properties":{"shape_id":"{}","direction_id":"{}","headsign":"{\"Gare de Vénissieux\": 424}","duration_avg":91.13207547169812,"n_vehicles":424,"d":615,"route_I_counts":"{\"235\": 424}","source":14,"target":15,"layer":"L","from":"Monplaisir Lumière","to":"Grange Blanche"},"geometry":{"type":"LineString","coordinates":[[4.871873,45.745388],[4.878991,45.742954]]}},{"type":"Feature","properties":{"duration_avg":85.27058823529411,"n_vehicles":425,"d":609,"route_I_counts":"{\"236\": 425}","shape_id":"{}","direction_id":"{}","headsign":"{\"Gare de Vaise\": 425}","source":14,"target":13,"layer":"L","from":"Monplaisir Lumière","to":"Sans Souci"},"geometry":{"type":"LineString","coordinates":[[4.871873,45.745388],[4.864889,45.747785]]}},{"type":"Feature","properties":{"shape_id":"{}","direction_id":"{}","headsign":"{\"Gare de Vénissieux\": 424}","duration_avg":99.76415094339623,"n_vehicles":424,"d":740,"route_I_counts":"{\"235\": 424}","source":15,"target":16,"layer":"L","from":"Grange Blanche","to":"Laennec"},"geometry":{"type":"LineString","coordinates":[[4.878991,45.742954],[4.886336,45.738717]]}},{"type":"Feature","properties":{"duration_avg":80.98591549295774,"n_vehicles":426,"d":618,"route_I_counts":"{\"236\": 426}","shape_id":"{}","direction_id":"{}","headsign":"{\"Gare de Vaise\": 426}","source":15,"target":14,"layer":"L","from":"Grange Blanche","to":"Monplaisir Lumière"},"geometry":{"type":"LineString","coordinates":[[4.878991,45.742954],[4.871873,45.745388]]}},{"type":"Feature","properties":{"shape_id":"{}","direction_id":"{}","headsign":"{\"Gare de Vénissieux\": 423}","duration_avg":100.99290780141844,"n_vehicles":423,"d":921,"route_I_counts":"{\"235\": 423}","source":16,"target":17,"layer":"L","from":"Laennec","to":"Mermoz - Pinel"},"geometry":{"type":"LineString","coordinates":[[4.886336,45.738717],[4.887291,45.730467]]}},{"type":"Feature","properties":{"duration_avg":94.08450704225352,"n_vehicles":426,"d":735,"route_I_counts":"{\"236\": 426}","shape_id":"{}","direction_id":"{}","headsign":"{\"Gare de Vaise\": 426}","source":16,"target":15,"layer":"L","from":"Laennec","to":"Grange Blanche"},"geometry":{"type":"LineString","coordinates":[[4.886336,45.738717],[4.878991,45.742954]]}},{"type":"Feature","properties":{"shape_id":"{}","direction_id":"{}","headsign":"{\"Gare de Vénissieux\": 423}","duration_avg":116.73758865248227,"n_vehicles":423,"d":1189,"route_I_counts":"{\"235\": 423}","source":17,"target":18,"layer":"L","from":"Mermoz - Pinel","to":"Parilly"},"geometry":{"type":"LineString","coordinates":[[4.887291,45.730467],[4.8875,45.719782]]}},{"type":"Feature","properties":{"duration_avg":104.78873239436619,"n_vehicles":426,"d":912,"route_I_counts":"{\"236\": 426}","shape_id":"{}","direction_id":"{}","headsign":"{\"Gare de Vaise\": 426}","source":17,"target":16,"layer":"L","from":"Mermoz - Pinel","to":"Laennec"},"geometry":{"type":"LineString","coordinates":[[4.887291,45.730467],[4.886336,45.738717]]}},{"type":"Feature","properties":{"shape_id":"{}","direction_id":"{}","headsign":"{\"Gare de Vénissieux\": 423}","duration_avg":113.47517730496453,"n_vehicles":423,"d":1582,"route_I_counts":"{\"235\": 423}","source":18,"target":19,"layer":"L","from":"Parilly","to":"Gare de Vénissieux"},"geometry":{"type":"LineString","coordinates":[[4.8875,45.719782],[4.888079,45.705568]]}},{"type":"Feature","properties":{"duration_avg":117.04918032786885,"n_vehicles":427,"d":1197,"route_I_counts":"{\"236\": 427}","shape_id":"{}","direction_id":"{}","headsign":"{\"Gare de Vaise\": 427}","source":18,"target":17,"layer":"L","from":"Parilly","to":"Mermoz - Pinel"},"geometry":{"type":"LineString","coordinates":[[4.8875,45.719782],[4.887291,45.730467]]}},{"type":"Feature","properties":{"duration_avg":129.97658079625293,"n_vehicles":427,"d":1574,"route_I_counts":"{\"236\": 427}","shape_id":"{}","direction_id":"{}","headsign":"{\"Gare de Vaise\": 427}","source":19,"target":18,"layer":"L","from":"Gare de Vénissieux","to":"Parilly"},"geometry":{"type":"LineString","coordinates":[[4.888079,45.705568],[4.8875,45.719782]]}},{"type":"Feature","properties":{"shape_id":"{}","direction_id":"{}","headsign":"{\"Vaulx-en-Velin La Soie\": 255}","duration_avg":62.11764705882353,"n_vehicles":255,"d":409,"route_I_counts":"{\"389\": 255}","source":20,"target":21,"layer":"L","from":"Perrache","to":"Ampère Victor Hugo"},"geometry":{"type":"LineString","coordinates":[[4.826904,45.749805],[4.829172,45.753124]]}},{"type":"Feature","properties":{"duration_avg":90.58823529411765,"n_vehicles":255,"d":583,"route_I_counts":"{\"389\": 255}","shape_id":"{}","direction_id":"{}","headsign":"{\"Vaulx-en-Velin La Soie\": 255}","source":21,"target":9,"layer":"L","from":"Ampère Victor Hugo","to":"Bellecour"},"geometry":{"type":"LineString","coordinates":[[4.829172,45.753124],[4.83376,45.756576]]}},{"type":"Feature","properties":{"duration_avg":54.11764705882353,"n_vehicles":255,"d":411,"route_I_counts":"{\"390\": 255}","shape_id":"{}","direction_id":"{}","headsign":"{\"Perrache\": 255}","source":21,"target":20,"layer":"L","from":"Ampère Victor Hugo","to":"Perrache"},"geometry":{"type":"LineString","coordinates":[[4.829172,45.753124],[4.826904,45.749805]]}},{"type":"Feature","properties":{"duration_avg":95.15625,"n_vehicles":256,"d":689,"route_I_counts":"{\"390\": 256}","shape_id":"{}","direction_id":"{}","headsign":"{\"Perrache\": 256}","source":22,"target":9,"layer":"L","from":"Cordeliers","to":"Bellecour"},"geometry":{"type":"LineString","coordinates":[[4.835735,45.763429],[4.83376,45.756576]]}},{"type":"Feature","properties":{"duration_avg":84.80314960629921,"n_vehicles":254,"d":433,"route_I_counts":"{\"389\": 254}","shape_id":"{}","direction_id":"{}","headsign":"{\"Vaulx-en-Velin La Soie\": 254}","source":22,"target":0,"layer":"L","from":"Cordeliers","to":"Hôtel de Ville L. Pradel"},"geometry":{"type":"LineString","coordinates":[[4.835735,45.763429],[4.835952,45.768139]]}},{"type":"Feature","properties":{"shape_id":"{}","direction_id":"{}","headsign":"{\"Vaulx-en-Velin La Soie\": 254}","duration_avg":83.14960629921259,"n_vehicles":254,"d":693,"route_I_counts":"{\"389\": 254}","source":23,"target":24,"layer":"L","from":"Foch","to":"Masséna"},"geometry":{"type":"LineString","coordinates":[[4.844456,45.768824],[4.853316,45.769625]]}},{"type":"Feature","properties":{"duration_avg":102.65625,"n_vehicles":256,"d":671,"route_I_counts":"{\"390\": 256}","shape_id":"{}","direction_id":"{}","headsign":"{\"Perrache\": 256}","source":23,"target":0,"layer":"L","from":"Foch","to":"Hôtel de Ville L. Pradel"},"geometry":{"type":"LineString","coordinates":[[4.844456,45.768824],[4.835952,45.768139]]}},{"type":"Feature","properties":{"shape_id":"{}","direction_id":"{}","headsign":"{\"Vaulx-en-Velin La Soie\": 254}","duration_avg":100.15748031496064,"n_vehicles":254,"d":853,"route_I_counts":"{\"389\": 254}","source":24,"target":25,"layer":"L","from":"Masséna","to":"Charpennes"},"geometry":{"type":"LineString","coordinates":[[4.853316,45.769625],[4.864218,45.770631]]}},{"type":"Feature","properties":{"duration_avg":87.1875,"n_vehicles":256,"d":699,"route_I_counts":"{\"390\": 256}","shape_id":"{}","direction_id":"{}","headsign":"{\"Perrache\": 256}","source":24,"target":23,"layer":"L","from":"Masséna","to":"Foch"},"geometry":{"type":"LineString","coordinates":[[4.853316,45.769625],[4.844456,45.768824]]}},{"type":"Feature","properties":{"shape_id":"{}","direction_id":"{}","headsign":"{\"Vaulx-en-Velin La Soie\": 253}","duration_avg":86.79841897233202,"n_vehicles":253,"d":734,"route_I_counts":"{\"389\": 253}","source":25,"target":26,"layer":"L","from":"Charpennes","to":"République Villeurbanne"},"geometry":{"type":"LineString","coordinates":[[4.864218,45.770631],[4.873672,45.770652]]}},{"type":"Feature","properties":{"duration_avg":108.11320754716981,"n_vehicles":212,"d":444,"route_I_counts":"{\"391\": 212}","shape_id":"{}","direction_id":"{}","headsign":"{\"Gare d'Oullins\": 212}","source":25,"target":32,"layer":"L","from":"Charpennes","to":"Brotteaux"},"geometry":{"type":"LineString","coordinates":[[4.864218,45.770631],[4.859494,45.766921]]}},{"type":"Feature","properties":{"duration_avg":91.875,"n_vehicles":256,"d":851,"route_I_counts":"{\"390\": 256}","shape_id":"{}","direction_id":"{}","headsign":"{\"Perrache\": 256}","source":25,"target":24,"layer":"L","from":"Charpennes","to":"Masséna"},"geometry":{"type":"LineString","coordinates":[[4.864218,45.770631],[4.853316,45.769625]]}},{"type":"Feature","properties":{"shape_id":"{}","direction_id":"{}","headsign":"{\"Vaulx-en-Velin La Soie\": 253}","duration_avg":87.5098814229249,"n_vehicles":253,"d":682,"route_I_counts":"{\"389\": 253}","source":26,"target":27,"layer":"L","from":"République Villeurbanne","to":"Gratte Ciel"},"geometry":{"type":"LineString","coordinates":[[4.873672,45.770652],[4.882166,45.769083]]}},{"type":"Feature","properties":{"duration_avg":98.75486381322958,"n_vehicles":257,"d":727,"route_I_counts":"{\"390\": 257}","shape_id":"{}","direction_id":"{}","headsign":"{\"Perrache\": 257}","source":26,"target":25,"layer":"L","from":"République Villeurbanne","to":"Charpennes"},"geometry":{"type":"LineString","coordinates":[[4.873672,45.770652],[4.864218,45.770631]]}},{"type":"Feature","properties":{"shape_id":"{}","direction_id":"{}","headsign":"{\"Vaulx-en-Velin La Soie\": 253}","duration_avg":86.08695652173913,"n_vehicles":253,"d":633,"route_I_counts":"{\"389\": 253}","source":27,"target":28,"layer":"L","from":"Gratte Ciel","to":"Flachet"},"geometry":{"type":"LineString","coordinates":[[4.882166,45.769083],[4.890047,45.767626]]}},{"type":"Feature","properties":{"duration_avg":88.01556420233463,"n_vehicles":257,"d":685,"route_I_counts":"{\"390\": 257}","shape_id":"{}","direction_id":"{}","headsign":"{\"Perrache\": 257}","source":27,"target":26,"layer":"L","from":"Gratte Ciel","to":"République Villeurbanne"},"geometry":{"type":"LineString","coordinates":[[4.882166,45.769083],[4.873672,45.770652]]}},{"type":"Feature","properties":{"shape_id":"{}","direction_id":"{}","headsign":"{\"Vaulx-en-Velin La Soie\": 253}","duration_avg":101.73913043478261,"n_vehicles":253,"d":821,"route_I_counts":"{\"389\": 253}","source":28,"target":29,"layer":"L","from":"Flachet","to":"Cusset"},"geometry":{"type":"LineString","coordinates":[[4.890047,45.767626],[4.900275,45.765745]]}},{"type":"Feature","properties":{"duration_avg":82.41245136186771,"n_vehicles":257,"d":630,"route_I_counts":"{\"390\": 257}","shape_id":"{}","direction_id":"{}","headsign":"{\"Perrache\": 257}","source":28,"target":27,"layer":"L","from":"Flachet","to":"Gratte Ciel"},"geometry":{"type":"LineString","coordinates":[[4.890047,45.767626],[4.882166,45.769083]]}},{"type":"Feature","properties":{"shape_id":"{}","direction_id":"{}","headsign":"{\"Vaulx-en-Velin La Soie\": 253}","duration_avg":85.37549407114625,"n_vehicles":253,"d":742,"route_I_counts":"{\"389\": 253}","source":29,"target":30,"layer":"L","from":"Cusset","to":"Laurent Bonnevay"},"geometry":{"type":"LineString","coordinates":[[4.900275,45.765745],[4.909506,45.764022]]}},{"type":"Feature","properties":{"duration_avg":102.2568093385214,"n_vehicles":257,"d":821,"route_I_counts":"{\"390\": 257}","shape_id":"{}","direction_id":"{}","headsign":"{\"Perrache\": 257}","source":29,"target":28,"layer":"L","from":"Cusset","to":"Flachet"},"geometry":{"type":"LineString","coordinates":[[4.900275,45.765745],[4.890047,45.767626]]}},{"type":"Feature","properties":{"shape_id":"{}","direction_id":"{}","headsign":"{\"Vaulx-en-Velin La Soie\": 253}","duration_avg":88.93280632411067,"n_vehicles":253,"d":955,"route_I_counts":"{\"389\": 253}","source":30,"target":31,"layer":"L","from":"Laurent Bonnevay","to":"Vaulx-en-Velin La Soie"},"geometry":{"type":"LineString","coordinates":[[4.909506,45.764022],[4.92104,45.761025]]}},{"type":"Feature","properties":{"duration_avg":80.54474708171206,"n_vehicles":257,"d":740,"route_I_counts":"{\"390\": 257}","shape_id":"{}","direction_id":"{}","headsign":"{\"Perrache\": 257}","source":30,"target":29,"layer":"L","from":"Laurent Bonnevay","to":"Cusset"},"geometry":{"type":"LineString","coordinates":[[4.909506,45.764022],[4.900275,45.765745]]}},{"type":"Feature","properties":{"duration_avg":105.99221789883268,"n_vehicles":257,"d":962,"route_I_counts":"{\"390\": 257}","shape_id":"{}","direction_id":"{}","headsign":"{\"Perrache\": 257}","source":31,"target":30,"layer":"L","from":"Vaulx-en-Velin La Soie","to":"Laurent Bonnevay"},"geometry":{"type":"LineString","coordinates":[[4.92104,45.761025],[4.909506,45.764022]]}},{"type":"Feature","properties":{"shape_id":"{}","direction_id":"{}","headsign":"{\"Gare d'Oullins\": 212}","duration_avg":96.22641509433963,"n_vehicles":212,"d":608,"route_I_counts":"{\"391\": 212}","source":32,"target":33,"layer":"L","from":"Brotteaux","to":"Gare Part-Dieu V.Merle"},"geometry":{"type":"LineString","coordinates":[[4.859494,45.766921],[4.857235,45.761688]]}},{"type":"Feature","properties":{"duration_avg":36.509433962264154,"n_vehicles":212,"d":455,"route_I_counts":"{\"392\": 212}","shape_id":"{}","direction_id":"{}","headsign":"{\"Charpennes\": 212}","source":32,"target":25,"layer":"L","from":"Brotteaux","to":"Charpennes"},"geometry":{"type":"LineString","coordinates":[[4.859494,45.766921],[4.864218,45.770631]]}},{"type":"Feature","properties":{"shape_id":"{}","direction_id":"{}","headsign":"{\"Gare d'Oullins\": 212}","duration_avg":87.45283018867924,"n_vehicles":212,"d":787,"route_I_counts":"{\"391\": 212}","source":33,"target":34,"layer":"L","from":"Gare Part-Dieu V.Merle","to":"Place Guichard"},"geometry":{"type":"LineString","coordinates":[[4.857235,45.761688],[4.847651,45.759364]]}},{"type":"Feature","properties":{"duration_avg":87.73584905660377,"n_vehicles":212,"d":612,"route_I_counts":"{\"392\": 212}","shape_id":"{}","direction_id":"{}","headsign":"{\"Charpennes\": 212}","source":33,"target":32,"layer":"L","from":"Gare Part-Dieu V.Merle","to":"Brotteaux"},"geometry":{"type":"LineString","coordinates":[[4.857235,45.761688],[4.859494,45.766921]]}},{"type":"Feature","properties":{"duration_avg":115.18867924528301,"n_vehicles":212,"d":788,"route_I_counts":"{\"392\": 212}","shape_id":"{}","direction_id":"{}","headsign":"{\"Charpennes\": 212}","source":34,"target":33,"layer":"L","from":"Place Guichard","to":"Gare Part-Dieu V.Merle"},"geometry":{"type":"LineString","coordinates":[[4.847651,45.759364],[4.857235,45.761688]]}},{"type":"Feature","properties":{"duration_avg":109.81132075471699,"n_vehicles":212,"d":634,"route_I_counts":"{\"391\": 212}","shape_id":"{}","direction_id":"{}","headsign":"{\"Gare d'Oullins\": 212}","source":34,"target":11,"layer":"L","from":"Place Guichard","to":"Saxe - Gambetta"},"geometry":{"type":"LineString","coordinates":[[4.847651,45.759364],[4.84715,45.753892]]}},{"type":"Feature","properties":{"shape_id":"{}","direction_id":"{}","headsign":"{\"Gare d'Oullins\": 212}","duration_avg":96.50943396226415,"n_vehicles":212,"d":1002,"route_I_counts":"{\"391\": 212}","source":35,"target":36,"layer":"L","from":"Jean Macé","to":"Place Jean Jaurès"},"geometry":{"type":"LineString","coordinates":[[4.842471,45.746149],[4.837554,45.737825]]}},{"type":"Feature","properties":{"duration_avg":112.9245283018868,"n_vehicles":212,"d":902,"route_I_counts":"{\"392\": 212}","shape_id":"{}","direction_id":"{}","headsign":"{\"Charpennes\": 212}","source":35,"target":11,"layer":"L","from":"Jean Macé","to":"Saxe - Gambetta"},"geometry":{"type":"LineString","coordinates":[[4.842471,45.746149],[4.84715,45.753892]]}},{"type":"Feature","properties":{"shape_id":"{}","direction_id":"{}","headsign":"{\"Gare d'Oullins\": 212}","duration_avg":97.0754716981132,"n_vehicles":212,"d":710,"route_I_counts":"{\"391\": 212}","source":36,"target":37,"layer":"L","from":"Place Jean Jaurès","to":"Debourg"},"geometry":{"type":"LineString","coordinates":[[4.837554,45.737825],[4.83392,45.731965]]}},{"type":"Feature","properties":{"duration_avg":111.22641509433963,"n_vehicles":212,"d":1003,"route_I_counts":"{\"392\": 212}","shape_id":"{}","direction_id":"{}","headsign":"{\"Charpennes\": 212}","source":36,"target":35,"layer":"L","from":"Place Jean Jaurès","to":"Jean Macé"},"geometry":{"type":"LineString","coordinates":[[4.837554,45.737825],[4.842471,45.746149]]}},{"type":"Feature","properties":{"shape_id":"{}","direction_id":"{}","headsign":"{\"Gare d'Oullins\": 212}","duration_avg":72.73584905660377,"n_vehicles":212,"d":549,"route_I_counts":"{\"391\": 212}","source":37,"target":38,"layer":"L","from":"Debourg","to":"Stade de Gerland Le LOU"},"geometry":{"type":"LineString","coordinates":[[4.83392,45.731965],[4.831334,45.727369]]}},{"type":"Feature","properties":{"duration_avg":75.56603773584905,"n_vehicles":212,"d":713,"route_I_counts":"{\"392\": 212}","shape_id":"{}","direction_id":"{}","headsign":"{\"Charpennes\": 212}","source":37,"target":36,"layer":"L","from":"Debourg","to":"Place Jean Jaurès"},"geometry":{"type":"LineString","coordinates":[[4.83392,45.731965],[4.837554,45.737825]]}},{"type":"Feature","properties":{"shape_id":"{}","direction_id":"{}","headsign":"{\"Gare d'Oullins\": 212}","duration_avg":120.0,"n_vehicles":212,"d":1768,"route_I_counts":"{\"391\": 212}","source":38,"target":39,"layer":"L","from":"Stade de Gerland Le LOU","to":"Gare d'Oullins"},"geometry":{"type":"LineString","coordinates":[[4.831334,45.727369],[4.814492,45.716679]]}},{"type":"Feature","properties":{"duration_avg":100.18867924528301,"n_vehicles":212,"d":546,"route_I_counts":"{\"392\": 212}","shape_id":"{}","direction_id":"{}","headsign":"{\"Charpennes\": 212}","source":38,"target":37,"layer":"L","from":"Stade de Gerland Le LOU","to":"Debourg"},"geometry":{"type":"LineString","coordinates":[[4.831334,45.727369],[4.83392,45.731965]]}},{"type":"Feature","properties":{"duration_avg":150.8490566037736,"n_vehicles":212,"d":1762,"route_I_counts":"{\"392\": 212}","shape_id":"{}","direction_id":"{}","headsign":"{\"Charpennes\": 212}","source":39,"target":38,"layer":"L","from":"Gare d'Oullins","to":"Stade de Gerland Le LOU"},"geometry":{"type":"LineString","coordinates":[[4.814492,45.716679],[4.831334,45.727369]]}}]}