{"type":"FeatureCollection","features":[{"type":"Feature","geometry":{"type":"Point","coordinates":[-4.494331,36.718833]},"properties":{"name":"Andalucía Tech","original_ids":"[1]","id":0,"layer":"stop"}},{"type":"Feature","geometry":{"type":"Point","coordinates":[-4.488631,36.718028]},"properties":{"name":"Paraninfo","original_ids":"[2]","id":1,"layer":"stop"}},{"type":"Feature","geometry":{"type":"Point","coordinates":[-4.483919,36.717353]},"properties":{"name":"El Cónsul","original_ids":"[3]","id":2,"layer":"stop"}},{"type":"Feature","geometry":{"type":"Point","coordinates":[-4.478506,36.716583]},"properties":{"name":"Clínico","original_ids":"[4]","id":3,"layer":"stop"}},{"type":"Feature","geometry":{"type":"Point","coordinates":[-4.472122,36.7171]},"properties":{"name":"Universidad","original_ids":"[5]","id":4,"layer":"stop"}},{"type":"Feature","geometry":{"type":"Point","coordinates":[-4.463628,36.717808]},"properties":{"name":"Ciudad de la Justicia","original_ids":"[6]","id":5,"layer":"stop"}},{"type":"Feature","geometry":{"type":"Point","coordinates":[-4.453347,36.7195]},"properties":{"name":"Portada Alta","original_ids":"[7]","id":6,"layer":"stop"}},{"type":"Feature","geometry":{"type":"Point","coordinates":[-4.44925,36.718747]},"properties":{"name":"Carranque","original_ids":"[8]","id":7,"layer":"stop"}},{"type":"Feature","geometry":{"type":"Point","coordinates":[-4.445814,36.711569]},"properties":{"name":"Barbarela","original_ids":"[9]","id":8,"layer":"stop"}},{"type":"Feature","geometry":{"type":"Point","coordinates":[-4.440425,36.711208]},"properties":{"name":"La Unión","original_ids":"[10]","id":9,"layer":"stop"}},{"type":"Feature","geometry":{"type":"Point","coordinates":[-4.43155,36.712583]},"properties":{"name":"El Perchel","original_ids":"[11]","id":10,"layer":"stop"}},{"type":"Feature","geometry":{"type":"Point","coordinates":[-4.435747,36.708111]},"properties":{"name":"La Isla","original_ids":"[12]","id":11,"layer":"stop"}},{"type":"Feature","geometry":{"type":"Point","coordinates":[-4.440136,36.704314]},"properties":{"name":"Princesa - Huelin","original_ids":"[13]","id":12,"layer":"stop"}},{"type":"Feature","geometry":{"type":"Point","coordinates":[-4.446011,36.699772]},"properties":{"name":"El Torcal","original_ids":"[14]","id":13,"layer":"stop"}},{"type":"Feature","geometry":{"type":"Point","coordinates":[-4.451433,36.695192]},"properties":{"name":"La Luz - La Paz","original_ids":"[15]","id":14,"layer":"stop"}},{"type":"Feature","geometry":{"type":"Point","coordinates":[-4.456086,36.691439]},"properties":{"name":"Puerta Blanca","original_ids":"[16]","id":15,"layer":"stop"}},{"type":"Feature","geometry":{"type":"Point","coordinates":[-4.458061,36.684725]},"properties":{"name":"Palacio de los Deportes","original_ids":"[17]","id":16,"layer":"stop"}},{"type":"Feature","properties":{"shape_id":"{\"L1V1\": 136}","direction_id":"{\"1\": 136}","headsign":"{\"El Perchel\": 136}","duration_avg":96.2720588235294,"n_vehicles":136,"d":516,"route_I_counts":"{\"1\": 136}","source":0,"target":1,"layer":"L","from":"Andalucía Tech","to":"Paraninfo"},"geometry":{"type":"LineString","coordinates":[[-4.494331,36.718833],[-4.488631,36.718028]]}},{"type":"Feature","properties":{"shape_id":"{\"L1V1\": 136}","direction_id":"{\"1\": 136}","headsign":"{\"El Perchel\": 136}","duration_avg":66.96323529411765,"n_vehicles":136,"d":427,"route_I_counts":"{\"1\": 136}","source":1,"target":2,"layer":"L","from":"Paraninfo","to":"El Cónsul"},"geometry":{"type":"LineString","coordinates":[[-4.488631,36.718028],[-4.483919,36.717353]]}},{"type":"Feature","properties":{"shape_id":"{\"L1V2\": 135}","direction_id":"{\"0\": 135}","headsign":"{\"Andalucía Tech\": 135}","duration_avg":76.96296296296296,"n_vehicles":135,"d":516,"route_I_counts":"{\"1\": 135}","source":1,"target":0,"layer":"L","from":"Paraninfo","to":"Andalucía Tech"},"geometry":{"type":"LineString","coordinates":[[-4.488631,36.718028],[-4.494331,36.718833]]}},{"type":"Feature","properties":{"shape_id":"{\"L1V1\": 136}","direction_id":"{\"1\": 136}","headsign":"{\"El Perchel\": 136}","duration_avg":74.96323529411765,"n_vehicles":136,"d":490,"route_I_counts":"{\"1\": 136}","source":2,"target":3,"layer":"L","from":"El Cónsul","to":"Clínico"},"geometry":{"type":"LineString","coordinates":[[-4.483919,36.717353],[-4.478506,36.716583]]}},{"type":"Feature","properties":{"shape_id":"{\"L1V2\": 135}","direction_id":"{\"0\": 135}","headsign":"{\"Andalucía Tech\": 135}","duration_avg":70.07407407407408,"n_vehicles":135,"d":427,"route_I_counts":"{\"1\": 135}","source":2,"target":1,"layer":"L","from":"El Cónsul","to":"Paraninfo"},"geometry":{"type":"LineString","coordinates":[[-4.483919,36.717353],[-4.488631,36.718028]]}},{"type":"Feature","properties":{"shape_id":"{\"L1V1\": 136}","direction_id":"{\"1\": 136}","headsign":"{\"El Perchel\": 136}","duration_avg":100.96323529411765,"n_vehicles":136,"d":572,"route_I_counts":"{\"1\": 136}","source":3,"target":4,"layer":"L","from":"Clínico","to":"Universidad"},"geometry":{"type":"LineString","coordinates":[[-4.478506,36.716583],[-4.472122,36.7171]]}},{"type":"Feature","properties":{"shape_id":"{\"L1V2\": 135}","direction_id":"{\"0\": 135}","headsign":"{\"Andalucía Tech\": 135}","duration_avg":74.96296296296296,"n_vehicles":135,"d":490,"route_I_counts":"{\"1\": 135}","source":3,"target":2,"layer":"L","from":"Clínico","to":"El Cónsul"},"geometry":{"type":"LineString","coordinates":[[-4.478506,36.716583],[-4.483919,36.717353]]}},{"type":"Feature","properties":{"shape_id":"{\"L1V1\": 136}","direction_id":"{\"1\": 136}","headsign":"{\"El Perchel\": 136}","duration_avg":102.96323529411765,"n_vehicles":136,"d":762,"route_I_counts":"{\"1\": 136}","source":4,"target":5,"layer":"L","from":"Universidad","to":"Ciudad de la Justicia"},"geometry":{"type":"LineString","coordinates":[[-4.472122,36.7171],[-4.463628,36.717808]]}},{"type":"Feature","properties":{"shape_id":"{\"L1V2\": 135}","direction_id":"{\"0\": 135}","headsign":"{\"Andalucía Tech\": 135}","duration_avg":96.96296296296296,"n_vehicles":135,"d":572,"route_I_counts":"{\"1\": 135}","source":4,"target":3,"layer":"L","from":"Universidad","to":"Clínico"},"geometry":{"type":"LineString","coordinates":[[-4.472122,36.7171],[-4.478506,36.716583]]}},{"type":"Feature","properties":{"shape_id":"{\"L1V1\": 137}","direction_id":"{\"1\": 137}","headsign":"{\"El Perchel\": 137}","duration_avg":106.78102189781022,"n_vehicles":137,"d":936,"route_I_counts":"{\"1\": 137}","source":5,"target":6,"layer":"L","from":"Ciudad de la Justicia","to":"Portada Alta"},"geometry":{"type":"LineString","coordinates":[[-4.463628,36.717808],[-4.453347,36.7195]]}},{"type":"Feature","properties":{"shape_id":"{\"L1V2\": 135}","direction_id":"{\"0\": 135}","headsign":"{\"Andalucía Tech\": 135}","duration_avg":109.77777777777777,"n_vehicles":135,"d":762,"route_I_counts":"{\"1\": 135}","source":5,"target":4,"layer":"L","from":"Ciudad de la Justicia","to":"Universidad"},"geometry":{"type":"LineString","coordinates":[[-4.463628,36.717808],[-4.472122,36.7171]]}},{"type":"Feature","properties":{"shape_id":"{\"L1V1\": 136}","direction_id":"{\"1\": 136}","headsign":"{\"El Perchel\": 136}","duration_avg":73.04411764705883,"n_vehicles":136,"d":375,"route_I_counts":"{\"1\": 136}","source":6,"target":7,"layer":"L","from":"Portada Alta","to":"Carranque"},"geometry":{"type":"LineString","coordinates":[[-4.453347,36.7195],[-4.44925,36.718747]]}},{"type":"Feature","properties":{"shape_id":"{\"L1V2\": 134}","direction_id":"{\"0\": 134}","headsign":"{\"Andalucía Tech\": 134}","duration_avg":113.00746268656717,"n_vehicles":134,"d":936,"route_I_counts":"{\"1\": 134}","source":6,"target":5,"layer":"L","from":"Portada Alta","to":"Ciudad de la Justicia"},"geometry":{"type":"LineString","coordinates":[[-4.453347,36.7195],[-4.463628,36.717808]]}},{"type":"Feature","properties":{"shape_id":"{\"L1V1\": 136}","direction_id":"{\"1\": 136}","headsign":"{\"El Perchel\": 136}","duration_avg":101.04411764705883,"n_vehicles":136,"d":855,"route_I_counts":"{\"1\": 136}","source":7,"target":8,"layer":"L","from":"Carranque","to":"Barbarela"},"geometry":{"type":"LineString","coordinates":[[-4.44925,36.718747],[-4.445814,36.711569]]}},{"type":"Feature","properties":{"shape_id":"{\"L1V2\": 135}","direction_id":"{\"0\": 135}","headsign":"{\"Andalucía Tech\": 135}","duration_avg":77.1037037037037,"n_vehicles":135,"d":375,"route_I_counts":"{\"1\": 135}","source":7,"target":6,"layer":"L","from":"Carranque","to":"Portada Alta"},"geometry":{"type":"LineString","coordinates":[[-4.44925,36.718747],[-4.453347,36.7195]]}},{"type":"Feature","properties":{"shape_id":"{\"L1V1\": 136}","direction_id":"{\"1\": 136}","headsign":"{\"El Perchel\": 136}","duration_avg":132.0441176470588,"n_vehicles":136,"d":482,"route_I_counts":"{\"1\": 136}","source":8,"target":9,"layer":"L","from":"Barbarela","to":"La Unión"},"geometry":{"type":"LineString","coordinates":[[-4.445814,36.711569],[-4.440425,36.711208]]}},{"type":"Feature","properties":{"shape_id":"{\"L1V2\": 135}","direction_id":"{\"0\": 135}","headsign":"{\"Andalucía Tech\": 135}","duration_avg":99.1037037037037,"n_vehicles":135,"d":855,"route_I_counts":"{\"1\": 135}","source":8,"target":7,"layer":"L","from":"Barbarela","to":"Carranque"},"geometry":{"type":"LineString","coordinates":[[-4.445814,36.711569],[-4.44925,36.718747]]}},{"type":"Feature","properties":{"shape_id":"{\"L1V1\": 136}","direction_id":"{\"1\": 136}","headsign":"{\"El Perchel\": 136}","duration_avg":142.0441176470588,"n_vehicles":136,"d":806,"route_I_counts":"{\"1\": 136}","source":9,"target":10,"layer":"L","from":"La Unión","to":"El Perchel"},"geometry":{"type":"LineString","coordinates":[[-4.440425,36.711208],[-4.43155,36.712583]]}},{"type":"Feature","properties":{"shape_id":"{\"L1V2\": 135}","direction_id":"{\"0\": 135}","headsign":"{\"Andalucía Tech\": 135}","duration_avg":134.1037037037037,"n_vehicles":135,"d":482,"route_I_counts":"{\"1\": 135}","source":9,"target":8,"layer":"L","from":"La Unión","to":"Barbarela"},"geometry":{"type":"LineString","coordinates":[[-4.440425,36.711208],[-4.445814,36.711569]]}},{"type":"Feature","properties":{"shape_id":"{\"L2V2\": 137}","direction_id":"{\"0\": 137}","headsign":"{\"Palacio de los Deportes\": 137}","duration_avg":132.1094890510949,"n_vehicles":137,"d":623,"route_I_counts":"{\"2\": 137}","source":10,"target":11,"layer":"L","from":"El Perchel","to":"La Isla"},"geometry":{"type":"LineString","coordinates":[[-4.43155,36.712583],[-4.435747,36.708111]]}},{"type":"Feature","properties":{"shape_id":"{\"L1V2\": 135}","direction_id":"{\"0\": 135}","headsign":"{\"Andalucía Tech\": 135}","duration_avg":135.1037037037037,"n_vehicles":135,"d":806,"route_I_counts":"{\"1\": 135}","source":10,"target":9,"layer":"L","from":"El Perchel","to":"La Unión"},"geometry":{"type":"LineString","coordinates":[[-4.43155,36.712583],[-4.440425,36.711208]]}},{"type":"Feature","properties":{"shape_id":"{\"L2V2\": 136}","direction_id":"{\"0\": 136}","headsign":"{\"Palacio de los Deportes\": 136}","duration_avg":87.96323529411765,"n_vehicles":136,"d":576,"route_I_counts":"{\"2\": 136}","source":11,"target":12,"layer":"L","from":"La Isla","to":"Princesa - Huelin"},"geometry":{"type":"LineString","coordinates":[[-4.435747,36.708111],[-4.440136,36.704314]]}},{"type":"Feature","properties":{"shape_id":"{\"L2V1\": 135}","direction_id":"{\"1\": 135}","headsign":"{\"El Perchel\": 135}","duration_avg":150.03703703703704,"n_vehicles":135,"d":623,"route_I_counts":"{\"2\": 135}","source":11,"target":10,"layer":"L","from":"La Isla","to":"El Perchel"},"geometry":{"type":"LineString","coordinates":[[-4.435747,36.708111],[-4.43155,36.712583]]}},{"type":"Feature","properties":{"shape_id":"{\"L2V2\": 136}","direction_id":"{\"0\": 136}","headsign":"{\"Palacio de los Deportes\": 136}","duration_avg":92.96323529411765,"n_vehicles":136,"d":728,"route_I_counts":"{\"2\": 136}","source":12,"target":13,"layer":"L","from":"Princesa - Huelin","to":"El Torcal"},"geometry":{"type":"LineString","coordinates":[[-4.440136,36.704314],[-4.446011,36.699772]]}},{"type":"Feature","properties":{"shape_id":"{\"L2V1\": 135}","direction_id":"{\"1\": 135}","headsign":"{\"El Perchel\": 135}","duration_avg":92.0,"n_vehicles":135,"d":576,"route_I_counts":"{\"2\": 135}","source":12,"target":11,"layer":"L","from":"Princesa - Huelin","to":"La Isla"},"geometry":{"type":"LineString","coordinates":[[-4.440136,36.704314],[-4.435747,36.708111]]}},{"type":"Feature","properties":{"shape_id":"{\"L2V2\": 136}","direction_id":"{\"0\": 136}","headsign":"{\"Palacio de los Deportes\": 136}","duration_avg":82.96323529411765,"n_vehicles":136,"d":703,"route_I_counts":"{\"2\": 136}","source":13,"target":14,"layer":"L","from":"El Torcal","to":"La Luz - La Paz"},"geometry":{"type":"LineString","coordinates":[[-4.446011,36.699772],[-4.451433,36.695192]]}},{"type":"Feature","properties":{"shape_id":"{\"L2V1\": 135}","direction_id":"{\"1\": 135}","headsign":"{\"El Perchel\": 135}","duration_avg":92.0,"n_vehicles":135,"d":728,"route_I_counts":"{\"2\": 135}","source":13,"target":12,"layer":"L","from":"El Torcal","to":"Princesa - Huelin"},"geometry":{"type":"LineString","coordinates":[[-4.446011,36.699772],[-4.440136,36.704314]]}},{"type":"Feature","properties":{"shape_id":"{\"L2V2\": 136}","direction_id":"{\"0\": 136}","headsign":"{\"Palacio de los Deportes\": 136}","duration_avg":83.96323529411765,"n_vehicles":136,"d":589,"route_I_counts":"{\"2\": 136}","source":14,"target":15,"layer":"L","from":"La Luz - La Paz","to":"Puerta Blanca"},"geometry":{"type":"LineString","coordinates":[[-4.451433,36.695192],[-4.456086,36.691439]]}},{"type":"Feature","properties":{"shape_id":"{\"L2V1\": 135}","direction_id":"{\"1\": 135}","headsign":"{\"El Perchel\": 135}","duration_avg":93.0,"n_vehicles":135,"d":703,"route_I_counts":"{\"2\": 135}","source":14,"target":13,"layer":"L","from":"La Luz - La Paz","to":"El Torcal"},"geometry":{"type":"LineString","coordinates":[[-4.451433,36.695192],[-4.446011,36.699772]]}},{"type":"Feature","properties":{"shape_id":"{\"L2V2\": 136}","direction_id":"{\"0\": 136}","headsign":"{\"Palacio de los Deportes\": 136}","duration_avg":108.04411764705883,"n_vehicles":136,"d":767,"route_I_counts":"{\"2\": 136}","source":15,"target":16,"layer":"L","from":"Puerta Blanca","to":"Palacio de los Deportes"},"geometry":{"type":"LineString","coordinates":[[-4.456086,36.691439],[-4.458061,36.684725]]}},{"type":"Feature","properties":{"shape_id":"{\"L2V1\": 135}","direction_id":"{\"1\": 135}","headsign":"{\"El Perchel\": 135}","duration_avg":86.0,"n_vehicles":135,"d":589,"route_I_counts":"{\"2\": 135}","source":15,"target":14,"layer":"L","from":"Puerta Blanca","to":"La Luz - La Paz"},"geometry":{"type":"LineString","coordinates":[[-4.456086,36.691439],[-4.451433,36.695192]]}},{"type":"Feature","properties":{"shape_id":"{\"L2V1\": 135}","direction_id":"{\"1\": 135}","headsign":"{\"El Perchel\": 135}","duration_avg":104.44444444444444,"n_vehicles":135,"d":767,"route_I_counts":"{\"2\": 135}","source":16,"target":15,"layer":"L","from":"Palacio de los Deportes","to":"Puerta Blanca"},"geometry":{"type":"LineString","coordinates":[[-4.458061,36.684725],[-4.456086,36.691439]]}}]}