{"type":"FeatureCollection","features":[{"type":"Feature","geometry":{"type":"Point","coordinates":[5.429632,43.333139]},"properties":{"name":"La Rose","original_ids":"[1401, 1402]","id":0,"layer":"stop"}},{"type":"Feature","geometry":{"type":"Point","coordinates":[5.423199,43.325536]},"properties":{"name":"Frais Vallon","original_ids":"[16, 17]","id":1,"layer":"stop"}},{"type":"Feature","geometry":{"type":"Point","coordinates":[5.416426,43.320982]},"properties":{"name":"Malpassé","original_ids":"[22, 23]","id":2,"layer":"stop"}},{"type":"Feature","geometry":{"type":"Point","coordinates":[5.406389,43.315487]},"properties":{"name":"Saint-Just","original_ids":"[2337, 2338]","id":3,"layer":"stop"}},{"type":"Feature","geometry":{"type":"Point","coordinates":[5.401396,43.309163]},"properties":{"name":"Chartreux","original_ids":"[26, 27]","id":4,"layer":"stop"}},{"type":"Feature","geometry":{"type":"Point","coordinates":[5.396114,43.304098]},"properties":{"name":"Cinq Avenues Longchamp","original_ids":"[818, 819]","id":5,"layer":"stop"}},{"type":"Feature","geometry":{"type":"Point","coordinates":[5.386167,43.300424]},"properties":{"name":"Réformés Canebière","original_ids":"[87, 88]","id":6,"layer":"stop"}},{"type":"Feature","geometry":{"type":"Point","coordinates":[5.380151,43.302375]},"properties":{"name":"Saint-Charles","original_ids":"[1211, 1212, 1213, 1214]","id":7,"layer":"stop"}},{"type":"Feature","geometry":{"type":"Point","coordinates":[5.374341,43.300318]},"properties":{"name":"Colbert","original_ids":"[1433, 1434]","id":8,"layer":"stop"}},{"type":"Feature","geometry":{"type":"Point","coordinates":[5.37418,43.295637]},"properties":{"name":"Vieux-Port","original_ids":"[1534, 1535]","id":9,"layer":"stop"}},{"type":"Feature","geometry":{"type":"Point","coordinates":[5.37796,43.290306]},"properties":{"name":"Estrangin","original_ids":"[1797, 1798]","id":10,"layer":"stop"}},{"type":"Feature","geometry":{"type":"Point","coordinates":[5.384557,43.286117]},"properties":{"name":"Castellane","original_ids":"[1193, 1197, 1194, 1195]","id":11,"layer":"stop"}},{"type":"Feature","geometry":{"type":"Point","coordinates":[5.392011,43.288091]},"properties":{"name":"Baille","original_ids":"[1594, 1595]","id":12,"layer":"stop"}},{"type":"Feature","geometry":{"type":"Point","coordinates":[5.400482,43.291123]},"properties":{"name":"La Timone","original_ids":"[1517, 1518]","id":13,"layer":"stop"}},{"type":"Feature","geometry":{"type":"Point","coordinates":[5.406203,43.295439]},"properties":{"name":"La Blancarde","original_ids":"[1360, 1361]","id":14,"layer":"stop"}},{"type":"Feature","geometry":{"type":"Point","coordinates":[5.413635,43.299947]},"properties":{"name":"Louis Armand","original_ids":"[114, 115]","id":15,"layer":"stop"}},{"type":"Feature","geometry":{"type":"Point","coordinates":[5.418613,43.30324]},"properties":{"name":"Saint-Barnabé","original_ids":"[116, 117]","id":16,"layer":"stop"}},{"type":"Feature","geometry":{"type":"Point","coordinates":[5.424213,43.30388]},"properties":{"name":"La Fourragère","original_ids":"[595]","id":17,"layer":"stop"}},{"type":"Feature","geometry":{"type":"Point","coordinates":[5.367242,43.327927]},"properties":{"name":"Gèze","original_ids":"[1848, 1849]","id":18,"layer":"stop"}},{"type":"Feature","geometry":{"type":"Point","coordinates":[5.371352,43.320851]},"properties":{"name":"Bougainville","original_ids":"[34, 35]","id":19,"layer":"stop"}},{"type":"Feature","geometry":{"type":"Point","coordinates":[5.37297,43.315122]},"properties":{"name":"National","original_ids":"[2167, 2168]","id":20,"layer":"stop"}},{"type":"Feature","geometry":{"type":"Point","coordinates":[5.372323,43.309403]},"properties":{"name":"Désirée Clary","original_ids":"[1771, 1772]","id":21,"layer":"stop"}},{"type":"Feature","geometry":{"type":"Point","coordinates":[5.367869,43.303881]},"properties":{"name":"Joliette","original_ids":"[1472, 1473]","id":22,"layer":"stop"}},{"type":"Feature","geometry":{"type":"Point","coordinates":[5.374022,43.301954]},"properties":{"name":"Jules Guesde","original_ids":"[1903, 1904]","id":23,"layer":"stop"}},{"type":"Feature","geometry":{"type":"Point","coordinates":[5.381208,43.296778]},"properties":{"name":"Noailles","original_ids":"[2171, 2172]","id":24,"layer":"stop"}},{"type":"Feature","geometry":{"type":"Point","coordinates":[5.383633,43.292816]},"properties":{"name":"Notre-Dame du Mont","original_ids":"[2179, 2180]","id":25,"layer":"stop"}},{"type":"Feature","geometry":{"type":"Point","coordinates":[5.387584,43.279377]},"properties":{"name":"Périer","original_ids":"[1445, 1446]","id":26,"layer":"stop"}},{"type":"Feature","geometry":{"type":"Point","coordinates":[5.392488,43.271388]},"properties":{"name":"Rond-Point du Prado","original_ids":"[2319, 2320]","id":27,"layer":"stop"}},{"type":"Feature","geometry":{"type":"Point","coordinates":[5.402202,43.270545]},"properties":{"name":"Sainte-Marguerite Dromel","original_ids":"[44, 45]","id":28,"layer":"stop"}},{"type":"Feature","properties":{"shape_id":"{}","direction_id":"{\"0\": 178}","headsign":"{\"La Fourragère\": 178}","duration_avg":86.96629213483146,"n_vehicles":178,"d":993,"route_I_counts":"{\"47\": 178}","source":0,"target":1,"layer":"L","from":"La Rose","to":"Frais Vallon"},"geometry":{"type":"LineString","coordinates":[[5.429632,43.333139],[5.423199,43.325536]]}},{"type":"Feature","properties":{"shape_id":"{}","direction_id":"{\"0\": 178}","headsign":"{\"La Fourragère\": 178}","duration_avg":93.03370786516854,"n_vehicles":178,"d":746,"route_I_counts":"{\"47\": 178}","source":1,"target":2,"layer":"L","from":"Frais Vallon","to":"Malpassé"},"geometry":{"type":"LineString","coordinates":[[5.423199,43.325536],[5.416426,43.320982]]}},{"type":"Feature","properties":{"duration_avg":82.62857142857143,"n_vehicles":175,"d":999,"route_I_counts":"{\"47\": 175}","shape_id":"{}","direction_id":"{\"1\": 175}","headsign":"{\"La Rose\": 175}","source":1,"target":0,"layer":"L","from":"Frais Vallon","to":"La Rose"},"geometry":{"type":"LineString","coordinates":[[5.423199,43.325536],[5.429632,43.333139]]}},{"type":"Feature","properties":{"shape_id":"{}","direction_id":"{\"0\": 178}","headsign":"{\"La Fourragère\": 178}","duration_avg":120.0,"n_vehicles":178,"d":1017,"route_I_counts":"{\"47\": 178}","source":2,"target":3,"layer":"L","from":"Malpassé","to":"Saint-Just"},"geometry":{"type":"LineString","coordinates":[[5.416426,43.320982],[5.406389,43.315487]]}},{"type":"Feature","properties":{"duration_avg":97.5,"n_vehicles":176,"d":746,"route_I_counts":"{\"47\": 176}","shape_id":"{}","direction_id":"{\"1\": 176}","headsign":"{\"La Rose\": 176}","source":2,"target":1,"layer":"L","from":"Malpassé","to":"Frais Vallon"},"geometry":{"type":"LineString","coordinates":[[5.416426,43.320982],[5.423199,43.325536]]}},{"type":"Feature","properties":{"shape_id":"{}","direction_id":"{\"0\": 178}","headsign":"{\"La Fourragère\": 178}","duration_avg":86.96629213483146,"n_vehicles":178,"d":811,"route_I_counts":"{\"47\": 178}","source":3,"target":4,"layer":"L","from":"Saint-Just","to":"Chartreux"},"geometry":{"type":"LineString","coordinates":[[5.406389,43.315487],[5.401396,43.309163]]}},{"type":"Feature","properties":{"duration_avg":82.1590909090909,"n_vehicles":176,"d":1017,"route_I_counts":"{\"47\": 176}","shape_id":"{}","direction_id":"{\"1\": 176}","headsign":"{\"La Rose\": 176}","source":3,"target":2,"layer":"L","from":"Saint-Just","to":"Malpassé"},"geometry":{"type":"LineString","coordinates":[[5.406389,43.315487],[5.416426,43.320982]]}},{"type":"Feature","properties":{"shape_id":"{}","direction_id":"{\"0\": 178}","headsign":"{\"La Fourragère\": 178}","duration_avg":93.03370786516854,"n_vehicles":178,"d":707,"route_I_counts":"{\"47\": 178}","source":4,"target":5,"layer":"L","from":"Chartreux","to":"Cinq Avenues Longchamp"},"geometry":{"type":"LineString","coordinates":[[5.401396,43.309163],[5.396114,43.304098]]}},{"type":"Feature","properties":{"duration_avg":120.0,"n_vehicles":176,"d":808,"route_I_counts":"{\"47\": 176}","shape_id":"{}","direction_id":"{\"1\": 176}","headsign":"{\"La Rose\": 176}","source":4,"target":3,"layer":"L","from":"Chartreux","to":"Saint-Just"},"geometry":{"type":"LineString","coordinates":[[5.401396,43.309163],[5.406389,43.315487]]}},{"type":"Feature","properties":{"shape_id":"{}","direction_id":"{\"0\": 178}","headsign":"{\"La Fourragère\": 178}","duration_avg":86.96629213483146,"n_vehicles":178,"d":903,"route_I_counts":"{\"47\": 178}","source":5,"target":6,"layer":"L","from":"Cinq Avenues Longchamp","to":"Réformés Canebière"},"geometry":{"type":"LineString","coordinates":[[5.396114,43.304098],[5.386167,43.300424]]}},{"type":"Feature","properties":{"duration_avg":63.40909090909091,"n_vehicles":176,"d":710,"route_I_counts":"{\"47\": 176}","shape_id":"{}","direction_id":"{\"1\": 176}","headsign":"{\"La Rose\": 176}","source":5,"target":4,"layer":"L","from":"Cinq Avenues Longchamp","to":"Chartreux"},"geometry":{"type":"LineString","coordinates":[[5.396114,43.304098],[5.401396,43.309163]]}},{"type":"Feature","properties":{"shape_id":"{}","direction_id":"{\"0\": 177}","headsign":"{\"La Fourragère\": 177}","duration_avg":60.67796610169491,"n_vehicles":177,"d":533,"route_I_counts":"{\"47\": 177}","source":6,"target":7,"layer":"L","from":"Réformés Canebière","to":"Saint-Charles"},"geometry":{"type":"LineString","coordinates":[[5.386167,43.300424],[5.380151,43.302375]]}},{"type":"Feature","properties":{"duration_avg":116.5909090909091,"n_vehicles":176,"d":900,"route_I_counts":"{\"47\": 176}","shape_id":"{}","direction_id":"{\"1\": 176}","headsign":"{\"La Rose\": 176}","source":6,"target":5,"layer":"L","from":"Réformés Canebière","to":"Cinq Avenues Longchamp"},"geometry":{"type":"LineString","coordinates":[[5.386167,43.300424],[5.396114,43.304098]]}},{"type":"Feature","properties":{"shape_id":"{}","direction_id":"{\"0\": 177}","headsign":"{\"La Fourragère\": 177}","duration_avg":119.32203389830508,"n_vehicles":177,"d":523,"route_I_counts":"{\"47\": 177}","source":7,"target":8,"layer":"L","from":"Saint-Charles","to":"Colbert"},"geometry":{"type":"LineString","coordinates":[[5.380151,43.302375],[5.374341,43.300318]]}},{"type":"Feature","properties":{"duration_avg":60.0,"n_vehicles":176,"d":538,"route_I_counts":"{\"47\": 176}","shape_id":"{}","direction_id":"{\"1\": 176}","headsign":"{\"La Rose\": 176}","source":7,"target":6,"layer":"L","from":"Saint-Charles","to":"Réformés Canebière"},"geometry":{"type":"LineString","coordinates":[[5.380151,43.302375],[5.386167,43.300424]]}},{"type":"Feature","properties":{"duration_avg":77.62711864406779,"n_vehicles":177,"d":620,"route_I_counts":"{\"88\": 177}","shape_id":"{}","direction_id":"{\"0\": 177}","headsign":"{\"Sainte-Marguerite Dromel\": 177}","source":7,"target":24,"layer":"L","from":"Saint-Charles","to":"Noailles"},"geometry":{"type":"LineString","coordinates":[[5.380151,43.302375],[5.381208,43.296778]]}},{"type":"Feature","properties":{"duration_avg":73.55932203389831,"n_vehicles":177,"d":510,"route_I_counts":"{\"88\": 177}","shape_id":"{}","direction_id":"{\"1\": 177}","headsign":"{\"Gèze\": 177}","source":7,"target":23,"layer":"L","from":"Saint-Charles","to":"Jules Guesde"},"geometry":{"type":"LineString","coordinates":[[5.380151,43.302375],[5.374022,43.301954]]}},{"type":"Feature","properties":{"shape_id":"{}","direction_id":"{\"0\": 177}","headsign":"{\"La Fourragère\": 177}","duration_avg":60.0,"n_vehicles":177,"d":521,"route_I_counts":"{\"47\": 177}","source":8,"target":9,"layer":"L","from":"Colbert","to":"Vieux-Port"},"geometry":{"type":"LineString","coordinates":[[5.374341,43.300318],[5.37418,43.295637]]}},{"type":"Feature","properties":{"duration_avg":97.8409090909091,"n_vehicles":176,"d":514,"route_I_counts":"{\"47\": 176}","shape_id":"{}","direction_id":"{\"1\": 176}","headsign":"{\"La Rose\": 176}","source":8,"target":7,"layer":"L","from":"Colbert","to":"Saint-Charles"},"geometry":{"type":"LineString","coordinates":[[5.374341,43.300318],[5.380151,43.302375]]}},{"type":"Feature","properties":{"shape_id":"{}","direction_id":"{\"0\": 177}","headsign":"{\"La Fourragère\": 177}","duration_avg":93.89830508474576,"n_vehicles":177,"d":667,"route_I_counts":"{\"47\": 177}","source":9,"target":10,"layer":"L","from":"Vieux-Port","to":"Estrangin"},"geometry":{"type":"LineString","coordinates":[[5.37418,43.295637],[5.37796,43.290306]]}},{"type":"Feature","properties":{"duration_avg":60.67796610169491,"n_vehicles":177,"d":517,"route_I_counts":"{\"47\": 177}","shape_id":"{}","direction_id":"{\"1\": 177}","headsign":"{\"La Rose\": 177}","source":9,"target":8,"layer":"L","from":"Vieux-Port","to":"Colbert"},"geometry":{"type":"LineString","coordinates":[[5.37418,43.295637],[5.374341,43.300318]]}},{"type":"Feature","properties":{"shape_id":"{}","direction_id":"{\"0\": 177}","headsign":"{\"La Fourragère\": 177}","duration_avg":119.32203389830508,"n_vehicles":177,"d":709,"route_I_counts":"{\"47\": 177}","source":10,"target":11,"layer":"L","from":"Estrangin","to":"Castellane"},"geometry":{"type":"LineString","coordinates":[[5.37796,43.290306],[5.384557,43.286117]]}},{"type":"Feature","properties":{"duration_avg":81.35593220338983,"n_vehicles":177,"d":666,"route_I_counts":"{\"47\": 177}","shape_id":"{}","direction_id":"{\"1\": 177}","headsign":"{\"La Rose\": 177}","source":10,"target":9,"layer":"L","from":"Estrangin","to":"Vieux-Port"},"geometry":{"type":"LineString","coordinates":[[5.37796,43.290306],[5.37418,43.295637]]}},{"type":"Feature","properties":{"shape_id":"{}","direction_id":"{\"0\": 177}","headsign":"{\"La Fourragère\": 177}","duration_avg":61.016949152542374,"n_vehicles":177,"d":642,"route_I_counts":"{\"47\": 177}","source":11,"target":12,"layer":"L","from":"Castellane","to":"Baille"},"geometry":{"type":"LineString","coordinates":[[5.384557,43.286117],[5.392011,43.288091]]}},{"type":"Feature","properties":{"duration_avg":104.0677966101695,"n_vehicles":177,"d":699,"route_I_counts":"{\"47\": 177}","shape_id":"{}","direction_id":"{\"1\": 177}","headsign":"{\"La Rose\": 177}","source":11,"target":10,"layer":"L","from":"Castellane","to":"Estrangin"},"geometry":{"type":"LineString","coordinates":[[5.384557,43.286117],[5.37796,43.290306]]}},{"type":"Feature","properties":{"duration_avg":67.8409090909091,"n_vehicles":176,"d":693,"route_I_counts":"{\"88\": 176}","shape_id":"{}","direction_id":"{\"0\": 176}","headsign":"{\"Sainte-Marguerite Dromel\": 176}","source":11,"target":26,"layer":"L","from":"Castellane","to":"Périer"},"geometry":{"type":"LineString","coordinates":[[5.384557,43.286117],[5.387584,43.279377]]}},{"type":"Feature","properties":{"duration_avg":96.94915254237289,"n_vehicles":177,"d":853,"route_I_counts":"{\"88\": 177}","shape_id":"{}","direction_id":"{\"1\": 177}","headsign":"{\"Gèze\": 177}","source":11,"target":25,"layer":"L","from":"Castellane","to":"Notre-Dame du Mont"},"geometry":{"type":"LineString","coordinates":[[5.384557,43.286117],[5.383633,43.292816]]}},{"type":"Feature","properties":{"shape_id":"{}","direction_id":"{\"0\": 177}","headsign":"{\"La Fourragère\": 177}","duration_avg":118.98305084745763,"n_vehicles":177,"d":764,"route_I_counts":"{\"47\": 177}","source":12,"target":13,"layer":"L","from":"Baille","to":"La Timone"},"geometry":{"type":"LineString","coordinates":[[5.392011,43.288091],[5.400482,43.291123]]}},{"type":"Feature","properties":{"duration_avg":114.57627118644068,"n_vehicles":177,"d":643,"route_I_counts":"{\"47\": 177}","shape_id":"{}","direction_id":"{\"1\": 177}","headsign":"{\"La Rose\": 177}","source":12,"target":11,"layer":"L","from":"Baille","to":"Castellane"},"geometry":{"type":"LineString","coordinates":[[5.392011,43.288091],[5.384557,43.286117]]}},{"type":"Feature","properties":{"shape_id":"{}","direction_id":"{\"0\": 176}","headsign":"{\"La Fourragère\": 176}","duration_avg":80.11363636363636,"n_vehicles":176,"d":667,"route_I_counts":"{\"47\": 176}","source":13,"target":14,"layer":"L","from":"La Timone","to":"La Blancarde"},"geometry":{"type":"LineString","coordinates":[[5.400482,43.291123],[5.406203,43.295439]]}},{"type":"Feature","properties":{"duration_avg":84.7457627118644,"n_vehicles":177,"d":759,"route_I_counts":"{\"47\": 177}","shape_id":"{}","direction_id":"{\"1\": 177}","headsign":"{\"La Rose\": 177}","source":13,"target":12,"layer":"L","from":"La Timone","to":"Baille"},"geometry":{"type":"LineString","coordinates":[[5.400482,43.291123],[5.392011,43.288091]]}},{"type":"Feature","properties":{"shape_id":"{}","direction_id":"{\"0\": 176}","headsign":"{\"La Fourragère\": 176}","duration_avg":100.56818181818181,"n_vehicles":176,"d":783,"route_I_counts":"{\"47\": 176}","source":14,"target":15,"layer":"L","from":"La Blancarde","to":"Louis Armand"},"geometry":{"type":"LineString","coordinates":[[5.406203,43.295439],[5.413635,43.299947]]}},{"type":"Feature","properties":{"duration_avg":100.67796610169492,"n_vehicles":177,"d":670,"route_I_counts":"{\"47\": 177}","shape_id":"{}","direction_id":"{\"1\": 177}","headsign":"{\"La Rose\": 177}","source":14,"target":13,"layer":"L","from":"La Blancarde","to":"La Timone"},"geometry":{"type":"LineString","coordinates":[[5.406203,43.295439],[5.400482,43.291123]]}},{"type":"Feature","properties":{"shape_id":"{}","direction_id":"{\"0\": 176}","headsign":"{\"La Fourragère\": 176}","duration_avg":60.34090909090909,"n_vehicles":176,"d":545,"route_I_counts":"{\"47\": 176}","source":15,"target":16,"layer":"L","from":"Louis Armand","to":"Saint-Barnabé"},"geometry":{"type":"LineString","coordinates":[[5.413635,43.299947],[5.418613,43.30324]]}},{"type":"Feature","properties":{"duration_avg":79.32203389830508,"n_vehicles":177,"d":783,"route_I_counts":"{\"47\": 177}","shape_id":"{}","direction_id":"{\"1\": 177}","headsign":"{\"La Rose\": 177}","source":15,"target":14,"layer":"L","from":"Louis Armand","to":"La Blancarde"},"geometry":{"type":"LineString","coordinates":[[5.413635,43.299947],[5.406203,43.295439]]}},{"type":"Feature","properties":{"shape_id":"{}","direction_id":"{\"0\": 176}","headsign":"{\"La Fourragère\": 176}","duration_avg":60.0,"n_vehicles":176,"d":459,"route_I_counts":"{\"47\": 176}","source":16,"target":17,"layer":"L","from":"Saint-Barnabé","to":"La Fourragère"},"geometry":{"type":"LineString","coordinates":[[5.418613,43.30324],[5.424213,43.30388]]}},{"type":"Feature","properties":{"duration_avg":100.11235955056179,"n_vehicles":178,"d":549,"route_I_counts":"{\"47\": 178}","shape_id":"{}","direction_id":"{\"1\": 178}","headsign":"{\"La Rose\": 178}","source":16,"target":15,"layer":"L","from":"Saint-Barnabé","to":"Louis Armand"},"geometry":{"type":"LineString","coordinates":[[5.418613,43.30324],[5.413635,43.299947]]}},{"type":"Feature","properties":{"duration_avg":19.8876404494382,"n_vehicles":178,"d":459,"route_I_counts":"{\"47\": 178}","shape_id":"{}","direction_id":"{\"1\": 178}","headsign":"{\"La Rose\": 178}","source":17,"target":16,"layer":"L","from":"La Fourragère","to":"Saint-Barnabé"},"geometry":{"type":"LineString","coordinates":[[5.424213,43.30388],[5.418613,43.30324]]}},{"type":"Feature","properties":{"shape_id":"{}","direction_id":"{\"0\": 177}","headsign":"{\"Sainte-Marguerite Dromel\": 177}","duration_avg":118.98305084745763,"n_vehicles":177,"d":855,"route_I_counts":"{\"88\": 177}","source":18,"target":19,"layer":"L","from":"Gèze","to":"Bougainville"},"geometry":{"type":"LineString","coordinates":[[5.367242,43.327927],[5.371352,43.320851]]}},{"type":"Feature","properties":{"shape_id":"{}","direction_id":"{\"0\": 177}","headsign":"{\"Sainte-Marguerite Dromel\": 177}","duration_avg":85.42372881355932,"n_vehicles":177,"d":651,"route_I_counts":"{\"88\": 177}","source":19,"target":20,"layer":"L","from":"Bougainville","to":"National"},"geometry":{"type":"LineString","coordinates":[[5.371352,43.320851],[5.37297,43.315122]]}},{"type":"Feature","properties":{"duration_avg":91.70454545454545,"n_vehicles":176,"d":857,"route_I_counts":"{\"88\": 176}","shape_id":"{}","direction_id":"{\"1\": 176}","headsign":"{\"Gèze\": 176}","source":19,"target":18,"layer":"L","from":"Bougainville","to":"Gèze"},"geometry":{"type":"LineString","coordinates":[[5.371352,43.320851],[5.367242,43.327927]]}},{"type":"Feature","properties":{"shape_id":"{}","direction_id":"{\"0\": 177}","headsign":"{\"Sainte-Marguerite Dromel\": 177}","duration_avg":108.47457627118644,"n_vehicles":177,"d":638,"route_I_counts":"{\"88\": 177}","source":20,"target":21,"layer":"L","from":"National","to":"Désirée Clary"},"geometry":{"type":"LineString","coordinates":[[5.37297,43.315122],[5.372323,43.309403]]}},{"type":"Feature","properties":{"duration_avg":83.18181818181819,"n_vehicles":176,"d":650,"route_I_counts":"{\"88\": 176}","shape_id":"{}","direction_id":"{\"1\": 176}","headsign":"{\"Gèze\": 176}","source":20,"target":19,"layer":"L","from":"National","to":"Bougainville"},"geometry":{"type":"LineString","coordinates":[[5.37297,43.315122],[5.371352,43.320851]]}},{"type":"Feature","properties":{"shape_id":"{}","direction_id":"{\"0\": 177}","headsign":"{\"Sainte-Marguerite Dromel\": 177}","duration_avg":117.96610169491525,"n_vehicles":177,"d":712,"route_I_counts":"{\"88\": 177}","source":21,"target":22,"layer":"L","from":"Désirée Clary","to":"Joliette"},"geometry":{"type":"LineString","coordinates":[[5.372323,43.309403],[5.367869,43.303881]]}},{"type":"Feature","properties":{"duration_avg":81.81818181818181,"n_vehicles":176,"d":647,"route_I_counts":"{\"88\": 176}","shape_id":"{}","direction_id":"{\"1\": 176}","headsign":"{\"Gèze\": 176}","source":21,"target":20,"layer":"L","from":"Désirée Clary","to":"National"},"geometry":{"type":"LineString","coordinates":[[5.372323,43.309403],[5.37297,43.315122]]}},{"type":"Feature","properties":{"shape_id":"{}","direction_id":"{\"0\": 177}","headsign":"{\"Sainte-Marguerite Dromel\": 177}","duration_avg":73.22033898305085,"n_vehicles":177,"d":542,"route_I_counts":"{\"88\": 177}","source":22,"target":23,"layer":"L","from":"Joliette","to":"Jules Guesde"},"geometry":{"type":"LineString","coordinates":[[5.367869,43.303881],[5.374022,43.301954]]}},{"type":"Feature","properties":{"duration_avg":74.91525423728814,"n_vehicles":177,"d":700,"route_I_counts":"{\"88\": 177}","shape_id":"{}","direction_id":"{\"1\": 177}","headsign":"{\"Gèze\": 177}","source":22,"target":21,"layer":"L","from":"Joliette","to":"Désirée Clary"},"geometry":{"type":"LineString","coordinates":[[5.367869,43.303881],[5.372323,43.309403]]}},{"type":"Feature","properties":{"duration_avg":83.05084745762711,"n_vehicles":177,"d":532,"route_I_counts":"{\"88\": 177}","shape_id":"{}","direction_id":"{\"1\": 177}","headsign":"{\"Gèze\": 177}","source":23,"target":22,"layer":"L","from":"Jules Guesde","to":"Joliette"},"geometry":{"type":"LineString","coordinates":[[5.374022,43.301954],[5.367869,43.303881]]}},{"type":"Feature","properties":{"duration_avg":73.22033898305085,"n_vehicles":177,"d":486,"route_I_counts":"{\"88\": 177}","shape_id":"{}","direction_id":"{\"0\": 177}","headsign":"{\"Sainte-Marguerite Dromel\": 177}","source":23,"target":7,"layer":"L","from":"Jules Guesde","to":"Saint-Charles"},"geometry":{"type":"LineString","coordinates":[[5.374022,43.301954],[5.380151,43.302375]]}},{"type":"Feature","properties":{"shape_id":"{}","direction_id":"{\"0\": 177}","headsign":"{\"Sainte-Marguerite Dromel\": 177}","duration_avg":56.610169491525426,"n_vehicles":177,"d":482,"route_I_counts":"{\"88\": 177}","source":24,"target":25,"layer":"L","from":"Noailles","to":"Notre-Dame du Mont"},"geometry":{"type":"LineString","coordinates":[[5.381208,43.296778],[5.383633,43.292816]]}},{"type":"Feature","properties":{"duration_avg":83.38983050847457,"n_vehicles":177,"d":632,"route_I_counts":"{\"88\": 177}","shape_id":"{}","direction_id":"{\"1\": 177}","headsign":"{\"Gèze\": 177}","source":24,"target":7,"layer":"L","from":"Noailles","to":"Saint-Charles"},"geometry":{"type":"LineString","coordinates":[[5.381208,43.296778],[5.380151,43.302375]]}},{"type":"Feature","properties":{"duration_avg":59.66101694915254,"n_vehicles":177,"d":481,"route_I_counts":"{\"88\": 177}","shape_id":"{}","direction_id":"{\"1\": 177}","headsign":"{\"Gèze\": 177}","source":25,"target":24,"layer":"L","from":"Notre-Dame du Mont","to":"Noailles"},"geometry":{"type":"LineString","coordinates":[[5.383633,43.292816],[5.381208,43.296778]]}},{"type":"Feature","properties":{"duration_avg":98.18181818181819,"n_vehicles":176,"d":855,"route_I_counts":"{\"88\": 176}","shape_id":"{}","direction_id":"{\"0\": 176}","headsign":"{\"Sainte-Marguerite Dromel\": 176}","source":25,"target":11,"layer":"L","from":"Notre-Dame du Mont","to":"Castellane"},"geometry":{"type":"LineString","coordinates":[[5.383633,43.292816],[5.384557,43.286117]]}},{"type":"Feature","properties":{"shape_id":"{}","direction_id":"{\"0\": 176}","headsign":"{\"Sainte-Marguerite Dromel\": 176}","duration_avg":90.0,"n_vehicles":176,"d":974,"route_I_counts":"{\"88\": 176}","source":26,"target":27,"layer":"L","from":"Périer","to":"Rond-Point du Prado"},"geometry":{"type":"LineString","coordinates":[[5.387584,43.279377],[5.392488,43.271388]]}},{"type":"Feature","properties":{"duration_avg":65.42372881355932,"n_vehicles":177,"d":694,"route_I_counts":"{\"88\": 177}","shape_id":"{}","direction_id":"{\"1\": 177}","headsign":"{\"Gèze\": 177}","source":26,"target":11,"layer":"L","from":"Périer","to":"Castellane"},"geometry":{"type":"LineString","coordinates":[[5.387584,43.279377],[5.384557,43.286117]]}},{"type":"Feature","properties":{"shape_id":"{}","direction_id":"{\"0\": 176}","headsign":"{\"Sainte-Marguerite Dromel\": 176}","duration_avg":89.31818181818181,"n_vehicles":176,"d":792,"route_I_counts":"{\"88\": 176}","source":27,"target":28,"layer":"L","from":"Rond-Point du Prado","to":"Sainte-Marguerite Dromel"},"geometry":{"type":"LineString","coordinates":[[5.392488,43.271388],[5.402202,43.270545]]}},{"type":"Feature","properties":{"duration_avg":104.40677966101696,"n_vehicles":177,"d":973,"route_I_counts":"{\"88\": 177}","shape_id":"{}","direction_id":"{\"1\": 177}","headsign":"{\"Gèze\": 177}","source":27,"target":26,"layer":"L","from":"Rond-Point du Prado","to":"Périer"},"geometry":{"type":"LineString","coordinates":[[5.392488,43.271388],[5.387584,43.279377]]}},{"type":"Feature","properties":{"duration_avg":84.0677966101695,"n_vehicles":177,"d":777,"route_I_counts":"{\"88\": 177}","shape_id":"{}","direction_id":"{\"1\": 177}","headsign":"{\"Gèze\": 177}","source":28,"target":27,"layer":"L","from":"Sainte-Marguerite Dromel","to":"Rond-Point du Prado"},"geometry":{"type":"LineString","coordinates":[[5.402202,43.270545],[5.392488,43.271388]]}}]}