{"type":"FeatureCollection","features":[{"type":"Feature","geometry":{"type":"Point","coordinates":[-73.535376,45.596572]},"properties":{"name":"Station Honoré-Beaugrand","original_ids":"[110]","id":0,"layer":"stop"}},{"type":"Feature","geometry":{"type":"Point","coordinates":[-73.539269,45.589431]},"properties":{"name":"Station Radisson","original_ids":"[105]","id":1,"layer":"stop"}},{"type":"Feature","geometry":{"type":"Point","coordinates":[-73.543133,45.582736]},"properties":{"name":"Station Langelier","original_ids":"[100]","id":2,"layer":"stop"}},{"type":"Feature","geometry":{"type":"Point","coordinates":[-73.54671,45.576843]},"properties":{"name":"Station Cadillac","original_ids":"[96]","id":3,"layer":"stop"}},{"type":"Feature","geometry":{"type":"Point","coordinates":[-73.547336,45.569285]},"properties":{"name":"Station Assomption","original_ids":"[93]","id":4,"layer":"stop"}},{"type":"Feature","geometry":{"type":"Point","coordinates":[-73.54753,45.560687]},"properties":{"name":"Station Viau","original_ids":"[90]","id":5,"layer":"stop"}},{"type":"Feature","geometry":{"type":"Point","coordinates":[-73.551757,45.553688]},"properties":{"name":"Station Pie-IX","original_ids":"[86]","id":6,"layer":"stop"}},{"type":"Feature","geometry":{"type":"Point","coordinates":[-73.551391,45.546832]},"properties":{"name":"Station Joliette","original_ids":"[82]","id":7,"layer":"stop"}},{"type":"Feature","geometry":{"type":"Point","coordinates":[-73.554192,45.541717]},"properties":{"name":"Station Préfontaine","original_ids":"[78]","id":8,"layer":"stop"}},{"type":"Feature","geometry":{"type":"Point","coordinates":[-73.552196,45.533504]},"properties":{"name":"Station Frontenac","original_ids":"[75]","id":9,"layer":"stop"}},{"type":"Feature","geometry":{"type":"Point","coordinates":[-73.552703,45.523988]},"properties":{"name":"Station Papineau","original_ids":"[72]","id":10,"layer":"stop"}},{"type":"Feature","geometry":{"type":"Point","coordinates":[-73.555837,45.518831]},"properties":{"name":"Station Beaudry","original_ids":"[69]","id":11,"layer":"stop"}},{"type":"Feature","geometry":{"type":"Point","coordinates":[-73.561082,45.515226]},"properties":{"name":"Station Berri-UQAM 1","original_ids":"[60, 61, 62]","id":12,"layer":"stop"}},{"type":"Feature","geometry":{"type":"Point","coordinates":[-73.564899,45.511033]},"properties":{"name":"Station Saint-Laurent","original_ids":"[57]","id":13,"layer":"stop"}},{"type":"Feature","geometry":{"type":"Point","coordinates":[-73.568433,45.50822]},"properties":{"name":"Station Place-des-Arts","original_ids":"[51]","id":14,"layer":"stop"}},{"type":"Feature","geometry":{"type":"Point","coordinates":[-73.571586,45.504064]},"properties":{"name":"Station McGill","original_ids":"[43]","id":15,"layer":"stop"}},{"type":"Feature","geometry":{"type":"Point","coordinates":[-73.574715,45.500879]},"properties":{"name":"Station Peel","original_ids":"[37]","id":16,"layer":"stop"}},{"type":"Feature","geometry":{"type":"Point","coordinates":[-73.57931,45.49557]},"properties":{"name":"Station Guy-Concordia","original_ids":"[33]","id":17,"layer":"stop"}},{"type":"Feature","geometry":{"type":"Point","coordinates":[-73.585812,45.490068]},"properties":{"name":"Station Atwater","original_ids":"[29]","id":18,"layer":"stop"}},{"type":"Feature","geometry":{"type":"Point","coordinates":[-73.58018,45.482509]},"properties":{"name":"Station Lionel-Groulx","original_ids":"[26]","id":19,"layer":"stop"}},{"type":"Feature","geometry":{"type":"Point","coordinates":[-73.569336,45.478465]},"properties":{"name":"Station Charlevoix","original_ids":"[23]","id":20,"layer":"stop"}},{"type":"Feature","geometry":{"type":"Point","coordinates":[-73.566267,45.471063]},"properties":{"name":"Station LaSalle","original_ids":"[20]","id":21,"layer":"stop"}},{"type":"Feature","geometry":{"type":"Point","coordinates":[-73.567074,45.461894]},"properties":{"name":"Station De l'Église","original_ids":"[16]","id":22,"layer":"stop"}},{"type":"Feature","geometry":{"type":"Point","coordinates":[-73.572021,45.459441]},"properties":{"name":"Station Verdun","original_ids":"[12]","id":23,"layer":"stop"}},{"type":"Feature","geometry":{"type":"Point","coordinates":[-73.581691,45.45701]},"properties":{"name":"Station Jolicoeur","original_ids":"[9]","id":24,"layer":"stop"}},{"type":"Feature","geometry":{"type":"Point","coordinates":[-73.593242,45.451158]},"properties":{"name":"Station Monk","original_ids":"[5]","id":25,"layer":"stop"}},{"type":"Feature","geometry":{"type":"Point","coordinates":[-73.603118,45.446466]},"properties":{"name":"Station Angrignon","original_ids":"[2]","id":26,"layer":"stop"}},{"type":"Feature","geometry":{"type":"Point","coordinates":[-73.682757,45.514237]},"properties":{"name":"Station Côte-Vertu","original_ids":"[115]","id":27,"layer":"stop"}},{"type":"Feature","geometry":{"type":"Point","coordinates":[-73.674796,45.509258]},"properties":{"name":"Station Du Collège","original_ids":"[120]","id":28,"layer":"stop"}},{"type":"Feature","geometry":{"type":"Point","coordinates":[-73.661538,45.500051]},"properties":{"name":"Station De la Savane","original_ids":"[124]","id":29,"layer":"stop"}},{"type":"Feature","geometry":{"type":"Point","coordinates":[-73.652828,45.494643]},"properties":{"name":"Station Namur","original_ids":"[127]","id":30,"layer":"stop"}},{"type":"Feature","geometry":{"type":"Point","coordinates":[-73.63826,45.494644]},"properties":{"name":"Station Plamondon","original_ids":"[130]","id":31,"layer":"stop"}},{"type":"Feature","geometry":{"type":"Point","coordinates":[-73.6331,45.492356]},"properties":{"name":"Station Côte-Sainte-Catherine","original_ids":"[134]","id":32,"layer":"stop"}},{"type":"Feature","geometry":{"type":"Point","coordinates":[-73.62773,45.485433]},"properties":{"name":"Station Snowdon 2","original_ids":"[137, 138]","id":33,"layer":"stop"}},{"type":"Feature","geometry":{"type":"Point","coordinates":[-73.619821,45.479709]},"properties":{"name":"Station Villa-Maria","original_ids":"[141]","id":34,"layer":"stop"}},{"type":"Feature","geometry":{"type":"Point","coordinates":[-73.603706,45.474101]},"properties":{"name":"Station Vendôme","original_ids":"[144]","id":35,"layer":"stop"}},{"type":"Feature","geometry":{"type":"Point","coordinates":[-73.586629,45.47732]},"properties":{"name":"Station Place-Saint-Henri","original_ids":"[150]","id":36,"layer":"stop"}},{"type":"Feature","geometry":{"type":"Point","coordinates":[-73.576852,45.488897]},"properties":{"name":"Station Georges-Vanier","original_ids":"[155]","id":37,"layer":"stop"}},{"type":"Feature","geometry":{"type":"Point","coordinates":[-73.571074,45.494745]},"properties":{"name":"Station Lucien-L'Allier","original_ids":"[158]","id":38,"layer":"stop"}},{"type":"Feature","geometry":{"type":"Point","coordinates":[-73.567235,45.498086]},"properties":{"name":"Station Bonaventure","original_ids":"[161]","id":39,"layer":"stop"}},{"type":"Feature","geometry":{"type":"Point","coordinates":[-73.563118,45.501937]},"properties":{"name":"Station Square-Victoria–OACI","original_ids":"[166]","id":40,"layer":"stop"}},{"type":"Feature","geometry":{"type":"Point","coordinates":[-73.559548,45.506348]},"properties":{"name":"Station Place-d'Armes","original_ids":"[172]","id":41,"layer":"stop"}},{"type":"Feature","geometry":{"type":"Point","coordinates":[-73.556596,45.510047]},"properties":{"name":"Station Champ-de-Mars","original_ids":"[176]","id":42,"layer":"stop"}},{"type":"Feature","geometry":{"type":"Point","coordinates":[-73.569217,45.51906]},"properties":{"name":"Station Sherbrooke","original_ids":"[179]","id":43,"layer":"stop"}},{"type":"Feature","geometry":{"type":"Point","coordinates":[-73.581959,45.524931]},"properties":{"name":"Station Mont-Royal","original_ids":"[183]","id":44,"layer":"stop"}},{"type":"Feature","geometry":{"type":"Point","coordinates":[-73.586907,45.527399]},"properties":{"name":"Station Laurier","original_ids":"[186]","id":45,"layer":"stop"}},{"type":"Feature","geometry":{"type":"Point","coordinates":[-73.59778,45.531733]},"properties":{"name":"Station Rosemont","original_ids":"[190]","id":46,"layer":"stop"}},{"type":"Feature","geometry":{"type":"Point","coordinates":[-73.604688,45.535354]},"properties":{"name":"Station Beaubien","original_ids":"[193]","id":47,"layer":"stop"}},{"type":"Feature","geometry":{"type":"Point","coordinates":[-73.613902,45.539056]},"properties":{"name":"Station Jean-Talon 2","original_ids":"[196, 197]","id":48,"layer":"stop"}},{"type":"Feature","geometry":{"type":"Point","coordinates":[-73.628765,45.543191]},"properties":{"name":"Station Jarry","original_ids":"[203]","id":49,"layer":"stop"}},{"type":"Feature","geometry":{"type":"Point","coordinates":[-73.639052,45.546082]},"properties":{"name":"Station Crémazie","original_ids":"[206]","id":50,"layer":"stop"}},{"type":"Feature","geometry":{"type":"Point","coordinates":[-73.656017,45.550757]},"properties":{"name":"Station Sauvé","original_ids":"[211]","id":51,"layer":"stop"}},{"type":"Feature","geometry":{"type":"Point","coordinates":[-73.668172,45.555277]},"properties":{"name":"Station Henri-Bourassa","original_ids":"[215]","id":52,"layer":"stop"}},{"type":"Feature","geometry":{"type":"Point","coordinates":[-73.68231,45.559997]},"properties":{"name":"Station Cartier (zone B)","original_ids":"[221]","id":53,"layer":"stop"}},{"type":"Feature","geometry":{"type":"Point","coordinates":[-73.709389,45.560698]},"properties":{"name":"Station De la Concorde (zone B)","original_ids":"[225]","id":54,"layer":"stop"}},{"type":"Feature","geometry":{"type":"Point","coordinates":[-73.722459,45.558436]},"properties":{"name":"Station Montmorency (zone B)","original_ids":"[228]","id":55,"layer":"stop"}},{"type":"Feature","geometry":{"type":"Point","coordinates":[-73.522098,45.52489]},"properties":{"name":"Station Longueuil-Université de Sherbrooke (zone B","original_ids":"[234]","id":56,"layer":"stop"}},{"type":"Feature","geometry":{"type":"Point","coordinates":[-73.533127,45.512429]},"properties":{"name":"Station Jean-Drapeau","original_ids":"[231]","id":57,"layer":"stop"}},{"type":"Feature","geometry":{"type":"Point","coordinates":[-73.600002,45.55956]},"properties":{"name":"Station Saint-Michel","original_ids":"[271]","id":58,"layer":"stop"}},{"type":"Feature","geometry":{"type":"Point","coordinates":[-73.601988,45.553618]},"properties":{"name":"Station D'Iberville","original_ids":"[267]","id":59,"layer":"stop"}},{"type":"Feature","geometry":{"type":"Point","coordinates":[-73.608106,45.546753]},"properties":{"name":"Station Fabre","original_ids":"[263]","id":60,"layer":"stop"}},{"type":"Feature","geometry":{"type":"Point","coordinates":[-73.619873,45.535437]},"properties":{"name":"Station De Castelnau","original_ids":"[259]","id":61,"layer":"stop"}},{"type":"Feature","geometry":{"type":"Point","coordinates":[-73.624559,45.530177]},"properties":{"name":"Station Parc","original_ids":"[256]","id":62,"layer":"stop"}},{"type":"Feature","geometry":{"type":"Point","coordinates":[-73.623257,45.523458]},"properties":{"name":"Station Acadie","original_ids":"[252]","id":63,"layer":"stop"}},{"type":"Feature","geometry":{"type":"Point","coordinates":[-73.612858,45.50992]},"properties":{"name":"Station Édouard-Montpetit","original_ids":"[248]","id":64,"layer":"stop"}},{"type":"Feature","geometry":{"type":"Point","coordinates":[-73.617699,45.503188]},"properties":{"name":"Station Université-de-Montréal","original_ids":"[243]","id":65,"layer":"stop"}},{"type":"Feature","geometry":{"type":"Point","coordinates":[-73.623386,45.496846]},"properties":{"name":"Station Côte-des-Neiges","original_ids":"[239]","id":66,"layer":"stop"}},{"type":"Feature","properties":{"shape_id":"{\"11072\": 166}","direction_id":"{\"1\": 166}","headsign":"{\"STATION ANGRIGNON\": 166}","duration_avg":62.0,"n_vehicles":166,"d":850,"route_I_counts":"{\"1\": 166}","source":0,"target":1,"layer":"L","from":"Station Honoré-Beaugrand","to":"Station Radisson"},"geometry":{"type":"LineString","coordinates":[[-73.535376,45.596572],[-73.539269,45.589431]]}},{"type":"Feature","properties":{"shape_id":"{\"11072\": 166}","direction_id":"{\"1\": 166}","headsign":"{\"STATION ANGRIGNON\": 166}","duration_avg":79.0,"n_vehicles":166,"d":803,"route_I_counts":"{\"1\": 166}","source":1,"target":2,"layer":"L","from":"Station Radisson","to":"Station Langelier"},"geometry":{"type":"LineString","coordinates":[[-73.539269,45.589431],[-73.543133,45.582736]]}},{"type":"Feature","properties":{"shape_id":"{\"11071\": 175}","direction_id":"{\"0\": 175}","headsign":"{\"STATION HONORÉ-BEAUGRAND\": 175}","duration_avg":117.0,"n_vehicles":175,"d":850,"route_I_counts":"{\"1\": 175}","source":1,"target":0,"layer":"L","from":"Station Radisson","to":"Station Honoré-Beaugrand"},"geometry":{"type":"LineString","coordinates":[[-73.539269,45.589431],[-73.535376,45.596572]]}},{"type":"Feature","properties":{"shape_id":"{\"11072\": 167}","direction_id":"{\"1\": 167}","headsign":"{\"STATION ANGRIGNON\": 167}","duration_avg":73.0,"n_vehicles":167,"d":712,"route_I_counts":"{\"1\": 167}","source":2,"target":3,"layer":"L","from":"Station Langelier","to":"Station Cadillac"},"geometry":{"type":"LineString","coordinates":[[-73.543133,45.582736],[-73.54671,45.576843]]}},{"type":"Feature","properties":{"shape_id":"{\"11071\": 175}","direction_id":"{\"0\": 175}","headsign":"{\"STATION HONORÉ-BEAUGRAND\": 175}","duration_avg":74.0,"n_vehicles":175,"d":803,"route_I_counts":"{\"1\": 175}","source":2,"target":1,"layer":"L","from":"Station Langelier","to":"Station Radisson"},"geometry":{"type":"LineString","coordinates":[[-73.543133,45.582736],[-73.539269,45.589431]]}},{"type":"Feature","properties":{"shape_id":"{\"11072\": 167}","direction_id":"{\"1\": 167}","headsign":"{\"STATION ANGRIGNON\": 167}","duration_avg":85.0,"n_vehicles":167,"d":842,"route_I_counts":"{\"1\": 167}","source":3,"target":4,"layer":"L","from":"Station Cadillac","to":"Station Assomption"},"geometry":{"type":"LineString","coordinates":[[-73.54671,45.576843],[-73.547336,45.569285]]}},{"type":"Feature","properties":{"shape_id":"{\"11071\": 175}","direction_id":"{\"0\": 175}","headsign":"{\"STATION HONORÉ-BEAUGRAND\": 175}","duration_avg":73.0,"n_vehicles":175,"d":712,"route_I_counts":"{\"1\": 175}","source":3,"target":2,"layer":"L","from":"Station Cadillac","to":"Station Langelier"},"geometry":{"type":"LineString","coordinates":[[-73.54671,45.576843],[-73.543133,45.582736]]}},{"type":"Feature","properties":{"shape_id":"{\"11072\": 167}","direction_id":"{\"1\": 167}","headsign":"{\"STATION ANGRIGNON\": 167}","duration_avg":90.0,"n_vehicles":167,"d":957,"route_I_counts":"{\"1\": 167}","source":4,"target":5,"layer":"L","from":"Station Assomption","to":"Station Viau"},"geometry":{"type":"LineString","coordinates":[[-73.547336,45.569285],[-73.54753,45.560687]]}},{"type":"Feature","properties":{"shape_id":"{\"11071\": 174}","direction_id":"{\"0\": 174}","headsign":"{\"STATION HONORÉ-BEAUGRAND\": 174}","duration_avg":86.0,"n_vehicles":174,"d":842,"route_I_counts":"{\"1\": 174}","source":4,"target":3,"layer":"L","from":"Station Assomption","to":"Station Cadillac"},"geometry":{"type":"LineString","coordinates":[[-73.547336,45.569285],[-73.54671,45.576843]]}},{"type":"Feature","properties":{"shape_id":"{\"11072\": 167}","direction_id":"{\"1\": 167}","headsign":"{\"STATION ANGRIGNON\": 167}","duration_avg":79.0,"n_vehicles":167,"d":845,"route_I_counts":"{\"1\": 167}","source":5,"target":6,"layer":"L","from":"Station Viau","to":"Station Pie-IX"},"geometry":{"type":"LineString","coordinates":[[-73.54753,45.560687],[-73.551757,45.553688]]}},{"type":"Feature","properties":{"shape_id":"{\"11071\": 174}","direction_id":"{\"0\": 174}","headsign":"{\"STATION HONORÉ-BEAUGRAND\": 174}","duration_avg":93.0,"n_vehicles":174,"d":957,"route_I_counts":"{\"1\": 174}","source":5,"target":4,"layer":"L","from":"Station Viau","to":"Station Assomption"},"geometry":{"type":"LineString","coordinates":[[-73.54753,45.560687],[-73.547336,45.569285]]}},{"type":"Feature","properties":{"shape_id":"{\"11072\": 168}","direction_id":"{\"1\": 168}","headsign":"{\"STATION ANGRIGNON\": 168}","duration_avg":85.0,"n_vehicles":168,"d":763,"route_I_counts":"{\"1\": 168}","source":6,"target":7,"layer":"L","from":"Station Pie-IX","to":"Station Joliette"},"geometry":{"type":"LineString","coordinates":[[-73.551757,45.553688],[-73.551391,45.546832]]}},{"type":"Feature","properties":{"shape_id":"{\"11071\": 174}","direction_id":"{\"0\": 174}","headsign":"{\"STATION HONORÉ-BEAUGRAND\": 174}","duration_avg":79.0,"n_vehicles":174,"d":845,"route_I_counts":"{\"1\": 174}","source":6,"target":5,"layer":"L","from":"Station Pie-IX","to":"Station Viau"},"geometry":{"type":"LineString","coordinates":[[-73.551757,45.553688],[-73.54753,45.560687]]}},{"type":"Feature","properties":{"shape_id":"{\"11072\": 168}","direction_id":"{\"1\": 168}","headsign":"{\"STATION ANGRIGNON\": 168}","duration_avg":64.0,"n_vehicles":168,"d":609,"route_I_counts":"{\"1\": 168}","source":7,"target":8,"layer":"L","from":"Station Joliette","to":"Station Préfontaine"},"geometry":{"type":"LineString","coordinates":[[-73.551391,45.546832],[-73.554192,45.541717]]}},{"type":"Feature","properties":{"shape_id":"{\"11071\": 174}","direction_id":"{\"0\": 174}","headsign":"{\"STATION HONORÉ-BEAUGRAND\": 174}","duration_avg":85.0,"n_vehicles":174,"d":763,"route_I_counts":"{\"1\": 174}","source":7,"target":6,"layer":"L","from":"Station Joliette","to":"Station Pie-IX"},"geometry":{"type":"LineString","coordinates":[[-73.551391,45.546832],[-73.551757,45.553688]]}},{"type":"Feature","properties":{"shape_id":"{\"11072\": 168}","direction_id":"{\"1\": 168}","headsign":"{\"STATION ANGRIGNON\": 168}","duration_avg":98.0,"n_vehicles":168,"d":927,"route_I_counts":"{\"1\": 168}","source":8,"target":9,"layer":"L","from":"Station Préfontaine","to":"Station Frontenac"},"geometry":{"type":"LineString","coordinates":[[-73.554192,45.541717],[-73.552196,45.533504]]}},{"type":"Feature","properties":{"shape_id":"{\"11071\": 173}","direction_id":"{\"0\": 173}","headsign":"{\"STATION HONORÉ-BEAUGRAND\": 173}","duration_avg":65.0,"n_vehicles":173,"d":609,"route_I_counts":"{\"1\": 173}","source":8,"target":7,"layer":"L","from":"Station Préfontaine","to":"Station Joliette"},"geometry":{"type":"LineString","coordinates":[[-73.554192,45.541717],[-73.551391,45.546832]]}},{"type":"Feature","properties":{"shape_id":"{\"11072\": 168}","direction_id":"{\"1\": 168}","headsign":"{\"STATION ANGRIGNON\": 168}","duration_avg":108.0,"n_vehicles":168,"d":1060,"route_I_counts":"{\"1\": 168}","source":9,"target":10,"layer":"L","from":"Station Frontenac","to":"Station Papineau"},"geometry":{"type":"LineString","coordinates":[[-73.552196,45.533504],[-73.552703,45.523988]]}},{"type":"Feature","properties":{"shape_id":"{\"11071\": 173}","direction_id":"{\"0\": 173}","headsign":"{\"STATION HONORÉ-BEAUGRAND\": 173}","duration_avg":98.0,"n_vehicles":173,"d":927,"route_I_counts":"{\"1\": 173}","source":9,"target":8,"layer":"L","from":"Station Frontenac","to":"Station Préfontaine"},"geometry":{"type":"LineString","coordinates":[[-73.552196,45.533504],[-73.554192,45.541717]]}},{"type":"Feature","properties":{"shape_id":"{\"11072\": 169}","direction_id":"{\"1\": 169}","headsign":"{\"STATION ANGRIGNON\": 169}","duration_avg":70.0,"n_vehicles":169,"d":623,"route_I_counts":"{\"1\": 169}","source":10,"target":11,"layer":"L","from":"Station Papineau","to":"Station Beaudry"},"geometry":{"type":"LineString","coordinates":[[-73.552703,45.523988],[-73.555837,45.518831]]}},{"type":"Feature","properties":{"shape_id":"{\"11071\": 173}","direction_id":"{\"0\": 173}","headsign":"{\"STATION HONORÉ-BEAUGRAND\": 173}","duration_avg":106.0,"n_vehicles":173,"d":1060,"route_I_counts":"{\"1\": 173}","source":10,"target":9,"layer":"L","from":"Station Papineau","to":"Station Frontenac"},"geometry":{"type":"LineString","coordinates":[[-73.552703,45.523988],[-73.552196,45.533504]]}},{"type":"Feature","properties":{"shape_id":"{\"11072\": 169}","direction_id":"{\"1\": 169}","headsign":"{\"STATION ANGRIGNON\": 169}","duration_avg":65.0,"n_vehicles":169,"d":573,"route_I_counts":"{\"1\": 169}","source":11,"target":12,"layer":"L","from":"Station Beaudry","to":"Station Berri-UQAM 1"},"geometry":{"type":"LineString","coordinates":[[-73.555837,45.518831],[-73.561082,45.515226]]}},{"type":"Feature","properties":{"shape_id":"{\"11071\": 173}","direction_id":"{\"0\": 173}","headsign":"{\"STATION HONORÉ-BEAUGRAND\": 173}","duration_avg":71.0,"n_vehicles":173,"d":623,"route_I_counts":"{\"1\": 173}","source":11,"target":10,"layer":"L","from":"Station Beaudry","to":"Station Papineau"},"geometry":{"type":"LineString","coordinates":[[-73.555837,45.518831],[-73.552703,45.523988]]}},{"type":"Feature","properties":{"shape_id":"{\"11072\": 169}","direction_id":"{\"1\": 169}","headsign":"{\"STATION ANGRIGNON\": 169}","duration_avg":72.0,"n_vehicles":169,"d":553,"route_I_counts":"{\"1\": 169}","source":12,"target":13,"layer":"L","from":"Station Berri-UQAM 1","to":"Station Saint-Laurent"},"geometry":{"type":"LineString","coordinates":[[-73.561082,45.515226],[-73.564899,45.511033]]}},{"type":"Feature","properties":{"shape_id":"{\"11071\": 172}","direction_id":"{\"0\": 172}","headsign":"{\"STATION HONORÉ-BEAUGRAND\": 172}","duration_avg":71.0,"n_vehicles":172,"d":573,"route_I_counts":"{\"1\": 172}","source":12,"target":11,"layer":"L","from":"Station Berri-UQAM 1","to":"Station Beaudry"},"geometry":{"type":"LineString","coordinates":[[-73.561082,45.515226],[-73.555837,45.518831]]}},{"type":"Feature","properties":{"duration_avg":106.0,"n_vehicles":171,"d":671,"route_I_counts":"{\"2\": 171}","shape_id":"{\"20236\": 171}","direction_id":"{\"1\": 171}","headsign":"{\"STATION CÔTE-VERTU\": 171}","source":12,"target":42,"layer":"L","from":"Station Berri-UQAM 1","to":"Station Champ-de-Mars"},"geometry":{"type":"LineString","coordinates":[[-73.561082,45.515226],[-73.556596,45.510047]]}},{"type":"Feature","properties":{"duration_avg":84.0,"n_vehicles":176,"d":767,"route_I_counts":"{\"2\": 176}","shape_id":"{\"20237\": 176}","direction_id":"{\"0\": 176}","headsign":"{\"STATION MONTMORENCY\": 176}","source":12,"target":43,"layer":"L","from":"Station Berri-UQAM 1","to":"Station Sherbrooke"},"geometry":{"type":"LineString","coordinates":[[-73.561082,45.515226],[-73.569217,45.51906]]}},{"type":"Feature","properties":{"duration_avg":178.0,"n_vehicles":113,"d":2196,"route_I_counts":"{\"3\": 113}","shape_id":"{\"40024\": 113}","direction_id":"{\"1\": 113}","headsign":"{\"STATION LONGUEUIL–UNIVERSITÉ-DE-SHERBROOKE\": 113}","source":12,"target":57,"layer":"L","from":"Station Berri-UQAM 1","to":"Station Jean-Drapeau"},"geometry":{"type":"LineString","coordinates":[[-73.561082,45.515226],[-73.533127,45.512429]]}},{"type":"Feature","properties":{"shape_id":"{\"11072\": 169}","direction_id":"{\"1\": 169}","headsign":"{\"STATION ANGRIGNON\": 169}","duration_avg":64.0,"n_vehicles":169,"d":417,"route_I_counts":"{\"1\": 169}","source":13,"target":14,"layer":"L","from":"Station Saint-Laurent","to":"Station Place-des-Arts"},"geometry":{"type":"LineString","coordinates":[[-73.564899,45.511033],[-73.568433,45.50822]]}},{"type":"Feature","properties":{"shape_id":"{\"11071\": 172}","direction_id":"{\"0\": 172}","headsign":"{\"STATION HONORÉ-BEAUGRAND\": 172}","duration_avg":65.0,"n_vehicles":172,"d":553,"route_I_counts":"{\"1\": 172}","source":13,"target":12,"layer":"L","from":"Station Saint-Laurent","to":"Station Berri-UQAM 1"},"geometry":{"type":"LineString","coordinates":[[-73.564899,45.511033],[-73.561082,45.515226]]}},{"type":"Feature","properties":{"shape_id":"{\"11072\": 170}","direction_id":"{\"1\": 170}","headsign":"{\"STATION ANGRIGNON\": 170}","duration_avg":67.0,"n_vehicles":170,"d":523,"route_I_counts":"{\"1\": 170}","source":14,"target":15,"layer":"L","from":"Station Place-des-Arts","to":"Station McGill"},"geometry":{"type":"LineString","coordinates":[[-73.568433,45.50822],[-73.571586,45.504064]]}},{"type":"Feature","properties":{"shape_id":"{\"11071\": 172}","direction_id":"{\"0\": 172}","headsign":"{\"STATION HONORÉ-BEAUGRAND\": 172}","duration_avg":65.0,"n_vehicles":172,"d":417,"route_I_counts":"{\"1\": 172}","source":14,"target":13,"layer":"L","from":"Station Place-des-Arts","to":"Station Saint-Laurent"},"geometry":{"type":"LineString","coordinates":[[-73.568433,45.50822],[-73.564899,45.511033]]}},{"type":"Feature","properties":{"shape_id":"{\"11072\": 170}","direction_id":"{\"1\": 170}","headsign":"{\"STATION ANGRIGNON\": 170}","duration_avg":66.0,"n_vehicles":170,"d":430,"route_I_counts":"{\"1\": 170}","source":15,"target":16,"layer":"L","from":"Station McGill","to":"Station Peel"},"geometry":{"type":"LineString","coordinates":[[-73.571586,45.504064],[-73.574715,45.500879]]}},{"type":"Feature","properties":{"shape_id":"{\"11071\": 172}","direction_id":"{\"0\": 172}","headsign":"{\"STATION HONORÉ-BEAUGRAND\": 172}","duration_avg":67.0,"n_vehicles":172,"d":523,"route_I_counts":"{\"1\": 172}","source":15,"target":14,"layer":"L","from":"Station McGill","to":"Station Place-des-Arts"},"geometry":{"type":"LineString","coordinates":[[-73.571586,45.504064],[-73.568433,45.50822]]}},{"type":"Feature","properties":{"shape_id":"{\"11072\": 170}","direction_id":"{\"1\": 170}","headsign":"{\"STATION ANGRIGNON\": 170}","duration_avg":79.0,"n_vehicles":170,"d":691,"route_I_counts":"{\"1\": 170}","source":16,"target":17,"layer":"L","from":"Station Peel","to":"Station Guy-Concordia"},"geometry":{"type":"LineString","coordinates":[[-73.574715,45.500879],[-73.57931,45.49557]]}},{"type":"Feature","properties":{"shape_id":"{\"11071\": 172}","direction_id":"{\"0\": 172}","headsign":"{\"STATION HONORÉ-BEAUGRAND\": 172}","duration_avg":63.0,"n_vehicles":172,"d":430,"route_I_counts":"{\"1\": 172}","source":16,"target":15,"layer":"L","from":"Station Peel","to":"Station McGill"},"geometry":{"type":"LineString","coordinates":[[-73.574715,45.500879],[-73.571586,45.504064]]}},{"type":"Feature","properties":{"shape_id":"{\"11072\": 170}","direction_id":"{\"1\": 170}","headsign":"{\"STATION ANGRIGNON\": 170}","duration_avg":84.0,"n_vehicles":170,"d":795,"route_I_counts":"{\"1\": 170}","source":17,"target":18,"layer":"L","from":"Station Guy-Concordia","to":"Station Atwater"},"geometry":{"type":"LineString","coordinates":[[-73.57931,45.49557],[-73.585812,45.490068]]}},{"type":"Feature","properties":{"shape_id":"{\"11071\": 171}","direction_id":"{\"0\": 171}","headsign":"{\"STATION HONORÉ-BEAUGRAND\": 171}","duration_avg":84.0,"n_vehicles":171,"d":691,"route_I_counts":"{\"1\": 171}","source":17,"target":16,"layer":"L","from":"Station Guy-Concordia","to":"Station Peel"},"geometry":{"type":"LineString","coordinates":[[-73.57931,45.49557],[-73.574715,45.500879]]}},{"type":"Feature","properties":{"shape_id":"{\"11072\": 171}","direction_id":"{\"1\": 171}","headsign":"{\"STATION ANGRIGNON\": 171}","duration_avg":120.0,"n_vehicles":171,"d":949,"route_I_counts":"{\"1\": 171}","source":18,"target":19,"layer":"L","from":"Station Atwater","to":"Station Lionel-Groulx"},"geometry":{"type":"LineString","coordinates":[[-73.585812,45.490068],[-73.58018,45.482509]]}},{"type":"Feature","properties":{"shape_id":"{\"11071\": 171}","direction_id":"{\"0\": 171}","headsign":"{\"STATION HONORÉ-BEAUGRAND\": 171}","duration_avg":81.0,"n_vehicles":171,"d":795,"route_I_counts":"{\"1\": 171}","source":18,"target":17,"layer":"L","from":"Station Atwater","to":"Station Guy-Concordia"},"geometry":{"type":"LineString","coordinates":[[-73.585812,45.490068],[-73.57931,45.49557]]}},{"type":"Feature","properties":{"shape_id":"{\"11072\": 171}","direction_id":"{\"1\": 171}","headsign":"{\"STATION ANGRIGNON\": 171}","duration_avg":110.0,"n_vehicles":171,"d":958,"route_I_counts":"{\"1\": 171}","source":19,"target":20,"layer":"L","from":"Station Lionel-Groulx","to":"Station Charlevoix"},"geometry":{"type":"LineString","coordinates":[[-73.58018,45.482509],[-73.569336,45.478465]]}},{"type":"Feature","properties":{"shape_id":"{\"11071\": 171}","direction_id":"{\"0\": 171}","headsign":"{\"STATION HONORÉ-BEAUGRAND\": 171}","duration_avg":124.0,"n_vehicles":171,"d":949,"route_I_counts":"{\"1\": 171}","source":19,"target":18,"layer":"L","from":"Station Lionel-Groulx","to":"Station Atwater"},"geometry":{"type":"LineString","coordinates":[[-73.58018,45.482509],[-73.585812,45.490068]]}},{"type":"Feature","properties":{"shape_id":"{\"20236\": 173}","direction_id":"{\"1\": 173}","headsign":"{\"STATION CÔTE-VERTU\": 173}","duration_avg":82.0,"n_vehicles":173,"d":766,"route_I_counts":"{\"2\": 173}","source":19,"target":36,"layer":"L","from":"Station Lionel-Groulx","to":"Station Place-Saint-Henri"},"geometry":{"type":"LineString","coordinates":[[-73.58018,45.482509],[-73.586629,45.47732]]}},{"type":"Feature","properties":{"shape_id":"{\"20237\": 174}","direction_id":"{\"0\": 174}","headsign":"{\"STATION MONTMORENCY\": 174}","duration_avg":91.0,"n_vehicles":174,"d":757,"route_I_counts":"{\"2\": 174}","source":19,"target":37,"layer":"L","from":"Station Lionel-Groulx","to":"Station Georges-Vanier"},"geometry":{"type":"LineString","coordinates":[[-73.58018,45.482509],[-73.576852,45.488897]]}},{"type":"Feature","properties":{"shape_id":"{\"11072\": 172}","direction_id":"{\"1\": 172}","headsign":"{\"STATION ANGRIGNON\": 172}","duration_avg":83.0,"n_vehicles":172,"d":858,"route_I_counts":"{\"1\": 172}","source":20,"target":21,"layer":"L","from":"Station Charlevoix","to":"Station LaSalle"},"geometry":{"type":"LineString","coordinates":[[-73.569336,45.478465],[-73.566267,45.471063]]}},{"type":"Feature","properties":{"shape_id":"{\"11071\": 171}","direction_id":"{\"0\": 171}","headsign":"{\"STATION HONORÉ-BEAUGRAND\": 171}","duration_avg":102.0,"n_vehicles":171,"d":958,"route_I_counts":"{\"1\": 171}","source":20,"target":19,"layer":"L","from":"Station Charlevoix","to":"Station Lionel-Groulx"},"geometry":{"type":"LineString","coordinates":[[-73.569336,45.478465],[-73.58018,45.482509]]}},{"type":"Feature","properties":{"shape_id":"{\"11072\": 172}","direction_id":"{\"1\": 172}","headsign":"{\"STATION ANGRIGNON\": 172}","duration_avg":87.0,"n_vehicles":172,"d":1022,"route_I_counts":"{\"1\": 172}","source":21,"target":22,"layer":"L","from":"Station LaSalle","to":"Station De l'Église"},"geometry":{"type":"LineString","coordinates":[[-73.566267,45.471063],[-73.567074,45.461894]]}},{"type":"Feature","properties":{"shape_id":"{\"11071\": 170}","direction_id":"{\"0\": 170}","headsign":"{\"STATION HONORÉ-BEAUGRAND\": 170}","duration_avg":79.0,"n_vehicles":170,"d":858,"route_I_counts":"{\"1\": 170}","source":21,"target":20,"layer":"L","from":"Station LaSalle","to":"Station Charlevoix"},"geometry":{"type":"LineString","coordinates":[[-73.566267,45.471063],[-73.569336,45.478465]]}},{"type":"Feature","properties":{"shape_id":"{\"11072\": 173}","direction_id":"{\"1\": 173}","headsign":"{\"STATION ANGRIGNON\": 173}","duration_avg":76.0,"n_vehicles":173,"d":473,"route_I_counts":"{\"1\": 173}","source":22,"target":23,"layer":"L","from":"Station De l'Église","to":"Station Verdun"},"geometry":{"type":"LineString","coordinates":[[-73.567074,45.461894],[-73.572021,45.459441]]}},{"type":"Feature","properties":{"shape_id":"{\"11071\": 170}","direction_id":"{\"0\": 170}","headsign":"{\"STATION HONORÉ-BEAUGRAND\": 170}","duration_avg":90.0,"n_vehicles":170,"d":1022,"route_I_counts":"{\"1\": 170}","source":22,"target":21,"layer":"L","from":"Station De l'Église","to":"Station LaSalle"},"geometry":{"type":"LineString","coordinates":[[-73.567074,45.461894],[-73.566267,45.471063]]}},{"type":"Feature","properties":{"shape_id":"{\"11072\": 173}","direction_id":"{\"1\": 173}","headsign":"{\"STATION ANGRIGNON\": 173}","duration_avg":84.0,"n_vehicles":173,"d":802,"route_I_counts":"{\"1\": 173}","source":23,"target":24,"layer":"L","from":"Station Verdun","to":"Station Jolicoeur"},"geometry":{"type":"LineString","coordinates":[[-73.572021,45.459441],[-73.581691,45.45701]]}},{"type":"Feature","properties":{"shape_id":"{\"11071\": 170}","direction_id":"{\"0\": 170}","headsign":"{\"STATION HONORÉ-BEAUGRAND\": 170}","duration_avg":73.0,"n_vehicles":170,"d":473,"route_I_counts":"{\"1\": 170}","source":23,"target":22,"layer":"L","from":"Station Verdun","to":"Station De l'Église"},"geometry":{"type":"LineString","coordinates":[[-73.572021,45.459441],[-73.567074,45.461894]]}},{"type":"Feature","properties":{"shape_id":"{\"11072\": 173}","direction_id":"{\"1\": 173}","headsign":"{\"STATION ANGRIGNON\": 173}","duration_avg":102.0,"n_vehicles":173,"d":1112,"route_I_counts":"{\"1\": 173}","source":24,"target":25,"layer":"L","from":"Station Jolicoeur","to":"Station Monk"},"geometry":{"type":"LineString","coordinates":[[-73.581691,45.45701],[-73.593242,45.451158]]}},{"type":"Feature","properties":{"shape_id":"{\"11071\": 170}","direction_id":"{\"0\": 170}","headsign":"{\"STATION HONORÉ-BEAUGRAND\": 170}","duration_avg":84.0,"n_vehicles":170,"d":802,"route_I_counts":"{\"1\": 170}","source":24,"target":23,"layer":"L","from":"Station Jolicoeur","to":"Station Verdun"},"geometry":{"type":"LineString","coordinates":[[-73.581691,45.45701],[-73.572021,45.459441]]}},{"type":"Feature","properties":{"shape_id":"{\"11072\": 174}","direction_id":"{\"1\": 174}","headsign":"{\"STATION ANGRIGNON\": 174}","duration_avg":111.0,"n_vehicles":174,"d":931,"route_I_counts":"{\"1\": 174}","source":25,"target":26,"layer":"L","from":"Station Monk","to":"Station Angrignon"},"geometry":{"type":"LineString","coordinates":[[-73.593242,45.451158],[-73.603118,45.446466]]}},{"type":"Feature","properties":{"shape_id":"{\"11071\": 169}","direction_id":"{\"0\": 169}","headsign":"{\"STATION HONORÉ-BEAUGRAND\": 169}","duration_avg":101.0,"n_vehicles":169,"d":1112,"route_I_counts":"{\"1\": 169}","source":25,"target":24,"layer":"L","from":"Station Monk","to":"Station Jolicoeur"},"geometry":{"type":"LineString","coordinates":[[-73.593242,45.451158],[-73.581691,45.45701]]}},{"type":"Feature","properties":{"shape_id":"{\"11071\": 169}","direction_id":"{\"0\": 169}","headsign":"{\"STATION HONORÉ-BEAUGRAND\": 169}","duration_avg":67.0,"n_vehicles":169,"d":931,"route_I_counts":"{\"1\": 169}","source":26,"target":25,"layer":"L","from":"Station Angrignon","to":"Station Monk"},"geometry":{"type":"LineString","coordinates":[[-73.603118,45.446466],[-73.593242,45.451158]]}},{"type":"Feature","properties":{"shape_id":"{\"20237\": 171}","direction_id":"{\"0\": 171}","headsign":"{\"STATION MONTMORENCY\": 171}","duration_avg":66.0,"n_vehicles":171,"d":832,"route_I_counts":"{\"2\": 171}","source":27,"target":28,"layer":"L","from":"Station Côte-Vertu","to":"Station Du Collège"},"geometry":{"type":"LineString","coordinates":[[-73.682757,45.514237],[-73.674796,45.509258]]}},{"type":"Feature","properties":{"shape_id":"{\"20236\": 177}","direction_id":"{\"1\": 177}","headsign":"{\"STATION CÔTE-VERTU\": 177}","duration_avg":110.0,"n_vehicles":177,"d":832,"route_I_counts":"{\"2\": 177}","source":28,"target":27,"layer":"L","from":"Station Du Collège","to":"Station Côte-Vertu"},"geometry":{"type":"LineString","coordinates":[[-73.674796,45.509258],[-73.682757,45.514237]]}},{"type":"Feature","properties":{"shape_id":"{\"20237\": 171}","direction_id":"{\"0\": 171}","headsign":"{\"STATION MONTMORENCY\": 171}","duration_avg":114.0,"n_vehicles":171,"d":1456,"route_I_counts":"{\"2\": 171}","source":28,"target":29,"layer":"L","from":"Station Du Collège","to":"Station De la Savane"},"geometry":{"type":"LineString","coordinates":[[-73.674796,45.509258],[-73.661538,45.500051]]}},{"type":"Feature","properties":{"shape_id":"{\"20236\": 176}","direction_id":"{\"1\": 176}","headsign":"{\"STATION CÔTE-VERTU\": 176}","duration_avg":115.0,"n_vehicles":176,"d":1456,"route_I_counts":"{\"2\": 176}","source":29,"target":28,"layer":"L","from":"Station De la Savane","to":"Station Du Collège"},"geometry":{"type":"LineString","coordinates":[[-73.661538,45.500051],[-73.674796,45.509258]]}},{"type":"Feature","properties":{"shape_id":"{\"20237\": 171}","direction_id":"{\"0\": 171}","headsign":"{\"STATION MONTMORENCY\": 171}","duration_avg":86.0,"n_vehicles":171,"d":907,"route_I_counts":"{\"2\": 171}","source":29,"target":30,"layer":"L","from":"Station De la Savane","to":"Station Namur"},"geometry":{"type":"LineString","coordinates":[[-73.661538,45.500051],[-73.652828,45.494643]]}},{"type":"Feature","properties":{"shape_id":"{\"20236\": 176}","direction_id":"{\"1\": 176}","headsign":"{\"STATION CÔTE-VERTU\": 176}","duration_avg":89.0,"n_vehicles":176,"d":907,"route_I_counts":"{\"2\": 176}","source":30,"target":29,"layer":"L","from":"Station Namur","to":"Station De la Savane"},"geometry":{"type":"LineString","coordinates":[[-73.652828,45.494643],[-73.661538,45.500051]]}},{"type":"Feature","properties":{"shape_id":"{\"20237\": 172}","direction_id":"{\"0\": 172}","headsign":"{\"STATION MONTMORENCY\": 172}","duration_avg":98.0,"n_vehicles":172,"d":1136,"route_I_counts":"{\"2\": 172}","source":30,"target":31,"layer":"L","from":"Station Namur","to":"Station Plamondon"},"geometry":{"type":"LineString","coordinates":[[-73.652828,45.494643],[-73.63826,45.494644]]}},{"type":"Feature","properties":{"shape_id":"{\"20236\": 175}","direction_id":"{\"1\": 175}","headsign":"{\"STATION CÔTE-VERTU\": 175}","duration_avg":102.0,"n_vehicles":175,"d":1136,"route_I_counts":"{\"2\": 175}","source":31,"target":30,"layer":"L","from":"Station Plamondon","to":"Station Namur"},"geometry":{"type":"LineString","coordinates":[[-73.63826,45.494644],[-73.652828,45.494643]]}},{"type":"Feature","properties":{"shape_id":"{\"20237\": 172}","direction_id":"{\"0\": 172}","headsign":"{\"STATION MONTMORENCY\": 172}","duration_avg":67.0,"n_vehicles":172,"d":476,"route_I_counts":"{\"2\": 172}","source":31,"target":32,"layer":"L","from":"Station Plamondon","to":"Station Côte-Sainte-Catherine"},"geometry":{"type":"LineString","coordinates":[[-73.63826,45.494644],[-73.6331,45.492356]]}},{"type":"Feature","properties":{"shape_id":"{\"20236\": 175}","direction_id":"{\"1\": 175}","headsign":"{\"STATION CÔTE-VERTU\": 175}","duration_avg":69.0,"n_vehicles":175,"d":476,"route_I_counts":"{\"2\": 175}","source":32,"target":31,"layer":"L","from":"Station Côte-Sainte-Catherine","to":"Station Plamondon"},"geometry":{"type":"LineString","coordinates":[[-73.6331,45.492356],[-73.63826,45.494644]]}},{"type":"Feature","properties":{"shape_id":"{\"20237\": 172}","direction_id":"{\"0\": 172}","headsign":"{\"STATION MONTMORENCY\": 172}","duration_avg":80.0,"n_vehicles":172,"d":877,"route_I_counts":"{\"2\": 172}","source":32,"target":33,"layer":"L","from":"Station Côte-Sainte-Catherine","to":"Station Snowdon 2"},"geometry":{"type":"LineString","coordinates":[[-73.6331,45.492356],[-73.62773,45.485433]]}},{"type":"Feature","properties":{"shape_id":"{\"20236\": 175}","direction_id":"{\"1\": 175}","headsign":"{\"STATION CÔTE-VERTU\": 175}","duration_avg":87.0,"n_vehicles":175,"d":877,"route_I_counts":"{\"2\": 175}","source":33,"target":32,"layer":"L","from":"Station Snowdon 2","to":"Station Côte-Sainte-Catherine"},"geometry":{"type":"LineString","coordinates":[[-73.62773,45.485433],[-73.6331,45.492356]]}},{"type":"Feature","properties":{"shape_id":"{\"20237\": 173}","direction_id":"{\"0\": 173}","headsign":"{\"STATION MONTMORENCY\": 173}","duration_avg":92.0,"n_vehicles":173,"d":887,"route_I_counts":"{\"2\": 173}","source":33,"target":34,"layer":"L","from":"Station Snowdon 2","to":"Station Villa-Maria"},"geometry":{"type":"LineString","coordinates":[[-73.62773,45.485433],[-73.619821,45.479709]]}},{"type":"Feature","properties":{"duration_avg":74.0,"n_vehicles":136,"d":1318,"route_I_counts":"{\"4\": 136}","shape_id":"{\"51763\": 136}","direction_id":"{\"0\": 136}","headsign":"{\"STATION SAINT-MICHEL\": 136}","source":33,"target":66,"layer":"L","from":"Station Snowdon 2","to":"Station Côte-des-Neiges"},"geometry":{"type":"LineString","coordinates":[[-73.62773,45.485433],[-73.623386,45.496846]]}},{"type":"Feature","properties":{"shape_id":"{\"20236\": 174}","direction_id":"{\"1\": 174}","headsign":"{\"STATION CÔTE-VERTU\": 174}","duration_avg":93.0,"n_vehicles":174,"d":887,"route_I_counts":"{\"2\": 174}","source":34,"target":33,"layer":"L","from":"Station Villa-Maria","to":"Station Snowdon 2"},"geometry":{"type":"LineString","coordinates":[[-73.619821,45.479709],[-73.62773,45.485433]]}},{"type":"Feature","properties":{"shape_id":"{\"20237\": 173}","direction_id":"{\"0\": 173}","headsign":"{\"STATION MONTMORENCY\": 173}","duration_avg":125.0,"n_vehicles":173,"d":1404,"route_I_counts":"{\"2\": 173}","source":34,"target":35,"layer":"L","from":"Station Villa-Maria","to":"Station Vendôme"},"geometry":{"type":"LineString","coordinates":[[-73.619821,45.479709],[-73.603706,45.474101]]}},{"type":"Feature","properties":{"shape_id":"{\"20236\": 174}","direction_id":"{\"1\": 174}","headsign":"{\"STATION CÔTE-VERTU\": 174}","duration_avg":125.0,"n_vehicles":174,"d":1404,"route_I_counts":"{\"2\": 174}","source":35,"target":34,"layer":"L","from":"Station Vendôme","to":"Station Villa-Maria"},"geometry":{"type":"LineString","coordinates":[[-73.603706,45.474101],[-73.619821,45.479709]]}},{"type":"Feature","properties":{"shape_id":"{\"20237\": 173}","direction_id":"{\"0\": 173}","headsign":"{\"STATION MONTMORENCY\": 173}","duration_avg":125.0,"n_vehicles":173,"d":1380,"route_I_counts":"{\"2\": 173}","source":35,"target":36,"layer":"L","from":"Station Vendôme","to":"Station Place-Saint-Henri"},"geometry":{"type":"LineString","coordinates":[[-73.603706,45.474101],[-73.586629,45.47732]]}},{"type":"Feature","properties":{"shape_id":"{\"20236\": 173}","direction_id":"{\"1\": 173}","headsign":"{\"STATION CÔTE-VERTU\": 173}","duration_avg":122.0,"n_vehicles":173,"d":1380,"route_I_counts":"{\"2\": 173}","source":36,"target":35,"layer":"L","from":"Station Place-Saint-Henri","to":"Station Vendôme"},"geometry":{"type":"LineString","coordinates":[[-73.586629,45.47732],[-73.603706,45.474101]]}},{"type":"Feature","properties":{"shape_id":"{\"20237\": 174}","direction_id":"{\"0\": 174}","headsign":"{\"STATION MONTMORENCY\": 174}","duration_avg":76.0,"n_vehicles":174,"d":766,"route_I_counts":"{\"2\": 174}","source":36,"target":19,"layer":"L","from":"Station Place-Saint-Henri","to":"Station Lionel-Groulx"},"geometry":{"type":"LineString","coordinates":[[-73.586629,45.47732],[-73.58018,45.482509]]}},{"type":"Feature","properties":{"shape_id":"{\"20236\": 173}","direction_id":"{\"1\": 173}","headsign":"{\"STATION CÔTE-VERTU\": 173}","duration_avg":85.0,"n_vehicles":173,"d":757,"route_I_counts":"{\"2\": 173}","source":37,"target":19,"layer":"L","from":"Station Georges-Vanier","to":"Station Lionel-Groulx"},"geometry":{"type":"LineString","coordinates":[[-73.576852,45.488897],[-73.58018,45.482509]]}},{"type":"Feature","properties":{"shape_id":"{\"20237\": 174}","direction_id":"{\"0\": 174}","headsign":"{\"STATION MONTMORENCY\": 174}","duration_avg":74.0,"n_vehicles":174,"d":791,"route_I_counts":"{\"2\": 174}","source":37,"target":38,"layer":"L","from":"Station Georges-Vanier","to":"Station Lucien-L'Allier"},"geometry":{"type":"LineString","coordinates":[[-73.576852,45.488897],[-73.571074,45.494745]]}},{"type":"Feature","properties":{"shape_id":"{\"20236\": 172}","direction_id":"{\"1\": 172}","headsign":"{\"STATION CÔTE-VERTU\": 172}","duration_avg":72.0,"n_vehicles":172,"d":791,"route_I_counts":"{\"2\": 172}","source":38,"target":37,"layer":"L","from":"Station Lucien-L'Allier","to":"Station Georges-Vanier"},"geometry":{"type":"LineString","coordinates":[[-73.571074,45.494745],[-73.576852,45.488897]]}},{"type":"Feature","properties":{"shape_id":"{\"20237\": 175}","direction_id":"{\"0\": 175}","headsign":"{\"STATION MONTMORENCY\": 175}","duration_avg":70.0,"n_vehicles":175,"d":477,"route_I_counts":"{\"2\": 175}","source":38,"target":39,"layer":"L","from":"Station Lucien-L'Allier","to":"Station Bonaventure"},"geometry":{"type":"LineString","coordinates":[[-73.571074,45.494745],[-73.567235,45.498086]]}},{"type":"Feature","properties":{"shape_id":"{\"20236\": 172}","direction_id":"{\"1\": 172}","headsign":"{\"STATION CÔTE-VERTU\": 172}","duration_avg":68.0,"n_vehicles":172,"d":477,"route_I_counts":"{\"2\": 172}","source":39,"target":38,"layer":"L","from":"Station Bonaventure","to":"Station Lucien-L'Allier"},"geometry":{"type":"LineString","coordinates":[[-73.567235,45.498086],[-73.571074,45.494745]]}},{"type":"Feature","properties":{"shape_id":"{\"20237\": 175}","direction_id":"{\"0\": 175}","headsign":"{\"STATION MONTMORENCY\": 175}","duration_avg":66.0,"n_vehicles":175,"d":535,"route_I_counts":"{\"2\": 175}","source":39,"target":40,"layer":"L","from":"Station Bonaventure","to":"Station Square-Victoria–OACI"},"geometry":{"type":"LineString","coordinates":[[-73.567235,45.498086],[-73.563118,45.501937]]}},{"type":"Feature","properties":{"shape_id":"{\"20236\": 172}","direction_id":"{\"1\": 172}","headsign":"{\"STATION CÔTE-VERTU\": 172}","duration_avg":73.0,"n_vehicles":172,"d":535,"route_I_counts":"{\"2\": 172}","source":40,"target":39,"layer":"L","from":"Station Square-Victoria–OACI","to":"Station Bonaventure"},"geometry":{"type":"LineString","coordinates":[[-73.563118,45.501937],[-73.567235,45.498086]]}},{"type":"Feature","properties":{"shape_id":"{\"20237\": 175}","direction_id":"{\"0\": 175}","headsign":"{\"STATION MONTMORENCY\": 175}","duration_avg":64.0,"n_vehicles":175,"d":564,"route_I_counts":"{\"2\": 175}","source":40,"target":41,"layer":"L","from":"Station Square-Victoria–OACI","to":"Station Place-d'Armes"},"geometry":{"type":"LineString","coordinates":[[-73.563118,45.501937],[-73.559548,45.506348]]}},{"type":"Feature","properties":{"shape_id":"{\"20236\": 171}","direction_id":"{\"1\": 171}","headsign":"{\"STATION CÔTE-VERTU\": 171}","duration_avg":69.0,"n_vehicles":171,"d":564,"route_I_counts":"{\"2\": 171}","source":41,"target":40,"layer":"L","from":"Station Place-d'Armes","to":"Station Square-Victoria–OACI"},"geometry":{"type":"LineString","coordinates":[[-73.559548,45.506348],[-73.563118,45.501937]]}},{"type":"Feature","properties":{"shape_id":"{\"20237\": 176}","direction_id":"{\"0\": 176}","headsign":"{\"STATION MONTMORENCY\": 176}","duration_avg":64.0,"n_vehicles":176,"d":471,"route_I_counts":"{\"2\": 176}","source":41,"target":42,"layer":"L","from":"Station Place-d'Armes","to":"Station Champ-de-Mars"},"geometry":{"type":"LineString","coordinates":[[-73.559548,45.506348],[-73.556596,45.510047]]}},{"type":"Feature","properties":{"shape_id":"{\"20236\": 171}","direction_id":"{\"1\": 171}","headsign":"{\"STATION CÔTE-VERTU\": 171}","duration_avg":71.0,"n_vehicles":171,"d":471,"route_I_counts":"{\"2\": 171}","source":42,"target":41,"layer":"L","from":"Station Champ-de-Mars","to":"Station Place-d'Armes"},"geometry":{"type":"LineString","coordinates":[[-73.556596,45.510047],[-73.559548,45.506348]]}},{"type":"Feature","properties":{"duration_avg":106.0,"n_vehicles":176,"d":671,"route_I_counts":"{\"2\": 176}","shape_id":"{\"20237\": 176}","direction_id":"{\"0\": 176}","headsign":"{\"STATION MONTMORENCY\": 176}","source":42,"target":12,"layer":"L","from":"Station Champ-de-Mars","to":"Station Berri-UQAM 1"},"geometry":{"type":"LineString","coordinates":[[-73.556596,45.510047],[-73.561082,45.515226]]}},{"type":"Feature","properties":{"shape_id":"{\"20237\": 177}","direction_id":"{\"0\": 177}","headsign":"{\"STATION MONTMORENCY\": 177}","duration_avg":96.0,"n_vehicles":177,"d":1189,"route_I_counts":"{\"2\": 177}","source":43,"target":44,"layer":"L","from":"Station Sherbrooke","to":"Station Mont-Royal"},"geometry":{"type":"LineString","coordinates":[[-73.569217,45.51906],[-73.581959,45.524931]]}},{"type":"Feature","properties":{"duration_avg":77.0,"n_vehicles":170,"d":767,"route_I_counts":"{\"2\": 170}","shape_id":"{\"20236\": 170}","direction_id":"{\"1\": 170}","headsign":"{\"STATION CÔTE-VERTU\": 170}","source":43,"target":12,"layer":"L","from":"Station Sherbrooke","to":"Station Berri-UQAM 1"},"geometry":{"type":"LineString","coordinates":[[-73.569217,45.51906],[-73.561082,45.515226]]}},{"type":"Feature","properties":{"shape_id":"{\"20236\": 170}","direction_id":"{\"1\": 170}","headsign":"{\"STATION CÔTE-VERTU\": 170}","duration_avg":96.0,"n_vehicles":170,"d":1189,"route_I_counts":"{\"2\": 170}","source":44,"target":43,"layer":"L","from":"Station Mont-Royal","to":"Station Sherbrooke"},"geometry":{"type":"LineString","coordinates":[[-73.581959,45.524931],[-73.569217,45.51906]]}},{"type":"Feature","properties":{"shape_id":"{\"20237\": 177}","direction_id":"{\"0\": 177}","headsign":"{\"STATION MONTMORENCY\": 177}","duration_avg":74.0,"n_vehicles":177,"d":473,"route_I_counts":"{\"2\": 177}","source":44,"target":45,"layer":"L","from":"Station Mont-Royal","to":"Station Laurier"},"geometry":{"type":"LineString","coordinates":[[-73.581959,45.524931],[-73.586907,45.527399]]}},{"type":"Feature","properties":{"shape_id":"{\"20236\": 170}","direction_id":"{\"1\": 170}","headsign":"{\"STATION CÔTE-VERTU\": 170}","duration_avg":70.0,"n_vehicles":170,"d":473,"route_I_counts":"{\"2\": 170}","source":45,"target":44,"layer":"L","from":"Station Laurier","to":"Station Mont-Royal"},"geometry":{"type":"LineString","coordinates":[[-73.586907,45.527399],[-73.581959,45.524931]]}},{"type":"Feature","properties":{"shape_id":"{\"20237\": 178}","direction_id":"{\"0\": 178}","headsign":"{\"STATION MONTMORENCY\": 178}","duration_avg":85.0,"n_vehicles":178,"d":975,"route_I_counts":"{\"2\": 178}","source":45,"target":46,"layer":"L","from":"Station Laurier","to":"Station Rosemont"},"geometry":{"type":"LineString","coordinates":[[-73.586907,45.527399],[-73.59778,45.531733]]}},{"type":"Feature","properties":{"shape_id":"{\"20236\": 170}","direction_id":"{\"1\": 170}","headsign":"{\"STATION CÔTE-VERTU\": 170}","duration_avg":85.0,"n_vehicles":170,"d":975,"route_I_counts":"{\"2\": 170}","source":46,"target":45,"layer":"L","from":"Station Rosemont","to":"Station Laurier"},"geometry":{"type":"LineString","coordinates":[[-73.59778,45.531733],[-73.586907,45.527399]]}},{"type":"Feature","properties":{"shape_id":"{\"20237\": 178}","direction_id":"{\"0\": 178}","headsign":"{\"STATION MONTMORENCY\": 178}","duration_avg":72.0,"n_vehicles":178,"d":672,"route_I_counts":"{\"2\": 178}","source":46,"target":47,"layer":"L","from":"Station Rosemont","to":"Station Beaubien"},"geometry":{"type":"LineString","coordinates":[[-73.59778,45.531733],[-73.604688,45.535354]]}},{"type":"Feature","properties":{"shape_id":"{\"20236\": 169}","direction_id":"{\"1\": 169}","headsign":"{\"STATION CÔTE-VERTU\": 169}","duration_avg":75.0,"n_vehicles":169,"d":672,"route_I_counts":"{\"2\": 169}","source":47,"target":46,"layer":"L","from":"Station Beaubien","to":"Station Rosemont"},"geometry":{"type":"LineString","coordinates":[[-73.604688,45.535354],[-73.59778,45.531733]]}},{"type":"Feature","properties":{"shape_id":"{\"20237\": 178}","direction_id":"{\"0\": 178}","headsign":"{\"STATION MONTMORENCY\": 178}","duration_avg":81.0,"n_vehicles":178,"d":828,"route_I_counts":"{\"2\": 178}","source":47,"target":48,"layer":"L","from":"Station Beaubien","to":"Station Jean-Talon 2"},"geometry":{"type":"LineString","coordinates":[[-73.604688,45.535354],[-73.613902,45.539056]]}},{"type":"Feature","properties":{"shape_id":"{\"20236\": 169}","direction_id":"{\"1\": 169}","headsign":"{\"STATION CÔTE-VERTU\": 169}","duration_avg":87.0,"n_vehicles":169,"d":828,"route_I_counts":"{\"2\": 169}","source":48,"target":47,"layer":"L","from":"Station Jean-Talon 2","to":"Station Beaubien"},"geometry":{"type":"LineString","coordinates":[[-73.613902,45.539056],[-73.604688,45.535354]]}},{"type":"Feature","properties":{"shape_id":"{\"20237\": 179}","direction_id":"{\"0\": 179}","headsign":"{\"STATION MONTMORENCY\": 179}","duration_avg":101.0,"n_vehicles":179,"d":1246,"route_I_counts":"{\"2\": 179}","source":48,"target":49,"layer":"L","from":"Station Jean-Talon 2","to":"Station Jarry"},"geometry":{"type":"LineString","coordinates":[[-73.613902,45.539056],[-73.628765,45.543191]]}},{"type":"Feature","properties":{"duration_avg":76.0,"n_vehicles":136,"d":625,"route_I_counts":"{\"4\": 136}","shape_id":"{\"51762\": 136}","direction_id":"{\"1\": 136}","headsign":"{\"STATION SNOWDON\": 136}","source":48,"target":61,"layer":"L","from":"Station Jean-Talon 2","to":"Station De Castelnau"},"geometry":{"type":"LineString","coordinates":[[-73.613902,45.539056],[-73.619873,45.535437]]}},{"type":"Feature","properties":{"duration_avg":91.0,"n_vehicles":138,"d":957,"route_I_counts":"{\"4\": 138}","shape_id":"{\"51763\": 138}","direction_id":"{\"0\": 138}","headsign":"{\"STATION SAINT-MICHEL\": 138}","source":48,"target":60,"layer":"L","from":"Station Jean-Talon 2","to":"Station Fabre"},"geometry":{"type":"LineString","coordinates":[[-73.613902,45.539056],[-73.608106,45.546753]]}},{"type":"Feature","properties":{"shape_id":"{\"20236\": 169}","direction_id":"{\"1\": 169}","headsign":"{\"STATION CÔTE-VERTU\": 169}","duration_avg":99.0,"n_vehicles":169,"d":1246,"route_I_counts":"{\"2\": 169}","source":49,"target":48,"layer":"L","from":"Station Jarry","to":"Station Jean-Talon 2"},"geometry":{"type":"LineString","coordinates":[[-73.628765,45.543191],[-73.613902,45.539056]]}},{"type":"Feature","properties":{"shape_id":"{\"20237\": 179}","direction_id":"{\"0\": 179}","headsign":"{\"STATION MONTMORENCY\": 179}","duration_avg":87.0,"n_vehicles":179,"d":864,"route_I_counts":"{\"2\": 179}","source":49,"target":50,"layer":"L","from":"Station Jarry","to":"Station Crémazie"},"geometry":{"type":"LineString","coordinates":[[-73.628765,45.543191],[-73.639052,45.546082]]}},{"type":"Feature","properties":{"shape_id":"{\"20236\": 169}","direction_id":"{\"1\": 169}","headsign":"{\"STATION CÔTE-VERTU\": 169}","duration_avg":92.0,"n_vehicles":169,"d":864,"route_I_counts":"{\"2\": 169}","source":50,"target":49,"layer":"L","from":"Station Crémazie","to":"Station Jarry"},"geometry":{"type":"LineString","coordinates":[[-73.639052,45.546082],[-73.628765,45.543191]]}},{"type":"Feature","properties":{"shape_id":"{\"20237\": 180}","direction_id":"{\"0\": 180}","headsign":"{\"STATION MONTMORENCY\": 180}","duration_avg":119.0,"n_vehicles":180,"d":1421,"route_I_counts":"{\"2\": 180}","source":50,"target":51,"layer":"L","from":"Station Crémazie","to":"Station Sauvé"},"geometry":{"type":"LineString","coordinates":[[-73.639052,45.546082],[-73.656017,45.550757]]}},{"type":"Feature","properties":{"shape_id":"{\"20236\": 168}","direction_id":"{\"1\": 168}","headsign":"{\"STATION CÔTE-VERTU\": 168}","duration_avg":152.0,"n_vehicles":168,"d":1421,"route_I_counts":"{\"2\": 168}","source":51,"target":50,"layer":"L","from":"Station Sauvé","to":"Station Crémazie"},"geometry":{"type":"LineString","coordinates":[[-73.656017,45.550757],[-73.639052,45.546082]]}},{"type":"Feature","properties":{"shape_id":"{\"20237\": 180}","direction_id":"{\"0\": 180}","headsign":"{\"STATION MONTMORENCY\": 180}","duration_avg":116.0,"n_vehicles":180,"d":1072,"route_I_counts":"{\"2\": 180}","source":51,"target":52,"layer":"L","from":"Station Sauvé","to":"Station Henri-Bourassa"},"geometry":{"type":"LineString","coordinates":[[-73.656017,45.550757],[-73.668172,45.555277]]}},{"type":"Feature","properties":{"shape_id":"{\"20236\": 168}","direction_id":"{\"1\": 168}","headsign":"{\"STATION CÔTE-VERTU\": 168}","duration_avg":90.0,"n_vehicles":168,"d":1072,"route_I_counts":"{\"2\": 168}","source":52,"target":51,"layer":"L","from":"Station Henri-Bourassa","to":"Station Sauvé"},"geometry":{"type":"LineString","coordinates":[[-73.668172,45.555277],[-73.656017,45.550757]]}},{"type":"Feature","properties":{"shape_id":"{\"20237\": 181}","direction_id":"{\"0\": 181}","headsign":"{\"STATION MONTMORENCY\": 181}","duration_avg":110.0,"n_vehicles":181,"d":1220,"route_I_counts":"{\"2\": 181}","source":52,"target":53,"layer":"L","from":"Station Henri-Bourassa","to":"Station Cartier (zone B)"},"geometry":{"type":"LineString","coordinates":[[-73.668172,45.555277],[-73.68231,45.559997]]}},{"type":"Feature","properties":{"shape_id":"{\"20236\": 168}","direction_id":"{\"1\": 168}","headsign":"{\"STATION CÔTE-VERTU\": 168}","duration_avg":106.0,"n_vehicles":168,"d":1220,"route_I_counts":"{\"2\": 168}","source":53,"target":52,"layer":"L","from":"Station Cartier (zone B)","to":"Station Henri-Bourassa"},"geometry":{"type":"LineString","coordinates":[[-73.68231,45.559997],[-73.668172,45.555277]]}},{"type":"Feature","properties":{"shape_id":"{\"20237\": 181}","direction_id":"{\"0\": 181}","headsign":"{\"STATION MONTMORENCY\": 181}","duration_avg":154.0,"n_vehicles":181,"d":2112,"route_I_counts":"{\"2\": 181}","source":53,"target":54,"layer":"L","from":"Station Cartier (zone B)","to":"Station De la Concorde (zone B)"},"geometry":{"type":"LineString","coordinates":[[-73.68231,45.559997],[-73.709389,45.560698]]}},{"type":"Feature","properties":{"shape_id":"{\"20236\": 167}","direction_id":"{\"1\": 167}","headsign":"{\"STATION CÔTE-VERTU\": 167}","duration_avg":153.0,"n_vehicles":167,"d":2112,"route_I_counts":"{\"2\": 167}","source":54,"target":53,"layer":"L","from":"Station De la Concorde (zone B)","to":"Station Cartier (zone B)"},"geometry":{"type":"LineString","coordinates":[[-73.709389,45.560698],[-73.68231,45.559997]]}},{"type":"Feature","properties":{"shape_id":"{\"20237\": 182}","direction_id":"{\"0\": 182}","headsign":"{\"STATION MONTMORENCY\": 182}","duration_avg":117.0,"n_vehicles":182,"d":1049,"route_I_counts":"{\"2\": 182}","source":54,"target":55,"layer":"L","from":"Station De la Concorde (zone B)","to":"Station Montmorency (zone B)"},"geometry":{"type":"LineString","coordinates":[[-73.709389,45.560698],[-73.722459,45.558436]]}},{"type":"Feature","properties":{"shape_id":"{\"20236\": 167}","direction_id":"{\"1\": 167}","headsign":"{\"STATION CÔTE-VERTU\": 167}","duration_avg":75.0,"n_vehicles":167,"d":1049,"route_I_counts":"{\"2\": 167}","source":55,"target":54,"layer":"L","from":"Station Montmorency (zone B)","to":"Station De la Concorde (zone B)"},"geometry":{"type":"LineString","coordinates":[[-73.722459,45.558436],[-73.709389,45.560698]]}},{"type":"Feature","properties":{"shape_id":"{\"40025\": 113}","direction_id":"{\"0\": 113}","headsign":"{\"STATION BERRI-UQAM\": 113}","duration_avg":130.0,"n_vehicles":113,"d":1632,"route_I_counts":"{\"3\": 113}","source":56,"target":57,"layer":"L","from":"Station Longueuil-Université de Sherbrooke (zone B","to":"Station Jean-Drapeau"},"geometry":{"type":"LineString","coordinates":[[-73.522098,45.52489],[-73.533127,45.512429]]}},{"type":"Feature","properties":{"shape_id":"{\"40024\": 114}","direction_id":"{\"1\": 114}","headsign":"{\"STATION LONGUEUIL–UNIVERSITÉ-DE-SHERBROOKE\": 114}","duration_avg":154.0,"n_vehicles":114,"d":1632,"route_I_counts":"{\"3\": 114}","source":57,"target":56,"layer":"L","from":"Station Jean-Drapeau","to":"Station Longueuil-Université de Sherbrooke (zone B"},"geometry":{"type":"LineString","coordinates":[[-73.533127,45.512429],[-73.522098,45.52489]]}},{"type":"Feature","properties":{"duration_avg":215.0,"n_vehicles":114,"d":2196,"route_I_counts":"{\"3\": 114}","shape_id":"{\"40025\": 114}","direction_id":"{\"0\": 114}","headsign":"{\"STATION BERRI-UQAM\": 114}","source":57,"target":12,"layer":"L","from":"Station Jean-Drapeau","to":"Station Berri-UQAM 1"},"geometry":{"type":"LineString","coordinates":[[-73.533127,45.512429],[-73.561082,45.515226]]}},{"type":"Feature","properties":{"shape_id":"{\"51762\": 136}","direction_id":"{\"1\": 136}","headsign":"{\"STATION SNOWDON\": 136}","duration_avg":50.0,"n_vehicles":136,"d":679,"route_I_counts":"{\"4\": 136}","source":58,"target":59,"layer":"L","from":"Station Saint-Michel","to":"Station D'Iberville"},"geometry":{"type":"LineString","coordinates":[[-73.600002,45.55956],[-73.601988,45.553618]]}},{"type":"Feature","properties":{"shape_id":"{\"51762\": 136}","direction_id":"{\"1\": 136}","headsign":"{\"STATION SNOWDON\": 136}","duration_avg":77.0,"n_vehicles":136,"d":900,"route_I_counts":"{\"4\": 136}","source":59,"target":60,"layer":"L","from":"Station D'Iberville","to":"Station Fabre"},"geometry":{"type":"LineString","coordinates":[[-73.601988,45.553618],[-73.608106,45.546753]]}},{"type":"Feature","properties":{"shape_id":"{\"51763\": 138}","direction_id":"{\"0\": 138}","headsign":"{\"STATION SAINT-MICHEL\": 138}","duration_avg":105.0,"n_vehicles":138,"d":679,"route_I_counts":"{\"4\": 138}","source":59,"target":58,"layer":"L","from":"Station D'Iberville","to":"Station Saint-Michel"},"geometry":{"type":"LineString","coordinates":[[-73.601988,45.553618],[-73.600002,45.55956]]}},{"type":"Feature","properties":{"shape_id":"{\"51763\": 138}","direction_id":"{\"0\": 138}","headsign":"{\"STATION SAINT-MICHEL\": 138}","duration_avg":76.0,"n_vehicles":138,"d":900,"route_I_counts":"{\"4\": 138}","source":60,"target":59,"layer":"L","from":"Station Fabre","to":"Station D'Iberville"},"geometry":{"type":"LineString","coordinates":[[-73.608106,45.546753],[-73.601988,45.553618]]}},{"type":"Feature","properties":{"duration_avg":90.0,"n_vehicles":136,"d":957,"route_I_counts":"{\"4\": 136}","shape_id":"{\"51762\": 136}","direction_id":"{\"1\": 136}","headsign":"{\"STATION SNOWDON\": 136}","source":60,"target":48,"layer":"L","from":"Station Fabre","to":"Station Jean-Talon 2"},"geometry":{"type":"LineString","coordinates":[[-73.608106,45.546753],[-73.613902,45.539056]]}},{"type":"Feature","properties":{"shape_id":"{\"51762\": 137}","direction_id":"{\"1\": 137}","headsign":"{\"STATION SNOWDON\": 137}","duration_avg":67.0,"n_vehicles":137,"d":690,"route_I_counts":"{\"4\": 137}","source":61,"target":62,"layer":"L","from":"Station De Castelnau","to":"Station Parc"},"geometry":{"type":"LineString","coordinates":[[-73.619873,45.535437],[-73.624559,45.530177]]}},{"type":"Feature","properties":{"duration_avg":67.0,"n_vehicles":137,"d":625,"route_I_counts":"{\"4\": 137}","shape_id":"{\"51763\": 137}","direction_id":"{\"0\": 137}","headsign":"{\"STATION SAINT-MICHEL\": 137}","source":61,"target":48,"layer":"L","from":"Station De Castelnau","to":"Station Jean-Talon 2"},"geometry":{"type":"LineString","coordinates":[[-73.619873,45.535437],[-73.613902,45.539056]]}},{"type":"Feature","properties":{"shape_id":"{\"51762\": 137}","direction_id":"{\"1\": 137}","headsign":"{\"STATION SNOWDON\": 137}","duration_avg":90.0,"n_vehicles":137,"d":754,"route_I_counts":"{\"4\": 137}","source":62,"target":63,"layer":"L","from":"Station Parc","to":"Station Acadie"},"geometry":{"type":"LineString","coordinates":[[-73.624559,45.530177],[-73.623257,45.523458]]}},{"type":"Feature","properties":{"shape_id":"{\"51763\": 137}","direction_id":"{\"0\": 137}","headsign":"{\"STATION SAINT-MICHEL\": 137}","duration_avg":65.0,"n_vehicles":137,"d":690,"route_I_counts":"{\"4\": 137}","source":62,"target":61,"layer":"L","from":"Station Parc","to":"Station De Castelnau"},"geometry":{"type":"LineString","coordinates":[[-73.624559,45.530177],[-73.619873,45.535437]]}},{"type":"Feature","properties":{"shape_id":"{\"51762\": 137}","direction_id":"{\"1\": 137}","headsign":"{\"STATION SNOWDON\": 137}","duration_avg":182.0,"n_vehicles":137,"d":1711,"route_I_counts":"{\"4\": 137}","source":63,"target":64,"layer":"L","from":"Station Acadie","to":"Station Édouard-Montpetit"},"geometry":{"type":"LineString","coordinates":[[-73.623257,45.523458],[-73.612858,45.50992]]}},{"type":"Feature","properties":{"shape_id":"{\"51763\": 137}","direction_id":"{\"0\": 137}","headsign":"{\"STATION SAINT-MICHEL\": 137}","duration_avg":91.0,"n_vehicles":137,"d":754,"route_I_counts":"{\"4\": 137}","source":63,"target":62,"layer":"L","from":"Station Acadie","to":"Station Parc"},"geometry":{"type":"LineString","coordinates":[[-73.623257,45.523458],[-73.624559,45.530177]]}},{"type":"Feature","properties":{"shape_id":"{\"51762\": 137}","direction_id":"{\"1\": 137}","headsign":"{\"STATION SNOWDON\": 137}","duration_avg":76.0,"n_vehicles":137,"d":839,"route_I_counts":"{\"4\": 137}","source":64,"target":65,"layer":"L","from":"Station Édouard-Montpetit","to":"Station Université-de-Montréal"},"geometry":{"type":"LineString","coordinates":[[-73.612858,45.50992],[-73.617699,45.503188]]}},{"type":"Feature","properties":{"shape_id":"{\"51763\": 137}","direction_id":"{\"0\": 137}","headsign":"{\"STATION SAINT-MICHEL\": 137}","duration_avg":175.0,"n_vehicles":137,"d":1711,"route_I_counts":"{\"4\": 137}","source":64,"target":63,"layer":"L","from":"Station Édouard-Montpetit","to":"Station Acadie"},"geometry":{"type":"LineString","coordinates":[[-73.612858,45.50992],[-73.623257,45.523458]]}},{"type":"Feature","properties":{"shape_id":"{\"51762\": 137}","direction_id":"{\"1\": 137}","headsign":"{\"STATION SNOWDON\": 137}","duration_avg":83.0,"n_vehicles":137,"d":833,"route_I_counts":"{\"4\": 137}","source":65,"target":66,"layer":"L","from":"Station Université-de-Montréal","to":"Station Côte-des-Neiges"},"geometry":{"type":"LineString","coordinates":[[-73.617699,45.503188],[-73.623386,45.496846]]}},{"type":"Feature","properties":{"shape_id":"{\"51763\": 136}","direction_id":"{\"0\": 136}","headsign":"{\"STATION SAINT-MICHEL\": 136}","duration_avg":76.0,"n_vehicles":136,"d":839,"route_I_counts":"{\"4\": 136}","source":65,"target":64,"layer":"L","from":"Station Université-de-Montréal","to":"Station Édouard-Montpetit"},"geometry":{"type":"LineString","coordinates":[[-73.617699,45.503188],[-73.612858,45.50992]]}},{"type":"Feature","properties":{"shape_id":"{\"51763\": 136}","direction_id":"{\"0\": 136}","headsign":"{\"STATION SAINT-MICHEL\": 136}","duration_avg":85.0,"n_vehicles":136,"d":833,"route_I_counts":"{\"4\": 136}","source":66,"target":65,"layer":"L","from":"Station Côte-des-Neiges","to":"Station Université-de-Montréal"},"geometry":{"type":"LineString","coordinates":[[-73.623386,45.496846],[-73.617699,45.503188]]}},{"type":"Feature","properties":{"duration_avg":94.0,"n_vehicles":138,"d":1318,"route_I_counts":"{\"4\": 138}","shape_id":"{\"51762\": 138}","direction_id":"{\"1\": 138}","headsign":"{\"STATION SNOWDON\": 138}","source":66,"target":33,"layer":"L","from":"Station Côte-des-Neiges","to":"Station Snowdon 2"},"geometry":{"type":"LineString","coordinates":[[-73.623386,45.496846],[-73.62773,45.485433]]}}]}