{"type":"FeatureCollection","features":[{"type":"Feature","geometry":{"type":"Point","coordinates":[14.287608,40.853964]},"properties":{"name":"GIANTURCO","original_ids":"[2300]","id":0,"layer":"stop"}},{"type":"Feature","geometry":{"type":"Point","coordinates":[14.272512,40.852654]},"properties":{"name":"PIAZZA GARIBALDI","original_ids":"[2301, 2319, 2353]","id":1,"layer":"stop"}},{"type":"Feature","geometry":{"type":"Point","coordinates":[14.244165,40.847712]},"properties":{"name":"MONTESANTO","original_ids":"[2303, 2317]","id":2,"layer":"stop"}},{"type":"Feature","geometry":{"type":"Point","coordinates":[14.231919,40.838852]},"properties":{"name":"AMEDEO","original_ids":"[2304, 2316]","id":3,"layer":"stop"}},{"type":"Feature","geometry":{"type":"Point","coordinates":[14.218743,40.831455]},"properties":{"name":"MERGELLINA","original_ids":"[2305, 2315]","id":4,"layer":"stop"}},{"type":"Feature","geometry":{"type":"Point","coordinates":[14.20004,40.824323]},"properties":{"name":"LEOPARDI","original_ids":"[2306, 2314]","id":5,"layer":"stop"}},{"type":"Feature","geometry":{"type":"Point","coordinates":[14.194611,40.822534]},"properties":{"name":"CAMPI FLEGREI","original_ids":"[2307, 2313]","id":6,"layer":"stop"}},{"type":"Feature","geometry":{"type":"Point","coordinates":[14.186581,40.819775]},"properties":{"name":"CAVALLEGGERI AOSTA","original_ids":"[2308, 2312]","id":7,"layer":"stop"}},{"type":"Feature","geometry":{"type":"Point","coordinates":[14.166829,40.819865]},"properties":{"name":"BAGNOLI","original_ids":"[2309, 2311]","id":8,"layer":"stop"}},{"type":"Feature","geometry":{"type":"Point","coordinates":[14.125691,40.828153]},"properties":{"name":"POZZUOLI","original_ids":"[2310]","id":9,"layer":"stop"}},{"type":"Feature","geometry":{"type":"Point","coordinates":[14.240128,40.892708]},"properties":{"name":"PISCINOLA","original_ids":"[2320]","id":10,"layer":"stop"}},{"type":"Feature","geometry":{"type":"Point","coordinates":[14.223564,40.890978]},"properties":{"name":"CHIAIANO","original_ids":"[2321, 2352]","id":11,"layer":"stop"}},{"type":"Feature","geometry":{"type":"Point","coordinates":[14.230757,40.880725]},"properties":{"name":"FRULLONE","original_ids":"[2322, 2351]","id":12,"layer":"stop"}},{"type":"Feature","geometry":{"type":"Point","coordinates":[14.228393,40.870205]},"properties":{"name":"COLLI AMINEI","original_ids":"[2323, 2350]","id":13,"layer":"stop"}},{"type":"Feature","geometry":{"type":"Point","coordinates":[14.221079,40.86625]},"properties":{"name":"POLICLINICO","original_ids":"[2324, 2349]","id":14,"layer":"stop"}},{"type":"Feature","geometry":{"type":"Point","coordinates":[14.220029,40.860869]},"properties":{"name":"RIONE ALTO","original_ids":"[2325, 2348]","id":15,"layer":"stop"}},{"type":"Feature","geometry":{"type":"Point","coordinates":[14.223935,40.855598]},"properties":{"name":"MONTEDONZELLI","original_ids":"[2326, 2347]","id":16,"layer":"stop"}},{"type":"Feature","geometry":{"type":"Point","coordinates":[14.230625,40.850504]},"properties":{"name":"MEDAGLIE D'ORO","original_ids":"[2327, 2346]","id":17,"layer":"stop"}},{"type":"Feature","geometry":{"type":"Point","coordinates":[14.231643,40.843827]},"properties":{"name":"VANVITELLI","original_ids":"[2328, 2345]","id":18,"layer":"stop"}},{"type":"Feature","geometry":{"type":"Point","coordinates":[14.225354,40.846349]},"properties":{"name":"QUATTRO GIORNATE","original_ids":"[2329, 2344]","id":19,"layer":"stop"}},{"type":"Feature","geometry":{"type":"Point","coordinates":[14.236016,40.851483]},"properties":{"name":"S. ROSA","original_ids":"[2330, 2343]","id":20,"layer":"stop"}},{"type":"Feature","geometry":{"type":"Point","coordinates":[14.24299,40.855363]},"properties":{"name":"MATERDEI","original_ids":"[2331, 2342]","id":21,"layer":"stop"}},{"type":"Feature","geometry":{"type":"Point","coordinates":[14.251365,40.853541]},"properties":{"name":"MUSEO","original_ids":"[2341, 2332, 2302, 2318]","id":22,"layer":"stop"}},{"type":"Feature","geometry":{"type":"Point","coordinates":[14.249929,40.848579]},"properties":{"name":"DANTE","original_ids":"[2333, 2335]","id":23,"layer":"stop"}},{"type":"Feature","geometry":{"type":"Point","coordinates":[14.250181,40.842696]},"properties":{"name":"TOLEDO","original_ids":"[2334, 2340]","id":24,"layer":"stop"}},{"type":"Feature","geometry":{"type":"Point","coordinates":[14.253671,40.839314]},"properties":{"name":"MUNICIPIO","original_ids":"[2339, 2338]","id":25,"layer":"stop"}},{"type":"Feature","geometry":{"type":"Point","coordinates":[14.255639,40.843209]},"properties":{"name":"UNIVERSITA'","original_ids":"[2336, 2337]","id":26,"layer":"stop"}},{"type":"Feature","geometry":{"type":"Point","coordinates":[14.261704,40.847646]},"properties":{"name":"DUOMO","original_ids":"[2354, 2355]","id":27,"layer":"stop"}},{"type":"Feature","properties":{"shape_id":"{\"3061725947\": 84}","direction_id":"{\"0\": 84}","headsign":"{\"\": 84}","duration_avg":207.83333333333334,"n_vehicles":84,"d":1279,"route_I_counts":"{\"10\": 84}","source":0,"target":1,"layer":"L","from":"GIANTURCO","to":"PIAZZA GARIBALDI"},"geometry":{"type":"LineString","coordinates":[[14.287608,40.853964],[14.272512,40.852654]]}},{"type":"Feature","properties":{"duration_avg":215.97530864197532,"n_vehicles":81,"d":1280,"route_I_counts":"{\"10\": 81}","shape_id":"{\"648687424\": 81}","direction_id":"{\"1\": 81}","headsign":"{\"\": 81}","source":1,"target":0,"layer":"L","from":"PIAZZA GARIBALDI","to":"GIANTURCO"},"geometry":{"type":"LineString","coordinates":[[14.272512,40.852654],[14.287608,40.853964]]}},{"type":"Feature","properties":{"duration_avg":120.0,"n_vehicles":107,"d":1045,"route_I_counts":"{\"28\": 107}","shape_id":"{\"697489600\": 107}","direction_id":"{\"1\": 107}","headsign":"{\"\": 107}","source":1,"target":27,"layer":"L","from":"PIAZZA GARIBALDI","to":"DUOMO"},"geometry":{"type":"LineString","coordinates":[[14.272512,40.852654],[14.261704,40.847646]]}},{"type":"Feature","properties":{"duration_avg":257.01190476190476,"n_vehicles":84,"d":1532,"route_I_counts":"{\"10\": 84}","shape_id":"{\"3061725947\": 84}","direction_id":"{\"0\": 84}","headsign":"{\"\": 84}","source":1,"target":22,"layer":"L","from":"PIAZZA GARIBALDI","to":"MUSEO"},"geometry":{"type":"LineString","coordinates":[[14.272512,40.852654],[14.251365,40.853541]]}},{"type":"Feature","properties":{"shape_id":"{\"3061725947\": 84}","direction_id":"{\"0\": 84}","headsign":"{\"\": 84}","duration_avg":254.95238095238096,"n_vehicles":84,"d":1426,"route_I_counts":"{\"10\": 84}","source":2,"target":3,"layer":"L","from":"MONTESANTO","to":"AMEDEO"},"geometry":{"type":"LineString","coordinates":[[14.244165,40.847712],[14.231919,40.838852]]}},{"type":"Feature","properties":{"duration_avg":201.54320987654322,"n_vehicles":81,"d":1226,"route_I_counts":"{\"10\": 81}","shape_id":"{\"648687424\": 81}","direction_id":"{\"1\": 81}","headsign":"{\"\": 81}","source":2,"target":22,"layer":"L","from":"MONTESANTO","to":"MUSEO"},"geometry":{"type":"LineString","coordinates":[[14.244165,40.847712],[14.251365,40.853541]]}},{"type":"Feature","properties":{"shape_id":"{\"3061725947\": 84}","direction_id":"{\"0\": 84}","headsign":"{\"\": 84}","duration_avg":254.83333333333334,"n_vehicles":84,"d":1381,"route_I_counts":"{\"10\": 84}","source":3,"target":4,"layer":"L","from":"AMEDEO","to":"MERGELLINA"},"geometry":{"type":"LineString","coordinates":[[14.231919,40.838852],[14.218743,40.831455]]}},{"type":"Feature","properties":{"duration_avg":246.28395061728395,"n_vehicles":81,"d":1467,"route_I_counts":"{\"10\": 81}","shape_id":"{\"648687424\": 81}","direction_id":"{\"1\": 81}","headsign":"{\"\": 81}","source":3,"target":2,"layer":"L","from":"AMEDEO","to":"MONTESANTO"},"geometry":{"type":"LineString","coordinates":[[14.231919,40.838852],[14.244165,40.847712]]}},{"type":"Feature","properties":{"shape_id":"{\"3061725947\": 84}","direction_id":"{\"0\": 84}","headsign":"{\"\": 84}","duration_avg":314.0357142857143,"n_vehicles":84,"d":1764,"route_I_counts":"{\"10\": 84}","source":4,"target":5,"layer":"L","from":"MERGELLINA","to":"LEOPARDI"},"geometry":{"type":"LineString","coordinates":[[14.218743,40.831455],[14.20004,40.824323]]}},{"type":"Feature","properties":{"duration_avg":241.88888888888889,"n_vehicles":81,"d":1338,"route_I_counts":"{\"10\": 81}","shape_id":"{\"648687424\": 81}","direction_id":"{\"1\": 81}","headsign":"{\"\": 81}","source":4,"target":3,"layer":"L","from":"MERGELLINA","to":"AMEDEO"},"geometry":{"type":"LineString","coordinates":[[14.218743,40.831455],[14.231919,40.838852]]}},{"type":"Feature","properties":{"shape_id":"{\"3061725947\": 84}","direction_id":"{\"0\": 84}","headsign":"{\"\": 84}","duration_avg":80.64285714285714,"n_vehicles":84,"d":498,"route_I_counts":"{\"10\": 84}","source":5,"target":6,"layer":"L","from":"LEOPARDI","to":"CAMPI FLEGREI"},"geometry":{"type":"LineString","coordinates":[[14.20004,40.824323],[14.194611,40.822534]]}},{"type":"Feature","properties":{"duration_avg":299.0987654320988,"n_vehicles":81,"d":1793,"route_I_counts":"{\"10\": 81}","shape_id":"{\"648687424\": 81}","direction_id":"{\"1\": 81}","headsign":"{\"\": 81}","source":5,"target":4,"layer":"L","from":"LEOPARDI","to":"MERGELLINA"},"geometry":{"type":"LineString","coordinates":[[14.20004,40.824323],[14.218743,40.831455]]}},{"type":"Feature","properties":{"shape_id":"{\"3061725947\": 84}","direction_id":"{\"0\": 84}","headsign":"{\"\": 84}","duration_avg":119.8452380952381,"n_vehicles":84,"d":742,"route_I_counts":"{\"10\": 84}","source":6,"target":7,"layer":"L","from":"CAMPI FLEGREI","to":"CAVALLEGGERI AOSTA"},"geometry":{"type":"LineString","coordinates":[[14.194611,40.822534],[14.186581,40.819775]]}},{"type":"Feature","properties":{"duration_avg":77.01234567901234,"n_vehicles":81,"d":498,"route_I_counts":"{\"10\": 81}","shape_id":"{\"648687424\": 81}","direction_id":"{\"1\": 81}","headsign":"{\"\": 81}","source":6,"target":5,"layer":"L","from":"CAMPI FLEGREI","to":"LEOPARDI"},"geometry":{"type":"LineString","coordinates":[[14.194611,40.822534],[14.20004,40.824323]]}},{"type":"Feature","properties":{"shape_id":"{\"3061725947\": 84}","direction_id":"{\"0\": 84}","headsign":"{\"\": 84}","duration_avg":279.0833333333333,"n_vehicles":84,"d":1663,"route_I_counts":"{\"10\": 84}","source":7,"target":8,"layer":"L","from":"CAVALLEGGERI AOSTA","to":"BAGNOLI"},"geometry":{"type":"LineString","coordinates":[[14.186581,40.819775],[14.166829,40.819865]]}},{"type":"Feature","properties":{"duration_avg":117.8641975308642,"n_vehicles":81,"d":741,"route_I_counts":"{\"10\": 81}","shape_id":"{\"648687424\": 81}","direction_id":"{\"1\": 81}","headsign":"{\"\": 81}","source":7,"target":6,"layer":"L","from":"CAVALLEGGERI AOSTA","to":"CAMPI FLEGREI"},"geometry":{"type":"LineString","coordinates":[[14.186581,40.819775],[14.194611,40.822534]]}},{"type":"Feature","properties":{"shape_id":"{\"3061725947\": 84}","direction_id":"{\"0\": 84}","headsign":"{\"\": 84}","duration_avg":598.702380952381,"n_vehicles":84,"d":3586,"route_I_counts":"{\"10\": 84}","source":8,"target":9,"layer":"L","from":"BAGNOLI","to":"POZZUOLI"},"geometry":{"type":"LineString","coordinates":[[14.166829,40.819865],[14.125691,40.828153]]}},{"type":"Feature","properties":{"duration_avg":265.2716049382716,"n_vehicles":81,"d":1680,"route_I_counts":"{\"10\": 81}","shape_id":"{\"648687424\": 81}","direction_id":"{\"1\": 81}","headsign":"{\"\": 81}","source":8,"target":7,"layer":"L","from":"BAGNOLI","to":"CAVALLEGGERI AOSTA"},"geometry":{"type":"LineString","coordinates":[[14.166829,40.819865],[14.186581,40.819775]]}},{"type":"Feature","properties":{"duration_avg":572.4074074074074,"n_vehicles":81,"d":3589,"route_I_counts":"{\"10\": 81}","shape_id":"{\"648687424\": 81}","direction_id":"{\"1\": 81}","headsign":"{\"\": 81}","source":9,"target":8,"layer":"L","from":"POZZUOLI","to":"BAGNOLI"},"geometry":{"type":"LineString","coordinates":[[14.125691,40.828153],[14.166829,40.819865]]}},{"type":"Feature","properties":{"shape_id":"{\"2204090173\": 109}","direction_id":"{\"0\": 109}","headsign":"{\"\": 109}","duration_avg":120.0,"n_vehicles":109,"d":1407,"route_I_counts":"{\"28\": 109}","source":10,"target":11,"layer":"L","from":"PISCINOLA","to":"CHIAIANO"},"geometry":{"type":"LineString","coordinates":[[14.240128,40.892708],[14.223564,40.890978]]}},{"type":"Feature","properties":{"shape_id":"{\"2204090173\": 108}","direction_id":"{\"0\": 108}","headsign":"{\"\": 108}","duration_avg":120.0,"n_vehicles":108,"d":1292,"route_I_counts":"{\"28\": 108}","source":11,"target":12,"layer":"L","from":"CHIAIANO","to":"FRULLONE"},"geometry":{"type":"LineString","coordinates":[[14.223564,40.890978],[14.230757,40.880725]]}},{"type":"Feature","properties":{"duration_avg":120.0,"n_vehicles":104,"d":1387,"route_I_counts":"{\"28\": 104}","shape_id":"{\"697489600\": 104}","direction_id":"{\"1\": 104}","headsign":"{\"\": 104}","source":11,"target":10,"layer":"L","from":"CHIAIANO","to":"PISCINOLA"},"geometry":{"type":"LineString","coordinates":[[14.223564,40.890978],[14.240128,40.892708]]}},{"type":"Feature","properties":{"shape_id":"{\"2204090173\": 108}","direction_id":"{\"0\": 108}","headsign":"{\"\": 108}","duration_avg":120.0,"n_vehicles":108,"d":1187,"route_I_counts":"{\"28\": 108}","source":12,"target":13,"layer":"L","from":"FRULLONE","to":"COLLI AMINEI"},"geometry":{"type":"LineString","coordinates":[[14.230757,40.880725],[14.228393,40.870205]]}},{"type":"Feature","properties":{"duration_avg":120.0,"n_vehicles":105,"d":1270,"route_I_counts":"{\"28\": 105}","shape_id":"{\"697489600\": 105}","direction_id":"{\"1\": 105}","headsign":"{\"\": 105}","source":12,"target":11,"layer":"L","from":"FRULLONE","to":"CHIAIANO"},"geometry":{"type":"LineString","coordinates":[[14.230757,40.880725],[14.223564,40.890978]]}},{"type":"Feature","properties":{"shape_id":"{\"2204090173\": 108}","direction_id":"{\"0\": 108}","headsign":"{\"\": 108}","duration_avg":120.0,"n_vehicles":108,"d":756,"route_I_counts":"{\"28\": 108}","source":13,"target":14,"layer":"L","from":"COLLI AMINEI","to":"POLICLINICO"},"geometry":{"type":"LineString","coordinates":[[14.228393,40.870205],[14.221079,40.86625]]}},{"type":"Feature","properties":{"duration_avg":120.0,"n_vehicles":105,"d":1223,"route_I_counts":"{\"28\": 105}","shape_id":"{\"697489600\": 105}","direction_id":"{\"1\": 105}","headsign":"{\"\": 105}","source":13,"target":12,"layer":"L","from":"COLLI AMINEI","to":"FRULLONE"},"geometry":{"type":"LineString","coordinates":[[14.228393,40.870205],[14.230757,40.880725]]}},{"type":"Feature","properties":{"shape_id":"{\"2204090173\": 108}","direction_id":"{\"0\": 108}","headsign":"{\"\": 108}","duration_avg":60.0,"n_vehicles":108,"d":605,"route_I_counts":"{\"28\": 108}","source":14,"target":15,"layer":"L","from":"POLICLINICO","to":"RIONE ALTO"},"geometry":{"type":"LineString","coordinates":[[14.221079,40.86625],[14.220029,40.860869]]}},{"type":"Feature","properties":{"duration_avg":120.0,"n_vehicles":105,"d":761,"route_I_counts":"{\"28\": 105}","shape_id":"{\"697489600\": 105}","direction_id":"{\"1\": 105}","headsign":"{\"\": 105}","source":14,"target":13,"layer":"L","from":"POLICLINICO","to":"COLLI AMINEI"},"geometry":{"type":"LineString","coordinates":[[14.221079,40.86625],[14.228393,40.870205]]}},{"type":"Feature","properties":{"shape_id":"{\"2204090173\": 108}","direction_id":"{\"0\": 108}","headsign":"{\"\": 108}","duration_avg":120.0,"n_vehicles":108,"d":672,"route_I_counts":"{\"28\": 108}","source":15,"target":16,"layer":"L","from":"RIONE ALTO","to":"MONTEDONZELLI"},"geometry":{"type":"LineString","coordinates":[[14.220029,40.860869],[14.223935,40.855598]]}},{"type":"Feature","properties":{"duration_avg":60.0,"n_vehicles":105,"d":575,"route_I_counts":"{\"28\": 105}","shape_id":"{\"697489600\": 105}","direction_id":"{\"1\": 105}","headsign":"{\"\": 105}","source":15,"target":14,"layer":"L","from":"RIONE ALTO","to":"POLICLINICO"},"geometry":{"type":"LineString","coordinates":[[14.220029,40.860869],[14.221079,40.86625]]}},{"type":"Feature","properties":{"shape_id":"{\"2204090173\": 108}","direction_id":"{\"0\": 108}","headsign":"{\"\": 108}","duration_avg":120.0,"n_vehicles":108,"d":799,"route_I_counts":"{\"28\": 108}","source":16,"target":17,"layer":"L","from":"MONTEDONZELLI","to":"MEDAGLIE D'ORO"},"geometry":{"type":"LineString","coordinates":[[14.223935,40.855598],[14.230625,40.850504]]}},{"type":"Feature","properties":{"duration_avg":120.0,"n_vehicles":105,"d":655,"route_I_counts":"{\"28\": 105}","shape_id":"{\"697489600\": 105}","direction_id":"{\"1\": 105}","headsign":"{\"\": 105}","source":16,"target":15,"layer":"L","from":"MONTEDONZELLI","to":"RIONE ALTO"},"geometry":{"type":"LineString","coordinates":[[14.223935,40.855598],[14.220029,40.860869]]}},{"type":"Feature","properties":{"shape_id":"{\"2204090173\": 108}","direction_id":"{\"0\": 108}","headsign":"{\"\": 108}","duration_avg":120.0,"n_vehicles":108,"d":748,"route_I_counts":"{\"28\": 108}","source":17,"target":18,"layer":"L","from":"MEDAGLIE D'ORO","to":"VANVITELLI"},"geometry":{"type":"LineString","coordinates":[[14.230625,40.850504],[14.231643,40.843827]]}},{"type":"Feature","properties":{"duration_avg":120.0,"n_vehicles":105,"d":797,"route_I_counts":"{\"28\": 105}","shape_id":"{\"697489600\": 105}","direction_id":"{\"1\": 105}","headsign":"{\"\": 105}","source":17,"target":16,"layer":"L","from":"MEDAGLIE D'ORO","to":"MONTEDONZELLI"},"geometry":{"type":"LineString","coordinates":[[14.230625,40.850504],[14.223935,40.855598]]}},{"type":"Feature","properties":{"shape_id":"{\"2204090173\": 107}","direction_id":"{\"0\": 107}","headsign":"{\"\": 107}","duration_avg":120.0,"n_vehicles":107,"d":599,"route_I_counts":"{\"28\": 107}","source":18,"target":19,"layer":"L","from":"VANVITELLI","to":"QUATTRO GIORNATE"},"geometry":{"type":"LineString","coordinates":[[14.231643,40.843827],[14.225354,40.846349]]}},{"type":"Feature","properties":{"duration_avg":120.0,"n_vehicles":105,"d":767,"route_I_counts":"{\"28\": 105}","shape_id":"{\"697489600\": 105}","direction_id":"{\"1\": 105}","headsign":"{\"\": 105}","source":18,"target":17,"layer":"L","from":"VANVITELLI","to":"MEDAGLIE D'ORO"},"geometry":{"type":"LineString","coordinates":[[14.231643,40.843827],[14.230625,40.850504]]}},{"type":"Feature","properties":{"shape_id":"{\"2204090173\": 107}","direction_id":"{\"0\": 107}","headsign":"{\"\": 107}","duration_avg":120.0,"n_vehicles":107,"d":1064,"route_I_counts":"{\"28\": 107}","source":19,"target":20,"layer":"L","from":"QUATTRO GIORNATE","to":"S. ROSA"},"geometry":{"type":"LineString","coordinates":[[14.225354,40.846349],[14.236016,40.851483]]}},{"type":"Feature","properties":{"duration_avg":120.0,"n_vehicles":106,"d":648,"route_I_counts":"{\"28\": 106}","shape_id":"{\"697489600\": 106}","direction_id":"{\"1\": 106}","headsign":"{\"\": 106}","source":19,"target":18,"layer":"L","from":"QUATTRO GIORNATE","to":"VANVITELLI"},"geometry":{"type":"LineString","coordinates":[[14.225354,40.846349],[14.231643,40.843827]]}},{"type":"Feature","properties":{"shape_id":"{\"2204090173\": 107}","direction_id":"{\"0\": 107}","headsign":"{\"\": 107}","duration_avg":120.0,"n_vehicles":107,"d":729,"route_I_counts":"{\"28\": 107}","source":20,"target":21,"layer":"L","from":"S. ROSA","to":"MATERDEI"},"geometry":{"type":"LineString","coordinates":[[14.236016,40.851483],[14.24299,40.855363]]}},{"type":"Feature","properties":{"duration_avg":120.0,"n_vehicles":106,"d":1087,"route_I_counts":"{\"28\": 106}","shape_id":"{\"697489600\": 106}","direction_id":"{\"1\": 106}","headsign":"{\"\": 106}","source":20,"target":19,"layer":"L","from":"S. ROSA","to":"QUATTRO GIORNATE"},"geometry":{"type":"LineString","coordinates":[[14.236016,40.851483],[14.225354,40.846349]]}},{"type":"Feature","properties":{"shape_id":"{\"2204090173\": 107}","direction_id":"{\"0\": 107}","headsign":"{\"\": 107}","duration_avg":120.0,"n_vehicles":107,"d":733,"route_I_counts":"{\"28\": 107}","source":21,"target":22,"layer":"L","from":"MATERDEI","to":"MUSEO"},"geometry":{"type":"LineString","coordinates":[[14.24299,40.855363],[14.251365,40.853541]]}},{"type":"Feature","properties":{"duration_avg":120.0,"n_vehicles":106,"d":725,"route_I_counts":"{\"28\": 106}","shape_id":"{\"697489600\": 106}","direction_id":"{\"1\": 106}","headsign":"{\"\": 106}","source":21,"target":20,"layer":"L","from":"MATERDEI","to":"S. ROSA"},"geometry":{"type":"LineString","coordinates":[[14.24299,40.855363],[14.236016,40.851483]]}},{"type":"Feature","properties":{"shape_id":"{\"2204090173\": 107}","direction_id":"{\"0\": 107}","headsign":"{\"\": 107}","duration_avg":120.0,"n_vehicles":107,"d":565,"route_I_counts":"{\"28\": 107}","source":22,"target":23,"layer":"L","from":"MUSEO","to":"DANTE"},"geometry":{"type":"LineString","coordinates":[[14.251365,40.853541],[14.249929,40.848579]]}},{"type":"Feature","properties":{"duration_avg":120.0,"n_vehicles":106,"d":782,"route_I_counts":"{\"28\": 106}","shape_id":"{\"697489600\": 106}","direction_id":"{\"1\": 106}","headsign":"{\"\": 106}","source":22,"target":21,"layer":"L","from":"MUSEO","to":"MATERDEI"},"geometry":{"type":"LineString","coordinates":[[14.251365,40.853541],[14.24299,40.855363]]}},{"type":"Feature","properties":{"duration_avg":211.63095238095238,"n_vehicles":84,"d":1243,"route_I_counts":"{\"10\": 84}","shape_id":"{\"3061725947\": 84}","direction_id":"{\"0\": 84}","headsign":"{\"\": 84}","source":22,"target":2,"layer":"L","from":"MUSEO","to":"MONTESANTO"},"geometry":{"type":"LineString","coordinates":[[14.251365,40.853541],[14.244165,40.847712]]}},{"type":"Feature","properties":{"duration_avg":245.6172839506173,"n_vehicles":81,"d":1524,"route_I_counts":"{\"10\": 81}","shape_id":"{\"648687424\": 81}","direction_id":"{\"1\": 81}","headsign":"{\"\": 81}","source":22,"target":1,"layer":"L","from":"MUSEO","to":"PIAZZA GARIBALDI"},"geometry":{"type":"LineString","coordinates":[[14.251365,40.853541],[14.272512,40.852654]]}},{"type":"Feature","properties":{"shape_id":"{\"2204090173\": 107}","direction_id":"{\"0\": 107}","headsign":"{\"\": 107}","duration_avg":120.0,"n_vehicles":107,"d":655,"route_I_counts":"{\"28\": 107}","source":23,"target":24,"layer":"L","from":"DANTE","to":"TOLEDO"},"geometry":{"type":"LineString","coordinates":[[14.249929,40.848579],[14.250181,40.842696]]}},{"type":"Feature","properties":{"duration_avg":120.0,"n_vehicles":106,"d":584,"route_I_counts":"{\"28\": 106}","shape_id":"{\"697489600\": 106}","direction_id":"{\"1\": 106}","headsign":"{\"\": 106}","source":23,"target":22,"layer":"L","from":"DANTE","to":"MUSEO"},"geometry":{"type":"LineString","coordinates":[[14.249929,40.848579],[14.251365,40.853541]]}},{"type":"Feature","properties":{"shape_id":"{\"2204090173\": 107}","direction_id":"{\"0\": 107}","headsign":"{\"\": 107}","duration_avg":60.0,"n_vehicles":107,"d":477,"route_I_counts":"{\"28\": 107}","source":24,"target":25,"layer":"L","from":"TOLEDO","to":"MUNICIPIO"},"geometry":{"type":"LineString","coordinates":[[14.250181,40.842696],[14.253671,40.839314]]}},{"type":"Feature","properties":{"duration_avg":120.0,"n_vehicles":106,"d":649,"route_I_counts":"{\"28\": 106}","shape_id":"{\"697489600\": 106}","direction_id":"{\"1\": 106}","headsign":"{\"\": 106}","source":24,"target":23,"layer":"L","from":"TOLEDO","to":"DANTE"},"geometry":{"type":"LineString","coordinates":[[14.250181,40.842696],[14.249929,40.848579]]}},{"type":"Feature","properties":{"shape_id":"{\"2204090173\": 107}","direction_id":"{\"0\": 107}","headsign":"{\"\": 107}","duration_avg":120.0,"n_vehicles":107,"d":464,"route_I_counts":"{\"28\": 107}","source":25,"target":26,"layer":"L","from":"MUNICIPIO","to":"UNIVERSITA'"},"geometry":{"type":"LineString","coordinates":[[14.253671,40.839314],[14.255639,40.843209]]}},{"type":"Feature","properties":{"duration_avg":60.0,"n_vehicles":106,"d":464,"route_I_counts":"{\"28\": 106}","shape_id":"{\"697489600\": 106}","direction_id":"{\"1\": 106}","headsign":"{\"\": 106}","source":25,"target":24,"layer":"L","from":"MUNICIPIO","to":"TOLEDO"},"geometry":{"type":"LineString","coordinates":[[14.253671,40.839314],[14.250181,40.842696]]}},{"type":"Feature","properties":{"shape_id":"{\"2204090173\": 106}","direction_id":"{\"0\": 106}","headsign":"{\"\": 106}","duration_avg":60.0,"n_vehicles":106,"d":710,"route_I_counts":"{\"28\": 106}","source":26,"target":27,"layer":"L","from":"UNIVERSITA'","to":"DUOMO"},"geometry":{"type":"LineString","coordinates":[[14.255639,40.843209],[14.261704,40.847646]]}},{"type":"Feature","properties":{"duration_avg":120.0,"n_vehicles":106,"d":457,"route_I_counts":"{\"28\": 106}","shape_id":"{\"697489600\": 106}","direction_id":"{\"1\": 106}","headsign":"{\"\": 106}","source":26,"target":25,"layer":"L","from":"UNIVERSITA'","to":"MUNICIPIO"},"geometry":{"type":"LineString","coordinates":[[14.255639,40.843209],[14.253671,40.839314]]}},{"type":"Feature","properties":{"duration_avg":120.0,"n_vehicles":106,"d":1043,"route_I_counts":"{\"28\": 106}","shape_id":"{\"2204090173\": 106}","direction_id":"{\"0\": 106}","headsign":"{\"\": 106}","source":27,"target":1,"layer":"L","from":"DUOMO","to":"PIAZZA GARIBALDI"},"geometry":{"type":"LineString","coordinates":[[14.261704,40.847646],[14.272512,40.852654]]}},{"type":"Feature","properties":{"duration_avg":60.0,"n_vehicles":107,"d":712,"route_I_counts":"{\"28\": 107}","shape_id":"{\"697489600\": 107}","direction_id":"{\"1\": 107}","headsign":"{\"\": 107}","source":27,"target":26,"layer":"L","from":"DUOMO","to":"UNIVERSITA'"},"geometry":{"type":"LineString","coordinates":[[14.261704,40.847646],[14.255639,40.843209]]}}]}