{"type":"FeatureCollection","features":[{"type":"Feature","geometry":{"type":"Point","coordinates":[10.957057,49.480319]},"properties":{"name":"Fürth Hardhöhe","original_ids":"[8063]","id":0,"layer":"stop"}},{"type":"Feature","geometry":{"type":"Point","coordinates":[10.968933,49.482549]},"properties":{"name":"Fürth Klinikum","original_ids":"[7889, 7888]","id":1,"layer":"stop"}},{"type":"Feature","geometry":{"type":"Point","coordinates":[10.981734,49.480167]},"properties":{"name":"Fürth Stadthalle","original_ids":"[7837, 7836]","id":2,"layer":"stop"}},{"type":"Feature","geometry":{"type":"Point","coordinates":[10.988202,49.477599]},"properties":{"name":"Fürth Rathaus","original_ids":"[7860, 7859]","id":3,"layer":"stop"}},{"type":"Feature","geometry":{"type":"Point","coordinates":[10.991543,49.470192]},"properties":{"name":"Fürth Hauptbahnhof","original_ids":"[7822, 7821]","id":4,"layer":"stop"}},{"type":"Feature","geometry":{"type":"Point","coordinates":[11.000985,49.468079]},"properties":{"name":"Fürth Jakobinenstr.","original_ids":"[7872, 7871]","id":5,"layer":"stop"}},{"type":"Feature","geometry":{"type":"Point","coordinates":[11.011082,49.46537]},"properties":{"name":"Fürth Stadtgrenze","original_ids":"[8252, 8251]","id":6,"layer":"stop"}},{"type":"Feature","geometry":{"type":"Point","coordinates":[11.022966,49.461546]},"properties":{"name":"Nürnberg Muggenhof","original_ids":"[8259, 8258]","id":7,"layer":"stop"}},{"type":"Feature","geometry":{"type":"Point","coordinates":[11.033701,49.458036]},"properties":{"name":"Nürnberg Eberhardshof","original_ids":"[8263, 8262]","id":8,"layer":"stop"}},{"type":"Feature","geometry":{"type":"Point","coordinates":[11.041499,49.455438]},"properties":{"name":"Nürnberg Maximilianstr.","original_ids":"[9629, 9628]","id":9,"layer":"stop"}},{"type":"Feature","geometry":{"type":"Point","coordinates":[11.050131,49.452699]},"properties":{"name":"Nürnberg Bärenschanze","original_ids":"[9635, 9634]","id":10,"layer":"stop"}},{"type":"Feature","geometry":{"type":"Point","coordinates":[11.057309,49.450346]},"properties":{"name":"Nürnberg Gostenhof","original_ids":"[9639, 9638]","id":11,"layer":"stop"}},{"type":"Feature","geometry":{"type":"Point","coordinates":[11.064397,49.44843]},"properties":{"name":"Nürnberg Plärrer","original_ids":"[9640, 9641, 9649, 9648]","id":12,"layer":"stop"}},{"type":"Feature","geometry":{"type":"Point","coordinates":[11.070595,49.450281]},"properties":{"name":"Nürnberg Weißer Turm","original_ids":"[8250, 8249]","id":13,"layer":"stop"}},{"type":"Feature","geometry":{"type":"Point","coordinates":[11.077584,49.450988]},"properties":{"name":"Nürnberg Lorenzkirche","original_ids":"[9497, 9496]","id":14,"layer":"stop"}},{"type":"Feature","geometry":{"type":"Point","coordinates":[11.081932,49.446398]},"properties":{"name":"Nürnberg Hbf","original_ids":"[9474, 9473, 9476, 9475]","id":15,"layer":"stop"}},{"type":"Feature","geometry":{"type":"Point","coordinates":[11.080207,49.440732]},"properties":{"name":"Nürnberg Aufseßplatz","original_ids":"[9509, 9508]","id":16,"layer":"stop"}},{"type":"Feature","geometry":{"type":"Point","coordinates":[11.083405,49.436123]},"properties":{"name":"Nürnberg Maffeiplatz","original_ids":"[9464, 9463]","id":17,"layer":"stop"}},{"type":"Feature","geometry":{"type":"Point","coordinates":[11.08628,49.429113]},"properties":{"name":"Nürnberg Frankenstr.","original_ids":"[9562, 9561]","id":18,"layer":"stop"}},{"type":"Feature","geometry":{"type":"Point","coordinates":[11.090053,49.424234]},"properties":{"name":"Nürnberg Hasenbuck","original_ids":"[8906, 8905]","id":19,"layer":"stop"}},{"type":"Feature","geometry":{"type":"Point","coordinates":[11.108064,49.417005]},"properties":{"name":"Nürnberg Bauernfeindstr.","original_ids":"[8765, 8764]","id":20,"layer":"stop"}},{"type":"Feature","geometry":{"type":"Point","coordinates":[11.114657,49.415901]},"properties":{"name":"Nürnberg Messe","original_ids":"[8729, 8728]","id":21,"layer":"stop"}},{"type":"Feature","geometry":{"type":"Point","coordinates":[11.121458,49.412377]},"properties":{"name":"Nürnberg Langwasser Nord","original_ids":"[8731, 8730]","id":22,"layer":"stop"}},{"type":"Feature","geometry":{"type":"Point","coordinates":[11.126398,49.408531]},"properties":{"name":"Nürnberg Scharfreiterring","original_ids":"[8735, 8734]","id":23,"layer":"stop"}},{"type":"Feature","geometry":{"type":"Point","coordinates":[11.132516,49.404077]},"properties":{"name":"Nürnberg Langwasser Mitte","original_ids":"[8805, 8804]","id":24,"layer":"stop"}},{"type":"Feature","geometry":{"type":"Point","coordinates":[11.135912,49.401183]},"properties":{"name":"Nürnberg Gemeinschaftshaus","original_ids":"[8739, 8738]","id":25,"layer":"stop"}},{"type":"Feature","geometry":{"type":"Point","coordinates":[11.140619,49.398564]},"properties":{"name":"Nürnberg Langwasser Süd","original_ids":"[8743, 8742]","id":26,"layer":"stop"}},{"type":"Feature","geometry":{"type":"Point","coordinates":[11.031698,49.420851]},"properties":{"name":"Nürnberg Röthenbach","original_ids":"[9174, 9173]","id":27,"layer":"stop"}},{"type":"Feature","geometry":{"type":"Point","coordinates":[11.044032,49.429008]},"properties":{"name":"Nürnberg Hohe Marter","original_ids":"[9081, 9080]","id":28,"layer":"stop"}},{"type":"Feature","geometry":{"type":"Point","coordinates":[11.048434,49.434324]},"properties":{"name":"Nürnberg Schweinau","original_ids":"[9575, 9574]","id":29,"layer":"stop"}},{"type":"Feature","geometry":{"type":"Point","coordinates":[11.050024,49.438892]},"properties":{"name":"Nürnberg St. Leonhard","original_ids":"[9580, 9579]","id":30,"layer":"stop"}},{"type":"Feature","geometry":{"type":"Point","coordinates":[11.055315,49.444505]},"properties":{"name":"Nürnberg Rothenburger Str.","original_ids":"[9651, 9650]","id":31,"layer":"stop"}},{"type":"Feature","geometry":{"type":"Point","coordinates":[11.074682,49.446865]},"properties":{"name":"Nürnberg Opernhaus","original_ids":"[9468, 9467]","id":32,"layer":"stop"}},{"type":"Feature","geometry":{"type":"Point","coordinates":[11.086917,49.452559]},"properties":{"name":"Nürnberg Wöhrder Wiese","original_ids":"[9308, 9307]","id":33,"layer":"stop"}},{"type":"Feature","geometry":{"type":"Point","coordinates":[11.08954,49.456863]},"properties":{"name":"Nürnberg Rathenauplatz","original_ids":"[9300, 9299]","id":34,"layer":"stop"}},{"type":"Feature","geometry":{"type":"Point","coordinates":[11.093224,49.460909]},"properties":{"name":"Nürnberg Rennweg","original_ids":"[9322, 9321]","id":35,"layer":"stop"}},{"type":"Feature","geometry":{"type":"Point","coordinates":[11.100581,49.464897]},"properties":{"name":"Nürnberg Schoppershof","original_ids":"[9324, 9323]","id":36,"layer":"stop"}},{"type":"Feature","geometry":{"type":"Point","coordinates":[11.104497,49.471949]},"properties":{"name":"Nürnberg Nordostbahnhof","original_ids":"[8541, 8540]","id":37,"layer":"stop"}},{"type":"Feature","geometry":{"type":"Point","coordinates":[11.109896,49.478376]},"properties":{"name":"Nürnberg Herrnhütte","original_ids":"[8518, 8517]","id":38,"layer":"stop"}},{"type":"Feature","geometry":{"type":"Point","coordinates":[11.105126,49.485344]},"properties":{"name":"Nürnberg Ziegelstein","original_ids":"[8512, 8511]","id":39,"layer":"stop"}},{"type":"Feature","geometry":{"type":"Point","coordinates":[11.077835,49.494068]},"properties":{"name":"Nürnberg Flughafen","original_ids":"[8630, 8631]","id":40,"layer":"stop"}},{"type":"Feature","geometry":{"type":"Point","coordinates":[11.024709,49.439266]},"properties":{"name":"Nürnberg Großreuth b. Schweinau","original_ids":"[8331, 8330]","id":41,"layer":"stop"}},{"type":"Feature","geometry":{"type":"Point","coordinates":[11.036127,49.439067]},"properties":{"name":"Nürnberg Gustav-Adolf-Str.","original_ids":"[9599, 9598]","id":42,"layer":"stop"}},{"type":"Feature","geometry":{"type":"Point","coordinates":[11.043789,49.441865]},"properties":{"name":"Nürnberg Sündersbühl","original_ids":"[8267, 8266]","id":43,"layer":"stop"}},{"type":"Feature","geometry":{"type":"Point","coordinates":[11.084636,49.463361]},"properties":{"name":"Nürnberg Maxfeld","original_ids":"[9296, 9295]","id":44,"layer":"stop"}},{"type":"Feature","geometry":{"type":"Point","coordinates":[11.0785,49.463356]},"properties":{"name":"Nürnberg Kaulbachplatz","original_ids":"[9271, 9270]","id":45,"layer":"stop"}},{"type":"Feature","geometry":{"type":"Point","coordinates":[11.071987,49.462351]},"properties":{"name":"Nürnberg Friedrich-Ebert-Pl.","original_ids":"[9247, 9246]","id":46,"layer":"stop"}},{"type":"Feature","geometry":{"type":"Point","coordinates":[11.064522,49.464015]},"properties":{"name":"Nürnberg Klinikum Nord","original_ids":"[9282, 9281]","id":47,"layer":"stop"}},{"type":"Feature","geometry":{"type":"Point","coordinates":[11.055072,49.465714]},"properties":{"name":"Nürnberg Nordwestring","original_ids":"[9291, 9290]","id":48,"layer":"stop"}},{"type":"Feature","properties":{"shape_id":"{}","direction_id":"{\"0\": 187}","headsign":"{\"Fürth Stadtgrenze\": 19, \"Nürnberg Langwasser Süd\": 168}","duration_avg":91.0,"n_vehicles":187,"d":894,"route_I_counts":"{\"2\": 187}","source":0,"target":1,"layer":"L","from":"Fürth Hardhöhe","to":"Fürth Klinikum"},"geometry":{"type":"LineString","coordinates":[[10.957057,49.480319],[10.968933,49.482549]]}},{"type":"Feature","properties":{"shape_id":"{}","direction_id":"{\"0\": 186}","headsign":"{\"Fürth Stadtgrenze\": 18, \"Nürnberg Langwasser Süd\": 168}","duration_avg":87.0,"n_vehicles":186,"d":963,"route_I_counts":"{\"2\": 186}","source":1,"target":2,"layer":"L","from":"Fürth Klinikum","to":"Fürth Stadthalle"},"geometry":{"type":"LineString","coordinates":[[10.968933,49.482549],[10.981734,49.480167]]}},{"type":"Feature","properties":{"duration_avg":82.0,"n_vehicles":190,"d":896,"route_I_counts":"{\"2\": 190}","shape_id":"{}","direction_id":"{\"1\": 190}","headsign":"{\"Fürth Hardhöhe\": 190}","source":1,"target":0,"layer":"L","from":"Fürth Klinikum","to":"Fürth Hardhöhe"},"geometry":{"type":"LineString","coordinates":[[10.968933,49.482549],[10.957057,49.480319]]}},{"type":"Feature","properties":{"shape_id":"{}","direction_id":"{\"0\": 186}","headsign":"{\"Fürth Stadtgrenze\": 18, \"Nürnberg Langwasser Süd\": 168}","duration_avg":73.0,"n_vehicles":186,"d":548,"route_I_counts":"{\"2\": 186}","source":2,"target":3,"layer":"L","from":"Fürth Stadthalle","to":"Fürth Rathaus"},"geometry":{"type":"LineString","coordinates":[[10.981734,49.480167],[10.988202,49.477599]]}},{"type":"Feature","properties":{"duration_avg":93.0,"n_vehicles":191,"d":970,"route_I_counts":"{\"2\": 191}","shape_id":"{}","direction_id":"{\"1\": 191}","headsign":"{\"Fürth Hardhöhe\": 191}","source":2,"target":1,"layer":"L","from":"Fürth Stadthalle","to":"Fürth Klinikum"},"geometry":{"type":"LineString","coordinates":[[10.981734,49.480167],[10.968933,49.482549]]}},{"type":"Feature","properties":{"shape_id":"{}","direction_id":"{\"0\": 186}","headsign":"{\"Fürth Stadtgrenze\": 18, \"Nürnberg Langwasser Süd\": 168}","duration_avg":95.0,"n_vehicles":186,"d":859,"route_I_counts":"{\"2\": 186}","source":3,"target":4,"layer":"L","from":"Fürth Rathaus","to":"Fürth Hauptbahnhof"},"geometry":{"type":"LineString","coordinates":[[10.988202,49.477599],[10.991543,49.470192]]}},{"type":"Feature","properties":{"duration_avg":73.0,"n_vehicles":190,"d":556,"route_I_counts":"{\"2\": 190}","shape_id":"{}","direction_id":"{\"1\": 190}","headsign":"{\"Fürth Hardhöhe\": 190}","source":3,"target":2,"layer":"L","from":"Fürth Rathaus","to":"Fürth Stadthalle"},"geometry":{"type":"LineString","coordinates":[[10.988202,49.477599],[10.981734,49.480167]]}},{"type":"Feature","properties":{"shape_id":"{}","direction_id":"{\"0\": 187}","headsign":"{\"Fürth Stadtgrenze\": 18, \"Nürnberg Langwasser Süd\": 169}","duration_avg":82.0,"n_vehicles":187,"d":722,"route_I_counts":"{\"2\": 187}","source":4,"target":5,"layer":"L","from":"Fürth Hauptbahnhof","to":"Fürth Jakobinenstr."},"geometry":{"type":"LineString","coordinates":[[10.991543,49.470192],[11.000985,49.468079]]}},{"type":"Feature","properties":{"duration_avg":84.0,"n_vehicles":190,"d":853,"route_I_counts":"{\"2\": 190}","shape_id":"{}","direction_id":"{\"1\": 190}","headsign":"{\"Fürth Hardhöhe\": 190}","source":4,"target":3,"layer":"L","from":"Fürth Hauptbahnhof","to":"Fürth Rathaus"},"geometry":{"type":"LineString","coordinates":[[10.991543,49.470192],[10.988202,49.477599]]}},{"type":"Feature","properties":{"shape_id":"{}","direction_id":"{\"0\": 187}","headsign":"{\"Fürth Stadtgrenze\": 18, \"Nürnberg Langwasser Süd\": 169}","duration_avg":84.0,"n_vehicles":187,"d":790,"route_I_counts":"{\"2\": 187}","source":5,"target":6,"layer":"L","from":"Fürth Jakobinenstr.","to":"Fürth Stadtgrenze"},"geometry":{"type":"LineString","coordinates":[[11.000985,49.468079],[11.011082,49.46537]]}},{"type":"Feature","properties":{"duration_avg":89.0,"n_vehicles":188,"d":629,"route_I_counts":"{\"2\": 188}","shape_id":"{}","direction_id":"{\"1\": 188}","headsign":"{\"Fürth Hardhöhe\": 188}","source":5,"target":4,"layer":"L","from":"Fürth Jakobinenstr.","to":"Fürth Hauptbahnhof"},"geometry":{"type":"LineString","coordinates":[[11.000985,49.468079],[10.991543,49.470192]]}},{"type":"Feature","properties":{"shape_id":"{}","direction_id":"{\"0\": 169}","headsign":"{\"Nürnberg Langwasser Süd\": 169}","duration_avg":88.0,"n_vehicles":169,"d":959,"route_I_counts":"{\"2\": 169}","source":6,"target":7,"layer":"L","from":"Fürth Stadtgrenze","to":"Nürnberg Muggenhof"},"geometry":{"type":"LineString","coordinates":[[11.011082,49.46537],[11.022966,49.461546]]}},{"type":"Feature","properties":{"duration_avg":87.0,"n_vehicles":188,"d":849,"route_I_counts":"{\"2\": 188}","shape_id":"{}","direction_id":"{\"1\": 188}","headsign":"{\"Fürth Hardhöhe\": 188}","source":6,"target":5,"layer":"L","from":"Fürth Stadtgrenze","to":"Fürth Jakobinenstr."},"geometry":{"type":"LineString","coordinates":[[11.011082,49.46537],[11.000985,49.468079]]}},{"type":"Feature","properties":{"shape_id":"{}","direction_id":"{\"0\": 169}","headsign":"{\"Nürnberg Langwasser Süd\": 169}","duration_avg":88.0,"n_vehicles":169,"d":869,"route_I_counts":"{\"2\": 169}","source":7,"target":8,"layer":"L","from":"Nürnberg Muggenhof","to":"Nürnberg Eberhardshof"},"geometry":{"type":"LineString","coordinates":[[11.022966,49.461546],[11.033701,49.458036]]}},{"type":"Feature","properties":{"duration_avg":95.0,"n_vehicles":171,"d":939,"route_I_counts":"{\"2\": 171}","shape_id":"{}","direction_id":"{\"1\": 171}","headsign":"{\"Fürth Hardhöhe\": 171}","source":7,"target":6,"layer":"L","from":"Nürnberg Muggenhof","to":"Fürth Stadtgrenze"},"geometry":{"type":"LineString","coordinates":[[11.022966,49.461546],[11.011082,49.46537]]}},{"type":"Feature","properties":{"shape_id":"{}","direction_id":"{\"0\": 222}","headsign":"{\"Nürnberg Aufseßplatz\": 1, \"Nürnberg Hasenbuck\": 1, \"Nürnberg Langwasser Süd\": 219, \"Nürnberg Messe\": 1}","duration_avg":85.0,"n_vehicles":222,"d":634,"route_I_counts":"{\"2\": 222}","source":8,"target":9,"layer":"L","from":"Nürnberg Eberhardshof","to":"Nürnberg Maximilianstr."},"geometry":{"type":"LineString","coordinates":[[11.033701,49.458036],[11.041499,49.455438]]}},{"type":"Feature","properties":{"duration_avg":84.0,"n_vehicles":172,"d":919,"route_I_counts":"{\"2\": 172}","shape_id":"{}","direction_id":"{\"1\": 172}","headsign":"{\"Fürth Hardhöhe\": 171, \"Nürnberg Muggenhof\": 1}","source":8,"target":7,"layer":"L","from":"Nürnberg Eberhardshof","to":"Nürnberg Muggenhof"},"geometry":{"type":"LineString","coordinates":[[11.033701,49.458036],[11.022966,49.461546]]}},{"type":"Feature","properties":{"shape_id":"{}","direction_id":"{\"0\": 222}","headsign":"{\"Nürnberg Aufseßplatz\": 1, \"Nürnberg Hasenbuck\": 1, \"Nürnberg Langwasser Süd\": 219, \"Nürnberg Messe\": 1}","duration_avg":75.0,"n_vehicles":222,"d":695,"route_I_counts":"{\"2\": 222}","source":9,"target":10,"layer":"L","from":"Nürnberg Maximilianstr.","to":"Nürnberg Bärenschanze"},"geometry":{"type":"LineString","coordinates":[[11.041499,49.455438],[11.050131,49.452699]]}},{"type":"Feature","properties":{"duration_avg":82.0,"n_vehicles":224,"d":635,"route_I_counts":"{\"2\": 224}","shape_id":"{}","direction_id":"{\"1\": 224}","headsign":"{\"Fürth Hardhöhe\": 171, \"Nürnberg Eberhardshof\": 52, \"Nürnberg Muggenhof\": 1}","source":9,"target":8,"layer":"L","from":"Nürnberg Maximilianstr.","to":"Nürnberg Eberhardshof"},"geometry":{"type":"LineString","coordinates":[[11.041499,49.455438],[11.033701,49.458036]]}},{"type":"Feature","properties":{"shape_id":"{}","direction_id":"{\"0\": 223}","headsign":"{\"Nürnberg Aufseßplatz\": 1, \"Nürnberg Hasenbuck\": 1, \"Nürnberg Langwasser Süd\": 220, \"Nürnberg Messe\": 1}","duration_avg":70.0,"n_vehicles":223,"d":581,"route_I_counts":"{\"2\": 223}","source":10,"target":11,"layer":"L","from":"Nürnberg Bärenschanze","to":"Nürnberg Gostenhof"},"geometry":{"type":"LineString","coordinates":[[11.050131,49.452699],[11.057309,49.450346]]}},{"type":"Feature","properties":{"duration_avg":85.0,"n_vehicles":223,"d":700,"route_I_counts":"{\"2\": 223}","shape_id":"{}","direction_id":"{\"1\": 223}","headsign":"{\"Fürth Hardhöhe\": 170, \"Nürnberg Eberhardshof\": 52, \"Nürnberg Muggenhof\": 1}","source":10,"target":9,"layer":"L","from":"Nürnberg Bärenschanze","to":"Nürnberg Maximilianstr."},"geometry":{"type":"LineString","coordinates":[[11.050131,49.452699],[11.041499,49.455438]]}},{"type":"Feature","properties":{"shape_id":"{}","direction_id":"{\"0\": 243}","headsign":"{\"Nürnberg Aufseßplatz\": 1, \"Nürnberg Hasenbuck\": 1, \"Nürnberg Langwasser Süd\": 240, \"Nürnberg Messe\": 1}","duration_avg":93.0,"n_vehicles":243,"d":555,"route_I_counts":"{\"2\": 243}","source":11,"target":12,"layer":"L","from":"Nürnberg Gostenhof","to":"Nürnberg Plärrer"},"geometry":{"type":"LineString","coordinates":[[11.057309,49.450346],[11.064397,49.44843]]}},{"type":"Feature","properties":{"duration_avg":67.0,"n_vehicles":223,"d":576,"route_I_counts":"{\"2\": 223}","shape_id":"{}","direction_id":"{\"1\": 223}","headsign":"{\"Fürth Hardhöhe\": 170, \"Nürnberg Eberhardshof\": 52, \"Nürnberg Muggenhof\": 1}","source":11,"target":10,"layer":"L","from":"Nürnberg Gostenhof","to":"Nürnberg Bärenschanze"},"geometry":{"type":"LineString","coordinates":[[11.057309,49.450346],[11.050131,49.452699]]}},{"type":"Feature","properties":{"shape_id":"{}","direction_id":"{\"0\": 243}","headsign":"{\"Nürnberg Aufseßplatz\": 1, \"Nürnberg Hasenbuck\": 1, \"Nürnberg Langwasser Süd\": 240, \"Nürnberg Messe\": 1}","duration_avg":72.0,"n_vehicles":243,"d":493,"route_I_counts":"{\"2\": 243}","source":12,"target":13,"layer":"L","from":"Nürnberg Plärrer","to":"Nürnberg Weißer Turm"},"geometry":{"type":"LineString","coordinates":[[11.064397,49.44843],[11.070595,49.450281]]}},{"type":"Feature","properties":{"duration_avg":79.0,"n_vehicles":241,"d":550,"route_I_counts":"{\"2\": 241}","shape_id":"{}","direction_id":"{\"1\": 241}","headsign":"{\"Fürth Hardhöhe\": 170, \"Nürnberg Eberhardshof\": 52, \"Nürnberg Gostenhof\": 18, \"Nürnberg Muggenhof\": 1}","source":12,"target":11,"layer":"L","from":"Nürnberg Plärrer","to":"Nürnberg Gostenhof"},"geometry":{"type":"LineString","coordinates":[[11.064397,49.44843],[11.057309,49.450346]]}},{"type":"Feature","properties":{"duration_avg":87.0,"n_vehicles":420,"d":760,"route_I_counts":"{\"7\": 210, \"9\": 210}","shape_id":"{}","direction_id":"{\"0\": 420}","headsign":"{\"Nürnberg Flughafen\": 115, \"Nürnberg Nordostbahnhof\": 2, \"Nürnberg Nordwestring\": 208, \"Nürnberg Ziegelstein\": 95}","source":12,"target":32,"layer":"L","from":"Nürnberg Plärrer","to":"Nürnberg Opernhaus"},"geometry":{"type":"LineString","coordinates":[[11.064397,49.44843],[11.074682,49.446865]]}},{"type":"Feature","properties":{"duration_avg":99.0,"n_vehicles":420,"d":779,"route_I_counts":"{\"7\": 210, \"9\": 210}","shape_id":"{}","direction_id":"{\"1\": 420}","headsign":"{\"Nürnberg Großreuth b. Schweinau\": 210, \"Nürnberg Röthenbach\": 210}","source":12,"target":31,"layer":"L","from":"Nürnberg Plärrer","to":"Nürnberg Rothenburger Str."},"geometry":{"type":"LineString","coordinates":[[11.064397,49.44843],[11.055315,49.444505]]}},{"type":"Feature","properties":{"shape_id":"{}","direction_id":"{\"0\": 243}","headsign":"{\"Nürnberg Aufseßplatz\": 1, \"Nürnberg Hasenbuck\": 1, \"Nürnberg Langwasser Süd\": 240, \"Nürnberg Messe\": 1}","duration_avg":92.0,"n_vehicles":243,"d":511,"route_I_counts":"{\"2\": 243}","source":13,"target":14,"layer":"L","from":"Nürnberg Weißer Turm","to":"Nürnberg Lorenzkirche"},"geometry":{"type":"LineString","coordinates":[[11.070595,49.450281],[11.077584,49.450988]]}},{"type":"Feature","properties":{"duration_avg":83.0,"n_vehicles":241,"d":490,"route_I_counts":"{\"2\": 241}","shape_id":"{}","direction_id":"{\"1\": 241}","headsign":"{\"Fürth Hardhöhe\": 170, \"Nürnberg Eberhardshof\": 52, \"Nürnberg Gostenhof\": 18, \"Nürnberg Muggenhof\": 1}","source":13,"target":12,"layer":"L","from":"Nürnberg Weißer Turm","to":"Nürnberg Plärrer"},"geometry":{"type":"LineString","coordinates":[[11.070595,49.450281],[11.064397,49.44843]]}},{"type":"Feature","properties":{"shape_id":"{}","direction_id":"{\"0\": 242}","headsign":"{\"Nürnberg Aufseßplatz\": 1, \"Nürnberg Hasenbuck\": 1, \"Nürnberg Langwasser Süd\": 239, \"Nürnberg Messe\": 1}","duration_avg":90.0,"n_vehicles":242,"d":600,"route_I_counts":"{\"2\": 242}","source":14,"target":15,"layer":"L","from":"Nürnberg Lorenzkirche","to":"Nürnberg Hbf"},"geometry":{"type":"LineString","coordinates":[[11.077584,49.450988],[11.081932,49.446398]]}},{"type":"Feature","properties":{"duration_avg":83.0,"n_vehicles":241,"d":534,"route_I_counts":"{\"2\": 241}","shape_id":"{}","direction_id":"{\"1\": 241}","headsign":"{\"Fürth Hardhöhe\": 170, \"Nürnberg Eberhardshof\": 52, \"Nürnberg Gostenhof\": 18, \"Nürnberg Muggenhof\": 1}","source":14,"target":13,"layer":"L","from":"Nürnberg Lorenzkirche","to":"Nürnberg Weißer Turm"},"geometry":{"type":"LineString","coordinates":[[11.077584,49.450988],[11.070595,49.450281]]}},{"type":"Feature","properties":{"shape_id":"{}","direction_id":"{\"0\": 243}","headsign":"{\"Nürnberg Aufseßplatz\": 1, \"Nürnberg Hasenbuck\": 1, \"Nürnberg Langwasser Süd\": 240, \"Nürnberg Messe\": 1}","duration_avg":86.0,"n_vehicles":243,"d":642,"route_I_counts":"{\"2\": 243}","source":15,"target":16,"layer":"L","from":"Nürnberg Hbf","to":"Nürnberg Aufseßplatz"},"geometry":{"type":"LineString","coordinates":[[11.081932,49.446398],[11.080207,49.440732]]}},{"type":"Feature","properties":{"duration_avg":88.0,"n_vehicles":420,"d":736,"route_I_counts":"{\"7\": 210, \"9\": 210}","shape_id":"{}","direction_id":"{\"0\": 420}","headsign":"{\"Nürnberg Flughafen\": 114, \"Nürnberg Nordostbahnhof\": 2, \"Nürnberg Nordwestring\": 208, \"Nürnberg Ziegelstein\": 96}","source":15,"target":33,"layer":"L","from":"Nürnberg Hbf","to":"Nürnberg Wöhrder Wiese"},"geometry":{"type":"LineString","coordinates":[[11.081932,49.446398],[11.086917,49.452559]]}},{"type":"Feature","properties":{"duration_avg":91.0,"n_vehicles":241,"d":623,"route_I_counts":"{\"2\": 241}","shape_id":"{}","direction_id":"{\"1\": 241}","headsign":"{\"Fürth Hardhöhe\": 169, \"Nürnberg Eberhardshof\": 52, \"Nürnberg Gostenhof\": 19, \"Nürnberg Muggenhof\": 1}","source":15,"target":14,"layer":"L","from":"Nürnberg Hbf","to":"Nürnberg Lorenzkirche"},"geometry":{"type":"LineString","coordinates":[[11.081932,49.446398],[11.077584,49.450988]]}},{"type":"Feature","properties":{"duration_avg":84.0,"n_vehicles":419,"d":541,"route_I_counts":"{\"7\": 210, \"9\": 209}","shape_id":"{}","direction_id":"{\"1\": 419}","headsign":"{\"Nürnberg Großreuth b. Schweinau\": 209, \"Nürnberg Röthenbach\": 210}","source":15,"target":32,"layer":"L","from":"Nürnberg Hbf","to":"Nürnberg Opernhaus"},"geometry":{"type":"LineString","coordinates":[[11.081932,49.446398],[11.074682,49.446865]]}},{"type":"Feature","properties":{"shape_id":"{}","direction_id":"{\"0\": 242}","headsign":"{\"Nürnberg Hasenbuck\": 1, \"Nürnberg Langwasser Süd\": 240, \"Nürnberg Messe\": 1}","duration_avg":74.0,"n_vehicles":242,"d":562,"route_I_counts":"{\"2\": 242}","source":16,"target":17,"layer":"L","from":"Nürnberg Aufseßplatz","to":"Nürnberg Maffeiplatz"},"geometry":{"type":"LineString","coordinates":[[11.080207,49.440732],[11.083405,49.436123]]}},{"type":"Feature","properties":{"duration_avg":95.0,"n_vehicles":241,"d":604,"route_I_counts":"{\"2\": 241}","shape_id":"{}","direction_id":"{\"1\": 241}","headsign":"{\"Fürth Hardhöhe\": 169, \"Nürnberg Eberhardshof\": 52, \"Nürnberg Gostenhof\": 19, \"Nürnberg Muggenhof\": 1}","source":16,"target":15,"layer":"L","from":"Nürnberg Aufseßplatz","to":"Nürnberg Hbf"},"geometry":{"type":"LineString","coordinates":[[11.080207,49.440732],[11.081932,49.446398]]}},{"type":"Feature","properties":{"shape_id":"{}","direction_id":"{\"0\": 242}","headsign":"{\"Nürnberg Hasenbuck\": 1, \"Nürnberg Langwasser Süd\": 240, \"Nürnberg Messe\": 1}","duration_avg":87.0,"n_vehicles":242,"d":807,"route_I_counts":"{\"2\": 242}","source":17,"target":18,"layer":"L","from":"Nürnberg Maffeiplatz","to":"Nürnberg Frankenstr."},"geometry":{"type":"LineString","coordinates":[[11.083405,49.436123],[11.08628,49.429113]]}},{"type":"Feature","properties":{"duration_avg":84.0,"n_vehicles":241,"d":505,"route_I_counts":"{\"2\": 241}","shape_id":"{}","direction_id":"{\"1\": 241}","headsign":"{\"Fürth Hardhöhe\": 169, \"Nürnberg Eberhardshof\": 52, \"Nürnberg Gostenhof\": 19, \"Nürnberg Muggenhof\": 1}","source":17,"target":16,"layer":"L","from":"Nürnberg Maffeiplatz","to":"Nürnberg Aufseßplatz"},"geometry":{"type":"LineString","coordinates":[[11.083405,49.436123],[11.080207,49.440732]]}},{"type":"Feature","properties":{"shape_id":"{}","direction_id":"{\"0\": 242}","headsign":"{\"Nürnberg Hasenbuck\": 1, \"Nürnberg Langwasser Süd\": 240, \"Nürnberg Messe\": 1}","duration_avg":80.0,"n_vehicles":242,"d":607,"route_I_counts":"{\"2\": 242}","source":18,"target":19,"layer":"L","from":"Nürnberg Frankenstr.","to":"Nürnberg Hasenbuck"},"geometry":{"type":"LineString","coordinates":[[11.08628,49.429113],[11.090053,49.424234]]}},{"type":"Feature","properties":{"duration_avg":78.0,"n_vehicles":241,"d":842,"route_I_counts":"{\"2\": 241}","shape_id":"{}","direction_id":"{\"1\": 241}","headsign":"{\"Fürth Hardhöhe\": 169, \"Nürnberg Eberhardshof\": 52, \"Nürnberg Gostenhof\": 19, \"Nürnberg Muggenhof\": 1}","source":18,"target":17,"layer":"L","from":"Nürnberg Frankenstr.","to":"Nürnberg Maffeiplatz"},"geometry":{"type":"LineString","coordinates":[[11.08628,49.429113],[11.083405,49.436123]]}},{"type":"Feature","properties":{"shape_id":"{}","direction_id":"{\"0\": 241}","headsign":"{\"Nürnberg Langwasser Süd\": 240, \"Nürnberg Messe\": 1}","duration_avg":112.0,"n_vehicles":241,"d":1532,"route_I_counts":"{\"2\": 241}","source":19,"target":20,"layer":"L","from":"Nürnberg Hasenbuck","to":"Nürnberg Bauernfeindstr."},"geometry":{"type":"LineString","coordinates":[[11.090053,49.424234],[11.108064,49.417005]]}},{"type":"Feature","properties":{"duration_avg":88.0,"n_vehicles":241,"d":613,"route_I_counts":"{\"2\": 241}","shape_id":"{}","direction_id":"{\"1\": 241}","headsign":"{\"Fürth Hardhöhe\": 169, \"Nürnberg Eberhardshof\": 52, \"Nürnberg Gostenhof\": 19, \"Nürnberg Muggenhof\": 1}","source":19,"target":18,"layer":"L","from":"Nürnberg Hasenbuck","to":"Nürnberg Frankenstr."},"geometry":{"type":"LineString","coordinates":[[11.090053,49.424234],[11.08628,49.429113]]}},{"type":"Feature","properties":{"shape_id":"{}","direction_id":"{\"0\": 241}","headsign":"{\"Nürnberg Langwasser Süd\": 240, \"Nürnberg Messe\": 1}","duration_avg":76.0,"n_vehicles":241,"d":493,"route_I_counts":"{\"2\": 241}","source":20,"target":21,"layer":"L","from":"Nürnberg Bauernfeindstr.","to":"Nürnberg Messe"},"geometry":{"type":"LineString","coordinates":[[11.108064,49.417005],[11.114657,49.415901]]}},{"type":"Feature","properties":{"duration_avg":118.0,"n_vehicles":239,"d":1513,"route_I_counts":"{\"2\": 239}","shape_id":"{}","direction_id":"{\"1\": 239}","headsign":"{\"Fürth Hardhöhe\": 167, \"Nürnberg Eberhardshof\": 52, \"Nürnberg Gostenhof\": 19, \"Nürnberg Muggenhof\": 1}","source":20,"target":19,"layer":"L","from":"Nürnberg Bauernfeindstr.","to":"Nürnberg Hasenbuck"},"geometry":{"type":"LineString","coordinates":[[11.108064,49.417005],[11.090053,49.424234]]}},{"type":"Feature","properties":{"shape_id":"{}","direction_id":"{\"0\": 239}","headsign":"{\"Nürnberg Langwasser Süd\": 239}","duration_avg":75.0,"n_vehicles":239,"d":629,"route_I_counts":"{\"2\": 239}","source":21,"target":22,"layer":"L","from":"Nürnberg Messe","to":"Nürnberg Langwasser Nord"},"geometry":{"type":"LineString","coordinates":[[11.114657,49.415901],[11.121458,49.412377]]}},{"type":"Feature","properties":{"duration_avg":70.0,"n_vehicles":239,"d":502,"route_I_counts":"{\"2\": 239}","shape_id":"{}","direction_id":"{\"1\": 239}","headsign":"{\"Fürth Hardhöhe\": 167, \"Nürnberg Eberhardshof\": 52, \"Nürnberg Gostenhof\": 19, \"Nürnberg Muggenhof\": 1}","source":21,"target":20,"layer":"L","from":"Nürnberg Messe","to":"Nürnberg Bauernfeindstr."},"geometry":{"type":"LineString","coordinates":[[11.114657,49.415901],[11.108064,49.417005]]}},{"type":"Feature","properties":{"shape_id":"{}","direction_id":"{\"0\": 239}","headsign":"{\"Nürnberg Langwasser Süd\": 239}","duration_avg":67.0,"n_vehicles":239,"d":557,"route_I_counts":"{\"2\": 239}","source":22,"target":23,"layer":"L","from":"Nürnberg Langwasser Nord","to":"Nürnberg Scharfreiterring"},"geometry":{"type":"LineString","coordinates":[[11.121458,49.412377],[11.126398,49.408531]]}},{"type":"Feature","properties":{"duration_avg":81.0,"n_vehicles":239,"d":629,"route_I_counts":"{\"2\": 239}","shape_id":"{}","direction_id":"{\"1\": 239}","headsign":"{\"Fürth Hardhöhe\": 167, \"Nürnberg Eberhardshof\": 51, \"Nürnberg Gostenhof\": 20, \"Nürnberg Muggenhof\": 1}","source":22,"target":21,"layer":"L","from":"Nürnberg Langwasser Nord","to":"Nürnberg Messe"},"geometry":{"type":"LineString","coordinates":[[11.121458,49.412377],[11.114657,49.415901]]}},{"type":"Feature","properties":{"shape_id":"{}","direction_id":"{\"0\": 242}","headsign":"{\"Nürnberg Langwasser Süd\": 242}","duration_avg":76.0,"n_vehicles":242,"d":664,"route_I_counts":"{\"2\": 242}","source":23,"target":24,"layer":"L","from":"Nürnberg Scharfreiterring","to":"Nürnberg Langwasser Mitte"},"geometry":{"type":"LineString","coordinates":[[11.126398,49.408531],[11.132516,49.404077]]}},{"type":"Feature","properties":{"duration_avg":66.0,"n_vehicles":239,"d":575,"route_I_counts":"{\"2\": 239}","shape_id":"{}","direction_id":"{\"1\": 239}","headsign":"{\"Fürth Hardhöhe\": 167, \"Nürnberg Eberhardshof\": 51, \"Nürnberg Gostenhof\": 20, \"Nürnberg Muggenhof\": 1}","source":23,"target":22,"layer":"L","from":"Nürnberg Scharfreiterring","to":"Nürnberg Langwasser Nord"},"geometry":{"type":"LineString","coordinates":[[11.126398,49.408531],[11.121458,49.412377]]}},{"type":"Feature","properties":{"shape_id":"{}","direction_id":"{\"0\": 242}","headsign":"{\"Nürnberg Langwasser Süd\": 242}","duration_avg":66.0,"n_vehicles":242,"d":405,"route_I_counts":"{\"2\": 242}","source":24,"target":25,"layer":"L","from":"Nürnberg Langwasser Mitte","to":"Nürnberg Gemeinschaftshaus"},"geometry":{"type":"LineString","coordinates":[[11.132516,49.404077],[11.135912,49.401183]]}},{"type":"Feature","properties":{"duration_avg":69.0,"n_vehicles":234,"d":666,"route_I_counts":"{\"2\": 234}","shape_id":"{}","direction_id":"{\"1\": 234}","headsign":"{\"Fürth Hardhöhe\": 166, \"Nürnberg Eberhardshof\": 47, \"Nürnberg Gostenhof\": 20, \"Nürnberg Muggenhof\": 1}","source":24,"target":23,"layer":"L","from":"Nürnberg Langwasser Mitte","to":"Nürnberg Scharfreiterring"},"geometry":{"type":"LineString","coordinates":[[11.132516,49.404077],[11.126398,49.408531]]}},{"type":"Feature","properties":{"shape_id":"{}","direction_id":"{\"0\": 242}","headsign":"{\"Nürnberg Langwasser Süd\": 242}","duration_avg":47.0,"n_vehicles":242,"d":448,"route_I_counts":"{\"2\": 242}","source":25,"target":26,"layer":"L","from":"Nürnberg Gemeinschaftshaus","to":"Nürnberg Langwasser Süd"},"geometry":{"type":"LineString","coordinates":[[11.135912,49.401183],[11.140619,49.398564]]}},{"type":"Feature","properties":{"duration_avg":69.0,"n_vehicles":234,"d":379,"route_I_counts":"{\"2\": 234}","shape_id":"{}","direction_id":"{\"1\": 234}","headsign":"{\"Fürth Hardhöhe\": 166, \"Nürnberg Eberhardshof\": 47, \"Nürnberg Gostenhof\": 20, \"Nürnberg Muggenhof\": 1}","source":25,"target":24,"layer":"L","from":"Nürnberg Gemeinschaftshaus","to":"Nürnberg Langwasser Mitte"},"geometry":{"type":"LineString","coordinates":[[11.135912,49.401183],[11.132516,49.404077]]}},{"type":"Feature","properties":{"duration_avg":62.0,"n_vehicles":234,"d":389,"route_I_counts":"{\"2\": 234}","shape_id":"{}","direction_id":"{\"1\": 234}","headsign":"{\"Fürth Hardhöhe\": 166, \"Nürnberg Eberhardshof\": 47, \"Nürnberg Gostenhof\": 20, \"Nürnberg Muggenhof\": 1}","source":26,"target":25,"layer":"L","from":"Nürnberg Langwasser Süd","to":"Nürnberg Gemeinschaftshaus"},"geometry":{"type":"LineString","coordinates":[[11.140619,49.398564],[11.135912,49.401183]]}},{"type":"Feature","properties":{"shape_id":"{}","direction_id":"{\"0\": 209}","headsign":"{\"Nürnberg Flughafen\": 114, \"Nürnberg Ziegelstein\": 95}","duration_avg":114.0,"n_vehicles":209,"d":1273,"route_I_counts":"{\"7\": 209}","source":27,"target":28,"layer":"L","from":"Nürnberg Röthenbach","to":"Nürnberg Hohe Marter"},"geometry":{"type":"LineString","coordinates":[[11.031698,49.420851],[11.044032,49.429008]]}},{"type":"Feature","properties":{"shape_id":"{}","direction_id":"{\"0\": 209}","headsign":"{\"Nürnberg Flughafen\": 114, \"Nürnberg Ziegelstein\": 95}","duration_avg":81.0,"n_vehicles":209,"d":672,"route_I_counts":"{\"7\": 209}","source":28,"target":29,"layer":"L","from":"Nürnberg Hohe Marter","to":"Nürnberg Schweinau"},"geometry":{"type":"LineString","coordinates":[[11.044032,49.429008],[11.048434,49.434324]]}},{"type":"Feature","properties":{"duration_avg":93.0,"n_vehicles":210,"d":1263,"route_I_counts":"{\"7\": 210}","shape_id":"{}","direction_id":"{\"1\": 210}","headsign":"{\"Nürnberg Röthenbach\": 210}","source":28,"target":27,"layer":"L","from":"Nürnberg Hohe Marter","to":"Nürnberg Röthenbach"},"geometry":{"type":"LineString","coordinates":[[11.044032,49.429008],[11.031698,49.420851]]}},{"type":"Feature","properties":{"shape_id":"{}","direction_id":"{\"0\": 209}","headsign":"{\"Nürnberg Flughafen\": 114, \"Nürnberg Ziegelstein\": 95}","duration_avg":74.0,"n_vehicles":209,"d":521,"route_I_counts":"{\"7\": 209}","source":29,"target":30,"layer":"L","from":"Nürnberg Schweinau","to":"Nürnberg St. Leonhard"},"geometry":{"type":"LineString","coordinates":[[11.048434,49.434324],[11.050024,49.438892]]}},{"type":"Feature","properties":{"duration_avg":81.0,"n_vehicles":211,"d":671,"route_I_counts":"{\"7\": 211}","shape_id":"{}","direction_id":"{\"1\": 211}","headsign":"{\"Nürnberg Röthenbach\": 211}","source":29,"target":28,"layer":"L","from":"Nürnberg Schweinau","to":"Nürnberg Hohe Marter"},"geometry":{"type":"LineString","coordinates":[[11.048434,49.434324],[11.044032,49.429008]]}},{"type":"Feature","properties":{"shape_id":"{}","direction_id":"{\"0\": 210}","headsign":"{\"Nürnberg Flughafen\": 115, \"Nürnberg Ziegelstein\": 95}","duration_avg":87.0,"n_vehicles":210,"d":732,"route_I_counts":"{\"7\": 210}","source":30,"target":31,"layer":"L","from":"Nürnberg St. Leonhard","to":"Nürnberg Rothenburger Str."},"geometry":{"type":"LineString","coordinates":[[11.050024,49.438892],[11.055315,49.444505]]}},{"type":"Feature","properties":{"duration_avg":73.0,"n_vehicles":211,"d":520,"route_I_counts":"{\"7\": 211}","shape_id":"{}","direction_id":"{\"1\": 211}","headsign":"{\"Nürnberg Röthenbach\": 211}","source":30,"target":29,"layer":"L","from":"Nürnberg St. Leonhard","to":"Nürnberg Schweinau"},"geometry":{"type":"LineString","coordinates":[[11.050024,49.438892],[11.048434,49.434324]]}},{"type":"Feature","properties":{"duration_avg":108.0,"n_vehicles":419,"d":782,"route_I_counts":"{\"7\": 210, \"9\": 209}","shape_id":"{}","direction_id":"{\"0\": 419}","headsign":"{\"Nürnberg Flughafen\": 115, \"Nürnberg Nordostbahnhof\": 2, \"Nürnberg Nordwestring\": 207, \"Nürnberg Ziegelstein\": 95}","source":31,"target":12,"layer":"L","from":"Nürnberg Rothenburger Str.","to":"Nürnberg Plärrer"},"geometry":{"type":"LineString","coordinates":[[11.055315,49.444505],[11.064397,49.44843]]}},{"type":"Feature","properties":{"duration_avg":84.0,"n_vehicles":210,"d":735,"route_I_counts":"{\"7\": 210}","shape_id":"{}","direction_id":"{\"1\": 210}","headsign":"{\"Nürnberg Röthenbach\": 210}","source":31,"target":30,"layer":"L","from":"Nürnberg Rothenburger Str.","to":"Nürnberg St. Leonhard"},"geometry":{"type":"LineString","coordinates":[[11.055315,49.444505],[11.050024,49.438892]]}},{"type":"Feature","properties":{"duration_avg":95.0,"n_vehicles":210,"d":879,"route_I_counts":"{\"9\": 210}","shape_id":"{}","direction_id":"{\"1\": 210}","headsign":"{\"Nürnberg Großreuth b. Schweinau\": 210}","source":31,"target":43,"layer":"L","from":"Nürnberg Rothenburger Str.","to":"Nürnberg Sündersbühl"},"geometry":{"type":"LineString","coordinates":[[11.055315,49.444505],[11.043789,49.441865]]}},{"type":"Feature","properties":{"duration_avg":84.0,"n_vehicles":421,"d":497,"route_I_counts":"{\"7\": 211, \"9\": 210}","shape_id":"{}","direction_id":"{\"0\": 421}","headsign":"{\"Nürnberg Flughafen\": 115, \"Nürnberg Nordostbahnhof\": 2, \"Nürnberg Nordwestring\": 208, \"Nürnberg Ziegelstein\": 96}","source":32,"target":15,"layer":"L","from":"Nürnberg Opernhaus","to":"Nürnberg Hbf"},"geometry":{"type":"LineString","coordinates":[[11.074682,49.446865],[11.081932,49.446398]]}},{"type":"Feature","properties":{"duration_avg":95.0,"n_vehicles":419,"d":769,"route_I_counts":"{\"7\": 210, \"9\": 209}","shape_id":"{}","direction_id":"{\"1\": 419}","headsign":"{\"Nürnberg Großreuth b. Schweinau\": 209, \"Nürnberg Röthenbach\": 210}","source":32,"target":12,"layer":"L","from":"Nürnberg Opernhaus","to":"Nürnberg Plärrer"},"geometry":{"type":"LineString","coordinates":[[11.074682,49.446865],[11.064397,49.44843]]}},{"type":"Feature","properties":{"shape_id":"{}","direction_id":"{\"0\": 420}","headsign":"{\"Nürnberg Flughafen\": 114, \"Nürnberg Nordostbahnhof\": 2, \"Nürnberg Nordwestring\": 208, \"Nürnberg Ziegelstein\": 96}","duration_avg":75.0,"n_vehicles":420,"d":515,"route_I_counts":"{\"7\": 210, \"9\": 210}","source":33,"target":34,"layer":"L","from":"Nürnberg Wöhrder Wiese","to":"Nürnberg Rathenauplatz"},"geometry":{"type":"LineString","coordinates":[[11.086917,49.452559],[11.08954,49.456863]]}},{"type":"Feature","properties":{"duration_avg":98.0,"n_vehicles":419,"d":716,"route_I_counts":"{\"7\": 210, \"9\": 209}","shape_id":"{}","direction_id":"{\"1\": 419}","headsign":"{\"Nürnberg Großreuth b. Schweinau\": 209, \"Nürnberg Röthenbach\": 210}","source":33,"target":15,"layer":"L","from":"Nürnberg Wöhrder Wiese","to":"Nürnberg Hbf"},"geometry":{"type":"LineString","coordinates":[[11.086917,49.452559],[11.081932,49.446398]]}},{"type":"Feature","properties":{"shape_id":"{}","direction_id":"{\"0\": 212}","headsign":"{\"Nürnberg Flughafen\": 114, \"Nürnberg Nordostbahnhof\": 2, \"Nürnberg Ziegelstein\": 96}","duration_avg":83.0,"n_vehicles":212,"d":523,"route_I_counts":"{\"7\": 210, \"9\": 2}","source":34,"target":35,"layer":"L","from":"Nürnberg Rathenauplatz","to":"Nürnberg Rennweg"},"geometry":{"type":"LineString","coordinates":[[11.08954,49.456863],[11.093224,49.460909]]}},{"type":"Feature","properties":{"shape_id":"{}","direction_id":"{\"0\": 208}","headsign":"{\"Nürnberg Nordwestring\": 208}","duration_avg":106.0,"n_vehicles":208,"d":805,"route_I_counts":"{\"9\": 208}","source":34,"target":44,"layer":"L","from":"Nürnberg Rathenauplatz","to":"Nürnberg Maxfeld"},"geometry":{"type":"LineString","coordinates":[[11.08954,49.456863],[11.084636,49.463361]]}},{"type":"Feature","properties":{"duration_avg":75.0,"n_vehicles":418,"d":512,"route_I_counts":"{\"7\": 210, \"9\": 208}","shape_id":"{}","direction_id":"{\"1\": 418}","headsign":"{\"Nürnberg Großreuth b. Schweinau\": 208, \"Nürnberg Röthenbach\": 210}","source":34,"target":33,"layer":"L","from":"Nürnberg Rathenauplatz","to":"Nürnberg Wöhrder Wiese"},"geometry":{"type":"LineString","coordinates":[[11.08954,49.456863],[11.086917,49.452559]]}},{"type":"Feature","properties":{"shape_id":"{}","direction_id":"{\"0\": 213}","headsign":"{\"Nürnberg Flughafen\": 115, \"Nürnberg Nordostbahnhof\": 2, \"Nürnberg Ziegelstein\": 96}","duration_avg":81.0,"n_vehicles":213,"d":693,"route_I_counts":"{\"7\": 211, \"9\": 2}","source":35,"target":36,"layer":"L","from":"Nürnberg Rennweg","to":"Nürnberg Schoppershof"},"geometry":{"type":"LineString","coordinates":[[11.093224,49.460909],[11.100581,49.464897]]}},{"type":"Feature","properties":{"duration_avg":77.0,"n_vehicles":210,"d":531,"route_I_counts":"{\"7\": 210}","shape_id":"{}","direction_id":"{\"1\": 210}","headsign":"{\"Nürnberg Röthenbach\": 210}","source":35,"target":34,"layer":"L","from":"Nürnberg Rennweg","to":"Nürnberg Rathenauplatz"},"geometry":{"type":"LineString","coordinates":[[11.093224,49.460909],[11.08954,49.456863]]}},{"type":"Feature","properties":{"shape_id":"{}","direction_id":"{\"0\": 213}","headsign":"{\"Nürnberg Flughafen\": 115, \"Nürnberg Nordostbahnhof\": 2, \"Nürnberg Ziegelstein\": 96}","duration_avg":91.0,"n_vehicles":213,"d":834,"route_I_counts":"{\"7\": 211, \"9\": 2}","source":36,"target":37,"layer":"L","from":"Nürnberg Schoppershof","to":"Nürnberg Nordostbahnhof"},"geometry":{"type":"LineString","coordinates":[[11.100581,49.464897],[11.104497,49.471949]]}},{"type":"Feature","properties":{"duration_avg":81.0,"n_vehicles":209,"d":688,"route_I_counts":"{\"7\": 209}","shape_id":"{}","direction_id":"{\"1\": 209}","headsign":"{\"Nürnberg Röthenbach\": 209}","source":36,"target":35,"layer":"L","from":"Nürnberg Schoppershof","to":"Nürnberg Rennweg"},"geometry":{"type":"LineString","coordinates":[[11.100581,49.464897],[11.093224,49.460909]]}},{"type":"Feature","properties":{"shape_id":"{}","direction_id":"{\"0\": 211}","headsign":"{\"Nürnberg Flughafen\": 115, \"Nürnberg Ziegelstein\": 96}","duration_avg":87.0,"n_vehicles":211,"d":815,"route_I_counts":"{\"7\": 211}","source":37,"target":38,"layer":"L","from":"Nürnberg Nordostbahnhof","to":"Nürnberg Herrnhütte"},"geometry":{"type":"LineString","coordinates":[[11.104497,49.471949],[11.109896,49.478376]]}},{"type":"Feature","properties":{"duration_avg":92.0,"n_vehicles":209,"d":872,"route_I_counts":"{\"7\": 209}","shape_id":"{}","direction_id":"{\"1\": 209}","headsign":"{\"Nürnberg Röthenbach\": 209}","source":37,"target":36,"layer":"L","from":"Nürnberg Nordostbahnhof","to":"Nürnberg Schoppershof"},"geometry":{"type":"LineString","coordinates":[[11.104497,49.471949],[11.100581,49.464897]]}},{"type":"Feature","properties":{"shape_id":"{}","direction_id":"{\"0\": 212}","headsign":"{\"Nürnberg Flughafen\": 115, \"Nürnberg Ziegelstein\": 97}","duration_avg":97.0,"n_vehicles":212,"d":848,"route_I_counts":"{\"7\": 212}","source":38,"target":39,"layer":"L","from":"Nürnberg Herrnhütte","to":"Nürnberg Ziegelstein"},"geometry":{"type":"LineString","coordinates":[[11.109896,49.478376],[11.105126,49.485344]]}},{"type":"Feature","properties":{"duration_avg":87.0,"n_vehicles":209,"d":762,"route_I_counts":"{\"7\": 209}","shape_id":"{}","direction_id":"{\"1\": 209}","headsign":"{\"Nürnberg Röthenbach\": 209}","source":38,"target":37,"layer":"L","from":"Nürnberg Herrnhütte","to":"Nürnberg Nordostbahnhof"},"geometry":{"type":"LineString","coordinates":[[11.109896,49.478376],[11.104497,49.471949]]}},{"type":"Feature","properties":{"shape_id":"{}","direction_id":"{\"0\": 114}","headsign":"{\"Nürnberg Flughafen\": 114}","duration_avg":165.0,"n_vehicles":114,"d":2199,"route_I_counts":"{\"7\": 114}","source":39,"target":40,"layer":"L","from":"Nürnberg Ziegelstein","to":"Nürnberg Flughafen"},"geometry":{"type":"LineString","coordinates":[[11.105126,49.485344],[11.077835,49.494068]]}},{"type":"Feature","properties":{"duration_avg":99.0,"n_vehicles":208,"d":848,"route_I_counts":"{\"7\": 208}","shape_id":"{}","direction_id":"{\"1\": 208}","headsign":"{\"Nürnberg Röthenbach\": 208}","source":39,"target":38,"layer":"L","from":"Nürnberg Ziegelstein","to":"Nürnberg Herrnhütte"},"geometry":{"type":"LineString","coordinates":[[11.105126,49.485344],[11.109896,49.478376]]}},{"type":"Feature","properties":{"duration_avg":169.0,"n_vehicles":115,"d":2104,"route_I_counts":"{\"7\": 115}","shape_id":"{}","direction_id":"{\"1\": 115}","headsign":"{\"Nürnberg Röthenbach\": 115}","source":40,"target":39,"layer":"L","from":"Nürnberg Flughafen","to":"Nürnberg Ziegelstein"},"geometry":{"type":"LineString","coordinates":[[11.077835,49.494068],[11.105126,49.485344]]}},{"type":"Feature","properties":{"shape_id":"{}","direction_id":"{\"0\": 209}","headsign":"{\"Nürnberg Nordostbahnhof\": 2, \"Nürnberg Nordwestring\": 207}","duration_avg":92.0,"n_vehicles":209,"d":826,"route_I_counts":"{\"9\": 209}","source":41,"target":42,"layer":"L","from":"Nürnberg Großreuth b. Schweinau","to":"Nürnberg Gustav-Adolf-Str."},"geometry":{"type":"LineString","coordinates":[[11.024709,49.439266],[11.036127,49.439067]]}},{"type":"Feature","properties":{"shape_id":"{}","direction_id":"{\"0\": 210}","headsign":"{\"Nürnberg Nordostbahnhof\": 2, \"Nürnberg Nordwestring\": 208}","duration_avg":93.0,"n_vehicles":210,"d":636,"route_I_counts":"{\"9\": 210}","source":42,"target":43,"layer":"L","from":"Nürnberg Gustav-Adolf-Str.","to":"Nürnberg Sündersbühl"},"geometry":{"type":"LineString","coordinates":[[11.036127,49.439067],[11.043789,49.441865]]}},{"type":"Feature","properties":{"duration_avg":67.0,"n_vehicles":210,"d":898,"route_I_counts":"{\"9\": 210}","shape_id":"{}","direction_id":"{\"1\": 210}","headsign":"{\"Nürnberg Großreuth b. Schweinau\": 210}","source":42,"target":41,"layer":"L","from":"Nürnberg Gustav-Adolf-Str.","to":"Nürnberg Großreuth b. Schweinau"},"geometry":{"type":"LineString","coordinates":[[11.036127,49.439067],[11.024709,49.439266]]}},{"type":"Feature","properties":{"shape_id":"{}","direction_id":"{\"0\": 209}","headsign":"{\"Nürnberg Nordostbahnhof\": 2, \"Nürnberg Nordwestring\": 207}","duration_avg":98.0,"n_vehicles":209,"d":884,"route_I_counts":"{\"9\": 209}","source":43,"target":31,"layer":"L","from":"Nürnberg Sündersbühl","to":"Nürnberg Rothenburger Str."},"geometry":{"type":"LineString","coordinates":[[11.043789,49.441865],[11.055315,49.444505]]}},{"type":"Feature","properties":{"duration_avg":91.0,"n_vehicles":209,"d":635,"route_I_counts":"{\"9\": 209}","shape_id":"{}","direction_id":"{\"1\": 209}","headsign":"{\"Nürnberg Großreuth b. Schweinau\": 209}","source":43,"target":42,"layer":"L","from":"Nürnberg Sündersbühl","to":"Nürnberg Gustav-Adolf-Str."},"geometry":{"type":"LineString","coordinates":[[11.043789,49.441865],[11.036127,49.439067]]}},{"type":"Feature","properties":{"shape_id":"{}","direction_id":"{\"0\": 208}","headsign":"{\"Nürnberg Nordwestring\": 208}","duration_avg":70.0,"n_vehicles":208,"d":443,"route_I_counts":"{\"9\": 208}","source":44,"target":45,"layer":"L","from":"Nürnberg Maxfeld","to":"Nürnberg Kaulbachplatz"},"geometry":{"type":"LineString","coordinates":[[11.084636,49.463361],[11.0785,49.463356]]}},{"type":"Feature","properties":{"duration_avg":95.0,"n_vehicles":209,"d":794,"route_I_counts":"{\"9\": 209}","shape_id":"{}","direction_id":"{\"1\": 209}","headsign":"{\"Nürnberg Großreuth b. Schweinau\": 209}","source":44,"target":34,"layer":"L","from":"Nürnberg Maxfeld","to":"Nürnberg Rathenauplatz"},"geometry":{"type":"LineString","coordinates":[[11.084636,49.463361],[11.08954,49.456863]]}},{"type":"Feature","properties":{"shape_id":"{}","direction_id":"{\"0\": 208}","headsign":"{\"Nürnberg Nordwestring\": 208}","duration_avg":79.0,"n_vehicles":208,"d":484,"route_I_counts":"{\"9\": 208}","source":45,"target":46,"layer":"L","from":"Nürnberg Kaulbachplatz","to":"Nürnberg Friedrich-Ebert-Pl."},"geometry":{"type":"LineString","coordinates":[[11.0785,49.463356],[11.071987,49.462351]]}},{"type":"Feature","properties":{"duration_avg":69.0,"n_vehicles":209,"d":441,"route_I_counts":"{\"9\": 209}","shape_id":"{}","direction_id":"{\"1\": 209}","headsign":"{\"Nürnberg Großreuth b. Schweinau\": 209}","source":45,"target":44,"layer":"L","from":"Nürnberg Kaulbachplatz","to":"Nürnberg Maxfeld"},"geometry":{"type":"LineString","coordinates":[[11.0785,49.463356],[11.084636,49.463361]]}},{"type":"Feature","properties":{"shape_id":"{}","direction_id":"{\"0\": 208}","headsign":"{\"Nürnberg Nordwestring\": 208}","duration_avg":74.0,"n_vehicles":208,"d":570,"route_I_counts":"{\"9\": 208}","source":46,"target":47,"layer":"L","from":"Nürnberg Friedrich-Ebert-Pl.","to":"Nürnberg Klinikum Nord"},"geometry":{"type":"LineString","coordinates":[[11.071987,49.462351],[11.064522,49.464015]]}},{"type":"Feature","properties":{"duration_avg":79.0,"n_vehicles":209,"d":533,"route_I_counts":"{\"9\": 209}","shape_id":"{}","direction_id":"{\"1\": 209}","headsign":"{\"Nürnberg Großreuth b. Schweinau\": 209}","source":46,"target":45,"layer":"L","from":"Nürnberg Friedrich-Ebert-Pl.","to":"Nürnberg Kaulbachplatz"},"geometry":{"type":"LineString","coordinates":[[11.071987,49.462351],[11.0785,49.463356]]}},{"type":"Feature","properties":{"shape_id":"{}","direction_id":"{\"0\": 208}","headsign":"{\"Nürnberg Nordwestring\": 208}","duration_avg":57.0,"n_vehicles":208,"d":709,"route_I_counts":"{\"9\": 208}","source":47,"target":48,"layer":"L","from":"Nürnberg Klinikum Nord","to":"Nürnberg Nordwestring"},"geometry":{"type":"LineString","coordinates":[[11.064522,49.464015],[11.055072,49.465714]]}},{"type":"Feature","properties":{"duration_avg":75.0,"n_vehicles":208,"d":510,"route_I_counts":"{\"9\": 208}","shape_id":"{}","direction_id":"{\"1\": 208}","headsign":"{\"Nürnberg Großreuth b. Schweinau\": 208}","source":47,"target":46,"layer":"L","from":"Nürnberg Klinikum Nord","to":"Nürnberg Friedrich-Ebert-Pl."},"geometry":{"type":"LineString","coordinates":[[11.064522,49.464015],[11.071987,49.462351]]}},{"type":"Feature","properties":{"duration_avg":84.0,"n_vehicles":208,"d":727,"route_I_counts":"{\"9\": 208}","shape_id":"{}","direction_id":"{\"1\": 208}","headsign":"{\"Nürnberg Großreuth b. Schweinau\": 208}","source":48,"target":47,"layer":"L","from":"Nürnberg Nordwestring","to":"Nürnberg Klinikum Nord"},"geometry":{"type":"LineString","coordinates":[[11.055072,49.465714],[11.064522,49.464015]]}}]}