{"type":"FeatureCollection","features":[{"type":"Feature","geometry":{"type":"Point","coordinates":[10.805629,59.895818]},"properties":{"name":"Ryen","original_ids":"[4947]","id":0,"layer":"stop"}},{"type":"Feature","geometry":{"type":"Point","coordinates":[10.812297,59.897783]},"properties":{"name":"Manglerud","original_ids":"[4954]","id":1,"layer":"stop"}},{"type":"Feature","geometry":{"type":"Point","coordinates":[10.819362,59.906335]},"properties":{"name":"Høyenhall","original_ids":"[4961]","id":2,"layer":"stop"}},{"type":"Feature","geometry":{"type":"Point","coordinates":[10.812933,59.909127]},"properties":{"name":"Brynseng","original_ids":"[5019]","id":3,"layer":"stop"}},{"type":"Feature","geometry":{"type":"Point","coordinates":[10.801508,59.912795]},"properties":{"name":"Helsfyr","original_ids":"[5012]","id":4,"layer":"stop"}},{"type":"Feature","geometry":{"type":"Point","coordinates":[10.78784,59.913736]},"properties":{"name":"Ensjø","original_ids":"[5006]","id":5,"layer":"stop"}},{"type":"Feature","geometry":{"type":"Point","coordinates":[10.775712,59.915391]},"properties":{"name":"Tøyen","original_ids":"[4725]","id":6,"layer":"stop"}},{"type":"Feature","geometry":{"type":"Point","coordinates":[10.760193,59.912815]},"properties":{"name":"Grønland","original_ids":"[4730]","id":7,"layer":"stop"}},{"type":"Feature","geometry":{"type":"Point","coordinates":[10.7512,59.911857]},"properties":{"name":"Jernbanetorget","original_ids":"[4566]","id":8,"layer":"stop"}},{"type":"Feature","geometry":{"type":"Point","coordinates":[10.741821,59.913777]},"properties":{"name":"Stortinget","original_ids":"[4571]","id":9,"layer":"stop"}},{"type":"Feature","geometry":{"type":"Point","coordinates":[10.731952,59.91556]},"properties":{"name":"Nationaltheatret","original_ids":"[4574]","id":10,"layer":"stop"}},{"type":"Feature","geometry":{"type":"Point","coordinates":[10.714609,59.930264]},"properties":{"name":"Majorstuen","original_ids":"[4630]","id":11,"layer":"stop"}},{"type":"Feature","geometry":{"type":"Point","coordinates":[10.709267,59.9346]},"properties":{"name":"Frøen","original_ids":"[5354]","id":12,"layer":"stop"}},{"type":"Feature","geometry":{"type":"Point","coordinates":[10.70436,59.939064]},"properties":{"name":"Steinerud","original_ids":"[5356]","id":13,"layer":"stop"}},{"type":"Feature","geometry":{"type":"Point","coordinates":[10.704694,59.942437]},"properties":{"name":"Vinderen","original_ids":"[5360]","id":14,"layer":"stop"}},{"type":"Feature","geometry":{"type":"Point","coordinates":[10.710116,59.94587]},"properties":{"name":"Gaustad","original_ids":"[5364]","id":15,"layer":"stop"}},{"type":"Feature","geometry":{"type":"Point","coordinates":[10.704534,59.948052]},"properties":{"name":"Ris","original_ids":"[5369]","id":16,"layer":"stop"}},{"type":"Feature","geometry":{"type":"Point","coordinates":[10.69442,59.950877]},"properties":{"name":"Slemdal","original_ids":"[5371]","id":17,"layer":"stop"}},{"type":"Feature","geometry":{"type":"Point","coordinates":[10.701506,59.954989]},"properties":{"name":"Gråkammen","original_ids":"[5378]","id":18,"layer":"stop"}},{"type":"Feature","geometry":{"type":"Point","coordinates":[10.696534,59.955807]},"properties":{"name":"Gulleråsen","original_ids":"[5379]","id":19,"layer":"stop"}},{"type":"Feature","geometry":{"type":"Point","coordinates":[10.695704,59.959896]},"properties":{"name":"Vettakollen","original_ids":"[5381]","id":20,"layer":"stop"}},{"type":"Feature","geometry":{"type":"Point","coordinates":[10.690785,59.961782]},"properties":{"name":"Skådalen","original_ids":"[5382]","id":21,"layer":"stop"}},{"type":"Feature","geometry":{"type":"Point","coordinates":[10.683006,59.961316]},"properties":{"name":"Midtstuen","original_ids":"[5383]","id":22,"layer":"stop"}},{"type":"Feature","geometry":{"type":"Point","coordinates":[10.673821,59.957831]},"properties":{"name":"Besserud","original_ids":"[5387]","id":23,"layer":"stop"}},{"type":"Feature","geometry":{"type":"Point","coordinates":[10.663109,59.960293]},"properties":{"name":"Holmenkollen","original_ids":"[5390]","id":24,"layer":"stop"}},{"type":"Feature","geometry":{"type":"Point","coordinates":[10.654895,59.966889]},"properties":{"name":"Voksenlia","original_ids":"[5391]","id":25,"layer":"stop"}},{"type":"Feature","geometry":{"type":"Point","coordinates":[10.647497,59.975209]},"properties":{"name":"Skogen","original_ids":"[5392]","id":26,"layer":"stop"}},{"type":"Feature","geometry":{"type":"Point","coordinates":[10.652905,59.98053]},"properties":{"name":"Lillevann","original_ids":"[5393]","id":27,"layer":"stop"}},{"type":"Feature","geometry":{"type":"Point","coordinates":[10.665301,59.98006]},"properties":{"name":"Voksenkollen","original_ids":"[5394]","id":28,"layer":"stop"}},{"type":"Feature","geometry":{"type":"Point","coordinates":[10.67622,59.979086]},"properties":{"name":"Frognerseteren","original_ids":"[5494]","id":29,"layer":"stop"}},{"type":"Feature","geometry":{"type":"Point","coordinates":[10.801024,59.887366]},"properties":{"name":"Brattlikollen","original_ids":"[4794]","id":30,"layer":"stop"}},{"type":"Feature","geometry":{"type":"Point","coordinates":[10.805631,59.880046]},"properties":{"name":"Karlsrud","original_ids":"[4791]","id":31,"layer":"stop"}},{"type":"Feature","geometry":{"type":"Point","coordinates":[10.810393,59.873298]},"properties":{"name":"Lambertseter","original_ids":"[4907]","id":32,"layer":"stop"}},{"type":"Feature","geometry":{"type":"Point","coordinates":[10.81292,59.86853]},"properties":{"name":"Munkelia","original_ids":"[4914]","id":33,"layer":"stop"}},{"type":"Feature","geometry":{"type":"Point","coordinates":[10.821274,59.867121]},"properties":{"name":"Bergkrystallen","original_ids":"[4917]","id":34,"layer":"stop"}},{"type":"Feature","geometry":{"type":"Point","coordinates":[10.695577,59.934624]},"properties":{"name":"Borgen","original_ids":"[5458]","id":35,"layer":"stop"}},{"type":"Feature","geometry":{"type":"Point","coordinates":[10.684288,59.937176]},"properties":{"name":"Smestad","original_ids":"[5461]","id":36,"layer":"stop"}},{"type":"Feature","geometry":{"type":"Point","coordinates":[10.673815,59.941746]},"properties":{"name":"Makrellbekken","original_ids":"[5395]","id":37,"layer":"stop"}},{"type":"Feature","geometry":{"type":"Point","coordinates":[10.667756,59.945855]},"properties":{"name":"Holmen","original_ids":"[5401]","id":38,"layer":"stop"}},{"type":"Feature","geometry":{"type":"Point","coordinates":[10.654928,59.946376]},"properties":{"name":"Hovseter","original_ids":"[5405]","id":39,"layer":"stop"}},{"type":"Feature","geometry":{"type":"Point","coordinates":[10.64447,59.946677]},"properties":{"name":"Røa","original_ids":"[5414]","id":40,"layer":"stop"}},{"type":"Feature","geometry":{"type":"Point","coordinates":[10.637128,59.95028]},"properties":{"name":"Ekraveien","original_ids":"[5419]","id":41,"layer":"stop"}},{"type":"Feature","geometry":{"type":"Point","coordinates":[10.623072,59.94696]},"properties":{"name":"Eiksmarka","original_ids":"[2558]","id":42,"layer":"stop"}},{"type":"Feature","geometry":{"type":"Point","coordinates":[10.616514,59.940978]},"properties":{"name":"Lijordet","original_ids":"[2560]","id":43,"layer":"stop"}},{"type":"Feature","geometry":{"type":"Point","coordinates":[10.609509,59.939367]},"properties":{"name":"Østerås","original_ids":"[2569]","id":44,"layer":"stop"}},{"type":"Feature","geometry":{"type":"Point","coordinates":[10.830784,59.910147]},"properties":{"name":"Hellerud","original_ids":"[5039]","id":45,"layer":"stop"}},{"type":"Feature","geometry":{"type":"Point","coordinates":[10.841631,59.913858]},"properties":{"name":"Tveita","original_ids":"[5049]","id":46,"layer":"stop"}},{"type":"Feature","geometry":{"type":"Point","coordinates":[10.854923,59.922554]},"properties":{"name":"Haugerud","original_ids":"[5056]","id":47,"layer":"stop"}},{"type":"Feature","geometry":{"type":"Point","coordinates":[10.864195,59.927103]},"properties":{"name":"Trosterud","original_ids":"[5063]","id":48,"layer":"stop"}},{"type":"Feature","geometry":{"type":"Point","coordinates":[10.882149,59.932901]},"properties":{"name":"Lindeberg","original_ids":"[5090]","id":49,"layer":"stop"}},{"type":"Feature","geometry":{"type":"Point","coordinates":[10.897044,59.941454]},"properties":{"name":"Furuset","original_ids":"[5098]","id":50,"layer":"stop"}},{"type":"Feature","geometry":{"type":"Point","coordinates":[10.916629,59.936501]},"properties":{"name":"Ellingsrudåsen","original_ids":"[5104]","id":51,"layer":"stop"}},{"type":"Feature","geometry":{"type":"Point","coordinates":[10.548359,59.913102]},"properties":{"name":"Avløs","original_ids":"[2649]","id":52,"layer":"stop"}},{"type":"Feature","geometry":{"type":"Point","coordinates":[10.56184,59.914937]},"properties":{"name":"Haslum","original_ids":"[2631]","id":53,"layer":"stop"}},{"type":"Feature","geometry":{"type":"Point","coordinates":[10.581551,59.914576]},"properties":{"name":"Gjønnes","original_ids":"[2616]","id":54,"layer":"stop"}},{"type":"Feature","geometry":{"type":"Point","coordinates":[10.589433,59.917068]},"properties":{"name":"Bekkestua","original_ids":"[2598]","id":55,"layer":"stop"}},{"type":"Feature","geometry":{"type":"Point","coordinates":[10.604355,59.920129]},"properties":{"name":"Ringstabekk","original_ids":"[2588]","id":56,"layer":"stop"}},{"type":"Feature","geometry":{"type":"Point","coordinates":[10.619376,59.926241]},"properties":{"name":"Jar","original_ids":"[2546]","id":57,"layer":"stop"}},{"type":"Feature","geometry":{"type":"Point","coordinates":[10.633937,59.926187]},"properties":{"name":"Bjørnsletta","original_ids":"[5471]","id":58,"layer":"stop"}},{"type":"Feature","geometry":{"type":"Point","coordinates":[10.646644,59.928795]},"properties":{"name":"Åsjordet","original_ids":"[5470]","id":59,"layer":"stop"}},{"type":"Feature","geometry":{"type":"Point","coordinates":[10.655764,59.931187]},"properties":{"name":"Ullernåsen","original_ids":"[5467]","id":60,"layer":"stop"}},{"type":"Feature","geometry":{"type":"Point","coordinates":[10.665513,59.934325]},"properties":{"name":"Montebello","original_ids":"[5464]","id":61,"layer":"stop"}},{"type":"Feature","geometry":{"type":"Point","coordinates":[10.83592,59.90715]},"properties":{"name":"Godlia","original_ids":"[4975]","id":62,"layer":"stop"}},{"type":"Feature","geometry":{"type":"Point","coordinates":[10.836648,59.899098]},"properties":{"name":"Skøyenåsen","original_ids":"[4976]","id":63,"layer":"stop"}},{"type":"Feature","geometry":{"type":"Point","coordinates":[10.84051,59.89264]},"properties":{"name":"Oppsal","original_ids":"[4985]","id":64,"layer":"stop"}},{"type":"Feature","geometry":{"type":"Point","coordinates":[10.849437,59.88957]},"properties":{"name":"Ulsrud","original_ids":"[4926]","id":65,"layer":"stop"}},{"type":"Feature","geometry":{"type":"Point","coordinates":[10.845081,59.88417]},"properties":{"name":"Bøler","original_ids":"[4933]","id":66,"layer":"stop"}},{"type":"Feature","geometry":{"type":"Point","coordinates":[10.841968,59.875717]},"properties":{"name":"Bogerud","original_ids":"[4938]","id":67,"layer":"stop"}},{"type":"Feature","geometry":{"type":"Point","coordinates":[10.840015,59.866241]},"properties":{"name":"Skullerud","original_ids":"[4942]","id":68,"layer":"stop"}},{"type":"Feature","geometry":{"type":"Point","coordinates":[10.829654,59.849311]},"properties":{"name":"Mortensrud","original_ids":"[4863]","id":69,"layer":"stop"}},{"type":"Feature","geometry":{"type":"Point","coordinates":[10.531254,59.908685]},"properties":{"name":"Gjettum","original_ids":"[2662]","id":70,"layer":"stop"}},{"type":"Feature","geometry":{"type":"Point","coordinates":[10.510578,59.910954]},"properties":{"name":"Hauger","original_ids":"[2677]","id":71,"layer":"stop"}},{"type":"Feature","geometry":{"type":"Point","coordinates":[10.500935,59.914827]},"properties":{"name":"Kolsås","original_ids":"[2680]","id":72,"layer":"stop"}},{"type":"Feature","geometry":{"type":"Point","coordinates":[10.715938,59.940046]},"properties":{"name":"Blindern","original_ids":"[4675]","id":73,"layer":"stop"}},{"type":"Feature","geometry":{"type":"Point","coordinates":[10.720688,59.94363]},"properties":{"name":"Forskningsparken","original_ids":"[4678]","id":74,"layer":"stop"}},{"type":"Feature","geometry":{"type":"Point","coordinates":[10.732167,59.946803]},"properties":{"name":"Ullevål stadion","original_ids":"[5320]","id":75,"layer":"stop"}},{"type":"Feature","geometry":{"type":"Point","coordinates":[10.766968,59.949081]},"properties":{"name":"Nydalen","original_ids":"[5288]","id":76,"layer":"stop"}},{"type":"Feature","geometry":{"type":"Point","coordinates":[10.778513,59.94466]},"properties":{"name":"Storo","original_ids":"[5282]","id":77,"layer":"stop"}},{"type":"Feature","geometry":{"type":"Point","coordinates":[10.781901,59.937402]},"properties":{"name":"Sinsen","original_ids":"[5272]","id":78,"layer":"stop"}},{"type":"Feature","geometry":{"type":"Point","coordinates":[10.789831,59.930118]},"properties":{"name":"Løren","original_ids":"[5038]","id":79,"layer":"stop"}},{"type":"Feature","geometry":{"type":"Point","coordinates":[10.805637,59.928232]},"properties":{"name":"Økern","original_ids":"[5215]","id":80,"layer":"stop"}},{"type":"Feature","geometry":{"type":"Point","coordinates":[10.822654,59.932462]},"properties":{"name":"Risløkka","original_ids":"[5222]","id":81,"layer":"stop"}},{"type":"Feature","geometry":{"type":"Point","coordinates":[10.831294,59.936285]},"properties":{"name":"Vollebekk","original_ids":"[5228]","id":82,"layer":"stop"}},{"type":"Feature","geometry":{"type":"Point","coordinates":[10.838995,59.941226]},"properties":{"name":"Linderud","original_ids":"[5233]","id":83,"layer":"stop"}},{"type":"Feature","geometry":{"type":"Point","coordinates":[10.846673,59.944406]},"properties":{"name":"Veitvet","original_ids":"[5240]","id":84,"layer":"stop"}},{"type":"Feature","geometry":{"type":"Point","coordinates":[10.858536,59.951317]},"properties":{"name":"Rødtvet","original_ids":"[5177]","id":85,"layer":"stop"}},{"type":"Feature","geometry":{"type":"Point","coordinates":[10.866508,59.954249]},"properties":{"name":"Kalbakken","original_ids":"[5180]","id":86,"layer":"stop"}},{"type":"Feature","geometry":{"type":"Point","coordinates":[10.871229,59.957936]},"properties":{"name":"Ammerud","original_ids":"[5188]","id":87,"layer":"stop"}},{"type":"Feature","geometry":{"type":"Point","coordinates":[10.882028,59.961402]},"properties":{"name":"Grorud","original_ids":"[5197]","id":88,"layer":"stop"}},{"type":"Feature","geometry":{"type":"Point","coordinates":[10.890713,59.962293]},"properties":{"name":"Romsås","original_ids":"[5165]","id":89,"layer":"stop"}},{"type":"Feature","geometry":{"type":"Point","coordinates":[10.90951,59.962103]},"properties":{"name":"Rommen","original_ids":"[5132]","id":90,"layer":"stop"}},{"type":"Feature","geometry":{"type":"Point","coordinates":[10.923313,59.962271]},"properties":{"name":"Stovner","original_ids":"[5138]","id":91,"layer":"stop"}},{"type":"Feature","geometry":{"type":"Point","coordinates":[10.929435,59.972062]},"properties":{"name":"Vestli","original_ids":"[5143]","id":92,"layer":"stop"}},{"type":"Feature","geometry":{"type":"Point","coordinates":[10.744915,59.951234]},"properties":{"name":"Berg","original_ids":"[5326]","id":93,"layer":"stop"}},{"type":"Feature","geometry":{"type":"Point","coordinates":[10.752317,59.95374]},"properties":{"name":"Tåsen","original_ids":"[5331]","id":94,"layer":"stop"}},{"type":"Feature","geometry":{"type":"Point","coordinates":[10.750108,59.956671]},"properties":{"name":"Østhorn","original_ids":"[5338]","id":95,"layer":"stop"}},{"type":"Feature","geometry":{"type":"Point","coordinates":[10.740515,59.960543]},"properties":{"name":"Holstein","original_ids":"[5342]","id":96,"layer":"stop"}},{"type":"Feature","geometry":{"type":"Point","coordinates":[10.734882,59.963814]},"properties":{"name":"Kringsjå","original_ids":"[5345]","id":97,"layer":"stop"}},{"type":"Feature","geometry":{"type":"Point","coordinates":[10.733964,59.967149]},"properties":{"name":"Sognsvann","original_ids":"[5347]","id":98,"layer":"stop"}},{"type":"Feature","geometry":{"type":"Point","coordinates":[10.778226,59.925596]},"properties":{"name":"Carl Berners plass","original_ids":"[4992]","id":99,"layer":"stop"}},{"type":"Feature","geometry":{"type":"Point","coordinates":[10.793682,59.924219]},"properties":{"name":"Hasle","original_ids":"[4997]","id":100,"layer":"stop"}},{"type":"Feature","properties":{"shape_id":"{}","direction_id":"{\"0\": 133}","headsign":"{\"\": 132, \"Sognsvann\": 1}","duration_avg":60.0,"n_vehicles":133,"d":431,"route_I_counts":"{\"655\": 55, \"656\": 3, \"658\": 72, \"659\": 3}","source":0,"target":1,"layer":"L","from":"Ryen","to":"Manglerud"},"geometry":{"type":"LineString","coordinates":[[10.805629,59.895818],[10.812297,59.897783]]}},{"type":"Feature","properties":{"shape_id":"{}","direction_id":"{\"1\": 120}","headsign":"{\"\": 120}","duration_avg":120.0,"n_vehicles":120,"d":975,"route_I_counts":"{\"655\": 51, \"658\": 69}","source":0,"target":30,"layer":"L","from":"Ryen","to":"Brattlikollen"},"geometry":{"type":"LineString","coordinates":[[10.805629,59.895818],[10.801024,59.887366]]}},{"type":"Feature","properties":{"shape_id":"{}","direction_id":"{\"0\": 133}","headsign":"{\"\": 132, \"Sognsvann\": 1}","duration_avg":120.0,"n_vehicles":133,"d":1030,"route_I_counts":"{\"655\": 55, \"656\": 3, \"658\": 72, \"659\": 3}","source":1,"target":2,"layer":"L","from":"Manglerud","to":"Høyenhall"},"geometry":{"type":"LineString","coordinates":[[10.812297,59.897783],[10.819362,59.906335]]}},{"type":"Feature","properties":{"shape_id":"{}","direction_id":"{\"1\": 123}","headsign":"{\"\": 123}","duration_avg":60.0,"n_vehicles":123,"d":431,"route_I_counts":"{\"655\": 51, \"656\": 3, \"658\": 69}","source":1,"target":0,"layer":"L","from":"Manglerud","to":"Ryen"},"geometry":{"type":"LineString","coordinates":[[10.812297,59.897783],[10.805629,59.895818]]}},{"type":"Feature","properties":{"shape_id":"{}","direction_id":"{\"0\": 133}","headsign":"{\"\": 132, \"Sognsvann\": 1}","duration_avg":60.0,"n_vehicles":133,"d":474,"route_I_counts":"{\"655\": 55, \"656\": 3, \"658\": 72, \"659\": 3}","source":2,"target":3,"layer":"L","from":"Høyenhall","to":"Brynseng"},"geometry":{"type":"LineString","coordinates":[[10.819362,59.906335],[10.812933,59.909127]]}},{"type":"Feature","properties":{"shape_id":"{}","direction_id":"{\"1\": 123}","headsign":"{\"\": 123}","duration_avg":120.0,"n_vehicles":123,"d":1030,"route_I_counts":"{\"655\": 51, \"656\": 3, \"658\": 69}","source":2,"target":1,"layer":"L","from":"Høyenhall","to":"Manglerud"},"geometry":{"type":"LineString","coordinates":[[10.819362,59.906335],[10.812297,59.897783]]}},{"type":"Feature","properties":{"shape_id":"{}","direction_id":"{\"0\": 374}","headsign":"{\"\": 373, \"Sognsvann\": 1}","duration_avg":120.0,"n_vehicles":374,"d":757,"route_I_counts":"{\"655\": 55, \"656\": 124, \"657\": 120, \"658\": 72, \"659\": 3}","source":3,"target":4,"layer":"L","from":"Brynseng","to":"Helsfyr"},"geometry":{"type":"LineString","coordinates":[[10.812933,59.909127],[10.801508,59.912795]]}},{"type":"Feature","properties":{"shape_id":"{}","direction_id":"{\"1\": 123}","headsign":"{\"\": 123}","duration_avg":60.0,"n_vehicles":123,"d":474,"route_I_counts":"{\"655\": 51, \"656\": 3, \"658\": 69}","source":3,"target":2,"layer":"L","from":"Brynseng","to":"Høyenhall"},"geometry":{"type":"LineString","coordinates":[[10.812933,59.909127],[10.819362,59.906335]]}},{"type":"Feature","properties":{"shape_id":"{}","direction_id":"{\"1\": 241}","headsign":"{\"\": 241}","duration_avg":120.0,"n_vehicles":241,"d":1002,"route_I_counts":"{\"656\": 119, \"657\": 122}","source":3,"target":45,"layer":"L","from":"Brynseng","to":"Hellerud"},"geometry":{"type":"LineString","coordinates":[[10.812933,59.909127],[10.830784,59.910147]]}},{"type":"Feature","properties":{"shape_id":"{}","direction_id":"{\"0\": 390}","headsign":"{\"\": 389, \"Sognsvann\": 1}","duration_avg":119.84615384615384,"n_vehicles":390,"d":769,"route_I_counts":"{\"655\": 71, \"656\": 124, \"657\": 120, \"658\": 72, \"659\": 3}","source":4,"target":5,"layer":"L","from":"Helsfyr","to":"Ensjø"},"geometry":{"type":"LineString","coordinates":[[10.801508,59.912795],[10.78784,59.913736]]}},{"type":"Feature","properties":{"shape_id":"{}","direction_id":"{\"1\": 364}","headsign":"{\"\": 364}","duration_avg":120.0,"n_vehicles":364,"d":757,"route_I_counts":"{\"655\": 51, \"656\": 122, \"657\": 122, \"658\": 69}","source":4,"target":3,"layer":"L","from":"Helsfyr","to":"Brynseng"},"geometry":{"type":"LineString","coordinates":[[10.801508,59.912795],[10.812933,59.909127]]}},{"type":"Feature","properties":{"shape_id":"{}","direction_id":"{\"0\": 390}","headsign":"{\"\": 389, \"Sognsvann\": 1}","duration_avg":120.0,"n_vehicles":390,"d":701,"route_I_counts":"{\"655\": 71, \"656\": 124, \"657\": 120, \"658\": 72, \"659\": 3}","source":5,"target":6,"layer":"L","from":"Ensjø","to":"Tøyen"},"geometry":{"type":"LineString","coordinates":[[10.78784,59.913736],[10.775712,59.915391]]}},{"type":"Feature","properties":{"shape_id":"{}","direction_id":"{\"1\": 382}","headsign":"{\"\": 382}","duration_avg":120.0,"n_vehicles":382,"d":769,"route_I_counts":"{\"655\": 69, \"656\": 122, \"657\": 122, \"658\": 69}","source":5,"target":4,"layer":"L","from":"Ensjø","to":"Helsfyr"},"geometry":{"type":"LineString","coordinates":[[10.78784,59.913736],[10.801508,59.912795]]}},{"type":"Feature","properties":{"shape_id":"{}","direction_id":"{\"0\": 530}","headsign":"{\"\": 529, \"Sognsvann\": 1}","duration_avg":119.88679245283019,"n_vehicles":530,"d":912,"route_I_counts":"{\"655\": 71, \"656\": 123, \"657\": 120, \"658\": 72, \"659\": 144}","source":6,"target":7,"layer":"L","from":"Tøyen","to":"Grønland"},"geometry":{"type":"LineString","coordinates":[[10.775712,59.915391],[10.760193,59.912815]]}},{"type":"Feature","properties":{"shape_id":"{}","direction_id":"{\"1\": 383}","headsign":"{\"\": 383}","duration_avg":60.0,"n_vehicles":383,"d":701,"route_I_counts":"{\"655\": 69, \"656\": 123, \"657\": 122, \"658\": 69}","source":6,"target":5,"layer":"L","from":"Tøyen","to":"Ensjø"},"geometry":{"type":"LineString","coordinates":[[10.775712,59.915391],[10.78784,59.913736]]}},{"type":"Feature","properties":{"shape_id":"{}","direction_id":"{\"1\": 144}","headsign":"{\"\": 144}","duration_avg":120.0,"n_vehicles":144,"d":1144,"route_I_counts":"{\"659\": 144}","source":6,"target":99,"layer":"L","from":"Tøyen","to":"Carl Berners plass"},"geometry":{"type":"LineString","coordinates":[[10.775712,59.915391],[10.778226,59.925596]]}},{"type":"Feature","properties":{"shape_id":"{}","direction_id":"{\"0\": 529}","headsign":"{\"\": 528, \"Sognsvann\": 1}","duration_avg":60.0,"n_vehicles":529,"d":513,"route_I_counts":"{\"655\": 71, \"656\": 123, \"657\": 120, \"658\": 71, \"659\": 144}","source":7,"target":8,"layer":"L","from":"Grønland","to":"Jernbanetorget"},"geometry":{"type":"LineString","coordinates":[[10.760193,59.912815],[10.7512,59.911857]]}},{"type":"Feature","properties":{"shape_id":"{}","direction_id":"{\"1\": 527}","headsign":"{\"\": 527}","duration_avg":179.77229601518027,"n_vehicles":527,"d":912,"route_I_counts":"{\"655\": 69, \"656\": 123, \"657\": 122, \"658\": 69, \"659\": 144}","source":7,"target":6,"layer":"L","from":"Grønland","to":"Tøyen"},"geometry":{"type":"LineString","coordinates":[[10.760193,59.912815],[10.775712,59.915391]]}},{"type":"Feature","properties":{"shape_id":"{}","direction_id":"{\"0\": 529}","headsign":"{\"\": 528, \"Sognsvann\": 1}","duration_avg":60.113421550094515,"n_vehicles":529,"d":565,"route_I_counts":"{\"655\": 71, \"656\": 123, \"657\": 120, \"658\": 71, \"659\": 144}","source":8,"target":9,"layer":"L","from":"Jernbanetorget","to":"Stortinget"},"geometry":{"type":"LineString","coordinates":[[10.7512,59.911857],[10.741821,59.913777]]}},{"type":"Feature","properties":{"shape_id":"{}","direction_id":"{\"1\": 528}","headsign":"{\"\": 528}","duration_avg":60.0,"n_vehicles":528,"d":513,"route_I_counts":"{\"655\": 69, \"656\": 123, \"657\": 122, \"658\": 70, \"659\": 144}","source":8,"target":7,"layer":"L","from":"Jernbanetorget","to":"Grønland"},"geometry":{"type":"LineString","coordinates":[[10.7512,59.911857],[10.760193,59.912815]]}},{"type":"Feature","properties":{"shape_id":"{}","direction_id":"{\"0\": 481}","headsign":"{\"\": 480, \"Sognsvann\": 1}","duration_avg":120.0,"n_vehicles":481,"d":585,"route_I_counts":"{\"655\": 71, \"656\": 122, \"657\": 73, \"658\": 71, \"659\": 144}","source":9,"target":10,"layer":"L","from":"Stortinget","to":"Nationaltheatret"},"geometry":{"type":"LineString","coordinates":[[10.741821,59.913777],[10.731952,59.91556]]}},{"type":"Feature","properties":{"shape_id":"{}","direction_id":"{\"1\": 528}","headsign":"{\"\": 528}","duration_avg":60.22727272727273,"n_vehicles":528,"d":565,"route_I_counts":"{\"655\": 69, \"656\": 123, \"657\": 122, \"658\": 70, \"659\": 144}","source":9,"target":8,"layer":"L","from":"Stortinget","to":"Jernbanetorget"},"geometry":{"type":"LineString","coordinates":[[10.741821,59.913777],[10.7512,59.911857]]}},{"type":"Feature","properties":{"shape_id":"{}","direction_id":"{\"0\": 480}","headsign":"{\"\": 479, \"Sognsvann\": 1}","duration_avg":180.0,"n_vehicles":480,"d":1901,"route_I_counts":"{\"655\": 71, \"656\": 122, \"657\": 73, \"658\": 71, \"659\": 143}","source":10,"target":11,"layer":"L","from":"Nationaltheatret","to":"Majorstuen"},"geometry":{"type":"LineString","coordinates":[[10.731952,59.91556],[10.714609,59.930264]]}},{"type":"Feature","properties":{"shape_id":"{}","direction_id":"{\"1\": 474}","headsign":"{\"\": 474}","duration_avg":119.74683544303798,"n_vehicles":474,"d":585,"route_I_counts":"{\"655\": 69, \"656\": 122, \"657\": 73, \"658\": 70, \"659\": 140}","source":10,"target":9,"layer":"L","from":"Nationaltheatret","to":"Stortinget"},"geometry":{"type":"LineString","coordinates":[[10.731952,59.91556],[10.741821,59.913777]]}},{"type":"Feature","properties":{"shape_id":"{}","direction_id":"{\"0\": 71}","headsign":"{\"\": 71}","duration_avg":60.0,"n_vehicles":71,"d":567,"route_I_counts":"{\"655\": 71}","source":11,"target":12,"layer":"L","from":"Majorstuen","to":"Frøen"},"geometry":{"type":"LineString","coordinates":[[10.714609,59.930264],[10.709267,59.9346]]}},{"type":"Feature","properties":{"shape_id":"{}","direction_id":"{\"1\": 475}","headsign":"{\"\": 475}","duration_avg":120.25263157894737,"n_vehicles":475,"d":1901,"route_I_counts":"{\"655\": 69, \"656\": 122, \"657\": 73, \"658\": 70, \"659\": 141}","source":11,"target":10,"layer":"L","from":"Majorstuen","to":"Nationaltheatret"},"geometry":{"type":"LineString","coordinates":[[10.714609,59.930264],[10.731952,59.91556]]}},{"type":"Feature","properties":{"shape_id":"{}","direction_id":"{\"0\": 195}","headsign":"{\"\": 195}","duration_avg":120.0,"n_vehicles":195,"d":1167,"route_I_counts":"{\"656\": 122, \"657\": 73}","source":11,"target":35,"layer":"L","from":"Majorstuen","to":"Borgen"},"geometry":{"type":"LineString","coordinates":[[10.714609,59.930264],[10.695577,59.934624]]}},{"type":"Feature","properties":{"shape_id":"{}","direction_id":"{\"0\": 214}","headsign":"{\"\": 213, \"Sognsvann\": 1}","duration_avg":120.2803738317757,"n_vehicles":214,"d":1091,"route_I_counts":"{\"658\": 71, \"659\": 143}","source":11,"target":73,"layer":"L","from":"Majorstuen","to":"Blindern"},"geometry":{"type":"LineString","coordinates":[[10.714609,59.930264],[10.715938,59.940046]]}},{"type":"Feature","properties":{"shape_id":"{}","direction_id":"{\"0\": 70}","headsign":"{\"\": 70}","duration_avg":120.0,"n_vehicles":70,"d":567,"route_I_counts":"{\"655\": 70}","source":12,"target":13,"layer":"L","from":"Frøen","to":"Steinerud"},"geometry":{"type":"LineString","coordinates":[[10.709267,59.9346],[10.70436,59.939064]]}},{"type":"Feature","properties":{"shape_id":"{}","direction_id":"{\"1\": 70}","headsign":"{\"\": 70}","duration_avg":120.0,"n_vehicles":70,"d":567,"route_I_counts":"{\"655\": 70}","source":12,"target":11,"layer":"L","from":"Frøen","to":"Majorstuen"},"geometry":{"type":"LineString","coordinates":[[10.709267,59.9346],[10.714609,59.930264]]}},{"type":"Feature","properties":{"shape_id":"{}","direction_id":"{\"0\": 70}","headsign":"{\"\": 70}","duration_avg":60.0,"n_vehicles":70,"d":375,"route_I_counts":"{\"655\": 70}","source":13,"target":14,"layer":"L","from":"Steinerud","to":"Vinderen"},"geometry":{"type":"LineString","coordinates":[[10.70436,59.939064],[10.704694,59.942437]]}},{"type":"Feature","properties":{"shape_id":"{}","direction_id":"{\"1\": 70}","headsign":"{\"\": 70}","duration_avg":120.0,"n_vehicles":70,"d":567,"route_I_counts":"{\"655\": 70}","source":13,"target":12,"layer":"L","from":"Steinerud","to":"Frøen"},"geometry":{"type":"LineString","coordinates":[[10.70436,59.939064],[10.709267,59.9346]]}},{"type":"Feature","properties":{"shape_id":"{}","direction_id":"{\"0\": 70}","headsign":"{\"\": 70}","duration_avg":60.0,"n_vehicles":70,"d":487,"route_I_counts":"{\"655\": 70}","source":14,"target":15,"layer":"L","from":"Vinderen","to":"Gaustad"},"geometry":{"type":"LineString","coordinates":[[10.704694,59.942437],[10.710116,59.94587]]}},{"type":"Feature","properties":{"shape_id":"{}","direction_id":"{\"1\": 70}","headsign":"{\"\": 70}","duration_avg":120.0,"n_vehicles":70,"d":375,"route_I_counts":"{\"655\": 70}","source":14,"target":13,"layer":"L","from":"Vinderen","to":"Steinerud"},"geometry":{"type":"LineString","coordinates":[[10.704694,59.942437],[10.70436,59.939064]]}},{"type":"Feature","properties":{"shape_id":"{}","direction_id":"{\"0\": 70}","headsign":"{\"\": 70}","duration_avg":60.0,"n_vehicles":70,"d":394,"route_I_counts":"{\"655\": 70}","source":15,"target":16,"layer":"L","from":"Gaustad","to":"Ris"},"geometry":{"type":"LineString","coordinates":[[10.710116,59.94587],[10.704534,59.948052]]}},{"type":"Feature","properties":{"shape_id":"{}","direction_id":"{\"1\": 70}","headsign":"{\"\": 70}","duration_avg":60.0,"n_vehicles":70,"d":487,"route_I_counts":"{\"655\": 70}","source":15,"target":14,"layer":"L","from":"Gaustad","to":"Vinderen"},"geometry":{"type":"LineString","coordinates":[[10.710116,59.94587],[10.704694,59.942437]]}},{"type":"Feature","properties":{"shape_id":"{}","direction_id":"{\"0\": 70}","headsign":"{\"\": 70}","duration_avg":120.0,"n_vehicles":70,"d":645,"route_I_counts":"{\"655\": 70}","source":16,"target":17,"layer":"L","from":"Ris","to":"Slemdal"},"geometry":{"type":"LineString","coordinates":[[10.704534,59.948052],[10.69442,59.950877]]}},{"type":"Feature","properties":{"shape_id":"{}","direction_id":"{\"1\": 70}","headsign":"{\"\": 70}","duration_avg":60.0,"n_vehicles":70,"d":394,"route_I_counts":"{\"655\": 70}","source":16,"target":15,"layer":"L","from":"Ris","to":"Gaustad"},"geometry":{"type":"LineString","coordinates":[[10.704534,59.948052],[10.710116,59.94587]]}},{"type":"Feature","properties":{"shape_id":"{}","direction_id":"{\"0\": 70}","headsign":"{\"\": 70}","duration_avg":120.0,"n_vehicles":70,"d":604,"route_I_counts":"{\"655\": 70}","source":17,"target":18,"layer":"L","from":"Slemdal","to":"Gråkammen"},"geometry":{"type":"LineString","coordinates":[[10.69442,59.950877],[10.701506,59.954989]]}},{"type":"Feature","properties":{"shape_id":"{}","direction_id":"{\"1\": 70}","headsign":"{\"\": 70}","duration_avg":120.0,"n_vehicles":70,"d":645,"route_I_counts":"{\"655\": 70}","source":17,"target":16,"layer":"L","from":"Slemdal","to":"Ris"},"geometry":{"type":"LineString","coordinates":[[10.69442,59.950877],[10.704534,59.948052]]}},{"type":"Feature","properties":{"shape_id":"{}","direction_id":"{\"0\": 70}","headsign":"{\"\": 70}","duration_avg":60.0,"n_vehicles":70,"d":291,"route_I_counts":"{\"655\": 70}","source":18,"target":19,"layer":"L","from":"Gråkammen","to":"Gulleråsen"},"geometry":{"type":"LineString","coordinates":[[10.701506,59.954989],[10.696534,59.955807]]}},{"type":"Feature","properties":{"shape_id":"{}","direction_id":"{\"1\": 70}","headsign":"{\"\": 70}","duration_avg":120.0,"n_vehicles":70,"d":604,"route_I_counts":"{\"655\": 70}","source":18,"target":17,"layer":"L","from":"Gråkammen","to":"Slemdal"},"geometry":{"type":"LineString","coordinates":[[10.701506,59.954989],[10.69442,59.950877]]}},{"type":"Feature","properties":{"shape_id":"{}","direction_id":"{\"0\": 70}","headsign":"{\"\": 70}","duration_avg":120.0,"n_vehicles":70,"d":457,"route_I_counts":"{\"655\": 70}","source":19,"target":20,"layer":"L","from":"Gulleråsen","to":"Vettakollen"},"geometry":{"type":"LineString","coordinates":[[10.696534,59.955807],[10.695704,59.959896]]}},{"type":"Feature","properties":{"shape_id":"{}","direction_id":"{\"0\": 70}","headsign":"{\"\": 70}","duration_avg":60.0,"n_vehicles":70,"d":345,"route_I_counts":"{\"655\": 70}","source":20,"target":21,"layer":"L","from":"Vettakollen","to":"Skådalen"},"geometry":{"type":"LineString","coordinates":[[10.695704,59.959896],[10.690785,59.961782]]}},{"type":"Feature","properties":{"shape_id":"{}","direction_id":"{\"1\": 70}","headsign":"{\"\": 70}","duration_avg":120.0,"n_vehicles":70,"d":634,"route_I_counts":"{\"655\": 70}","source":20,"target":18,"layer":"L","from":"Vettakollen","to":"Gråkammen"},"geometry":{"type":"LineString","coordinates":[[10.695704,59.959896],[10.701506,59.954989]]}},{"type":"Feature","properties":{"shape_id":"{}","direction_id":"{\"0\": 70}","headsign":"{\"\": 70}","duration_avg":60.0,"n_vehicles":70,"d":436,"route_I_counts":"{\"655\": 70}","source":21,"target":22,"layer":"L","from":"Skådalen","to":"Midtstuen"},"geometry":{"type":"LineString","coordinates":[[10.690785,59.961782],[10.683006,59.961316]]}},{"type":"Feature","properties":{"shape_id":"{}","direction_id":"{\"1\": 70}","headsign":"{\"\": 70}","duration_avg":60.0,"n_vehicles":70,"d":345,"route_I_counts":"{\"655\": 70}","source":21,"target":20,"layer":"L","from":"Skådalen","to":"Vettakollen"},"geometry":{"type":"LineString","coordinates":[[10.690785,59.961782],[10.695704,59.959896]]}},{"type":"Feature","properties":{"shape_id":"{}","direction_id":"{\"0\": 69}","headsign":"{\"\": 69}","duration_avg":120.0,"n_vehicles":69,"d":642,"route_I_counts":"{\"655\": 69}","source":22,"target":23,"layer":"L","from":"Midtstuen","to":"Besserud"},"geometry":{"type":"LineString","coordinates":[[10.683006,59.961316],[10.673821,59.957831]]}},{"type":"Feature","properties":{"shape_id":"{}","direction_id":"{\"1\": 71}","headsign":"{\"\": 71}","duration_avg":60.0,"n_vehicles":71,"d":436,"route_I_counts":"{\"655\": 71}","source":22,"target":21,"layer":"L","from":"Midtstuen","to":"Skådalen"},"geometry":{"type":"LineString","coordinates":[[10.683006,59.961316],[10.690785,59.961782]]}},{"type":"Feature","properties":{"shape_id":"{}","direction_id":"{\"0\": 69}","headsign":"{\"\": 69}","duration_avg":180.0,"n_vehicles":69,"d":656,"route_I_counts":"{\"655\": 69}","source":23,"target":24,"layer":"L","from":"Besserud","to":"Holmenkollen"},"geometry":{"type":"LineString","coordinates":[[10.673821,59.957831],[10.663109,59.960293]]}},{"type":"Feature","properties":{"shape_id":"{}","direction_id":"{\"1\": 71}","headsign":"{\"\": 71}","duration_avg":120.0,"n_vehicles":71,"d":642,"route_I_counts":"{\"655\": 71}","source":23,"target":22,"layer":"L","from":"Besserud","to":"Midtstuen"},"geometry":{"type":"LineString","coordinates":[[10.673821,59.957831],[10.683006,59.961316]]}},{"type":"Feature","properties":{"shape_id":"{}","direction_id":"{\"0\": 69}","headsign":"{\"\": 69}","duration_avg":120.0,"n_vehicles":69,"d":865,"route_I_counts":"{\"655\": 69}","source":24,"target":25,"layer":"L","from":"Holmenkollen","to":"Voksenlia"},"geometry":{"type":"LineString","coordinates":[[10.663109,59.960293],[10.654895,59.966889]]}},{"type":"Feature","properties":{"shape_id":"{}","direction_id":"{\"1\": 71}","headsign":"{\"\": 71}","duration_avg":120.0,"n_vehicles":71,"d":656,"route_I_counts":"{\"655\": 71}","source":24,"target":23,"layer":"L","from":"Holmenkollen","to":"Besserud"},"geometry":{"type":"LineString","coordinates":[[10.663109,59.960293],[10.673821,59.957831]]}},{"type":"Feature","properties":{"shape_id":"{}","direction_id":"{\"0\": 69}","headsign":"{\"\": 69}","duration_avg":180.0,"n_vehicles":69,"d":1013,"route_I_counts":"{\"655\": 69}","source":25,"target":26,"layer":"L","from":"Voksenlia","to":"Skogen"},"geometry":{"type":"LineString","coordinates":[[10.654895,59.966889],[10.647497,59.975209]]}},{"type":"Feature","properties":{"shape_id":"{}","direction_id":"{\"1\": 68}","headsign":"{\"\": 68}","duration_avg":180.0,"n_vehicles":68,"d":865,"route_I_counts":"{\"655\": 68}","source":25,"target":24,"layer":"L","from":"Voksenlia","to":"Holmenkollen"},"geometry":{"type":"LineString","coordinates":[[10.654895,59.966889],[10.663109,59.960293]]}},{"type":"Feature","properties":{"shape_id":"{}","direction_id":"{\"0\": 69}","headsign":"{\"\": 69}","duration_avg":120.0,"n_vehicles":69,"d":664,"route_I_counts":"{\"655\": 69}","source":26,"target":27,"layer":"L","from":"Skogen","to":"Lillevann"},"geometry":{"type":"LineString","coordinates":[[10.647497,59.975209],[10.652905,59.98053]]}},{"type":"Feature","properties":{"shape_id":"{}","direction_id":"{\"1\": 68}","headsign":"{\"\": 68}","duration_avg":120.0,"n_vehicles":68,"d":1013,"route_I_counts":"{\"655\": 68}","source":26,"target":25,"layer":"L","from":"Skogen","to":"Voksenlia"},"geometry":{"type":"LineString","coordinates":[[10.647497,59.975209],[10.654895,59.966889]]}},{"type":"Feature","properties":{"shape_id":"{}","direction_id":"{\"0\": 69}","headsign":"{\"\": 69}","duration_avg":120.0,"n_vehicles":69,"d":692,"route_I_counts":"{\"655\": 69}","source":27,"target":28,"layer":"L","from":"Lillevann","to":"Voksenkollen"},"geometry":{"type":"LineString","coordinates":[[10.652905,59.98053],[10.665301,59.98006]]}},{"type":"Feature","properties":{"shape_id":"{}","direction_id":"{\"1\": 68}","headsign":"{\"\": 68}","duration_avg":180.0,"n_vehicles":68,"d":664,"route_I_counts":"{\"655\": 68}","source":27,"target":26,"layer":"L","from":"Lillevann","to":"Skogen"},"geometry":{"type":"LineString","coordinates":[[10.652905,59.98053],[10.647497,59.975209]]}},{"type":"Feature","properties":{"shape_id":"{}","direction_id":"{\"0\": 69}","headsign":"{\"\": 69}","duration_avg":120.0,"n_vehicles":69,"d":617,"route_I_counts":"{\"655\": 69}","source":28,"target":29,"layer":"L","from":"Voksenkollen","to":"Frognerseteren"},"geometry":{"type":"LineString","coordinates":[[10.665301,59.98006],[10.67622,59.979086]]}},{"type":"Feature","properties":{"shape_id":"{}","direction_id":"{\"1\": 68}","headsign":"{\"\": 68}","duration_avg":120.0,"n_vehicles":68,"d":692,"route_I_counts":"{\"655\": 68}","source":28,"target":27,"layer":"L","from":"Voksenkollen","to":"Lillevann"},"geometry":{"type":"LineString","coordinates":[[10.665301,59.98006],[10.652905,59.98053]]}},{"type":"Feature","properties":{"shape_id":"{}","direction_id":"{\"1\": 69}","headsign":"{\"\": 69}","duration_avg":60.0,"n_vehicles":69,"d":617,"route_I_counts":"{\"655\": 69}","source":29,"target":28,"layer":"L","from":"Frognerseteren","to":"Voksenkollen"},"geometry":{"type":"LineString","coordinates":[[10.67622,59.979086],[10.665301,59.98006]]}},{"type":"Feature","properties":{"shape_id":"{}","direction_id":"{\"1\": 120}","headsign":"{\"\": 120}","duration_avg":120.0,"n_vehicles":120,"d":854,"route_I_counts":"{\"655\": 51, \"658\": 69}","source":30,"target":31,"layer":"L","from":"Brattlikollen","to":"Karlsrud"},"geometry":{"type":"LineString","coordinates":[[10.801024,59.887366],[10.805631,59.880046]]}},{"type":"Feature","properties":{"shape_id":"{}","direction_id":"{\"0\": 121}","headsign":"{\"\": 121}","duration_avg":120.0,"n_vehicles":121,"d":975,"route_I_counts":"{\"655\": 50, \"658\": 71}","source":30,"target":0,"layer":"L","from":"Brattlikollen","to":"Ryen"},"geometry":{"type":"LineString","coordinates":[[10.801024,59.887366],[10.805629,59.895818]]}},{"type":"Feature","properties":{"shape_id":"{}","direction_id":"{\"1\": 120}","headsign":"{\"\": 120}","duration_avg":63.0,"n_vehicles":120,"d":796,"route_I_counts":"{\"655\": 51, \"658\": 69}","source":31,"target":32,"layer":"L","from":"Karlsrud","to":"Lambertseter"},"geometry":{"type":"LineString","coordinates":[[10.805631,59.880046],[10.810393,59.873298]]}},{"type":"Feature","properties":{"shape_id":"{}","direction_id":"{\"0\": 121}","headsign":"{\"\": 121}","duration_avg":60.0,"n_vehicles":121,"d":854,"route_I_counts":"{\"655\": 50, \"658\": 71}","source":31,"target":30,"layer":"L","from":"Karlsrud","to":"Brattlikollen"},"geometry":{"type":"LineString","coordinates":[[10.805631,59.880046],[10.801024,59.887366]]}},{"type":"Feature","properties":{"shape_id":"{}","direction_id":"{\"1\": 119}","headsign":"{\"\": 119}","duration_avg":60.0,"n_vehicles":119,"d":549,"route_I_counts":"{\"655\": 51, \"658\": 68}","source":32,"target":33,"layer":"L","from":"Lambertseter","to":"Munkelia"},"geometry":{"type":"LineString","coordinates":[[10.810393,59.873298],[10.81292,59.86853]]}},{"type":"Feature","properties":{"shape_id":"{}","direction_id":"{\"0\": 122}","headsign":"{\"\": 122}","duration_avg":120.0,"n_vehicles":122,"d":796,"route_I_counts":"{\"655\": 50, \"658\": 72}","source":32,"target":31,"layer":"L","from":"Lambertseter","to":"Karlsrud"},"geometry":{"type":"LineString","coordinates":[[10.810393,59.873298],[10.805631,59.880046]]}},{"type":"Feature","properties":{"shape_id":"{}","direction_id":"{\"1\": 119}","headsign":"{\"\": 119}","duration_avg":91.76470588235294,"n_vehicles":119,"d":492,"route_I_counts":"{\"655\": 51, \"658\": 68}","source":33,"target":34,"layer":"L","from":"Munkelia","to":"Bergkrystallen"},"geometry":{"type":"LineString","coordinates":[[10.81292,59.86853],[10.821274,59.867121]]}},{"type":"Feature","properties":{"shape_id":"{}","direction_id":"{\"0\": 122}","headsign":"{\"\": 122}","duration_avg":60.0,"n_vehicles":122,"d":549,"route_I_counts":"{\"655\": 50, \"658\": 72}","source":33,"target":32,"layer":"L","from":"Munkelia","to":"Lambertseter"},"geometry":{"type":"LineString","coordinates":[[10.81292,59.86853],[10.810393,59.873298]]}},{"type":"Feature","properties":{"shape_id":"{}","direction_id":"{\"0\": 122}","headsign":"{\"\": 122}","duration_avg":60.0,"n_vehicles":122,"d":492,"route_I_counts":"{\"655\": 50, \"658\": 72}","source":34,"target":33,"layer":"L","from":"Bergkrystallen","to":"Munkelia"},"geometry":{"type":"LineString","coordinates":[[10.821274,59.867121],[10.81292,59.86853]]}},{"type":"Feature","properties":{"shape_id":"{}","direction_id":"{\"0\": 195}","headsign":"{\"\": 195}","duration_avg":120.0,"n_vehicles":195,"d":690,"route_I_counts":"{\"656\": 122, \"657\": 73}","source":35,"target":36,"layer":"L","from":"Borgen","to":"Smestad"},"geometry":{"type":"LineString","coordinates":[[10.695577,59.934624],[10.684288,59.937176]]}},{"type":"Feature","properties":{"shape_id":"{}","direction_id":"{\"1\": 195}","headsign":"{\"\": 195}","duration_avg":180.0,"n_vehicles":195,"d":1167,"route_I_counts":"{\"656\": 122, \"657\": 73}","source":35,"target":11,"layer":"L","from":"Borgen","to":"Majorstuen"},"geometry":{"type":"LineString","coordinates":[[10.695577,59.934624],[10.714609,59.930264]]}},{"type":"Feature","properties":{"shape_id":"{}","direction_id":"{\"0\": 122}","headsign":"{\"\": 122}","duration_avg":60.0,"n_vehicles":122,"d":774,"route_I_counts":"{\"656\": 122}","source":36,"target":37,"layer":"L","from":"Smestad","to":"Makrellbekken"},"geometry":{"type":"LineString","coordinates":[[10.684288,59.937176],[10.673815,59.941746]]}},{"type":"Feature","properties":{"shape_id":"{}","direction_id":"{\"1\": 195}","headsign":"{\"\": 195}","duration_avg":60.0,"n_vehicles":195,"d":690,"route_I_counts":"{\"656\": 122, \"657\": 73}","source":36,"target":35,"layer":"L","from":"Smestad","to":"Borgen"},"geometry":{"type":"LineString","coordinates":[[10.684288,59.937176],[10.695577,59.934624]]}},{"type":"Feature","properties":{"shape_id":"{}","direction_id":"{\"0\": 73}","headsign":"{\"\": 73}","duration_avg":120.0,"n_vehicles":73,"d":1094,"route_I_counts":"{\"657\": 73}","source":36,"target":61,"layer":"L","from":"Smestad","to":"Montebello"},"geometry":{"type":"LineString","coordinates":[[10.684288,59.937176],[10.665513,59.934325]]}},{"type":"Feature","properties":{"shape_id":"{}","direction_id":"{\"0\": 122}","headsign":"{\"\": 122}","duration_avg":60.0,"n_vehicles":122,"d":568,"route_I_counts":"{\"656\": 122}","source":37,"target":38,"layer":"L","from":"Makrellbekken","to":"Holmen"},"geometry":{"type":"LineString","coordinates":[[10.673815,59.941746],[10.667756,59.945855]]}},{"type":"Feature","properties":{"shape_id":"{}","direction_id":"{\"1\": 122}","headsign":"{\"\": 122}","duration_avg":120.0,"n_vehicles":122,"d":774,"route_I_counts":"{\"656\": 122}","source":37,"target":36,"layer":"L","from":"Makrellbekken","to":"Smestad"},"geometry":{"type":"LineString","coordinates":[[10.673815,59.941746],[10.684288,59.937176]]}},{"type":"Feature","properties":{"shape_id":"{}","direction_id":"{\"0\": 121}","headsign":"{\"\": 121}","duration_avg":120.0,"n_vehicles":121,"d":717,"route_I_counts":"{\"656\": 121}","source":38,"target":39,"layer":"L","from":"Holmen","to":"Hovseter"},"geometry":{"type":"LineString","coordinates":[[10.667756,59.945855],[10.654928,59.946376]]}},{"type":"Feature","properties":{"shape_id":"{}","direction_id":"{\"1\": 122}","headsign":"{\"\": 122}","duration_avg":60.0,"n_vehicles":122,"d":568,"route_I_counts":"{\"656\": 122}","source":38,"target":37,"layer":"L","from":"Holmen","to":"Makrellbekken"},"geometry":{"type":"LineString","coordinates":[[10.667756,59.945855],[10.673815,59.941746]]}},{"type":"Feature","properties":{"shape_id":"{}","direction_id":"{\"0\": 121}","headsign":"{\"\": 121}","duration_avg":60.0,"n_vehicles":121,"d":584,"route_I_counts":"{\"656\": 121}","source":39,"target":40,"layer":"L","from":"Hovseter","to":"Røa"},"geometry":{"type":"LineString","coordinates":[[10.654928,59.946376],[10.64447,59.946677]]}},{"type":"Feature","properties":{"shape_id":"{}","direction_id":"{\"1\": 122}","headsign":"{\"\": 122}","duration_avg":120.0,"n_vehicles":122,"d":717,"route_I_counts":"{\"656\": 122}","source":39,"target":38,"layer":"L","from":"Hovseter","to":"Holmen"},"geometry":{"type":"LineString","coordinates":[[10.654928,59.946376],[10.667756,59.945855]]}},{"type":"Feature","properties":{"shape_id":"{}","direction_id":"{\"0\": 121}","headsign":"{\"\": 121}","duration_avg":60.0,"n_vehicles":121,"d":573,"route_I_counts":"{\"656\": 121}","source":40,"target":41,"layer":"L","from":"Røa","to":"Ekraveien"},"geometry":{"type":"LineString","coordinates":[[10.64447,59.946677],[10.637128,59.95028]]}},{"type":"Feature","properties":{"shape_id":"{}","direction_id":"{\"1\": 122}","headsign":"{\"\": 122}","duration_avg":120.0,"n_vehicles":122,"d":584,"route_I_counts":"{\"656\": 122}","source":40,"target":39,"layer":"L","from":"Røa","to":"Hovseter"},"geometry":{"type":"LineString","coordinates":[[10.64447,59.946677],[10.654928,59.946376]]}},{"type":"Feature","properties":{"shape_id":"{}","direction_id":"{\"0\": 121}","headsign":"{\"\": 121}","duration_avg":120.0,"n_vehicles":121,"d":866,"route_I_counts":"{\"656\": 121}","source":41,"target":42,"layer":"L","from":"Ekraveien","to":"Eiksmarka"},"geometry":{"type":"LineString","coordinates":[[10.637128,59.95028],[10.623072,59.94696]]}},{"type":"Feature","properties":{"shape_id":"{}","direction_id":"{\"1\": 122}","headsign":"{\"\": 122}","duration_avg":60.0,"n_vehicles":122,"d":573,"route_I_counts":"{\"656\": 122}","source":41,"target":40,"layer":"L","from":"Ekraveien","to":"Røa"},"geometry":{"type":"LineString","coordinates":[[10.637128,59.95028],[10.64447,59.946677]]}},{"type":"Feature","properties":{"shape_id":"{}","direction_id":"{\"0\": 121}","headsign":"{\"\": 121}","duration_avg":120.0,"n_vehicles":121,"d":759,"route_I_counts":"{\"656\": 121}","source":42,"target":43,"layer":"L","from":"Eiksmarka","to":"Lijordet"},"geometry":{"type":"LineString","coordinates":[[10.623072,59.94696],[10.616514,59.940978]]}},{"type":"Feature","properties":{"shape_id":"{}","direction_id":"{\"1\": 122}","headsign":"{\"\": 122}","duration_avg":120.0,"n_vehicles":122,"d":866,"route_I_counts":"{\"656\": 122}","source":42,"target":41,"layer":"L","from":"Eiksmarka","to":"Ekraveien"},"geometry":{"type":"LineString","coordinates":[[10.623072,59.94696],[10.637128,59.95028]]}},{"type":"Feature","properties":{"shape_id":"{}","direction_id":"{\"0\": 121}","headsign":"{\"\": 121}","duration_avg":60.0,"n_vehicles":121,"d":429,"route_I_counts":"{\"656\": 121}","source":43,"target":44,"layer":"L","from":"Lijordet","to":"Østerås"},"geometry":{"type":"LineString","coordinates":[[10.616514,59.940978],[10.609509,59.939367]]}},{"type":"Feature","properties":{"shape_id":"{}","direction_id":"{\"1\": 122}","headsign":"{\"\": 122}","duration_avg":60.0,"n_vehicles":122,"d":759,"route_I_counts":"{\"656\": 122}","source":43,"target":42,"layer":"L","from":"Lijordet","to":"Eiksmarka"},"geometry":{"type":"LineString","coordinates":[[10.616514,59.940978],[10.623072,59.94696]]}},{"type":"Feature","properties":{"shape_id":"{}","direction_id":"{\"1\": 122}","headsign":"{\"\": 122}","duration_avg":60.0,"n_vehicles":122,"d":429,"route_I_counts":"{\"656\": 122}","source":44,"target":43,"layer":"L","from":"Østerås","to":"Lijordet"},"geometry":{"type":"LineString","coordinates":[[10.609509,59.939367],[10.616514,59.940978]]}},{"type":"Feature","properties":{"shape_id":"{}","direction_id":"{\"1\": 119}","headsign":"{\"\": 119}","duration_avg":60.0,"n_vehicles":119,"d":732,"route_I_counts":"{\"656\": 119}","source":45,"target":46,"layer":"L","from":"Hellerud","to":"Tveita"},"geometry":{"type":"LineString","coordinates":[[10.830784,59.910147],[10.841631,59.913858]]}},{"type":"Feature","properties":{"shape_id":"{}","direction_id":"{\"0\": 241}","headsign":"{\"\": 241}","duration_avg":120.0,"n_vehicles":241,"d":1002,"route_I_counts":"{\"656\": 121, \"657\": 120}","source":45,"target":3,"layer":"L","from":"Hellerud","to":"Brynseng"},"geometry":{"type":"LineString","coordinates":[[10.830784,59.910147],[10.812933,59.909127]]}},{"type":"Feature","properties":{"shape_id":"{}","direction_id":"{\"1\": 122}","headsign":"{\"\": 122}","duration_avg":60.0,"n_vehicles":122,"d":439,"route_I_counts":"{\"657\": 122}","source":45,"target":62,"layer":"L","from":"Hellerud","to":"Godlia"},"geometry":{"type":"LineString","coordinates":[[10.830784,59.910147],[10.83592,59.90715]]}},{"type":"Feature","properties":{"shape_id":"{}","direction_id":"{\"1\": 119}","headsign":"{\"\": 119}","duration_avg":120.0,"n_vehicles":119,"d":1219,"route_I_counts":"{\"656\": 119}","source":46,"target":47,"layer":"L","from":"Tveita","to":"Haugerud"},"geometry":{"type":"LineString","coordinates":[[10.841631,59.913858],[10.854923,59.922554]]}},{"type":"Feature","properties":{"shape_id":"{}","direction_id":"{\"0\": 120}","headsign":"{\"\": 120}","duration_avg":180.0,"n_vehicles":120,"d":732,"route_I_counts":"{\"656\": 120}","source":46,"target":45,"layer":"L","from":"Tveita","to":"Hellerud"},"geometry":{"type":"LineString","coordinates":[[10.841631,59.913858],[10.830784,59.910147]]}},{"type":"Feature","properties":{"shape_id":"{}","direction_id":"{\"1\": 119}","headsign":"{\"\": 119}","duration_avg":120.0,"n_vehicles":119,"d":723,"route_I_counts":"{\"656\": 119}","source":47,"target":48,"layer":"L","from":"Haugerud","to":"Trosterud"},"geometry":{"type":"LineString","coordinates":[[10.854923,59.922554],[10.864195,59.927103]]}},{"type":"Feature","properties":{"shape_id":"{}","direction_id":"{\"0\": 120}","headsign":"{\"\": 120}","duration_avg":60.0,"n_vehicles":120,"d":1219,"route_I_counts":"{\"656\": 120}","source":47,"target":46,"layer":"L","from":"Haugerud","to":"Tveita"},"geometry":{"type":"LineString","coordinates":[[10.854923,59.922554],[10.841631,59.913858]]}},{"type":"Feature","properties":{"shape_id":"{}","direction_id":"{\"1\": 119}","headsign":"{\"\": 119}","duration_avg":120.0,"n_vehicles":119,"d":1191,"route_I_counts":"{\"656\": 119}","source":48,"target":49,"layer":"L","from":"Trosterud","to":"Lindeberg"},"geometry":{"type":"LineString","coordinates":[[10.864195,59.927103],[10.882149,59.932901]]}},{"type":"Feature","properties":{"shape_id":"{}","direction_id":"{\"0\": 120}","headsign":"{\"\": 120}","duration_avg":120.0,"n_vehicles":120,"d":723,"route_I_counts":"{\"656\": 120}","source":48,"target":47,"layer":"L","from":"Trosterud","to":"Haugerud"},"geometry":{"type":"LineString","coordinates":[[10.864195,59.927103],[10.854923,59.922554]]}},{"type":"Feature","properties":{"shape_id":"{}","direction_id":"{\"1\": 119}","headsign":"{\"\": 119}","duration_avg":120.0,"n_vehicles":119,"d":1263,"route_I_counts":"{\"656\": 119}","source":49,"target":50,"layer":"L","from":"Lindeberg","to":"Furuset"},"geometry":{"type":"LineString","coordinates":[[10.882149,59.932901],[10.897044,59.941454]]}},{"type":"Feature","properties":{"shape_id":"{}","direction_id":"{\"0\": 120}","headsign":"{\"\": 120}","duration_avg":120.0,"n_vehicles":120,"d":1191,"route_I_counts":"{\"656\": 120}","source":49,"target":48,"layer":"L","from":"Lindeberg","to":"Trosterud"},"geometry":{"type":"LineString","coordinates":[[10.882149,59.932901],[10.864195,59.927103]]}},{"type":"Feature","properties":{"shape_id":"{}","direction_id":"{\"1\": 118}","headsign":"{\"\": 118}","duration_avg":120.0,"n_vehicles":118,"d":1223,"route_I_counts":"{\"656\": 118}","source":50,"target":51,"layer":"L","from":"Furuset","to":"Ellingsrudåsen"},"geometry":{"type":"LineString","coordinates":[[10.897044,59.941454],[10.916629,59.936501]]}},{"type":"Feature","properties":{"shape_id":"{}","direction_id":"{\"0\": 121}","headsign":"{\"\": 121}","duration_avg":60.0,"n_vehicles":121,"d":1263,"route_I_counts":"{\"656\": 121}","source":50,"target":49,"layer":"L","from":"Furuset","to":"Lindeberg"},"geometry":{"type":"LineString","coordinates":[[10.897044,59.941454],[10.882149,59.932901]]}},{"type":"Feature","properties":{"shape_id":"{}","direction_id":"{\"0\": 121}","headsign":"{\"\": 121}","duration_avg":120.0,"n_vehicles":121,"d":1223,"route_I_counts":"{\"656\": 121}","source":51,"target":50,"layer":"L","from":"Ellingsrudåsen","to":"Furuset"},"geometry":{"type":"LineString","coordinates":[[10.916629,59.936501],[10.897044,59.941454]]}},{"type":"Feature","properties":{"shape_id":"{}","direction_id":"{\"1\": 74}","headsign":"{\"\": 74}","duration_avg":60.0,"n_vehicles":74,"d":779,"route_I_counts":"{\"657\": 74}","source":52,"target":53,"layer":"L","from":"Avløs","to":"Haslum"},"geometry":{"type":"LineString","coordinates":[[10.548359,59.913102],[10.56184,59.914937]]}},{"type":"Feature","properties":{"shape_id":"{}","direction_id":"{\"0\": 69}","headsign":"{\"\": 69}","duration_avg":120.0,"n_vehicles":69,"d":1073,"route_I_counts":"{\"657\": 69}","source":52,"target":70,"layer":"L","from":"Avløs","to":"Gjettum"},"geometry":{"type":"LineString","coordinates":[[10.548359,59.913102],[10.531254,59.908685]]}},{"type":"Feature","properties":{"shape_id":"{}","direction_id":"{\"1\": 74}","headsign":"{\"\": 74}","duration_avg":120.0,"n_vehicles":74,"d":1100,"route_I_counts":"{\"657\": 74}","source":53,"target":54,"layer":"L","from":"Haslum","to":"Gjønnes"},"geometry":{"type":"LineString","coordinates":[[10.56184,59.914937],[10.581551,59.914576]]}},{"type":"Feature","properties":{"shape_id":"{}","direction_id":"{\"0\": 72}","headsign":"{\"\": 72}","duration_avg":120.0,"n_vehicles":72,"d":779,"route_I_counts":"{\"657\": 72}","source":53,"target":52,"layer":"L","from":"Haslum","to":"Avløs"},"geometry":{"type":"LineString","coordinates":[[10.56184,59.914937],[10.548359,59.913102]]}},{"type":"Feature","properties":{"shape_id":"{}","direction_id":"{\"1\": 74}","headsign":"{\"\": 74}","duration_avg":60.0,"n_vehicles":74,"d":519,"route_I_counts":"{\"657\": 74}","source":54,"target":55,"layer":"L","from":"Gjønnes","to":"Bekkestua"},"geometry":{"type":"LineString","coordinates":[[10.581551,59.914576],[10.589433,59.917068]]}},{"type":"Feature","properties":{"shape_id":"{}","direction_id":"{\"0\": 72}","headsign":"{\"\": 72}","duration_avg":120.0,"n_vehicles":72,"d":1100,"route_I_counts":"{\"657\": 72}","source":54,"target":53,"layer":"L","from":"Gjønnes","to":"Haslum"},"geometry":{"type":"LineString","coordinates":[[10.581551,59.914576],[10.56184,59.914937]]}},{"type":"Feature","properties":{"shape_id":"{}","direction_id":"{\"1\": 74}","headsign":"{\"\": 74}","duration_avg":60.0,"n_vehicles":74,"d":899,"route_I_counts":"{\"657\": 74}","source":55,"target":56,"layer":"L","from":"Bekkestua","to":"Ringstabekk"},"geometry":{"type":"LineString","coordinates":[[10.589433,59.917068],[10.604355,59.920129]]}},{"type":"Feature","properties":{"shape_id":"{}","direction_id":"{\"0\": 72}","headsign":"{\"\": 72}","duration_avg":60.0,"n_vehicles":72,"d":519,"route_I_counts":"{\"657\": 72}","source":55,"target":54,"layer":"L","from":"Bekkestua","to":"Gjønnes"},"geometry":{"type":"LineString","coordinates":[[10.589433,59.917068],[10.581551,59.914576]]}},{"type":"Feature","properties":{"shape_id":"{}","direction_id":"{\"1\": 74}","headsign":"{\"\": 74}","duration_avg":120.0,"n_vehicles":74,"d":1079,"route_I_counts":"{\"657\": 74}","source":56,"target":57,"layer":"L","from":"Ringstabekk","to":"Jar"},"geometry":{"type":"LineString","coordinates":[[10.604355,59.920129],[10.619376,59.926241]]}},{"type":"Feature","properties":{"shape_id":"{}","direction_id":"{\"0\": 72}","headsign":"{\"\": 72}","duration_avg":120.0,"n_vehicles":72,"d":899,"route_I_counts":"{\"657\": 72}","source":56,"target":55,"layer":"L","from":"Ringstabekk","to":"Bekkestua"},"geometry":{"type":"LineString","coordinates":[[10.604355,59.920129],[10.589433,59.917068]]}},{"type":"Feature","properties":{"shape_id":"{}","direction_id":"{\"1\": 74}","headsign":"{\"\": 74}","duration_avg":180.0,"n_vehicles":74,"d":812,"route_I_counts":"{\"657\": 74}","source":57,"target":58,"layer":"L","from":"Jar","to":"Bjørnsletta"},"geometry":{"type":"LineString","coordinates":[[10.619376,59.926241],[10.633937,59.926187]]}},{"type":"Feature","properties":{"shape_id":"{}","direction_id":"{\"0\": 72}","headsign":"{\"\": 72}","duration_avg":120.0,"n_vehicles":72,"d":1079,"route_I_counts":"{\"657\": 72}","source":57,"target":56,"layer":"L","from":"Jar","to":"Ringstabekk"},"geometry":{"type":"LineString","coordinates":[[10.619376,59.926241],[10.604355,59.920129]]}},{"type":"Feature","properties":{"shape_id":"{}","direction_id":"{\"1\": 73}","headsign":"{\"\": 73}","duration_avg":60.0,"n_vehicles":73,"d":765,"route_I_counts":"{\"657\": 73}","source":58,"target":59,"layer":"L","from":"Bjørnsletta","to":"Åsjordet"},"geometry":{"type":"LineString","coordinates":[[10.633937,59.926187],[10.646644,59.928795]]}},{"type":"Feature","properties":{"shape_id":"{}","direction_id":"{\"0\": 72}","headsign":"{\"\": 72}","duration_avg":120.0,"n_vehicles":72,"d":812,"route_I_counts":"{\"657\": 72}","source":58,"target":57,"layer":"L","from":"Bjørnsletta","to":"Jar"},"geometry":{"type":"LineString","coordinates":[[10.633937,59.926187],[10.619376,59.926241]]}},{"type":"Feature","properties":{"shape_id":"{}","direction_id":"{\"1\": 73}","headsign":"{\"\": 73}","duration_avg":60.0,"n_vehicles":73,"d":574,"route_I_counts":"{\"657\": 73}","source":59,"target":60,"layer":"L","from":"Åsjordet","to":"Ullernåsen"},"geometry":{"type":"LineString","coordinates":[[10.646644,59.928795],[10.655764,59.931187]]}},{"type":"Feature","properties":{"shape_id":"{}","direction_id":"{\"0\": 73}","headsign":"{\"\": 73}","duration_avg":60.0,"n_vehicles":73,"d":765,"route_I_counts":"{\"657\": 73}","source":59,"target":58,"layer":"L","from":"Åsjordet","to":"Bjørnsletta"},"geometry":{"type":"LineString","coordinates":[[10.646644,59.928795],[10.633937,59.926187]]}},{"type":"Feature","properties":{"shape_id":"{}","direction_id":"{\"1\": 73}","headsign":"{\"\": 73}","duration_avg":120.0,"n_vehicles":73,"d":646,"route_I_counts":"{\"657\": 73}","source":60,"target":61,"layer":"L","from":"Ullernåsen","to":"Montebello"},"geometry":{"type":"LineString","coordinates":[[10.655764,59.931187],[10.665513,59.934325]]}},{"type":"Feature","properties":{"shape_id":"{}","direction_id":"{\"0\": 73}","headsign":"{\"\": 73}","duration_avg":60.0,"n_vehicles":73,"d":574,"route_I_counts":"{\"657\": 73}","source":60,"target":59,"layer":"L","from":"Ullernåsen","to":"Åsjordet"},"geometry":{"type":"LineString","coordinates":[[10.655764,59.931187],[10.646644,59.928795]]}},{"type":"Feature","properties":{"shape_id":"{}","direction_id":"{\"1\": 73}","headsign":"{\"\": 73}","duration_avg":180.0,"n_vehicles":73,"d":1094,"route_I_counts":"{\"657\": 73}","source":61,"target":36,"layer":"L","from":"Montebello","to":"Smestad"},"geometry":{"type":"LineString","coordinates":[[10.665513,59.934325],[10.684288,59.937176]]}},{"type":"Feature","properties":{"shape_id":"{}","direction_id":"{\"0\": 73}","headsign":"{\"\": 73}","duration_avg":120.0,"n_vehicles":73,"d":646,"route_I_counts":"{\"657\": 73}","source":61,"target":60,"layer":"L","from":"Montebello","to":"Ullernåsen"},"geometry":{"type":"LineString","coordinates":[[10.665513,59.934325],[10.655764,59.931187]]}},{"type":"Feature","properties":{"shape_id":"{}","direction_id":"{\"1\": 122}","headsign":"{\"\": 122}","duration_avg":120.0,"n_vehicles":122,"d":897,"route_I_counts":"{\"657\": 122}","source":62,"target":63,"layer":"L","from":"Godlia","to":"Skøyenåsen"},"geometry":{"type":"LineString","coordinates":[[10.83592,59.90715],[10.836648,59.899098]]}},{"type":"Feature","properties":{"shape_id":"{}","direction_id":"{\"0\": 120}","headsign":"{\"\": 120}","duration_avg":60.0,"n_vehicles":120,"d":439,"route_I_counts":"{\"657\": 120}","source":62,"target":45,"layer":"L","from":"Godlia","to":"Hellerud"},"geometry":{"type":"LineString","coordinates":[[10.83592,59.90715],[10.830784,59.910147]]}},{"type":"Feature","properties":{"shape_id":"{}","direction_id":"{\"1\": 121}","headsign":"{\"\": 121}","duration_avg":60.0,"n_vehicles":121,"d":750,"route_I_counts":"{\"657\": 121}","source":63,"target":64,"layer":"L","from":"Skøyenåsen","to":"Oppsal"},"geometry":{"type":"LineString","coordinates":[[10.836648,59.899098],[10.84051,59.89264]]}},{"type":"Feature","properties":{"shape_id":"{}","direction_id":"{\"0\": 120}","headsign":"{\"\": 120}","duration_avg":120.0,"n_vehicles":120,"d":897,"route_I_counts":"{\"657\": 120}","source":63,"target":62,"layer":"L","from":"Skøyenåsen","to":"Godlia"},"geometry":{"type":"LineString","coordinates":[[10.836648,59.899098],[10.83592,59.90715]]}},{"type":"Feature","properties":{"shape_id":"{}","direction_id":"{\"1\": 121}","headsign":"{\"\": 121}","duration_avg":60.0,"n_vehicles":121,"d":604,"route_I_counts":"{\"657\": 121}","source":64,"target":65,"layer":"L","from":"Oppsal","to":"Ulsrud"},"geometry":{"type":"LineString","coordinates":[[10.84051,59.89264],[10.849437,59.88957]]}},{"type":"Feature","properties":{"shape_id":"{}","direction_id":"{\"0\": 121}","headsign":"{\"\": 121}","duration_avg":60.0,"n_vehicles":121,"d":750,"route_I_counts":"{\"657\": 121}","source":64,"target":63,"layer":"L","from":"Oppsal","to":"Skøyenåsen"},"geometry":{"type":"LineString","coordinates":[[10.84051,59.89264],[10.836648,59.899098]]}},{"type":"Feature","properties":{"shape_id":"{}","direction_id":"{\"1\": 121}","headsign":"{\"\": 121}","duration_avg":120.0,"n_vehicles":121,"d":648,"route_I_counts":"{\"657\": 121}","source":65,"target":66,"layer":"L","from":"Ulsrud","to":"Bøler"},"geometry":{"type":"LineString","coordinates":[[10.849437,59.88957],[10.845081,59.88417]]}},{"type":"Feature","properties":{"shape_id":"{}","direction_id":"{\"0\": 121}","headsign":"{\"\": 121}","duration_avg":120.0,"n_vehicles":121,"d":604,"route_I_counts":"{\"657\": 121}","source":65,"target":64,"layer":"L","from":"Ulsrud","to":"Oppsal"},"geometry":{"type":"LineString","coordinates":[[10.849437,59.88957],[10.84051,59.89264]]}},{"type":"Feature","properties":{"shape_id":"{}","direction_id":"{\"1\": 121}","headsign":"{\"\": 121}","duration_avg":60.0,"n_vehicles":121,"d":956,"route_I_counts":"{\"657\": 121}","source":66,"target":67,"layer":"L","from":"Bøler","to":"Bogerud"},"geometry":{"type":"LineString","coordinates":[[10.845081,59.88417],[10.841968,59.875717]]}},{"type":"Feature","properties":{"shape_id":"{}","direction_id":"{\"0\": 121}","headsign":"{\"\": 121}","duration_avg":60.0,"n_vehicles":121,"d":648,"route_I_counts":"{\"657\": 121}","source":66,"target":65,"layer":"L","from":"Bøler","to":"Ulsrud"},"geometry":{"type":"LineString","coordinates":[[10.845081,59.88417],[10.849437,59.88957]]}},{"type":"Feature","properties":{"shape_id":"{}","direction_id":"{\"1\": 121}","headsign":"{\"\": 121}","duration_avg":120.0,"n_vehicles":121,"d":1060,"route_I_counts":"{\"657\": 121}","source":67,"target":68,"layer":"L","from":"Bogerud","to":"Skullerud"},"geometry":{"type":"LineString","coordinates":[[10.841968,59.875717],[10.840015,59.866241]]}},{"type":"Feature","properties":{"shape_id":"{}","direction_id":"{\"0\": 121}","headsign":"{\"\": 121}","duration_avg":120.0,"n_vehicles":121,"d":956,"route_I_counts":"{\"657\": 121}","source":67,"target":66,"layer":"L","from":"Bogerud","to":"Bøler"},"geometry":{"type":"LineString","coordinates":[[10.841968,59.875717],[10.845081,59.88417]]}},{"type":"Feature","properties":{"shape_id":"{}","direction_id":"{\"1\": 121}","headsign":"{\"\": 121}","duration_avg":240.0,"n_vehicles":121,"d":1971,"route_I_counts":"{\"657\": 121}","source":68,"target":69,"layer":"L","from":"Skullerud","to":"Mortensrud"},"geometry":{"type":"LineString","coordinates":[[10.840015,59.866241],[10.829654,59.849311]]}},{"type":"Feature","properties":{"shape_id":"{}","direction_id":"{\"0\": 121}","headsign":"{\"\": 121}","duration_avg":60.0,"n_vehicles":121,"d":1060,"route_I_counts":"{\"657\": 121}","source":68,"target":67,"layer":"L","from":"Skullerud","to":"Bogerud"},"geometry":{"type":"LineString","coordinates":[[10.840015,59.866241],[10.841968,59.875717]]}},{"type":"Feature","properties":{"shape_id":"{}","direction_id":"{\"0\": 121}","headsign":"{\"\": 121}","duration_avg":180.0,"n_vehicles":121,"d":1971,"route_I_counts":"{\"657\": 121}","source":69,"target":68,"layer":"L","from":"Mortensrud","to":"Skullerud"},"geometry":{"type":"LineString","coordinates":[[10.829654,59.849311],[10.840015,59.866241]]}},{"type":"Feature","properties":{"shape_id":"{}","direction_id":"{\"0\": 69}","headsign":"{\"\": 69}","duration_avg":120.0,"n_vehicles":69,"d":1181,"route_I_counts":"{\"657\": 69}","source":70,"target":71,"layer":"L","from":"Gjettum","to":"Hauger"},"geometry":{"type":"LineString","coordinates":[[10.531254,59.908685],[10.510578,59.910954]]}},{"type":"Feature","properties":{"shape_id":"{}","direction_id":"{\"1\": 71}","headsign":"{\"\": 71}","duration_avg":120.0,"n_vehicles":71,"d":1073,"route_I_counts":"{\"657\": 71}","source":70,"target":52,"layer":"L","from":"Gjettum","to":"Avløs"},"geometry":{"type":"LineString","coordinates":[[10.531254,59.908685],[10.548359,59.913102]]}},{"type":"Feature","properties":{"shape_id":"{}","direction_id":"{\"0\": 68}","headsign":"{\"\": 68}","duration_avg":60.0,"n_vehicles":68,"d":689,"route_I_counts":"{\"657\": 68}","source":71,"target":72,"layer":"L","from":"Hauger","to":"Kolsås"},"geometry":{"type":"LineString","coordinates":[[10.510578,59.910954],[10.500935,59.914827]]}},{"type":"Feature","properties":{"shape_id":"{}","direction_id":"{\"1\": 71}","headsign":"{\"\": 71}","duration_avg":120.0,"n_vehicles":71,"d":1181,"route_I_counts":"{\"657\": 71}","source":71,"target":70,"layer":"L","from":"Hauger","to":"Gjettum"},"geometry":{"type":"LineString","coordinates":[[10.510578,59.910954],[10.531254,59.908685]]}},{"type":"Feature","properties":{"shape_id":"{}","direction_id":"{\"1\": 71}","headsign":"{\"\": 71}","duration_avg":60.0,"n_vehicles":71,"d":689,"route_I_counts":"{\"657\": 71}","source":72,"target":71,"layer":"L","from":"Kolsås","to":"Hauger"},"geometry":{"type":"LineString","coordinates":[[10.500935,59.914827],[10.510578,59.910954]]}},{"type":"Feature","properties":{"shape_id":"{}","direction_id":"{\"0\": 214}","headsign":"{\"\": 213, \"Sognsvann\": 1}","duration_avg":60.0,"n_vehicles":214,"d":478,"route_I_counts":"{\"658\": 71, \"659\": 143}","source":73,"target":74,"layer":"L","from":"Blindern","to":"Forskningsparken"},"geometry":{"type":"LineString","coordinates":[[10.715938,59.940046],[10.720688,59.94363]]}},{"type":"Feature","properties":{"shape_id":"{}","direction_id":"{\"1\": 211}","headsign":"{\"\": 211}","duration_avg":180.0,"n_vehicles":211,"d":1091,"route_I_counts":"{\"658\": 70, \"659\": 141}","source":73,"target":11,"layer":"L","from":"Blindern","to":"Majorstuen"},"geometry":{"type":"LineString","coordinates":[[10.715938,59.940046],[10.714609,59.930264]]}},{"type":"Feature","properties":{"shape_id":"{}","direction_id":"{\"0\": 213}","headsign":"{\"\": 212, \"Sognsvann\": 1}","duration_avg":119.71830985915493,"n_vehicles":213,"d":730,"route_I_counts":"{\"658\": 71, \"659\": 142}","source":74,"target":75,"layer":"L","from":"Forskningsparken","to":"Ullevål stadion"},"geometry":{"type":"LineString","coordinates":[[10.720688,59.94363],[10.732167,59.946803]]}},{"type":"Feature","properties":{"shape_id":"{}","direction_id":"{\"1\": 212}","headsign":"{\"\": 212}","duration_avg":60.0,"n_vehicles":212,"d":478,"route_I_counts":"{\"658\": 70, \"659\": 142}","source":74,"target":73,"layer":"L","from":"Forskningsparken","to":"Blindern"},"geometry":{"type":"LineString","coordinates":[[10.720688,59.94363],[10.715938,59.940046]]}},{"type":"Feature","properties":{"shape_id":"{}","direction_id":"{\"0\": 142}","headsign":"{\"\": 142}","duration_avg":180.0,"n_vehicles":142,"d":1956,"route_I_counts":"{\"658\": 71, \"659\": 71}","source":75,"target":76,"layer":"L","from":"Ullevål stadion","to":"Nydalen"},"geometry":{"type":"LineString","coordinates":[[10.732167,59.946803],[10.766968,59.949081]]}},{"type":"Feature","properties":{"shape_id":"{}","direction_id":"{\"1\": 212}","headsign":"{\"\": 212}","duration_avg":119.43396226415095,"n_vehicles":212,"d":730,"route_I_counts":"{\"658\": 70, \"659\": 142}","source":75,"target":74,"layer":"L","from":"Ullevål stadion","to":"Forskningsparken"},"geometry":{"type":"LineString","coordinates":[[10.732167,59.946803],[10.720688,59.94363]]}},{"type":"Feature","properties":{"shape_id":"{}","direction_id":"{\"0\": 71}","headsign":"{\"\": 70, \"Sognsvann\": 1}","duration_avg":120.0,"n_vehicles":71,"d":864,"route_I_counts":"{\"659\": 71}","source":75,"target":93,"layer":"L","from":"Ullevål stadion","to":"Berg"},"geometry":{"type":"LineString","coordinates":[[10.732167,59.946803],[10.744915,59.951234]]}},{"type":"Feature","properties":{"shape_id":"{}","direction_id":"{\"0\": 141}","headsign":"{\"\": 141}","duration_avg":60.0,"n_vehicles":141,"d":810,"route_I_counts":"{\"658\": 70, \"659\": 71}","source":76,"target":77,"layer":"L","from":"Nydalen","to":"Storo"},"geometry":{"type":"LineString","coordinates":[[10.766968,59.949081],[10.778513,59.94466]]}},{"type":"Feature","properties":{"shape_id":"{}","direction_id":"{\"1\": 141}","headsign":"{\"\": 141}","duration_avg":150.2127659574468,"n_vehicles":141,"d":1956,"route_I_counts":"{\"658\": 70, \"659\": 71}","source":76,"target":75,"layer":"L","from":"Nydalen","to":"Ullevål stadion"},"geometry":{"type":"LineString","coordinates":[[10.766968,59.949081],[10.732167,59.946803]]}},{"type":"Feature","properties":{"shape_id":"{}","direction_id":"{\"0\": 141}","headsign":"{\"\": 141}","duration_avg":120.0,"n_vehicles":141,"d":829,"route_I_counts":"{\"658\": 70, \"659\": 71}","source":77,"target":78,"layer":"L","from":"Storo","to":"Sinsen"},"geometry":{"type":"LineString","coordinates":[[10.778513,59.94466],[10.781901,59.937402]]}},{"type":"Feature","properties":{"shape_id":"{}","direction_id":"{\"1\": 142}","headsign":"{\"\": 142}","duration_avg":90.4225352112676,"n_vehicles":142,"d":810,"route_I_counts":"{\"658\": 71, \"659\": 71}","source":77,"target":76,"layer":"L","from":"Storo","to":"Nydalen"},"geometry":{"type":"LineString","coordinates":[[10.778513,59.94466],[10.766968,59.949081]]}},{"type":"Feature","properties":{"shape_id":"{}","direction_id":"{\"0\": 70}","headsign":"{\"\": 70}","duration_avg":60.0,"n_vehicles":70,"d":923,"route_I_counts":"{\"658\": 70}","source":78,"target":79,"layer":"L","from":"Sinsen","to":"Løren"},"geometry":{"type":"LineString","coordinates":[[10.781901,59.937402],[10.789831,59.930118]]}},{"type":"Feature","properties":{"shape_id":"{}","direction_id":"{\"1\": 142}","headsign":"{\"\": 142}","duration_avg":119.5774647887324,"n_vehicles":142,"d":829,"route_I_counts":"{\"658\": 71, \"659\": 71}","source":78,"target":77,"layer":"L","from":"Sinsen","to":"Storo"},"geometry":{"type":"LineString","coordinates":[[10.781901,59.937402],[10.778513,59.94466]]}},{"type":"Feature","properties":{"shape_id":"{}","direction_id":"{\"0\": 71}","headsign":"{\"\": 71}","duration_avg":180.0,"n_vehicles":71,"d":1330,"route_I_counts":"{\"659\": 71}","source":78,"target":99,"layer":"L","from":"Sinsen","to":"Carl Berners plass"},"geometry":{"type":"LineString","coordinates":[[10.781901,59.937402],[10.778226,59.925596]]}},{"type":"Feature","properties":{"shape_id":"{}","direction_id":"{\"0\": 70}","headsign":"{\"\": 70}","duration_avg":180.0,"n_vehicles":70,"d":906,"route_I_counts":"{\"658\": 70}","source":79,"target":80,"layer":"L","from":"Løren","to":"Økern"},"geometry":{"type":"LineString","coordinates":[[10.789831,59.930118],[10.805637,59.928232]]}},{"type":"Feature","properties":{"shape_id":"{}","direction_id":"{\"1\": 70}","headsign":"{\"\": 70}","duration_avg":120.0,"n_vehicles":70,"d":923,"route_I_counts":"{\"658\": 70}","source":79,"target":78,"layer":"L","from":"Løren","to":"Sinsen"},"geometry":{"type":"LineString","coordinates":[[10.789831,59.930118],[10.781901,59.937402]]}},{"type":"Feature","properties":{"shape_id":"{}","direction_id":"{\"0\": 70, \"1\": 72}","headsign":"{\"\": 142}","duration_avg":120.0,"n_vehicles":142,"d":1059,"route_I_counts":"{\"658\": 70, \"659\": 72}","source":80,"target":81,"layer":"L","from":"Økern","to":"Risløkka"},"geometry":{"type":"LineString","coordinates":[[10.805637,59.928232],[10.822654,59.932462]]}},{"type":"Feature","properties":{"shape_id":"{}","direction_id":"{\"1\": 70}","headsign":"{\"\": 70}","duration_avg":120.0,"n_vehicles":70,"d":906,"route_I_counts":"{\"658\": 70}","source":80,"target":79,"layer":"L","from":"Økern","to":"Løren"},"geometry":{"type":"LineString","coordinates":[[10.805637,59.928232],[10.789831,59.930118]]}},{"type":"Feature","properties":{"shape_id":"{}","direction_id":"{\"0\": 71}","headsign":"{\"\": 71}","duration_avg":120.0,"n_vehicles":71,"d":802,"route_I_counts":"{\"659\": 71}","source":80,"target":100,"layer":"L","from":"Økern","to":"Hasle"},"geometry":{"type":"LineString","coordinates":[[10.805637,59.928232],[10.793682,59.924219]]}},{"type":"Feature","properties":{"shape_id":"{}","direction_id":"{\"0\": 70, \"1\": 71}","headsign":"{\"\": 141}","duration_avg":60.0,"n_vehicles":141,"d":642,"route_I_counts":"{\"658\": 70, \"659\": 71}","source":81,"target":82,"layer":"L","from":"Risløkka","to":"Vollebekk"},"geometry":{"type":"LineString","coordinates":[[10.822654,59.932462],[10.831294,59.936285]]}},{"type":"Feature","properties":{"shape_id":"{}","direction_id":"{\"0\": 72, \"1\": 70}","headsign":"{\"\": 142}","duration_avg":120.0,"n_vehicles":142,"d":1059,"route_I_counts":"{\"658\": 70, \"659\": 72}","source":81,"target":80,"layer":"L","from":"Risløkka","to":"Økern"},"geometry":{"type":"LineString","coordinates":[[10.822654,59.932462],[10.805637,59.928232]]}},{"type":"Feature","properties":{"shape_id":"{}","direction_id":"{\"0\": 70, \"1\": 71}","headsign":"{\"\": 141}","duration_avg":60.42553191489362,"n_vehicles":141,"d":697,"route_I_counts":"{\"658\": 70, \"659\": 71}","source":82,"target":83,"layer":"L","from":"Vollebekk","to":"Linderud"},"geometry":{"type":"LineString","coordinates":[[10.831294,59.936285],[10.838995,59.941226]]}},{"type":"Feature","properties":{"shape_id":"{}","direction_id":"{\"0\": 72, \"1\": 70}","headsign":"{\"\": 142}","duration_avg":60.0,"n_vehicles":142,"d":642,"route_I_counts":"{\"658\": 70, \"659\": 72}","source":82,"target":81,"layer":"L","from":"Vollebekk","to":"Risløkka"},"geometry":{"type":"LineString","coordinates":[[10.831294,59.936285],[10.822654,59.932462]]}},{"type":"Feature","properties":{"shape_id":"{}","direction_id":"{\"0\": 70, \"1\": 71}","headsign":"{\"\": 141}","duration_avg":60.0,"n_vehicles":141,"d":555,"route_I_counts":"{\"658\": 70, \"659\": 71}","source":83,"target":84,"layer":"L","from":"Linderud","to":"Veitvet"},"geometry":{"type":"LineString","coordinates":[[10.838995,59.941226],[10.846673,59.944406]]}},{"type":"Feature","properties":{"shape_id":"{}","direction_id":"{\"0\": 72, \"1\": 70}","headsign":"{\"\": 142}","duration_avg":60.0,"n_vehicles":142,"d":697,"route_I_counts":"{\"658\": 70, \"659\": 72}","source":83,"target":82,"layer":"L","from":"Linderud","to":"Vollebekk"},"geometry":{"type":"LineString","coordinates":[[10.838995,59.941226],[10.831294,59.936285]]}},{"type":"Feature","properties":{"shape_id":"{}","direction_id":"{\"0\": 70, \"1\": 71}","headsign":"{\"\": 141}","duration_avg":179.5744680851064,"n_vehicles":141,"d":1014,"route_I_counts":"{\"658\": 70, \"659\": 71}","source":84,"target":85,"layer":"L","from":"Veitvet","to":"Rødtvet"},"geometry":{"type":"LineString","coordinates":[[10.846673,59.944406],[10.858536,59.951317]]}},{"type":"Feature","properties":{"shape_id":"{}","direction_id":"{\"0\": 72, \"1\": 70}","headsign":"{\"\": 142}","duration_avg":60.0,"n_vehicles":142,"d":555,"route_I_counts":"{\"658\": 70, \"659\": 72}","source":84,"target":83,"layer":"L","from":"Veitvet","to":"Linderud"},"geometry":{"type":"LineString","coordinates":[[10.846673,59.944406],[10.838995,59.941226]]}},{"type":"Feature","properties":{"shape_id":"{}","direction_id":"{\"0\": 69, \"1\": 71}","headsign":"{\"\": 140}","duration_avg":60.0,"n_vehicles":140,"d":551,"route_I_counts":"{\"658\": 69, \"659\": 71}","source":85,"target":86,"layer":"L","from":"Rødtvet","to":"Kalbakken"},"geometry":{"type":"LineString","coordinates":[[10.858536,59.951317],[10.866508,59.954249]]}},{"type":"Feature","properties":{"shape_id":"{}","direction_id":"{\"0\": 72, \"1\": 70}","headsign":"{\"\": 142}","duration_avg":120.0,"n_vehicles":142,"d":1014,"route_I_counts":"{\"658\": 70, \"659\": 72}","source":85,"target":84,"layer":"L","from":"Rødtvet","to":"Veitvet"},"geometry":{"type":"LineString","coordinates":[[10.858536,59.951317],[10.846673,59.944406]]}},{"type":"Feature","properties":{"shape_id":"{}","direction_id":"{\"0\": 69, \"1\": 71}","headsign":"{\"\": 140}","duration_avg":60.0,"n_vehicles":140,"d":487,"route_I_counts":"{\"658\": 69, \"659\": 71}","source":86,"target":87,"layer":"L","from":"Kalbakken","to":"Ammerud"},"geometry":{"type":"LineString","coordinates":[[10.866508,59.954249],[10.871229,59.957936]]}},{"type":"Feature","properties":{"shape_id":"{}","direction_id":"{\"0\": 72, \"1\": 71}","headsign":"{\"\": 143}","duration_avg":120.0,"n_vehicles":143,"d":551,"route_I_counts":"{\"658\": 71, \"659\": 72}","source":86,"target":85,"layer":"L","from":"Kalbakken","to":"Rødtvet"},"geometry":{"type":"LineString","coordinates":[[10.866508,59.954249],[10.858536,59.951317]]}},{"type":"Feature","properties":{"shape_id":"{}","direction_id":"{\"0\": 69, \"1\": 71}","headsign":"{\"\": 140}","duration_avg":60.42857142857143,"n_vehicles":140,"d":714,"route_I_counts":"{\"658\": 69, \"659\": 71}","source":87,"target":88,"layer":"L","from":"Ammerud","to":"Grorud"},"geometry":{"type":"LineString","coordinates":[[10.871229,59.957936],[10.882028,59.961402]]}},{"type":"Feature","properties":{"shape_id":"{}","direction_id":"{\"0\": 72, \"1\": 71}","headsign":"{\"\": 143}","duration_avg":60.0,"n_vehicles":143,"d":487,"route_I_counts":"{\"658\": 71, \"659\": 72}","source":87,"target":86,"layer":"L","from":"Ammerud","to":"Kalbakken"},"geometry":{"type":"LineString","coordinates":[[10.871229,59.957936],[10.866508,59.954249]]}},{"type":"Feature","properties":{"shape_id":"{}","direction_id":"{\"0\": 69, \"1\": 71}","headsign":"{\"\": 140}","duration_avg":60.0,"n_vehicles":140,"d":493,"route_I_counts":"{\"658\": 69, \"659\": 71}","source":88,"target":89,"layer":"L","from":"Grorud","to":"Romsås"},"geometry":{"type":"LineString","coordinates":[[10.882028,59.961402],[10.890713,59.962293]]}},{"type":"Feature","properties":{"shape_id":"{}","direction_id":"{\"0\": 72, \"1\": 71}","headsign":"{\"\": 143}","duration_avg":60.0,"n_vehicles":143,"d":714,"route_I_counts":"{\"658\": 71, \"659\": 72}","source":88,"target":87,"layer":"L","from":"Grorud","to":"Ammerud"},"geometry":{"type":"LineString","coordinates":[[10.882028,59.961402],[10.871229,59.957936]]}},{"type":"Feature","properties":{"shape_id":"{}","direction_id":"{\"0\": 69, \"1\": 71}","headsign":"{\"\": 140}","duration_avg":120.0,"n_vehicles":140,"d":1047,"route_I_counts":"{\"658\": 69, \"659\": 71}","source":89,"target":90,"layer":"L","from":"Romsås","to":"Rommen"},"geometry":{"type":"LineString","coordinates":[[10.890713,59.962293],[10.90951,59.962103]]}},{"type":"Feature","properties":{"shape_id":"{}","direction_id":"{\"0\": 72, \"1\": 71}","headsign":"{\"\": 143}","duration_avg":60.0,"n_vehicles":143,"d":493,"route_I_counts":"{\"658\": 71, \"659\": 72}","source":89,"target":88,"layer":"L","from":"Romsås","to":"Grorud"},"geometry":{"type":"LineString","coordinates":[[10.890713,59.962293],[10.882028,59.961402]]}},{"type":"Feature","properties":{"shape_id":"{}","direction_id":"{\"0\": 69, \"1\": 71}","headsign":"{\"\": 140}","duration_avg":60.0,"n_vehicles":140,"d":769,"route_I_counts":"{\"658\": 69, \"659\": 71}","source":90,"target":91,"layer":"L","from":"Rommen","to":"Stovner"},"geometry":{"type":"LineString","coordinates":[[10.90951,59.962103],[10.923313,59.962271]]}},{"type":"Feature","properties":{"shape_id":"{}","direction_id":"{\"0\": 72, \"1\": 71}","headsign":"{\"\": 143}","duration_avg":60.0,"n_vehicles":143,"d":1047,"route_I_counts":"{\"658\": 71, \"659\": 72}","source":90,"target":89,"layer":"L","from":"Rommen","to":"Romsås"},"geometry":{"type":"LineString","coordinates":[[10.90951,59.962103],[10.890713,59.962293]]}},{"type":"Feature","properties":{"shape_id":"{}","direction_id":"{\"0\": 69, \"1\": 70}","headsign":"{\"\": 139}","duration_avg":180.0,"n_vehicles":139,"d":1142,"route_I_counts":"{\"658\": 69, \"659\": 70}","source":91,"target":92,"layer":"L","from":"Stovner","to":"Vestli"},"geometry":{"type":"LineString","coordinates":[[10.923313,59.962271],[10.929435,59.972062]]}},{"type":"Feature","properties":{"shape_id":"{}","direction_id":"{\"0\": 72, \"1\": 71}","headsign":"{\"\": 143}","duration_avg":60.0,"n_vehicles":143,"d":769,"route_I_counts":"{\"658\": 71, \"659\": 72}","source":91,"target":90,"layer":"L","from":"Stovner","to":"Rommen"},"geometry":{"type":"LineString","coordinates":[[10.923313,59.962271],[10.90951,59.962103]]}},{"type":"Feature","properties":{"shape_id":"{}","direction_id":"{\"0\": 72, \"1\": 71}","headsign":"{\"\": 143}","duration_avg":120.0,"n_vehicles":143,"d":1142,"route_I_counts":"{\"658\": 71, \"659\": 72}","source":92,"target":91,"layer":"L","from":"Vestli","to":"Stovner"},"geometry":{"type":"LineString","coordinates":[[10.929435,59.972062],[10.923313,59.962271]]}},{"type":"Feature","properties":{"shape_id":"{}","direction_id":"{\"0\": 71}","headsign":"{\"\": 70, \"Sognsvann\": 1}","duration_avg":60.0,"n_vehicles":71,"d":498,"route_I_counts":"{\"659\": 71}","source":93,"target":94,"layer":"L","from":"Berg","to":"Tåsen"},"geometry":{"type":"LineString","coordinates":[[10.744915,59.951234],[10.752317,59.95374]]}},{"type":"Feature","properties":{"shape_id":"{}","direction_id":"{\"1\": 71}","headsign":"{\"\": 71}","duration_avg":60.84507042253521,"n_vehicles":71,"d":864,"route_I_counts":"{\"659\": 71}","source":93,"target":75,"layer":"L","from":"Berg","to":"Ullevål stadion"},"geometry":{"type":"LineString","coordinates":[[10.744915,59.951234],[10.732167,59.946803]]}},{"type":"Feature","properties":{"shape_id":"{}","direction_id":"{\"0\": 71}","headsign":"{\"\": 70, \"Sognsvann\": 1}","duration_avg":60.0,"n_vehicles":71,"d":348,"route_I_counts":"{\"659\": 71}","source":94,"target":95,"layer":"L","from":"Tåsen","to":"Østhorn"},"geometry":{"type":"LineString","coordinates":[[10.752317,59.95374],[10.750108,59.956671]]}},{"type":"Feature","properties":{"shape_id":"{}","direction_id":"{\"1\": 71}","headsign":"{\"\": 71}","duration_avg":60.0,"n_vehicles":71,"d":498,"route_I_counts":"{\"659\": 71}","source":94,"target":93,"layer":"L","from":"Tåsen","to":"Berg"},"geometry":{"type":"LineString","coordinates":[[10.752317,59.95374],[10.744915,59.951234]]}},{"type":"Feature","properties":{"shape_id":"{}","direction_id":"{\"0\": 71}","headsign":"{\"\": 70, \"Sognsvann\": 1}","duration_avg":119.15492957746478,"n_vehicles":71,"d":686,"route_I_counts":"{\"659\": 71}","source":95,"target":96,"layer":"L","from":"Østhorn","to":"Holstein"},"geometry":{"type":"LineString","coordinates":[[10.750108,59.956671],[10.740515,59.960543]]}},{"type":"Feature","properties":{"shape_id":"{}","direction_id":"{\"1\": 71}","headsign":"{\"\": 71}","duration_avg":60.0,"n_vehicles":71,"d":348,"route_I_counts":"{\"659\": 71}","source":95,"target":94,"layer":"L","from":"Østhorn","to":"Tåsen"},"geometry":{"type":"LineString","coordinates":[[10.750108,59.956671],[10.752317,59.95374]]}},{"type":"Feature","properties":{"shape_id":"{}","direction_id":"{\"0\": 71}","headsign":"{\"\": 70, \"Sognsvann\": 1}","duration_avg":60.84507042253521,"n_vehicles":71,"d":480,"route_I_counts":"{\"659\": 71}","source":96,"target":97,"layer":"L","from":"Holstein","to":"Kringsjå"},"geometry":{"type":"LineString","coordinates":[[10.740515,59.960543],[10.734882,59.963814]]}},{"type":"Feature","properties":{"shape_id":"{}","direction_id":"{\"1\": 71}","headsign":"{\"\": 71}","duration_avg":119.15492957746478,"n_vehicles":71,"d":686,"route_I_counts":"{\"659\": 71}","source":96,"target":95,"layer":"L","from":"Holstein","to":"Østhorn"},"geometry":{"type":"LineString","coordinates":[[10.740515,59.960543],[10.750108,59.956671]]}},{"type":"Feature","properties":{"shape_id":"{}","direction_id":"{\"0\": 71}","headsign":"{\"\": 70, \"Sognsvann\": 1}","duration_avg":60.0,"n_vehicles":71,"d":374,"route_I_counts":"{\"659\": 71}","source":97,"target":98,"layer":"L","from":"Kringsjå","to":"Sognsvann"},"geometry":{"type":"LineString","coordinates":[[10.734882,59.963814],[10.733964,59.967149]]}},{"type":"Feature","properties":{"shape_id":"{}","direction_id":"{\"1\": 71}","headsign":"{\"\": 71}","duration_avg":60.0,"n_vehicles":71,"d":480,"route_I_counts":"{\"659\": 71}","source":97,"target":96,"layer":"L","from":"Kringsjå","to":"Holstein"},"geometry":{"type":"LineString","coordinates":[[10.734882,59.963814],[10.740515,59.960543]]}},{"type":"Feature","properties":{"shape_id":"{}","direction_id":"{\"1\": 71}","headsign":"{\"\": 71}","duration_avg":60.0,"n_vehicles":71,"d":374,"route_I_counts":"{\"659\": 71}","source":98,"target":97,"layer":"L","from":"Sognsvann","to":"Kringsjå"},"geometry":{"type":"LineString","coordinates":[[10.733964,59.967149],[10.734882,59.963814]]}},{"type":"Feature","properties":{"shape_id":"{}","direction_id":"{\"0\": 141}","headsign":"{\"\": 141}","duration_avg":180.0,"n_vehicles":141,"d":1144,"route_I_counts":"{\"659\": 141}","source":99,"target":6,"layer":"L","from":"Carl Berners plass","to":"Tøyen"},"geometry":{"type":"LineString","coordinates":[[10.778226,59.925596],[10.775712,59.915391]]}},{"type":"Feature","properties":{"shape_id":"{}","direction_id":"{\"1\": 72}","headsign":"{\"\": 72}","duration_avg":120.83333333333333,"n_vehicles":72,"d":875,"route_I_counts":"{\"659\": 72}","source":99,"target":100,"layer":"L","from":"Carl Berners plass","to":"Hasle"},"geometry":{"type":"LineString","coordinates":[[10.778226,59.925596],[10.793682,59.924219]]}},{"type":"Feature","properties":{"shape_id":"{}","direction_id":"{\"1\": 71}","headsign":"{\"\": 71}","duration_avg":180.8450704225352,"n_vehicles":71,"d":1330,"route_I_counts":"{\"659\": 71}","source":99,"target":78,"layer":"L","from":"Carl Berners plass","to":"Sinsen"},"geometry":{"type":"LineString","coordinates":[[10.778226,59.925596],[10.781901,59.937402]]}},{"type":"Feature","properties":{"shape_id":"{}","direction_id":"{\"0\": 71}","headsign":"{\"\": 71}","duration_avg":120.0,"n_vehicles":71,"d":875,"route_I_counts":"{\"659\": 71}","source":100,"target":99,"layer":"L","from":"Hasle","to":"Carl Berners plass"},"geometry":{"type":"LineString","coordinates":[[10.793682,59.924219],[10.778226,59.925596]]}},{"type":"Feature","properties":{"shape_id":"{}","direction_id":"{\"1\": 72}","headsign":"{\"\": 72}","duration_avg":119.16666666666667,"n_vehicles":72,"d":802,"route_I_counts":"{\"659\": 72}","source":100,"target":80,"layer":"L","from":"Hasle","to":"Økern"},"geometry":{"type":"LineString","coordinates":[[10.793682,59.924219],[10.805637,59.928232]]}}]}