{"type":"FeatureCollection","features":[{"type":"Feature","geometry":{"type":"Point","coordinates":[-75.136757,40.04185]},"properties":{"name":"Fern Rock Transportation Center - BSL","original_ids":"[6061]","id":0,"layer":"stop"}},{"type":"Feature","geometry":{"type":"Point","coordinates":[-75.144749,40.039066]},"properties":{"name":"Olney Transportation Center - BSL","original_ids":"[59, 13363]","id":1,"layer":"stop"}},{"type":"Feature","geometry":{"type":"Point","coordinates":[-75.15125,40.009234]},"properties":{"name":"Erie Station - BSL","original_ids":"[93, 13359]","id":2,"layer":"stop"}},{"type":"Feature","geometry":{"type":"Point","coordinates":[-75.159488,39.971473]},"properties":{"name":"Girard Station - BSL","original_ids":"[6062, 13354]","id":3,"layer":"stop"}},{"type":"Feature","geometry":{"type":"Point","coordinates":[-75.161471,39.962392]},"properties":{"name":"Spring Garden Station - BSL","original_ids":"[709, 13350]","id":4,"layer":"stop"}},{"type":"Feature","geometry":{"type":"Point","coordinates":[-75.162601,39.95703]},"properties":{"name":"Race Vine Station - BSL","original_ids":"[710, 13349]","id":5,"layer":"stop"}},{"type":"Feature","geometry":{"type":"Point","coordinates":[-75.164129,39.952473]},"properties":{"name":"City Hall Station - BSL","original_ids":"[711, 13348, 731, 13381]","id":6,"layer":"stop"}},{"type":"Feature","geometry":{"type":"Point","coordinates":[-75.164462,39.948734]},"properties":{"name":"Walnut Locust Station - BSL","original_ids":"[712, 13347]","id":7,"layer":"stop"}},{"type":"Feature","geometry":{"type":"Point","coordinates":[-75.14658,40.030618]},"properties":{"name":"Logan Station - BSL","original_ids":"[703, 13362]","id":8,"layer":"stop"}},{"type":"Feature","geometry":{"type":"Point","coordinates":[-75.147904,40.02456]},"properties":{"name":"Wyoming Station - BSL","original_ids":"[704, 13361]","id":9,"layer":"stop"}},{"type":"Feature","geometry":{"type":"Point","coordinates":[-75.149577,40.016933]},"properties":{"name":"Hunting Park Station - BSL","original_ids":"[705, 13360]","id":10,"layer":"stop"}},{"type":"Feature","geometry":{"type":"Point","coordinates":[-75.152922,40.001589]},"properties":{"name":"Allegheny Station - BSL","original_ids":"[95, 13358]","id":11,"layer":"stop"}},{"type":"Feature","geometry":{"type":"Point","coordinates":[-75.154629,39.993944]},"properties":{"name":"North Philadelphia Station - BSL","original_ids":"[1028, 13357]","id":12,"layer":"stop"}},{"type":"Feature","geometry":{"type":"Point","coordinates":[-75.156109,39.987031]},"properties":{"name":"Susquehanna Dauphin Station - BSL","original_ids":"[706, 13356]","id":13,"layer":"stop"}},{"type":"Feature","geometry":{"type":"Point","coordinates":[-75.157925,39.978672]},"properties":{"name":"Cecil B Moore Station - BSL","original_ids":"[707, 13355]","id":14,"layer":"stop"}},{"type":"Feature","geometry":{"type":"Point","coordinates":[-75.160461,39.967039]},"properties":{"name":"Fairmount Station - BSL","original_ids":"[708, 13353]","id":15,"layer":"stop"}},{"type":"Feature","geometry":{"type":"Point","coordinates":[-75.165471,39.944077]},"properties":{"name":"Lombard South Station - BSL","original_ids":"[713, 13346]","id":16,"layer":"stop"}},{"type":"Feature","geometry":{"type":"Point","coordinates":[-75.167177,39.936182]},"properties":{"name":"Ellsworth Federal Station - BSL","original_ids":"[714, 13345]","id":17,"layer":"stop"}},{"type":"Feature","geometry":{"type":"Point","coordinates":[-75.16857,39.929813]},"properties":{"name":"Tasker Morris Station - BSL","original_ids":"[715, 13344]","id":18,"layer":"stop"}},{"type":"Feature","geometry":{"type":"Point","coordinates":[-75.169758,39.92438]},"properties":{"name":"Snyder Station - BSL","original_ids":"[716, 13343]","id":19,"layer":"stop"}},{"type":"Feature","geometry":{"type":"Point","coordinates":[-75.171414,39.916789]},"properties":{"name":"Oregon Station - BSL","original_ids":"[6063, 13342]","id":20,"layer":"stop"}},{"type":"Feature","geometry":{"type":"Point","coordinates":[-75.17391,39.905433]},"properties":{"name":"NRG Station - BSL","original_ids":"[100, 13341]","id":21,"layer":"stop"}},{"type":"Feature","geometry":{"type":"Point","coordinates":[-75.152795,39.955028]},"properties":{"name":"Chinatown Station - BSL","original_ids":"[1029, 13352]","id":22,"layer":"stop"}},{"type":"Feature","geometry":{"type":"Point","coordinates":[-75.153636,39.951138]},"properties":{"name":"8th St & Market St - BSL","original_ids":"[6478, 13351, 1040, 13378]","id":23,"layer":"stop"}},{"type":"Feature","geometry":{"type":"Point","coordinates":[-75.258555,39.962338]},"properties":{"name":"69th St Transportation Center - MFL EB","original_ids":"[248, 5958]","id":24,"layer":"stop"}},{"type":"Feature","geometry":{"type":"Point","coordinates":[-75.252243,39.96432]},"properties":{"name":"Millbourne Station - MFL","original_ids":"[1030, 13390]","id":25,"layer":"stop"}},{"type":"Feature","geometry":{"type":"Point","coordinates":[-75.246767,39.962714]},"properties":{"name":"63rd St Station - MFL","original_ids":"[1031, 13389]","id":26,"layer":"stop"}},{"type":"Feature","geometry":{"type":"Point","coordinates":[-75.240757,39.961956]},"properties":{"name":"60th St Station - MFL","original_ids":"[1032, 13388]","id":27,"layer":"stop"}},{"type":"Feature","geometry":{"type":"Point","coordinates":[-75.232859,39.960962]},"properties":{"name":"56th St Station - MFL","original_ids":"[1033, 13387]","id":28,"layer":"stop"}},{"type":"Feature","geometry":{"type":"Point","coordinates":[-75.224889,39.959976]},"properties":{"name":"52nd St Station - MFL","original_ids":"[1034, 13386]","id":29,"layer":"stop"}},{"type":"Feature","geometry":{"type":"Point","coordinates":[-75.214028,39.958619]},"properties":{"name":"46th St Station - MFL","original_ids":"[1035, 13385]","id":30,"layer":"stop"}},{"type":"Feature","geometry":{"type":"Point","coordinates":[-75.201963,39.957117]},"properties":{"name":"40th St Station - MFL","original_ids":"[1036, 13384]","id":31,"layer":"stop"}},{"type":"Feature","geometry":{"type":"Point","coordinates":[-75.19148,39.95583]},"properties":{"name":"34th St Station - MFL","original_ids":"[1037, 13383]","id":32,"layer":"stop"}},{"type":"Feature","geometry":{"type":"Point","coordinates":[-75.183276,39.954814]},"properties":{"name":"30th St Station - MFL","original_ids":"[6479, 13382]","id":33,"layer":"stop"}},{"type":"Feature","geometry":{"type":"Point","coordinates":[-75.16145,39.952065]},"properties":{"name":"13th St Station - MFL","original_ids":"[1038, 13380]","id":34,"layer":"stop"}},{"type":"Feature","geometry":{"type":"Point","coordinates":[-75.158322,39.951693]},"properties":{"name":"11th St Station - MFL","original_ids":"[1039, 13379]","id":35,"layer":"stop"}},{"type":"Feature","geometry":{"type":"Point","coordinates":[-75.148939,39.95053]},"properties":{"name":"5th St Independence Hall Station - MFL","original_ids":"[1041, 13377]","id":36,"layer":"stop"}},{"type":"Feature","geometry":{"type":"Point","coordinates":[-75.143758,39.949795]},"properties":{"name":"2nd St Station - MFL","original_ids":"[252, 13376]","id":37,"layer":"stop"}},{"type":"Feature","geometry":{"type":"Point","coordinates":[-75.140337,39.960533]},"properties":{"name":"Spring Garden Station - MFL","original_ids":"[1042, 13375]","id":38,"layer":"stop"}},{"type":"Feature","geometry":{"type":"Point","coordinates":[-75.136146,39.968877]},"properties":{"name":"Girard Station - MFL","original_ids":"[203, 13374]","id":39,"layer":"stop"}},{"type":"Feature","geometry":{"type":"Point","coordinates":[-75.133448,39.978626]},"properties":{"name":"Berks Station - MFL","original_ids":"[1043, 13373]","id":40,"layer":"stop"}},{"type":"Feature","geometry":{"type":"Point","coordinates":[-75.131942,39.985512]},"properties":{"name":"York Dauphin Station - MFL","original_ids":"[1044, 13372]","id":41,"layer":"stop"}},{"type":"Feature","geometry":{"type":"Point","coordinates":[-75.127274,39.988803]},"properties":{"name":"Huntingdon Station - MFL","original_ids":"[1045, 13371]","id":42,"layer":"stop"}},{"type":"Feature","geometry":{"type":"Point","coordinates":[-75.122489,39.991424]},"properties":{"name":"Somerset Station - MFL","original_ids":"[464, 13370]","id":43,"layer":"stop"}},{"type":"Feature","geometry":{"type":"Point","coordinates":[-75.11344,39.996471]},"properties":{"name":"Allegheny Station - MFL","original_ids":"[46, 13369]","id":44,"layer":"stop"}},{"type":"Feature","geometry":{"type":"Point","coordinates":[-75.106439,40.000291]},"properties":{"name":"Tioga Station - MFL","original_ids":"[1046, 13368]","id":45,"layer":"stop"}},{"type":"Feature","geometry":{"type":"Point","coordinates":[-75.096404,40.005825]},"properties":{"name":"Erie Torresdale Station - MFL","original_ids":"[484, 13367]","id":46,"layer":"stop"}},{"type":"Feature","geometry":{"type":"Point","coordinates":[-75.088651,40.010901]},"properties":{"name":"Church Station - MFL","original_ids":"[1047, 13366]","id":47,"layer":"stop"}},{"type":"Feature","geometry":{"type":"Point","coordinates":[-75.083802,40.016564]},"properties":{"name":"Arrott Transportation Center - MFL","original_ids":"[128, 13365]","id":48,"layer":"stop"}},{"type":"Feature","geometry":{"type":"Point","coordinates":[-75.077861,40.022929]},"properties":{"name":"Frankford Transportation Center - MFL","original_ids":"[47, 13364]","id":49,"layer":"stop"}},{"type":"Feature","properties":{"shape_id":"{\"265701\": 102, \"265702\": 32, \"265708\": 6}","direction_id":"{\"0\": 140}","headsign":"{\"8th St Station - Ridge\": 6, \"NRG Station - Local\": 102, \"Walnut-Locust Station - Express\": 32}","duration_avg":184.28571428571428,"n_vehicles":140,"d":748,"route_I_counts":"{\"126\": 140}","source":0,"target":1,"layer":"L","from":"Fern Rock Transportation Center - BSL","to":"Olney Transportation Center - BSL"},"geometry":{"type":"LineString","coordinates":[[-75.136757,40.04185],[-75.144749,40.039066]]}},{"type":"Feature","properties":{"shape_id":"{\"265700\": 48, \"265702\": 32, \"265708\": 6}","direction_id":"{\"0\": 86}","headsign":"{\"8th St Station - Ridge\": 54, \"Walnut-Locust Station - Express\": 32}","duration_avg":279.7674418604651,"n_vehicles":86,"d":3366,"route_I_counts":"{\"126\": 86}","source":1,"target":2,"layer":"L","from":"Olney Transportation Center - BSL","to":"Erie Station - BSL"},"geometry":{"type":"LineString","coordinates":[[-75.144749,40.039066],[-75.15125,40.009234]]}},{"type":"Feature","properties":{"shape_id":"{\"265701\": 101}","direction_id":"{\"0\": 101}","headsign":"{\"NRG Station - Local\": 101}","duration_avg":177.62376237623764,"n_vehicles":101,"d":953,"route_I_counts":"{\"126\": 101}","source":1,"target":8,"layer":"L","from":"Olney Transportation Center - BSL","to":"Logan Station - BSL"},"geometry":{"type":"LineString","coordinates":[[-75.144749,40.039066],[-75.14658,40.030618]]}},{"type":"Feature","properties":{"duration_avg":298.8235294117647,"n_vehicles":153,"d":744,"route_I_counts":"{\"126\": 153}","shape_id":"{\"265712\": 108, \"265718\": 35, \"265723\": 1, \"265725\": 9}","direction_id":"{\"1\": 153}","headsign":"{\"Fern Rock Trans Ctr - Express\": 35, \"Fern Rock Trans Ctr - Local\": 109, \"Fern Rock Trans Ctr - Ridge\": 9}","source":1,"target":0,"layer":"L","from":"Olney Transportation Center - BSL","to":"Fern Rock Transportation Center - BSL"},"geometry":{"type":"LineString","coordinates":[[-75.144749,40.039066],[-75.136757,40.04185]]}},{"type":"Feature","properties":{"shape_id":"{\"265700\": 48, \"265708\": 6}","direction_id":"{\"0\": 54}","headsign":"{\"8th St Station - Ridge\": 54}","duration_avg":120.0,"n_vehicles":54,"d":1726,"route_I_counts":"{\"126\": 54}","source":2,"target":12,"layer":"L","from":"Erie Station - BSL","to":"North Philadelphia Station - BSL"},"geometry":{"type":"LineString","coordinates":[[-75.15125,40.009234],[-75.154629,39.993944]]}},{"type":"Feature","properties":{"shape_id":"{\"265701\": 102}","direction_id":"{\"0\": 102}","headsign":"{\"NRG Station - Local\": 102}","duration_avg":62.35294117647059,"n_vehicles":102,"d":862,"route_I_counts":"{\"126\": 102}","source":2,"target":11,"layer":"L","from":"Erie Station - BSL","to":"Allegheny Station - BSL"},"geometry":{"type":"LineString","coordinates":[[-75.15125,40.009234],[-75.152922,40.001589]]}},{"type":"Feature","properties":{"shape_id":"{\"265702\": 32}","direction_id":"{\"0\": 32}","headsign":"{\"Walnut-Locust Station - Express\": 32}","duration_avg":243.75,"n_vehicles":32,"d":4261,"route_I_counts":"{\"126\": 32}","source":2,"target":3,"layer":"L","from":"Erie Station - BSL","to":"Girard Station - BSL"},"geometry":{"type":"LineString","coordinates":[[-75.15125,40.009234],[-75.159488,39.971473]]}},{"type":"Feature","properties":{"duration_avg":120.0,"n_vehicles":109,"d":868,"route_I_counts":"{\"126\": 109}","shape_id":"{\"265712\": 108, \"265723\": 1}","direction_id":"{\"1\": 109}","headsign":"{\"Fern Rock Trans Ctr - Local\": 109}","source":2,"target":10,"layer":"L","from":"Erie Station - BSL","to":"Hunting Park Station - BSL"},"geometry":{"type":"LineString","coordinates":[[-75.15125,40.009234],[-75.149577,40.016933]]}},{"type":"Feature","properties":{"duration_avg":262.4175824175824,"n_vehicles":91,"d":3363,"route_I_counts":"{\"126\": 91}","shape_id":"{\"265715\": 47, \"265718\": 35, \"265725\": 9}","direction_id":"{\"1\": 91}","headsign":"{\"Fern Rock Trans Ctr - Express\": 35, \"Fern Rock Trans Ctr - Ridge\": 9, \"Olney Trans Ctr - Ridge\": 47}","source":2,"target":1,"layer":"L","from":"Erie Station - BSL","to":"Olney Transportation Center - BSL"},"geometry":{"type":"LineString","coordinates":[[-75.15125,40.009234],[-75.144749,40.039066]]}},{"type":"Feature","properties":{"shape_id":"{\"265700\": 49, \"265701\": 103, \"265708\": 6}","direction_id":"{\"0\": 158}","headsign":"{\"8th St Station - Ridge\": 55, \"NRG Station - Local\": 103}","duration_avg":118.48101265822785,"n_vehicles":158,"d":500,"route_I_counts":"{\"126\": 158}","source":3,"target":15,"layer":"L","from":"Girard Station - BSL","to":"Fairmount Station - BSL"},"geometry":{"type":"LineString","coordinates":[[-75.159488,39.971473],[-75.160461,39.967039]]}},{"type":"Feature","properties":{"shape_id":"{\"265702\": 32}","direction_id":"{\"0\": 32}","headsign":"{\"Walnut-Locust Station - Express\": 32}","duration_avg":118.125,"n_vehicles":32,"d":1024,"route_I_counts":"{\"126\": 32}","source":3,"target":4,"layer":"L","from":"Girard Station - BSL","to":"Spring Garden Station - BSL"},"geometry":{"type":"LineString","coordinates":[[-75.159488,39.971473],[-75.161471,39.962392]]}},{"type":"Feature","properties":{"duration_avg":120.0,"n_vehicles":107,"d":812,"route_I_counts":"{\"126\": 107}","shape_id":"{\"265712\": 106, \"265723\": 1}","direction_id":"{\"1\": 107}","headsign":"{\"Fern Rock Trans Ctr - Local\": 107}","source":3,"target":14,"layer":"L","from":"Girard Station - BSL","to":"Cecil B Moore Station - BSL"},"geometry":{"type":"LineString","coordinates":[[-75.159488,39.971473],[-75.157925,39.978672]]}},{"type":"Feature","properties":{"duration_avg":240.0,"n_vehicles":34,"d":4262,"route_I_counts":"{\"126\": 34}","shape_id":"{\"265718\": 34}","direction_id":"{\"1\": 34}","headsign":"{\"Fern Rock Trans Ctr - Express\": 34}","source":3,"target":2,"layer":"L","from":"Girard Station - BSL","to":"Erie Station - BSL"},"geometry":{"type":"LineString","coordinates":[[-75.159488,39.971473],[-75.15125,40.009234]]}},{"type":"Feature","properties":{"duration_avg":141.42857142857142,"n_vehicles":56,"d":2535,"route_I_counts":"{\"126\": 56}","shape_id":"{\"265715\": 47, \"265725\": 9}","direction_id":"{\"1\": 56}","headsign":"{\"Fern Rock Trans Ctr - Ridge\": 9, \"Olney Trans Ctr - Ridge\": 47}","source":3,"target":12,"layer":"L","from":"Girard Station - BSL","to":"North Philadelphia Station - BSL"},"geometry":{"type":"LineString","coordinates":[[-75.159488,39.971473],[-75.154629,39.993944]]}},{"type":"Feature","properties":{"shape_id":"{\"265701\": 104, \"265702\": 32}","direction_id":"{\"0\": 136}","headsign":"{\"NRG Station - Local\": 104, \"Walnut-Locust Station - Express\": 32}","duration_avg":117.79411764705883,"n_vehicles":136,"d":604,"route_I_counts":"{\"126\": 136}","source":4,"target":5,"layer":"L","from":"Spring Garden Station - BSL","to":"Race Vine Station - BSL"},"geometry":{"type":"LineString","coordinates":[[-75.161471,39.962392],[-75.162601,39.95703]]}},{"type":"Feature","properties":{"duration_avg":103.17757009345794,"n_vehicles":107,"d":525,"route_I_counts":"{\"126\": 107}","shape_id":"{\"265712\": 106, \"265723\": 1}","direction_id":"{\"1\": 107}","headsign":"{\"Fern Rock Trans Ctr - Local\": 107}","source":4,"target":15,"layer":"L","from":"Spring Garden Station - BSL","to":"Fairmount Station - BSL"},"geometry":{"type":"LineString","coordinates":[[-75.161471,39.962392],[-75.160461,39.967039]]}},{"type":"Feature","properties":{"duration_avg":176.47058823529412,"n_vehicles":34,"d":1026,"route_I_counts":"{\"126\": 34}","shape_id":"{\"265718\": 34}","direction_id":"{\"1\": 34}","headsign":"{\"Fern Rock Trans Ctr - Express\": 34}","source":4,"target":3,"layer":"L","from":"Spring Garden Station - BSL","to":"Girard Station - BSL"},"geometry":{"type":"LineString","coordinates":[[-75.161471,39.962392],[-75.159488,39.971473]]}},{"type":"Feature","properties":{"shape_id":"{\"265701\": 104, \"265702\": 33}","direction_id":"{\"0\": 137}","headsign":"{\"NRG Station - Local\": 104, \"Walnut-Locust Station - Express\": 33}","duration_avg":120.0,"n_vehicles":137,"d":523,"route_I_counts":"{\"126\": 137}","source":5,"target":6,"layer":"L","from":"Race Vine Station - BSL","to":"City Hall Station - BSL"},"geometry":{"type":"LineString","coordinates":[[-75.162601,39.95703],[-75.164129,39.952473]]}},{"type":"Feature","properties":{"duration_avg":73.61702127659575,"n_vehicles":141,"d":604,"route_I_counts":"{\"126\": 141}","shape_id":"{\"265712\": 106, \"265718\": 34, \"265723\": 1}","direction_id":"{\"1\": 141}","headsign":"{\"Fern Rock Trans Ctr - Express\": 34, \"Fern Rock Trans Ctr - Local\": 107}","source":5,"target":4,"layer":"L","from":"Race Vine Station - BSL","to":"Spring Garden Station - BSL"},"geometry":{"type":"LineString","coordinates":[[-75.162601,39.95703],[-75.161471,39.962392]]}},{"type":"Feature","properties":{"shape_id":"{\"265701\": 104, \"265702\": 33}","direction_id":"{\"0\": 137}","headsign":"{\"NRG Station - Local\": 104, \"Walnut-Locust Station - Express\": 33}","duration_avg":62.627737226277375,"n_vehicles":137,"d":417,"route_I_counts":"{\"126\": 137}","source":6,"target":7,"layer":"L","from":"City Hall Station - BSL","to":"Walnut Locust Station - BSL"},"geometry":{"type":"LineString","coordinates":[[-75.164129,39.952473],[-75.164462,39.948734]]}},{"type":"Feature","properties":{"duration_avg":120.0,"n_vehicles":140,"d":522,"route_I_counts":"{\"126\": 140}","shape_id":"{\"265712\": 105, \"265718\": 34, \"265723\": 1}","direction_id":"{\"1\": 140}","headsign":"{\"Fern Rock Trans Ctr - Express\": 34, \"Fern Rock Trans Ctr - Local\": 106}","source":6,"target":5,"layer":"L","from":"City Hall Station - BSL","to":"Race Vine Station - BSL"},"geometry":{"type":"LineString","coordinates":[[-75.164129,39.952473],[-75.162601,39.95703]]}},{"type":"Feature","properties":{"duration_avg":60.0,"n_vehicles":121,"d":332,"route_I_counts":"{\"135\": 121}","shape_id":"{\"265736\": 1, \"265737\": 120}","direction_id":"{\"0\": 121}","headsign":"{\"Frankford Trans Ctr - All Stops\": 121}","source":6,"target":34,"layer":"L","from":"City Hall Station - BSL","to":"13th St Station - MFL"},"geometry":{"type":"LineString","coordinates":[[-75.164129,39.952473],[-75.16145,39.952065]]}},{"type":"Feature","properties":{"duration_avg":120.0,"n_vehicles":125,"d":1553,"route_I_counts":"{\"135\": 125}","shape_id":"{\"265744\": 115, \"265745\": 1, \"265746\": 9}","direction_id":"{\"1\": 125}","headsign":"{\"69th St Trans Ctr - All Stops\": 125}","source":6,"target":33,"layer":"L","from":"City Hall Station - BSL","to":"30th St Station - MFL"},"geometry":{"type":"LineString","coordinates":[[-75.164129,39.952473],[-75.183276,39.954814]]}},{"type":"Feature","properties":{"shape_id":"{\"265701\": 104}","direction_id":"{\"0\": 104}","headsign":"{\"NRG Station - Local\": 104}","duration_avg":177.69230769230768,"n_vehicles":104,"d":525,"route_I_counts":"{\"126\": 104}","source":7,"target":16,"layer":"L","from":"Walnut Locust Station - BSL","to":"Lombard South Station - BSL"},"geometry":{"type":"LineString","coordinates":[[-75.164462,39.948734],[-75.165471,39.944077]]}},{"type":"Feature","properties":{"duration_avg":107.9136690647482,"n_vehicles":139,"d":416,"route_I_counts":"{\"126\": 139}","shape_id":"{\"265712\": 105, \"265718\": 33, \"265723\": 1}","direction_id":"{\"1\": 139}","headsign":"{\"Fern Rock Trans Ctr - Express\": 33, \"Fern Rock Trans Ctr - Local\": 106}","source":7,"target":6,"layer":"L","from":"Walnut Locust Station - BSL","to":"City Hall Station - BSL"},"geometry":{"type":"LineString","coordinates":[[-75.164462,39.948734],[-75.164129,39.952473]]}},{"type":"Feature","properties":{"shape_id":"{\"265701\": 101}","direction_id":"{\"0\": 101}","headsign":"{\"NRG Station - Local\": 101}","duration_avg":60.0,"n_vehicles":101,"d":683,"route_I_counts":"{\"126\": 101}","source":8,"target":9,"layer":"L","from":"Logan Station - BSL","to":"Wyoming Station - BSL"},"geometry":{"type":"LineString","coordinates":[[-75.14658,40.030618],[-75.147904,40.02456]]}},{"type":"Feature","properties":{"duration_avg":103.4862385321101,"n_vehicles":109,"d":950,"route_I_counts":"{\"126\": 109}","shape_id":"{\"265712\": 108, \"265723\": 1}","direction_id":"{\"1\": 109}","headsign":"{\"Fern Rock Trans Ctr - Local\": 109}","source":8,"target":1,"layer":"L","from":"Logan Station - BSL","to":"Olney Transportation Center - BSL"},"geometry":{"type":"LineString","coordinates":[[-75.14658,40.030618],[-75.144749,40.039066]]}},{"type":"Feature","properties":{"shape_id":"{\"265701\": 102}","direction_id":"{\"0\": 102}","headsign":"{\"NRG Station - Local\": 102}","duration_avg":62.35294117647059,"n_vehicles":102,"d":860,"route_I_counts":"{\"126\": 102}","source":9,"target":10,"layer":"L","from":"Wyoming Station - BSL","to":"Hunting Park Station - BSL"},"geometry":{"type":"LineString","coordinates":[[-75.147904,40.02456],[-75.149577,40.016933]]}},{"type":"Feature","properties":{"duration_avg":76.5137614678899,"n_vehicles":109,"d":683,"route_I_counts":"{\"126\": 109}","shape_id":"{\"265712\": 108, \"265723\": 1}","direction_id":"{\"1\": 109}","headsign":"{\"Fern Rock Trans Ctr - Local\": 109}","source":9,"target":8,"layer":"L","from":"Wyoming Station - BSL","to":"Logan Station - BSL"},"geometry":{"type":"LineString","coordinates":[[-75.147904,40.02456],[-75.14658,40.030618]]}},{"type":"Feature","properties":{"shape_id":"{\"265701\": 102}","direction_id":"{\"0\": 102}","headsign":"{\"NRG Station - Local\": 102}","duration_avg":177.64705882352942,"n_vehicles":102,"d":868,"route_I_counts":"{\"126\": 102}","source":10,"target":2,"layer":"L","from":"Hunting Park Station - BSL","to":"Erie Station - BSL"},"geometry":{"type":"LineString","coordinates":[[-75.149577,40.016933],[-75.15125,40.009234]]}},{"type":"Feature","properties":{"duration_avg":60.0,"n_vehicles":109,"d":860,"route_I_counts":"{\"126\": 109}","shape_id":"{\"265712\": 108, \"265723\": 1}","direction_id":"{\"1\": 109}","headsign":"{\"Fern Rock Trans Ctr - Local\": 109}","source":10,"target":9,"layer":"L","from":"Hunting Park Station - BSL","to":"Wyoming Station - BSL"},"geometry":{"type":"LineString","coordinates":[[-75.149577,40.016933],[-75.147904,40.02456]]}},{"type":"Feature","properties":{"shape_id":"{\"265701\": 102}","direction_id":"{\"0\": 102}","headsign":"{\"NRG Station - Local\": 102}","duration_avg":120.0,"n_vehicles":102,"d":863,"route_I_counts":"{\"126\": 102}","source":11,"target":12,"layer":"L","from":"Allegheny Station - BSL","to":"North Philadelphia Station - BSL"},"geometry":{"type":"LineString","coordinates":[[-75.152922,40.001589],[-75.154629,39.993944]]}},{"type":"Feature","properties":{"duration_avg":120.0,"n_vehicles":108,"d":862,"route_I_counts":"{\"126\": 108}","shape_id":"{\"265712\": 107, \"265723\": 1}","direction_id":"{\"1\": 108}","headsign":"{\"Fern Rock Trans Ctr - Local\": 108}","source":11,"target":2,"layer":"L","from":"Allegheny Station - BSL","to":"Erie Station - BSL"},"geometry":{"type":"LineString","coordinates":[[-75.152922,40.001589],[-75.15125,40.009234]]}},{"type":"Feature","properties":{"shape_id":"{\"265700\": 49, \"265708\": 6}","direction_id":"{\"0\": 55}","headsign":"{\"8th St Station - Ridge\": 55}","duration_avg":188.72727272727272,"n_vehicles":55,"d":2535,"route_I_counts":"{\"126\": 55}","source":12,"target":3,"layer":"L","from":"North Philadelphia Station - BSL","to":"Girard Station - BSL"},"geometry":{"type":"LineString","coordinates":[[-75.154629,39.993944],[-75.159488,39.971473]]}},{"type":"Feature","properties":{"shape_id":"{\"265701\": 103}","direction_id":"{\"0\": 103}","headsign":"{\"NRG Station - Local\": 103}","duration_avg":117.66990291262135,"n_vehicles":103,"d":779,"route_I_counts":"{\"126\": 103}","source":12,"target":13,"layer":"L","from":"North Philadelphia Station - BSL","to":"Susquehanna Dauphin Station - BSL"},"geometry":{"type":"LineString","coordinates":[[-75.154629,39.993944],[-75.156109,39.987031]]}},{"type":"Feature","properties":{"duration_avg":103.33333333333333,"n_vehicles":108,"d":864,"route_I_counts":"{\"126\": 108}","shape_id":"{\"265712\": 107, \"265723\": 1}","direction_id":"{\"1\": 108}","headsign":"{\"Fern Rock Trans Ctr - Local\": 108}","source":12,"target":11,"layer":"L","from":"North Philadelphia Station - BSL","to":"Allegheny Station - BSL"},"geometry":{"type":"LineString","coordinates":[[-75.154629,39.993944],[-75.152922,40.001589]]}},{"type":"Feature","properties":{"duration_avg":122.14285714285714,"n_vehicles":56,"d":1727,"route_I_counts":"{\"126\": 56}","shape_id":"{\"265715\": 47, \"265725\": 9}","direction_id":"{\"1\": 56}","headsign":"{\"Fern Rock Trans Ctr - Ridge\": 9, \"Olney Trans Ctr - Ridge\": 47}","source":12,"target":2,"layer":"L","from":"North Philadelphia Station - BSL","to":"Erie Station - BSL"},"geometry":{"type":"LineString","coordinates":[[-75.154629,39.993944],[-75.15125,40.009234]]}},{"type":"Feature","properties":{"shape_id":"{\"265701\": 103}","direction_id":"{\"0\": 103}","headsign":"{\"NRG Station - Local\": 103}","duration_avg":62.33009708737864,"n_vehicles":103,"d":943,"route_I_counts":"{\"126\": 103}","source":13,"target":14,"layer":"L","from":"Susquehanna Dauphin Station - BSL","to":"Cecil B Moore Station - BSL"},"geometry":{"type":"LineString","coordinates":[[-75.156109,39.987031],[-75.157925,39.978672]]}},{"type":"Feature","properties":{"duration_avg":76.66666666666667,"n_vehicles":108,"d":779,"route_I_counts":"{\"126\": 108}","shape_id":"{\"265712\": 107, \"265723\": 1}","direction_id":"{\"1\": 108}","headsign":"{\"Fern Rock Trans Ctr - Local\": 108}","source":13,"target":12,"layer":"L","from":"Susquehanna Dauphin Station - BSL","to":"North Philadelphia Station - BSL"},"geometry":{"type":"LineString","coordinates":[[-75.156109,39.987031],[-75.154629,39.993944]]}},{"type":"Feature","properties":{"shape_id":"{\"265701\": 103}","direction_id":"{\"0\": 103}","headsign":"{\"NRG Station - Local\": 103}","duration_avg":120.0,"n_vehicles":103,"d":812,"route_I_counts":"{\"126\": 103}","source":14,"target":3,"layer":"L","from":"Cecil B Moore Station - BSL","to":"Girard Station - BSL"},"geometry":{"type":"LineString","coordinates":[[-75.157925,39.978672],[-75.159488,39.971473]]}},{"type":"Feature","properties":{"duration_avg":103.33333333333333,"n_vehicles":108,"d":943,"route_I_counts":"{\"126\": 108}","shape_id":"{\"265712\": 107, \"265723\": 1}","direction_id":"{\"1\": 108}","headsign":"{\"Fern Rock Trans Ctr - Local\": 108}","source":14,"target":13,"layer":"L","from":"Cecil B Moore Station - BSL","to":"Susquehanna Dauphin Station - BSL"},"geometry":{"type":"LineString","coordinates":[[-75.157925,39.978672],[-75.156109,39.987031]]}},{"type":"Feature","properties":{"shape_id":"{\"265700\": 49, \"265708\": 6}","direction_id":"{\"0\": 55}","headsign":"{\"8th St Station - Ridge\": 55}","duration_avg":137.45454545454547,"n_vehicles":55,"d":1488,"route_I_counts":"{\"126\": 55}","source":15,"target":22,"layer":"L","from":"Fairmount Station - BSL","to":"Chinatown Station - BSL"},"geometry":{"type":"LineString","coordinates":[[-75.160461,39.967039],[-75.152795,39.955028]]}},{"type":"Feature","properties":{"shape_id":"{\"265701\": 104}","direction_id":"{\"0\": 104}","headsign":"{\"NRG Station - Local\": 104}","duration_avg":62.30769230769231,"n_vehicles":104,"d":524,"route_I_counts":"{\"126\": 104}","source":15,"target":4,"layer":"L","from":"Fairmount Station - BSL","to":"Spring Garden Station - BSL"},"geometry":{"type":"LineString","coordinates":[[-75.160461,39.967039],[-75.161471,39.962392]]}},{"type":"Feature","properties":{"duration_avg":84.29447852760737,"n_vehicles":163,"d":500,"route_I_counts":"{\"126\": 163}","shape_id":"{\"265712\": 106, \"265715\": 47, \"265723\": 1, \"265725\": 9}","direction_id":"{\"1\": 163}","headsign":"{\"Fern Rock Trans Ctr - Local\": 107, \"Fern Rock Trans Ctr - Ridge\": 9, \"Olney Trans Ctr - Ridge\": 47}","source":15,"target":3,"layer":"L","from":"Fairmount Station - BSL","to":"Girard Station - BSL"},"geometry":{"type":"LineString","coordinates":[[-75.160461,39.967039],[-75.159488,39.971473]]}},{"type":"Feature","properties":{"shape_id":"{\"265701\": 105}","direction_id":"{\"0\": 105}","headsign":"{\"NRG Station - Local\": 105}","duration_avg":62.285714285714285,"n_vehicles":105,"d":890,"route_I_counts":"{\"126\": 105}","source":16,"target":17,"layer":"L","from":"Lombard South Station - BSL","to":"Ellsworth Federal Station - BSL"},"geometry":{"type":"LineString","coordinates":[[-75.165471,39.944077],[-75.167177,39.936182]]}},{"type":"Feature","properties":{"duration_avg":76.41509433962264,"n_vehicles":106,"d":526,"route_I_counts":"{\"126\": 106}","shape_id":"{\"265712\": 105, \"265723\": 1}","direction_id":"{\"1\": 106}","headsign":"{\"Fern Rock Trans Ctr - Local\": 106}","source":16,"target":7,"layer":"L","from":"Lombard South Station - BSL","to":"Walnut Locust Station - BSL"},"geometry":{"type":"LineString","coordinates":[[-75.165471,39.944077],[-75.164462,39.948734]]}},{"type":"Feature","properties":{"shape_id":"{\"265701\": 105}","direction_id":"{\"0\": 105}","headsign":"{\"NRG Station - Local\": 105}","duration_avg":117.71428571428571,"n_vehicles":105,"d":718,"route_I_counts":"{\"126\": 105}","source":17,"target":18,"layer":"L","from":"Ellsworth Federal Station - BSL","to":"Tasker Morris Station - BSL"},"geometry":{"type":"LineString","coordinates":[[-75.167177,39.936182],[-75.16857,39.929813]]}},{"type":"Feature","properties":{"duration_avg":120.0,"n_vehicles":106,"d":890,"route_I_counts":"{\"126\": 106}","shape_id":"{\"265712\": 105, \"265723\": 1}","direction_id":"{\"1\": 106}","headsign":"{\"Fern Rock Trans Ctr - Local\": 106}","source":17,"target":16,"layer":"L","from":"Ellsworth Federal Station - BSL","to":"Lombard South Station - BSL"},"geometry":{"type":"LineString","coordinates":[[-75.167177,39.936182],[-75.165471,39.944077]]}},{"type":"Feature","properties":{"shape_id":"{\"265701\": 105}","direction_id":"{\"0\": 105}","headsign":"{\"NRG Station - Local\": 105}","duration_avg":120.0,"n_vehicles":105,"d":613,"route_I_counts":"{\"126\": 105}","source":18,"target":19,"layer":"L","from":"Tasker Morris Station - BSL","to":"Snyder Station - BSL"},"geometry":{"type":"LineString","coordinates":[[-75.16857,39.929813],[-75.169758,39.92438]]}},{"type":"Feature","properties":{"duration_avg":103.42857142857143,"n_vehicles":105,"d":718,"route_I_counts":"{\"126\": 105}","shape_id":"{\"265712\": 104, \"265723\": 1}","direction_id":"{\"1\": 105}","headsign":"{\"Fern Rock Trans Ctr - Local\": 105}","source":18,"target":17,"layer":"L","from":"Tasker Morris Station - BSL","to":"Ellsworth Federal Station - BSL"},"geometry":{"type":"LineString","coordinates":[[-75.16857,39.929813],[-75.167177,39.936182]]}},{"type":"Feature","properties":{"shape_id":"{\"265701\": 106}","direction_id":"{\"0\": 106}","headsign":"{\"NRG Station - Local\": 106}","duration_avg":62.264150943396224,"n_vehicles":106,"d":856,"route_I_counts":"{\"126\": 106}","source":19,"target":20,"layer":"L","from":"Snyder Station - BSL","to":"Oregon Station - BSL"},"geometry":{"type":"LineString","coordinates":[[-75.169758,39.92438],[-75.171414,39.916789]]}},{"type":"Feature","properties":{"duration_avg":76.57142857142857,"n_vehicles":105,"d":613,"route_I_counts":"{\"126\": 105}","shape_id":"{\"265712\": 104, \"265723\": 1}","direction_id":"{\"1\": 105}","headsign":"{\"Fern Rock Trans Ctr - Local\": 105}","source":19,"target":18,"layer":"L","from":"Snyder Station - BSL","to":"Tasker Morris Station - BSL"},"geometry":{"type":"LineString","coordinates":[[-75.169758,39.92438],[-75.16857,39.929813]]}},{"type":"Feature","properties":{"shape_id":"{\"265701\": 106}","direction_id":"{\"0\": 106}","headsign":"{\"NRG Station - Local\": 106}","duration_avg":237.73584905660377,"n_vehicles":106,"d":1281,"route_I_counts":"{\"126\": 106}","source":20,"target":21,"layer":"L","from":"Oregon Station - BSL","to":"NRG Station - BSL"},"geometry":{"type":"LineString","coordinates":[[-75.171414,39.916789],[-75.17391,39.905433]]}},{"type":"Feature","properties":{"duration_avg":103.42857142857143,"n_vehicles":105,"d":857,"route_I_counts":"{\"126\": 105}","shape_id":"{\"265712\": 104, \"265723\": 1}","direction_id":"{\"1\": 105}","headsign":"{\"Fern Rock Trans Ctr - Local\": 105}","source":20,"target":19,"layer":"L","from":"Oregon Station - BSL","to":"Snyder Station - BSL"},"geometry":{"type":"LineString","coordinates":[[-75.171414,39.916789],[-75.169758,39.92438]]}},{"type":"Feature","properties":{"duration_avg":136.57142857142858,"n_vehicles":105,"d":1281,"route_I_counts":"{\"126\": 105}","shape_id":"{\"265712\": 104, \"265723\": 1}","direction_id":"{\"1\": 105}","headsign":"{\"Fern Rock Trans Ctr - Local\": 105}","source":21,"target":20,"layer":"L","from":"NRG Station - BSL","to":"Oregon Station - BSL"},"geometry":{"type":"LineString","coordinates":[[-75.17391,39.905433],[-75.171414,39.916789]]}},{"type":"Feature","properties":{"shape_id":"{\"265700\": 49, \"265708\": 6}","direction_id":"{\"0\": 55}","headsign":"{\"8th St Station - Ridge\": 55}","duration_avg":102.54545454545455,"n_vehicles":55,"d":438,"route_I_counts":"{\"126\": 55}","source":22,"target":23,"layer":"L","from":"Chinatown Station - BSL","to":"8th St & Market St - BSL"},"geometry":{"type":"LineString","coordinates":[[-75.152795,39.955028],[-75.153636,39.951138]]}},{"type":"Feature","properties":{"duration_avg":120.0,"n_vehicles":56,"d":1488,"route_I_counts":"{\"126\": 56}","shape_id":"{\"265715\": 47, \"265725\": 9}","direction_id":"{\"1\": 56}","headsign":"{\"Fern Rock Trans Ctr - Ridge\": 9, \"Olney Trans Ctr - Ridge\": 47}","source":22,"target":15,"layer":"L","from":"Chinatown Station - BSL","to":"Fairmount Station - BSL"},"geometry":{"type":"LineString","coordinates":[[-75.152795,39.955028],[-75.160461,39.967039]]}},{"type":"Feature","properties":{"duration_avg":81.42857142857143,"n_vehicles":56,"d":438,"route_I_counts":"{\"126\": 56}","shape_id":"{\"265715\": 47, \"265725\": 9}","direction_id":"{\"1\": 56}","headsign":"{\"Fern Rock Trans Ctr - Ridge\": 9, \"Olney Trans Ctr - Ridge\": 47}","source":23,"target":22,"layer":"L","from":"8th St & Market St - BSL","to":"Chinatown Station - BSL"},"geometry":{"type":"LineString","coordinates":[[-75.153636,39.951138],[-75.152795,39.955028]]}},{"type":"Feature","properties":{"duration_avg":60.0,"n_vehicles":121,"d":401,"route_I_counts":"{\"135\": 121}","shape_id":"{\"265736\": 1, \"265737\": 120}","direction_id":"{\"0\": 121}","headsign":"{\"Frankford Trans Ctr - All Stops\": 121}","source":23,"target":36,"layer":"L","from":"8th St & Market St - BSL","to":"5th St Independence Hall Station - MFL"},"geometry":{"type":"LineString","coordinates":[[-75.153636,39.951138],[-75.148939,39.95053]]}},{"type":"Feature","properties":{"duration_avg":60.0,"n_vehicles":124,"d":409,"route_I_counts":"{\"135\": 124}","shape_id":"{\"265744\": 114, \"265745\": 1, \"265746\": 9}","direction_id":"{\"1\": 124}","headsign":"{\"69th St Trans Ctr - All Stops\": 124}","source":23,"target":35,"layer":"L","from":"8th St & Market St - BSL","to":"11th St Station - MFL"},"geometry":{"type":"LineString","coordinates":[[-75.153636,39.951138],[-75.158322,39.951693]]}},{"type":"Feature","properties":{"shape_id":"{\"265736\": 1, \"265737\": 117}","direction_id":"{\"0\": 118}","headsign":"{\"Frankford Trans Ctr - All Stops\": 118}","duration_avg":60.0,"n_vehicles":118,"d":581,"route_I_counts":"{\"135\": 118}","source":24,"target":25,"layer":"L","from":"69th St Transportation Center - MFL EB","to":"Millbourne Station - MFL"},"geometry":{"type":"LineString","coordinates":[[-75.258555,39.962338],[-75.252243,39.96432]]}},{"type":"Feature","properties":{"shape_id":"{\"265736\": 1, \"265737\": 118}","direction_id":"{\"0\": 119}","headsign":"{\"Frankford Trans Ctr - All Stops\": 119}","duration_avg":120.0,"n_vehicles":119,"d":500,"route_I_counts":"{\"135\": 119}","source":25,"target":26,"layer":"L","from":"Millbourne Station - MFL","to":"63rd St Station - MFL"},"geometry":{"type":"LineString","coordinates":[[-75.252243,39.96432],[-75.246767,39.962714]]}},{"type":"Feature","properties":{"duration_avg":120.0,"n_vehicles":127,"d":580,"route_I_counts":"{\"135\": 127}","shape_id":"{\"265744\": 117, \"265745\": 1, \"265746\": 9}","direction_id":"{\"1\": 127}","headsign":"{\"69th St Trans Ctr - All Stops\": 127}","source":25,"target":24,"layer":"L","from":"Millbourne Station - MFL","to":"69th St Transportation Center - MFL EB"},"geometry":{"type":"LineString","coordinates":[[-75.252243,39.96432],[-75.258555,39.962338]]}},{"type":"Feature","properties":{"shape_id":"{\"265736\": 1, \"265737\": 118}","direction_id":"{\"0\": 119}","headsign":"{\"Frankford Trans Ctr - All Stops\": 119}","duration_avg":60.0,"n_vehicles":119,"d":519,"route_I_counts":"{\"135\": 119}","source":26,"target":27,"layer":"L","from":"63rd St Station - MFL","to":"60th St Station - MFL"},"geometry":{"type":"LineString","coordinates":[[-75.246767,39.962714],[-75.240757,39.961956]]}},{"type":"Feature","properties":{"duration_avg":120.0,"n_vehicles":126,"d":500,"route_I_counts":"{\"135\": 126}","shape_id":"{\"265744\": 116, \"265745\": 1, \"265746\": 9}","direction_id":"{\"1\": 126}","headsign":"{\"69th St Trans Ctr - All Stops\": 126}","source":26,"target":25,"layer":"L","from":"63rd St Station - MFL","to":"Millbourne Station - MFL"},"geometry":{"type":"LineString","coordinates":[[-75.246767,39.962714],[-75.252243,39.96432]]}},{"type":"Feature","properties":{"shape_id":"{\"265736\": 1, \"265737\": 118}","direction_id":"{\"0\": 119}","headsign":"{\"Frankford Trans Ctr - All Stops\": 119}","duration_avg":60.0,"n_vehicles":119,"d":682,"route_I_counts":"{\"135\": 119}","source":27,"target":28,"layer":"L","from":"60th St Station - MFL","to":"56th St Station - MFL"},"geometry":{"type":"LineString","coordinates":[[-75.240757,39.961956],[-75.232859,39.960962]]}},{"type":"Feature","properties":{"duration_avg":60.0,"n_vehicles":126,"d":519,"route_I_counts":"{\"135\": 126}","shape_id":"{\"265744\": 116, \"265745\": 1, \"265746\": 9}","direction_id":"{\"1\": 126}","headsign":"{\"69th St Trans Ctr - All Stops\": 126}","source":27,"target":26,"layer":"L","from":"60th St Station - MFL","to":"63rd St Station - MFL"},"geometry":{"type":"LineString","coordinates":[[-75.240757,39.961956],[-75.246767,39.962714]]}},{"type":"Feature","properties":{"shape_id":"{\"265736\": 1, \"265737\": 118}","direction_id":"{\"0\": 119}","headsign":"{\"Frankford Trans Ctr - All Stops\": 119}","duration_avg":60.0,"n_vehicles":119,"d":688,"route_I_counts":"{\"135\": 119}","source":28,"target":29,"layer":"L","from":"56th St Station - MFL","to":"52nd St Station - MFL"},"geometry":{"type":"LineString","coordinates":[[-75.232859,39.960962],[-75.224889,39.959976]]}},{"type":"Feature","properties":{"duration_avg":60.0,"n_vehicles":126,"d":683,"route_I_counts":"{\"135\": 126}","shape_id":"{\"265744\": 116, \"265745\": 1, \"265746\": 9}","direction_id":"{\"1\": 126}","headsign":"{\"69th St Trans Ctr - All Stops\": 126}","source":28,"target":27,"layer":"L","from":"56th St Station - MFL","to":"60th St Station - MFL"},"geometry":{"type":"LineString","coordinates":[[-75.232859,39.960962],[-75.240757,39.961956]]}},{"type":"Feature","properties":{"shape_id":"{\"265736\": 1, \"265737\": 118}","direction_id":"{\"0\": 119}","headsign":"{\"Frankford Trans Ctr - All Stops\": 119}","duration_avg":120.0,"n_vehicles":119,"d":938,"route_I_counts":"{\"135\": 119}","source":29,"target":30,"layer":"L","from":"52nd St Station - MFL","to":"46th St Station - MFL"},"geometry":{"type":"LineString","coordinates":[[-75.224889,39.959976],[-75.214028,39.958619]]}},{"type":"Feature","properties":{"duration_avg":60.0,"n_vehicles":126,"d":685,"route_I_counts":"{\"135\": 126}","shape_id":"{\"265744\": 116, \"265745\": 1, \"265746\": 9}","direction_id":"{\"1\": 126}","headsign":"{\"69th St Trans Ctr - All Stops\": 126}","source":29,"target":28,"layer":"L","from":"52nd St Station - MFL","to":"56th St Station - MFL"},"geometry":{"type":"LineString","coordinates":[[-75.224889,39.959976],[-75.232859,39.960962]]}},{"type":"Feature","properties":{"shape_id":"{\"265736\": 1, \"265737\": 119}","direction_id":"{\"0\": 120}","headsign":"{\"Frankford Trans Ctr - All Stops\": 120}","duration_avg":120.0,"n_vehicles":120,"d":1042,"route_I_counts":"{\"135\": 120}","source":30,"target":31,"layer":"L","from":"46th St Station - MFL","to":"40th St Station - MFL"},"geometry":{"type":"LineString","coordinates":[[-75.214028,39.958619],[-75.201963,39.957117]]}},{"type":"Feature","properties":{"duration_avg":60.0,"n_vehicles":126,"d":941,"route_I_counts":"{\"135\": 126}","shape_id":"{\"265744\": 116, \"265745\": 1, \"265746\": 9}","direction_id":"{\"1\": 126}","headsign":"{\"69th St Trans Ctr - All Stops\": 126}","source":30,"target":29,"layer":"L","from":"46th St Station - MFL","to":"52nd St Station - MFL"},"geometry":{"type":"LineString","coordinates":[[-75.214028,39.958619],[-75.224889,39.959976]]}},{"type":"Feature","properties":{"shape_id":"{\"265736\": 1, \"265737\": 119}","direction_id":"{\"0\": 120}","headsign":"{\"Frankford Trans Ctr - All Stops\": 120}","duration_avg":120.0,"n_vehicles":120,"d":905,"route_I_counts":"{\"135\": 120}","source":31,"target":32,"layer":"L","from":"40th St Station - MFL","to":"34th St Station - MFL"},"geometry":{"type":"LineString","coordinates":[[-75.201963,39.957117],[-75.19148,39.95583]]}},{"type":"Feature","properties":{"duration_avg":120.0,"n_vehicles":125,"d":1042,"route_I_counts":"{\"135\": 125}","shape_id":"{\"265744\": 115, \"265745\": 1, \"265746\": 9}","direction_id":"{\"1\": 125}","headsign":"{\"69th St Trans Ctr - All Stops\": 125}","source":31,"target":30,"layer":"L","from":"40th St Station - MFL","to":"46th St Station - MFL"},"geometry":{"type":"LineString","coordinates":[[-75.201963,39.957117],[-75.214028,39.958619]]}},{"type":"Feature","properties":{"shape_id":"{\"265736\": 1, \"265737\": 119}","direction_id":"{\"0\": 120}","headsign":"{\"Frankford Trans Ctr - All Stops\": 120}","duration_avg":60.0,"n_vehicles":120,"d":709,"route_I_counts":"{\"135\": 120}","source":32,"target":33,"layer":"L","from":"34th St Station - MFL","to":"30th St Station - MFL"},"geometry":{"type":"LineString","coordinates":[[-75.19148,39.95583],[-75.183276,39.954814]]}},{"type":"Feature","properties":{"duration_avg":60.0,"n_vehicles":125,"d":905,"route_I_counts":"{\"135\": 125}","shape_id":"{\"265744\": 115, \"265745\": 1, \"265746\": 9}","direction_id":"{\"1\": 125}","headsign":"{\"69th St Trans Ctr - All Stops\": 125}","source":32,"target":31,"layer":"L","from":"34th St Station - MFL","to":"40th St Station - MFL"},"geometry":{"type":"LineString","coordinates":[[-75.19148,39.95583],[-75.201963,39.957117]]}},{"type":"Feature","properties":{"duration_avg":60.0,"n_vehicles":125,"d":711,"route_I_counts":"{\"135\": 125}","shape_id":"{\"265744\": 115, \"265745\": 1, \"265746\": 9}","direction_id":"{\"1\": 125}","headsign":"{\"69th St Trans Ctr - All Stops\": 125}","source":33,"target":32,"layer":"L","from":"30th St Station - MFL","to":"34th St Station - MFL"},"geometry":{"type":"LineString","coordinates":[[-75.183276,39.954814],[-75.19148,39.95583]]}},{"type":"Feature","properties":{"duration_avg":121.98347107438016,"n_vehicles":121,"d":1555,"route_I_counts":"{\"135\": 121}","shape_id":"{\"265736\": 1, \"265737\": 120}","direction_id":"{\"0\": 121}","headsign":"{\"Frankford Trans Ctr - All Stops\": 121}","source":33,"target":6,"layer":"L","from":"30th St Station - MFL","to":"City Hall Station - BSL"},"geometry":{"type":"LineString","coordinates":[[-75.183276,39.954814],[-75.164129,39.952473]]}},{"type":"Feature","properties":{"shape_id":"{\"265736\": 1, \"265737\": 120}","direction_id":"{\"0\": 121}","headsign":"{\"Frankford Trans Ctr - All Stops\": 121}","duration_avg":60.0,"n_vehicles":121,"d":270,"route_I_counts":"{\"135\": 121}","source":34,"target":35,"layer":"L","from":"13th St Station - MFL","to":"11th St Station - MFL"},"geometry":{"type":"LineString","coordinates":[[-75.16145,39.952065],[-75.158322,39.951693]]}},{"type":"Feature","properties":{"duration_avg":62.4,"n_vehicles":125,"d":332,"route_I_counts":"{\"135\": 125}","shape_id":"{\"265744\": 115, \"265745\": 1, \"265746\": 9}","direction_id":"{\"1\": 125}","headsign":"{\"69th St Trans Ctr - All Stops\": 125}","source":34,"target":6,"layer":"L","from":"13th St Station - MFL","to":"City Hall Station - BSL"},"geometry":{"type":"LineString","coordinates":[[-75.16145,39.952065],[-75.164129,39.952473]]}},{"type":"Feature","properties":{"duration_avg":60.0,"n_vehicles":124,"d":270,"route_I_counts":"{\"135\": 124}","shape_id":"{\"265744\": 114, \"265745\": 1, \"265746\": 9}","direction_id":"{\"1\": 124}","headsign":"{\"69th St Trans Ctr - All Stops\": 124}","source":35,"target":34,"layer":"L","from":"11th St Station - MFL","to":"13th St Station - MFL"},"geometry":{"type":"LineString","coordinates":[[-75.158322,39.951693],[-75.16145,39.952065]]}},{"type":"Feature","properties":{"duration_avg":60.0,"n_vehicles":121,"d":409,"route_I_counts":"{\"135\": 121}","shape_id":"{\"265736\": 1, \"265737\": 120}","direction_id":"{\"0\": 121}","headsign":"{\"Frankford Trans Ctr - All Stops\": 121}","source":35,"target":23,"layer":"L","from":"11th St Station - MFL","to":"8th St & Market St - BSL"},"geometry":{"type":"LineString","coordinates":[[-75.158322,39.951693],[-75.153636,39.951138]]}},{"type":"Feature","properties":{"shape_id":"{\"265736\": 1, \"265737\": 121}","direction_id":"{\"0\": 122}","headsign":"{\"Frankford Trans Ctr - All Stops\": 122}","duration_avg":60.0,"n_vehicles":122,"d":449,"route_I_counts":"{\"135\": 122}","source":36,"target":37,"layer":"L","from":"5th St Independence Hall Station - MFL","to":"2nd St Station - MFL"},"geometry":{"type":"LineString","coordinates":[[-75.148939,39.95053],[-75.143758,39.949795]]}},{"type":"Feature","properties":{"duration_avg":60.0,"n_vehicles":124,"d":401,"route_I_counts":"{\"135\": 124}","shape_id":"{\"265744\": 114, \"265745\": 1, \"265746\": 9}","direction_id":"{\"1\": 124}","headsign":"{\"69th St Trans Ctr - All Stops\": 124}","source":36,"target":23,"layer":"L","from":"5th St Independence Hall Station - MFL","to":"8th St & Market St - BSL"},"geometry":{"type":"LineString","coordinates":[[-75.148939,39.95053],[-75.153636,39.951138]]}},{"type":"Feature","properties":{"shape_id":"{\"265736\": 1, \"265737\": 121}","direction_id":"{\"0\": 122}","headsign":"{\"Frankford Trans Ctr - All Stops\": 122}","duration_avg":120.0,"n_vehicles":122,"d":1230,"route_I_counts":"{\"135\": 122}","source":37,"target":38,"layer":"L","from":"2nd St Station - MFL","to":"Spring Garden Station - MFL"},"geometry":{"type":"LineString","coordinates":[[-75.143758,39.949795],[-75.140337,39.960533]]}},{"type":"Feature","properties":{"duration_avg":60.0,"n_vehicles":124,"d":450,"route_I_counts":"{\"135\": 124}","shape_id":"{\"265744\": 114, \"265745\": 1, \"265746\": 9}","direction_id":"{\"1\": 124}","headsign":"{\"69th St Trans Ctr - All Stops\": 124}","source":37,"target":36,"layer":"L","from":"2nd St Station - MFL","to":"5th St Independence Hall Station - MFL"},"geometry":{"type":"LineString","coordinates":[[-75.143758,39.949795],[-75.148939,39.95053]]}},{"type":"Feature","properties":{"shape_id":"{\"265736\": 1, \"265737\": 121}","direction_id":"{\"0\": 122}","headsign":"{\"Frankford Trans Ctr - All Stops\": 122}","duration_avg":120.0,"n_vehicles":122,"d":995,"route_I_counts":"{\"135\": 122}","source":38,"target":39,"layer":"L","from":"Spring Garden Station - MFL","to":"Girard Station - MFL"},"geometry":{"type":"LineString","coordinates":[[-75.140337,39.960533],[-75.136146,39.968877]]}},{"type":"Feature","properties":{"duration_avg":180.0,"n_vehicles":123,"d":1222,"route_I_counts":"{\"135\": 123}","shape_id":"{\"265744\": 113, \"265745\": 1, \"265746\": 9}","direction_id":"{\"1\": 123}","headsign":"{\"69th St Trans Ctr - All Stops\": 123}","source":38,"target":37,"layer":"L","from":"Spring Garden Station - MFL","to":"2nd St Station - MFL"},"geometry":{"type":"LineString","coordinates":[[-75.140337,39.960533],[-75.143758,39.949795]]}},{"type":"Feature","properties":{"shape_id":"{\"265736\": 1, \"265737\": 121}","direction_id":"{\"0\": 122}","headsign":"{\"Frankford Trans Ctr - All Stops\": 122}","duration_avg":120.0,"n_vehicles":122,"d":1109,"route_I_counts":"{\"135\": 122}","source":39,"target":40,"layer":"L","from":"Girard Station - MFL","to":"Berks Station - MFL"},"geometry":{"type":"LineString","coordinates":[[-75.136146,39.968877],[-75.133448,39.978626]]}},{"type":"Feature","properties":{"duration_avg":120.0,"n_vehicles":123,"d":996,"route_I_counts":"{\"135\": 123}","shape_id":"{\"265744\": 113, \"265745\": 1, \"265746\": 9}","direction_id":"{\"1\": 123}","headsign":"{\"69th St Trans Ctr - All Stops\": 123}","source":39,"target":38,"layer":"L","from":"Girard Station - MFL","to":"Spring Garden Station - MFL"},"geometry":{"type":"LineString","coordinates":[[-75.136146,39.968877],[-75.140337,39.960533]]}},{"type":"Feature","properties":{"shape_id":"{\"265736\": 1, \"265737\": 122}","direction_id":"{\"0\": 123}","headsign":"{\"Frankford Trans Ctr - All Stops\": 123}","duration_avg":120.0,"n_vehicles":123,"d":777,"route_I_counts":"{\"135\": 123}","source":40,"target":41,"layer":"L","from":"Berks Station - MFL","to":"York Dauphin Station - MFL"},"geometry":{"type":"LineString","coordinates":[[-75.133448,39.978626],[-75.131942,39.985512]]}},{"type":"Feature","properties":{"duration_avg":120.0,"n_vehicles":123,"d":1107,"route_I_counts":"{\"135\": 123}","shape_id":"{\"265744\": 113, \"265745\": 1, \"265746\": 9}","direction_id":"{\"1\": 123}","headsign":"{\"69th St Trans Ctr - All Stops\": 123}","source":40,"target":39,"layer":"L","from":"Berks Station - MFL","to":"Girard Station - MFL"},"geometry":{"type":"LineString","coordinates":[[-75.133448,39.978626],[-75.136146,39.968877]]}},{"type":"Feature","properties":{"shape_id":"{\"265736\": 1, \"265737\": 122}","direction_id":"{\"0\": 123}","headsign":"{\"Frankford Trans Ctr - All Stops\": 123}","duration_avg":60.0,"n_vehicles":123,"d":541,"route_I_counts":"{\"135\": 123}","source":41,"target":42,"layer":"L","from":"York Dauphin Station - MFL","to":"Huntingdon Station - MFL"},"geometry":{"type":"LineString","coordinates":[[-75.131942,39.985512],[-75.127274,39.988803]]}},{"type":"Feature","properties":{"duration_avg":60.0,"n_vehicles":123,"d":779,"route_I_counts":"{\"135\": 123}","shape_id":"{\"265744\": 113, \"265745\": 1, \"265746\": 9}","direction_id":"{\"1\": 123}","headsign":"{\"69th St Trans Ctr - All Stops\": 123}","source":41,"target":40,"layer":"L","from":"York Dauphin Station - MFL","to":"Berks Station - MFL"},"geometry":{"type":"LineString","coordinates":[[-75.131942,39.985512],[-75.133448,39.978626]]}},{"type":"Feature","properties":{"shape_id":"{\"265736\": 1, \"265737\": 122}","direction_id":"{\"0\": 123}","headsign":"{\"Frankford Trans Ctr - All Stops\": 123}","duration_avg":60.0,"n_vehicles":123,"d":501,"route_I_counts":"{\"135\": 123}","source":42,"target":43,"layer":"L","from":"Huntingdon Station - MFL","to":"Somerset Station - MFL"},"geometry":{"type":"LineString","coordinates":[[-75.127274,39.988803],[-75.122489,39.991424]]}},{"type":"Feature","properties":{"duration_avg":120.0,"n_vehicles":122,"d":549,"route_I_counts":"{\"135\": 122}","shape_id":"{\"265744\": 112, \"265745\": 1, \"265746\": 9}","direction_id":"{\"1\": 122}","headsign":"{\"69th St Trans Ctr - All Stops\": 122}","source":42,"target":41,"layer":"L","from":"Huntingdon Station - MFL","to":"York Dauphin Station - MFL"},"geometry":{"type":"LineString","coordinates":[[-75.127274,39.988803],[-75.131942,39.985512]]}},{"type":"Feature","properties":{"shape_id":"{\"265736\": 1, \"265737\": 122}","direction_id":"{\"0\": 123}","headsign":"{\"Frankford Trans Ctr - All Stops\": 123}","duration_avg":120.0,"n_vehicles":123,"d":954,"route_I_counts":"{\"135\": 123}","source":43,"target":44,"layer":"L","from":"Somerset Station - MFL","to":"Allegheny Station - MFL"},"geometry":{"type":"LineString","coordinates":[[-75.122489,39.991424],[-75.11344,39.996471]]}},{"type":"Feature","properties":{"duration_avg":60.0,"n_vehicles":122,"d":501,"route_I_counts":"{\"135\": 122}","shape_id":"{\"265744\": 112, \"265745\": 1, \"265746\": 9}","direction_id":"{\"1\": 122}","headsign":"{\"69th St Trans Ctr - All Stops\": 122}","source":43,"target":42,"layer":"L","from":"Somerset Station - MFL","to":"Huntingdon Station - MFL"},"geometry":{"type":"LineString","coordinates":[[-75.122489,39.991424],[-75.127274,39.988803]]}},{"type":"Feature","properties":{"shape_id":"{\"265736\": 1, \"265737\": 123}","direction_id":"{\"0\": 124}","headsign":"{\"Frankford Trans Ctr - All Stops\": 124}","duration_avg":60.0,"n_vehicles":124,"d":732,"route_I_counts":"{\"135\": 124}","source":44,"target":45,"layer":"L","from":"Allegheny Station - MFL","to":"Tioga Station - MFL"},"geometry":{"type":"LineString","coordinates":[[-75.11344,39.996471],[-75.106439,40.000291]]}},{"type":"Feature","properties":{"duration_avg":120.0,"n_vehicles":122,"d":954,"route_I_counts":"{\"135\": 122}","shape_id":"{\"265744\": 112, \"265745\": 1, \"265746\": 9}","direction_id":"{\"1\": 122}","headsign":"{\"69th St Trans Ctr - All Stops\": 122}","source":44,"target":43,"layer":"L","from":"Allegheny Station - MFL","to":"Somerset Station - MFL"},"geometry":{"type":"LineString","coordinates":[[-75.11344,39.996471],[-75.122489,39.991424]]}},{"type":"Feature","properties":{"shape_id":"{\"265736\": 1, \"265737\": 123}","direction_id":"{\"0\": 124}","headsign":"{\"Frankford Trans Ctr - All Stops\": 124}","duration_avg":120.0,"n_vehicles":124,"d":1054,"route_I_counts":"{\"135\": 124}","source":45,"target":46,"layer":"L","from":"Tioga Station - MFL","to":"Erie Torresdale Station - MFL"},"geometry":{"type":"LineString","coordinates":[[-75.106439,40.000291],[-75.096404,40.005825]]}},{"type":"Feature","properties":{"duration_avg":60.0,"n_vehicles":122,"d":732,"route_I_counts":"{\"135\": 122}","shape_id":"{\"265744\": 112, \"265745\": 1, \"265746\": 9}","direction_id":"{\"1\": 122}","headsign":"{\"69th St Trans Ctr - All Stops\": 122}","source":45,"target":44,"layer":"L","from":"Tioga Station - MFL","to":"Allegheny Station - MFL"},"geometry":{"type":"LineString","coordinates":[[-75.106439,40.000291],[-75.11344,39.996471]]}},{"type":"Feature","properties":{"shape_id":"{\"265736\": 1, \"265737\": 123}","direction_id":"{\"0\": 124}","headsign":"{\"Frankford Trans Ctr - All Stops\": 124}","duration_avg":120.0,"n_vehicles":124,"d":869,"route_I_counts":"{\"135\": 124}","source":46,"target":47,"layer":"L","from":"Erie Torresdale Station - MFL","to":"Church Station - MFL"},"geometry":{"type":"LineString","coordinates":[[-75.096404,40.005825],[-75.088651,40.010901]]}},{"type":"Feature","properties":{"duration_avg":120.0,"n_vehicles":121,"d":1054,"route_I_counts":"{\"135\": 121}","shape_id":"{\"265744\": 111, \"265745\": 1, \"265746\": 9}","direction_id":"{\"1\": 121}","headsign":"{\"69th St Trans Ctr - All Stops\": 121}","source":46,"target":45,"layer":"L","from":"Erie Torresdale Station - MFL","to":"Tioga Station - MFL"},"geometry":{"type":"LineString","coordinates":[[-75.096404,40.005825],[-75.106439,40.000291]]}},{"type":"Feature","properties":{"shape_id":"{\"265736\": 1, \"265737\": 124}","direction_id":"{\"0\": 125}","headsign":"{\"Frankford Trans Ctr - All Stops\": 125}","duration_avg":60.0,"n_vehicles":125,"d":753,"route_I_counts":"{\"135\": 125}","source":47,"target":48,"layer":"L","from":"Church Station - MFL","to":"Arrott Transportation Center - MFL"},"geometry":{"type":"LineString","coordinates":[[-75.088651,40.010901],[-75.083802,40.016564]]}},{"type":"Feature","properties":{"duration_avg":120.0,"n_vehicles":121,"d":864,"route_I_counts":"{\"135\": 121}","shape_id":"{\"265744\": 111, \"265745\": 1, \"265746\": 9}","direction_id":"{\"1\": 121}","headsign":"{\"69th St Trans Ctr - All Stops\": 121}","source":47,"target":46,"layer":"L","from":"Church Station - MFL","to":"Erie Torresdale Station - MFL"},"geometry":{"type":"LineString","coordinates":[[-75.088651,40.010901],[-75.096404,40.005825]]}},{"type":"Feature","properties":{"shape_id":"{\"265736\": 1, \"265737\": 124}","direction_id":"{\"0\": 125}","headsign":"{\"Frankford Trans Ctr - All Stops\": 125}","duration_avg":120.0,"n_vehicles":125,"d":870,"route_I_counts":"{\"135\": 125}","source":48,"target":49,"layer":"L","from":"Arrott Transportation Center - MFL","to":"Frankford Transportation Center - MFL"},"geometry":{"type":"LineString","coordinates":[[-75.083802,40.016564],[-75.077861,40.022929]]}},{"type":"Feature","properties":{"duration_avg":60.0,"n_vehicles":121,"d":755,"route_I_counts":"{\"135\": 121}","shape_id":"{\"265744\": 111, \"265745\": 1, \"265746\": 9}","direction_id":"{\"1\": 121}","headsign":"{\"69th St Trans Ctr - All Stops\": 121}","source":48,"target":47,"layer":"L","from":"Arrott Transportation Center - MFL","to":"Church Station - MFL"},"geometry":{"type":"LineString","coordinates":[[-75.083802,40.016564],[-75.088651,40.010901]]}},{"type":"Feature","properties":{"duration_avg":120.0,"n_vehicles":120,"d":874,"route_I_counts":"{\"135\": 120}","shape_id":"{\"265744\": 110, \"265745\": 1, \"265746\": 9}","direction_id":"{\"1\": 120}","headsign":"{\"69th St Trans Ctr - All Stops\": 120}","source":49,"target":48,"layer":"L","from":"Frankford Transportation Center - MFL","to":"Arrott Transportation Center - MFL"},"geometry":{"type":"LineString","coordinates":[[-75.077861,40.022929],[-75.083802,40.016564]]}}]}