{"type":"FeatureCollection","features":[{"type":"Feature","geometry":{"type":"Point","coordinates":[14.50788,50.06847]},"properties":{"name":"Skalka","original_ids":"[3089, 3088]","id":0,"layer":"stop"}},{"type":"Feature","geometry":{"type":"Point","coordinates":[14.49054,50.07309]},"properties":{"name":"Strašnická","original_ids":"[2385, 2384]","id":1,"layer":"stop"}},{"type":"Feature","geometry":{"type":"Point","coordinates":[14.47549,50.07834]},"properties":{"name":"Želivského","original_ids":"[3010, 3009]","id":2,"layer":"stop"}},{"type":"Feature","geometry":{"type":"Point","coordinates":[14.46257,50.07832]},"properties":{"name":"Flora","original_ids":"[451, 450]","id":3,"layer":"stop"}},{"type":"Feature","geometry":{"type":"Point","coordinates":[14.45072,50.07775]},"properties":{"name":"Jiřího z Poděbrad","original_ids":"[752, 751]","id":4,"layer":"stop"}},{"type":"Feature","geometry":{"type":"Point","coordinates":[14.43977,50.07536]},"properties":{"name":"Náměstí Míru","original_ids":"[1648, 1647]","id":5,"layer":"stop"}},{"type":"Feature","geometry":{"type":"Point","coordinates":[14.43178,50.07953]},"properties":{"name":"Muzeum","original_ids":"[1374, 1373, 1375, 1376]","id":6,"layer":"stop"}},{"type":"Feature","geometry":{"type":"Point","coordinates":[14.4246,50.08359]},"properties":{"name":"Můstek","original_ids":"[3419, 3418, 3421, 3420]","id":7,"layer":"stop"}},{"type":"Feature","geometry":{"type":"Point","coordinates":[14.41769,50.08824]},"properties":{"name":"Staroměstská","original_ids":"[2359, 2358]","id":8,"layer":"stop"}},{"type":"Feature","geometry":{"type":"Point","coordinates":[14.40927,50.09173]},"properties":{"name":"Malostranská","original_ids":"[1239, 1238]","id":9,"layer":"stop"}},{"type":"Feature","geometry":{"type":"Point","coordinates":[14.40319,50.09749]},"properties":{"name":"Hradčanská","original_ids":"[608, 607]","id":10,"layer":"stop"}},{"type":"Feature","geometry":{"type":"Point","coordinates":[14.393156,50.100513]},"properties":{"name":"Dejvická","original_ids":"[1108, 1107]","id":11,"layer":"stop"}},{"type":"Feature","geometry":{"type":"Point","coordinates":[14.36282,50.09837]},"properties":{"name":"Bořislavka","original_ids":"[584, 583]","id":12,"layer":"stop"}},{"type":"Feature","geometry":{"type":"Point","coordinates":[14.34836,50.09583]},"properties":{"name":"Nádraží Veleslavín","original_ids":"[1591, 1590]","id":13,"layer":"stop"}},{"type":"Feature","geometry":{"type":"Point","coordinates":[14.34486,50.08683]},"properties":{"name":"Petřiny","original_ids":"[1748, 1747]","id":14,"layer":"stop"}},{"type":"Feature","geometry":{"type":"Point","coordinates":[14.34152,50.07541]},"properties":{"name":"Nemocnice Motol","original_ids":"[1047, 1046]","id":15,"layer":"stop"}},{"type":"Feature","geometry":{"type":"Point","coordinates":[14.51527,50.07507]},"properties":{"name":"Depo Hostivař","original_ids":"[3414, 3415]","id":16,"layer":"stop"}},{"type":"Feature","geometry":{"type":"Point","coordinates":[14.29106,50.05324]},"properties":{"name":"Zličín","original_ids":"[3559, 3558]","id":17,"layer":"stop"}},{"type":"Feature","geometry":{"type":"Point","coordinates":[14.30654,50.04668]},"properties":{"name":"Stodůlky","original_ids":"[3547, 3546]","id":18,"layer":"stop"}},{"type":"Feature","geometry":{"type":"Point","coordinates":[14.32132,50.04563]},"properties":{"name":"Luka","original_ids":"[3232, 3231]","id":19,"layer":"stop"}},{"type":"Feature","geometry":{"type":"Point","coordinates":[14.33045,50.04447]},"properties":{"name":"Lužiny","original_ids":"[905, 904]","id":20,"layer":"stop"}},{"type":"Feature","geometry":{"type":"Point","coordinates":[14.34279,50.04996]},"properties":{"name":"Hůrka","original_ids":"[3598, 3597]","id":21,"layer":"stop"}},{"type":"Feature","geometry":{"type":"Point","coordinates":[14.35217,50.05079]},"properties":{"name":"Nové Butovice","original_ids":"[2014, 2013]","id":22,"layer":"stop"}},{"type":"Feature","geometry":{"type":"Point","coordinates":[14.36995,50.05414]},"properties":{"name":"Jinonice","original_ids":"[2288, 2287]","id":23,"layer":"stop"}},{"type":"Feature","geometry":{"type":"Point","coordinates":[14.38772,50.05806]},"properties":{"name":"Radlická","original_ids":"[3101, 3100]","id":24,"layer":"stop"}},{"type":"Feature","geometry":{"type":"Point","coordinates":[14.40916,50.06129]},"properties":{"name":"Smíchovské nádraží","original_ids":"[1572, 1571]","id":25,"layer":"stop"}},{"type":"Feature","geometry":{"type":"Point","coordinates":[14.403892,50.069967]},"properties":{"name":"Anděl","original_ids":"[3327, 3326]","id":26,"layer":"stop"}},{"type":"Feature","geometry":{"type":"Point","coordinates":[14.41699,50.07458]},"properties":{"name":"Karlovo náměstí","original_ids":"[843, 842]","id":27,"layer":"stop"}},{"type":"Feature","geometry":{"type":"Point","coordinates":[14.42035,50.07975]},"properties":{"name":"Národní třída","original_ids":"[1842, 1841]","id":28,"layer":"stop"}},{"type":"Feature","geometry":{"type":"Point","coordinates":[14.43061,50.0888]},"properties":{"name":"Náměstí Republiky","original_ids":"[1658, 1657]","id":29,"layer":"stop"}},{"type":"Feature","geometry":{"type":"Point","coordinates":[14.43766,50.09041]},"properties":{"name":"Florenc","original_ids":"[2309, 2308, 2310, 2311]","id":30,"layer":"stop"}},{"type":"Feature","geometry":{"type":"Point","coordinates":[14.45136,50.0925]},"properties":{"name":"Křižíkova","original_ids":"[2496, 2495]","id":31,"layer":"stop"}},{"type":"Feature","geometry":{"type":"Point","coordinates":[14.46318,50.09677]},"properties":{"name":"Invalidovna","original_ids":"[2183, 2182]","id":32,"layer":"stop"}},{"type":"Feature","geometry":{"type":"Point","coordinates":[14.47483,50.10395]},"properties":{"name":"Palmovka","original_ids":"[1821, 1820]","id":33,"layer":"stop"}},{"type":"Feature","geometry":{"type":"Point","coordinates":[14.49172,50.10612]},"properties":{"name":"Českomoravská","original_ids":"[1758, 1757]","id":34,"layer":"stop"}},{"type":"Feature","geometry":{"type":"Point","coordinates":[14.501063,50.110093]},"properties":{"name":"Vysočanská","original_ids":"[1641, 1640]","id":35,"layer":"stop"}},{"type":"Feature","geometry":{"type":"Point","coordinates":[14.516393,50.110354]},"properties":{"name":"Kolbenova","original_ids":"[295, 294]","id":36,"layer":"stop"}},{"type":"Feature","geometry":{"type":"Point","coordinates":[14.536389,50.106642]},"properties":{"name":"Hloubětín","original_ids":"[503, 502]","id":37,"layer":"stop"}},{"type":"Feature","geometry":{"type":"Point","coordinates":[14.5605,50.10683]},"properties":{"name":"Rajská zahrada","original_ids":"[2681, 2680]","id":38,"layer":"stop"}},{"type":"Feature","geometry":{"type":"Point","coordinates":[14.57684,50.10891]},"properties":{"name":"Černý Most","original_ids":"[2920, 2919]","id":39,"layer":"stop"}},{"type":"Feature","geometry":{"type":"Point","coordinates":[14.527223,50.030904]},"properties":{"name":"Háje","original_ids":"[987, 988]","id":40,"layer":"stop"}},{"type":"Feature","geometry":{"type":"Point","coordinates":[14.50918,50.02793]},"properties":{"name":"Opatov","original_ids":"[395, 396]","id":41,"layer":"stop"}},{"type":"Feature","geometry":{"type":"Point","coordinates":[14.49094,50.03164]},"properties":{"name":"Chodov","original_ids":"[216, 217]","id":42,"layer":"stop"}},{"type":"Feature","geometry":{"type":"Point","coordinates":[14.47674,50.03767]},"properties":{"name":"Roztyly","original_ids":"[2004, 2005]","id":43,"layer":"stop"}},{"type":"Feature","geometry":{"type":"Point","coordinates":[14.45932,50.04187]},"properties":{"name":"Kačerov","original_ids":"[810, 811]","id":44,"layer":"stop"}},{"type":"Feature","geometry":{"type":"Point","coordinates":[14.4487,50.04449]},"properties":{"name":"Budějovická","original_ids":"[206, 207]","id":45,"layer":"stop"}},{"type":"Feature","geometry":{"type":"Point","coordinates":[14.43972,50.05105]},"properties":{"name":"Pankrác","original_ids":"[1319, 1320]","id":46,"layer":"stop"}},{"type":"Feature","geometry":{"type":"Point","coordinates":[14.43336,50.05689]},"properties":{"name":"Pražského povstání","original_ids":"[1990, 1991]","id":47,"layer":"stop"}},{"type":"Feature","geometry":{"type":"Point","coordinates":[14.43056,50.06314]},"properties":{"name":"Vyšehrad","original_ids":"[1808, 1809]","id":48,"layer":"stop"}},{"type":"Feature","geometry":{"type":"Point","coordinates":[14.43037,50.07433]},"properties":{"name":"I. P. Pavlova","original_ids":"[702, 703]","id":49,"layer":"stop"}},{"type":"Feature","geometry":{"type":"Point","coordinates":[14.4342,50.08349]},"properties":{"name":"Hlavní nádraží","original_ids":"[528, 529]","id":50,"layer":"stop"}},{"type":"Feature","geometry":{"type":"Point","coordinates":[14.43853,50.10029]},"properties":{"name":"Vltavská","original_ids":"[375, 376]","id":51,"layer":"stop"}},{"type":"Feature","geometry":{"type":"Point","coordinates":[14.44016,50.10896]},"properties":{"name":"Nádraží Holešovice","original_ids":"[439, 440]","id":52,"layer":"stop"}},{"type":"Feature","geometry":{"type":"Point","coordinates":[14.45428,50.12408]},"properties":{"name":"Kobylisy","original_ids":"[2254, 2255]","id":53,"layer":"stop"}},{"type":"Feature","geometry":{"type":"Point","coordinates":[14.46955,50.12663]},"properties":{"name":"Ládví","original_ids":"[307, 308]","id":54,"layer":"stop"}},{"type":"Feature","geometry":{"type":"Point","coordinates":[14.48946,50.12615]},"properties":{"name":"Střížkov","original_ids":"[1136, 1137]","id":55,"layer":"stop"}},{"type":"Feature","geometry":{"type":"Point","coordinates":[14.49855,50.11928]},"properties":{"name":"Prosek","original_ids":"[2023, 2024]","id":56,"layer":"stop"}},{"type":"Feature","geometry":{"type":"Point","coordinates":[14.51627,50.12415]},"properties":{"name":"Letňany","original_ids":"[3212, 3213]","id":57,"layer":"stop"}},{"type":"Feature","properties":{"shape_id":"{\"L991V1\": 100, \"L991V10\": 1, \"L991V3\": 99, \"L991V5\": 26, \"L991V8\": 26}","direction_id":"{\"0\": 252}","headsign":"{\"Nemocnice Motol\": 251, \"Petřiny\": 1}","duration_avg":128.45238095238096,"n_vehicles":252,"d":1341,"route_I_counts":"{\"1\": 252}","source":0,"target":1,"layer":"L","from":"Skalka","to":"Strašnická"},"geometry":{"type":"LineString","coordinates":[[14.50788,50.06847],[14.49054,50.07309]]}},{"type":"Feature","properties":{"duration_avg":118.26900921658986,"n_vehicles":152,"d":911,"route_I_counts":"{\"1\": 152}","shape_id":"{\"L991V2\": 123, \"L991V9\": 1, \"L991V4\": 28}","direction_id":"{\"1\": 152}","headsign":"{\"Depo Hostivař\": 152}","source":0,"target":16,"layer":"L","from":"Skalka","to":"Depo Hostivař"},"geometry":{"type":"LineString","coordinates":[[14.50788,50.06847],[14.51527,50.07507]]}},{"type":"Feature","properties":{"shape_id":"{\"L991V1\": 100, \"L991V10\": 1, \"L991V3\": 98, \"L991V5\": 26, \"L991V8\": 26}","direction_id":"{\"0\": 251}","headsign":"{\"Nemocnice Motol\": 250, \"Petřiny\": 1}","duration_avg":93.46613545816733,"n_vehicles":251,"d":1223,"route_I_counts":"{\"1\": 251}","source":1,"target":2,"layer":"L","from":"Strašnická","to":"Želivského"},"geometry":{"type":"LineString","coordinates":[[14.49054,50.07309],[14.47549,50.07834]]}},{"type":"Feature","properties":{"duration_avg":146.0708946415926,"n_vehicles":250,"d":1343,"route_I_counts":"{\"1\": 250}","shape_id":"{\"L991V11\": 1, \"L991V6\": 70, \"L991V2\": 124, \"L991V4\": 28, \"L991V7\": 26, \"L991V9\": 1}","direction_id":"{\"1\": 250}","headsign":"{\"Skalka\": 97, \"Depo Hostivař\": 153}","source":1,"target":0,"layer":"L","from":"Strašnická","to":"Skalka"},"geometry":{"type":"LineString","coordinates":[[14.49054,50.07309],[14.50788,50.06847]]}},{"type":"Feature","properties":{"shape_id":"{\"L991V1\": 100, \"L991V10\": 1, \"L991V3\": 98, \"L991V5\": 26, \"L991V8\": 26}","direction_id":"{\"0\": 251}","headsign":"{\"Nemocnice Motol\": 250, \"Petřiny\": 1}","duration_avg":78.46613545816733,"n_vehicles":251,"d":922,"route_I_counts":"{\"1\": 251}","source":2,"target":3,"layer":"L","from":"Želivského","to":"Flora"},"geometry":{"type":"LineString","coordinates":[[14.47549,50.07834],[14.46257,50.07832]]}},{"type":"Feature","properties":{"duration_avg":102.12,"n_vehicles":250,"d":1224,"route_I_counts":"{\"1\": 250}","shape_id":"{\"L991V11\": 1, \"L991V2\": 124, \"L991V4\": 28, \"L991V6\": 70, \"L991V7\": 26, \"L991V9\": 1}","direction_id":"{\"1\": 250}","headsign":"{\"Depo Hostivař\": 153, \"Skalka\": 97}","source":2,"target":1,"layer":"L","from":"Želivského","to":"Strašnická"},"geometry":{"type":"LineString","coordinates":[[14.47549,50.07834],[14.49054,50.07309]]}},{"type":"Feature","properties":{"shape_id":"{\"L991V1\": 100, \"L991V10\": 1, \"L991V3\": 98, \"L991V5\": 26, \"L991V8\": 26}","direction_id":"{\"0\": 251}","headsign":"{\"Nemocnice Motol\": 250, \"Petřiny\": 1}","duration_avg":71.75298804780877,"n_vehicles":251,"d":848,"route_I_counts":"{\"1\": 251}","source":3,"target":4,"layer":"L","from":"Flora","to":"Jiřího z Poděbrad"},"geometry":{"type":"LineString","coordinates":[[14.46257,50.07832],[14.45072,50.07775]]}},{"type":"Feature","properties":{"duration_avg":78.66,"n_vehicles":250,"d":917,"route_I_counts":"{\"1\": 250}","shape_id":"{\"L991V11\": 1, \"L991V2\": 124, \"L991V4\": 28, \"L991V6\": 70, \"L991V7\": 26, \"L991V9\": 1}","direction_id":"{\"1\": 250}","headsign":"{\"Depo Hostivař\": 153, \"Skalka\": 97}","source":3,"target":2,"layer":"L","from":"Flora","to":"Želivského"},"geometry":{"type":"LineString","coordinates":[[14.46257,50.07832],[14.47549,50.07834]]}},{"type":"Feature","properties":{"shape_id":"{\"L991V1\": 100, \"L991V10\": 1, \"L991V3\": 98, \"L991V5\": 26, \"L991V8\": 26}","direction_id":"{\"0\": 251}","headsign":"{\"Nemocnice Motol\": 250, \"Petřiny\": 1}","duration_avg":71.75298804780877,"n_vehicles":251,"d":826,"route_I_counts":"{\"1\": 251}","source":4,"target":5,"layer":"L","from":"Jiřího z Poděbrad","to":"Náměstí Míru"},"geometry":{"type":"LineString","coordinates":[[14.45072,50.07775],[14.43977,50.07536]]}},{"type":"Feature","properties":{"duration_avg":78.64,"n_vehicles":250,"d":847,"route_I_counts":"{\"1\": 250}","shape_id":"{\"L991V11\": 1, \"L991V2\": 124, \"L991V4\": 28, \"L991V6\": 70, \"L991V7\": 26, \"L991V9\": 1}","direction_id":"{\"1\": 250}","headsign":"{\"Depo Hostivař\": 153, \"Skalka\": 97}","source":4,"target":3,"layer":"L","from":"Jiřího z Poděbrad","to":"Flora"},"geometry":{"type":"LineString","coordinates":[[14.45072,50.07775],[14.46257,50.07832]]}},{"type":"Feature","properties":{"shape_id":"{\"L991V1\": 100, \"L991V10\": 1, \"L991V3\": 98, \"L991V5\": 26, \"L991V8\": 26}","direction_id":"{\"0\": 251}","headsign":"{\"Nemocnice Motol\": 250, \"Petřiny\": 1}","duration_avg":71.75298804780877,"n_vehicles":251,"d":735,"route_I_counts":"{\"1\": 251}","source":5,"target":6,"layer":"L","from":"Náměstí Míru","to":"Muzeum"},"geometry":{"type":"LineString","coordinates":[[14.43977,50.07536],[14.43178,50.07953]]}},{"type":"Feature","properties":{"duration_avg":73.66,"n_vehicles":250,"d":829,"route_I_counts":"{\"1\": 250}","shape_id":"{\"L991V11\": 1, \"L991V2\": 124, \"L991V4\": 28, \"L991V6\": 70, \"L991V7\": 26, \"L991V9\": 1}","direction_id":"{\"1\": 250}","headsign":"{\"Depo Hostivař\": 153, \"Skalka\": 97}","source":5,"target":4,"layer":"L","from":"Náměstí Míru","to":"Jiřího z Poděbrad"},"geometry":{"type":"LineString","coordinates":[[14.43977,50.07536],[14.45072,50.07775]]}},{"type":"Feature","properties":{"shape_id":"{\"L991V1\": 100, \"L991V10\": 1, \"L991V3\": 98, \"L991V5\": 26, \"L991V8\": 26}","direction_id":"{\"0\": 251}","headsign":"{\"Nemocnice Motol\": 250, \"Petřiny\": 1}","duration_avg":61.75298804780876,"n_vehicles":251,"d":683,"route_I_counts":"{\"1\": 251}","source":6,"target":7,"layer":"L","from":"Muzeum","to":"Můstek"},"geometry":{"type":"LineString","coordinates":[[14.43178,50.07953],[14.4246,50.08359]]}},{"type":"Feature","properties":{"duration_avg":50.0,"n_vehicles":325,"d":429,"route_I_counts":"{\"3\": 325}","shape_id":"{\"L993V1\": 308, \"L993V4\": 16, \"L993V7\": 1}","direction_id":"{\"1\": 325}","headsign":"{\"Letňany\": 325}","source":6,"target":50,"layer":"L","from":"Muzeum","to":"Hlavní nádraží"},"geometry":{"type":"LineString","coordinates":[[14.43178,50.07953],[14.4342,50.08349]]}},{"type":"Feature","properties":{"duration_avg":70.0,"n_vehicles":325,"d":653,"route_I_counts":"{\"3\": 325}","shape_id":"{\"L993V2\": 293, \"L993V3\": 30, \"L993V5\": 1, \"L993V6\": 1}","direction_id":"{\"0\": 325}","headsign":"{\"Háje\": 295, \"Kačerov\": 30}","source":6,"target":49,"layer":"L","from":"Muzeum","to":"I. P. Pavlova"},"geometry":{"type":"LineString","coordinates":[[14.43178,50.07953],[14.43037,50.07433]]}},{"type":"Feature","properties":{"duration_avg":78.60557768924303,"n_vehicles":251,"d":740,"route_I_counts":"{\"1\": 251}","shape_id":"{\"L991V11\": 1, \"L991V2\": 125, \"L991V4\": 28, \"L991V6\": 70, \"L991V7\": 26, \"L991V9\": 1}","direction_id":"{\"1\": 251}","headsign":"{\"Depo Hostivař\": 154, \"Skalka\": 97}","source":6,"target":5,"layer":"L","from":"Muzeum","to":"Náměstí Míru"},"geometry":{"type":"LineString","coordinates":[[14.43178,50.07953],[14.43977,50.07536]]}},{"type":"Feature","properties":{"shape_id":"{\"L991V1\": 100, \"L991V10\": 1, \"L991V3\": 98, \"L991V5\": 26, \"L991V8\": 26}","direction_id":"{\"0\": 251}","headsign":"{\"Nemocnice Motol\": 250, \"Petřiny\": 1}","duration_avg":66.75298804780877,"n_vehicles":251,"d":715,"route_I_counts":"{\"1\": 251}","source":7,"target":8,"layer":"L","from":"Můstek","to":"Staroměstská"},"geometry":{"type":"LineString","coordinates":[[14.4246,50.08359],[14.41769,50.08824]]}},{"type":"Feature","properties":{"duration_avg":68.60557768924303,"n_vehicles":251,"d":682,"route_I_counts":"{\"1\": 251}","shape_id":"{\"L991V11\": 1, \"L991V2\": 125, \"L991V4\": 28, \"L991V6\": 70, \"L991V7\": 26, \"L991V9\": 1}","direction_id":"{\"1\": 251}","headsign":"{\"Depo Hostivař\": 154, \"Skalka\": 97}","source":7,"target":6,"layer":"L","from":"Můstek","to":"Muzeum"},"geometry":{"type":"LineString","coordinates":[[14.4246,50.08359],[14.43178,50.07953]]}},{"type":"Feature","properties":{"duration_avg":70.0,"n_vehicles":277,"d":797,"route_I_counts":"{\"2\": 277}","shape_id":"{\"L992V1\": 272, \"L992V3\": 1, \"L992V7\": 2, \"L992V8\": 1, \"L992V9\": 1}","direction_id":"{\"0\": 277}","headsign":"{\"Černý Most\": 277}","source":7,"target":29,"layer":"L","from":"Můstek","to":"Náměstí Republiky"},"geometry":{"type":"LineString","coordinates":[[14.4246,50.08359],[14.43061,50.0888]]}},{"type":"Feature","properties":{"duration_avg":55.0,"n_vehicles":278,"d":465,"route_I_counts":"{\"2\": 278}","shape_id":"{\"L992V2\": 273, \"L992V4\": 1, \"L992V5\": 2, \"L992V6\": 2}","direction_id":"{\"1\": 278}","headsign":"{\"Nové Butovice\": 2, \"Smíchovské nádraží\": 2, \"Zličín\": 274}","source":7,"target":28,"layer":"L","from":"Můstek","to":"Národní třída"},"geometry":{"type":"LineString","coordinates":[[14.4246,50.08359],[14.42035,50.07975]]}},{"type":"Feature","properties":{"shape_id":"{\"L991V1\": 100, \"L991V10\": 1, \"L991V3\": 97, \"L991V5\": 26, \"L991V8\": 26}","direction_id":"{\"0\": 250}","headsign":"{\"Nemocnice Motol\": 249, \"Petřiny\": 1}","duration_avg":65.0,"n_vehicles":250,"d":715,"route_I_counts":"{\"1\": 250}","source":8,"target":9,"layer":"L","from":"Staroměstská","to":"Malostranská"},"geometry":{"type":"LineString","coordinates":[[14.41769,50.08824],[14.40927,50.09173]]}},{"type":"Feature","properties":{"duration_avg":68.60557768924303,"n_vehicles":251,"d":713,"route_I_counts":"{\"1\": 251}","shape_id":"{\"L991V11\": 1, \"L991V2\": 125, \"L991V4\": 28, \"L991V6\": 70, \"L991V7\": 26, \"L991V9\": 1}","direction_id":"{\"1\": 251}","headsign":"{\"Depo Hostivař\": 154, \"Skalka\": 97}","source":8,"target":7,"layer":"L","from":"Staroměstská","to":"Můstek"},"geometry":{"type":"LineString","coordinates":[[14.41769,50.08824],[14.4246,50.08359]]}},{"type":"Feature","properties":{"shape_id":"{\"L991V1\": 100, \"L991V10\": 1, \"L991V3\": 97, \"L991V5\": 26, \"L991V8\": 26}","direction_id":"{\"0\": 250}","headsign":"{\"Nemocnice Motol\": 249, \"Petřiny\": 1}","duration_avg":76.76,"n_vehicles":250,"d":774,"route_I_counts":"{\"1\": 250}","source":9,"target":10,"layer":"L","from":"Malostranská","to":"Hradčanská"},"geometry":{"type":"LineString","coordinates":[[14.40927,50.09173],[14.40319,50.09749]]}},{"type":"Feature","properties":{"duration_avg":65.0,"n_vehicles":251,"d":723,"route_I_counts":"{\"1\": 251}","shape_id":"{\"L991V11\": 1, \"L991V2\": 125, \"L991V4\": 28, \"L991V6\": 70, \"L991V7\": 26, \"L991V9\": 1}","direction_id":"{\"1\": 251}","headsign":"{\"Depo Hostivař\": 154, \"Skalka\": 97}","source":9,"target":8,"layer":"L","from":"Malostranská","to":"Staroměstská"},"geometry":{"type":"LineString","coordinates":[[14.40927,50.09173],[14.41769,50.08824]]}},{"type":"Feature","properties":{"shape_id":"{\"L991V1\": 100, \"L991V10\": 1, \"L991V3\": 97, \"L991V5\": 26, \"L991V8\": 26}","direction_id":"{\"0\": 250}","headsign":"{\"Nemocnice Motol\": 249, \"Petřiny\": 1}","duration_avg":80.0,"n_vehicles":250,"d":791,"route_I_counts":"{\"1\": 250}","source":10,"target":11,"layer":"L","from":"Hradčanská","to":"Dejvická"},"geometry":{"type":"LineString","coordinates":[[14.40319,50.09749],[14.393156,50.100513]]}},{"type":"Feature","properties":{"duration_avg":70.0,"n_vehicles":251,"d":766,"route_I_counts":"{\"1\": 251}","shape_id":"{\"L991V11\": 1, \"L991V2\": 125, \"L991V4\": 28, \"L991V6\": 70, \"L991V7\": 26, \"L991V9\": 1}","direction_id":"{\"1\": 251}","headsign":"{\"Depo Hostivař\": 154, \"Skalka\": 97}","source":10,"target":9,"layer":"L","from":"Hradčanská","to":"Malostranská"},"geometry":{"type":"LineString","coordinates":[[14.40319,50.09749],[14.40927,50.09173]]}},{"type":"Feature","properties":{"shape_id":"{\"L991V1\": 100, \"L991V10\": 1, \"L991V3\": 97, \"L991V5\": 26, \"L991V8\": 26}","direction_id":"{\"0\": 250}","headsign":"{\"Nemocnice Motol\": 249, \"Petřiny\": 1}","duration_avg":148.52,"n_vehicles":250,"d":2179,"route_I_counts":"{\"1\": 250}","source":11,"target":12,"layer":"L","from":"Dejvická","to":"Bořislavka"},"geometry":{"type":"LineString","coordinates":[[14.393156,50.100513],[14.36282,50.09837]]}},{"type":"Feature","properties":{"duration_avg":68.60557768924303,"n_vehicles":251,"d":786,"route_I_counts":"{\"1\": 251}","shape_id":"{\"L991V11\": 1, \"L991V2\": 125, \"L991V4\": 28, \"L991V6\": 70, \"L991V7\": 26, \"L991V9\": 1}","direction_id":"{\"1\": 251}","headsign":"{\"Depo Hostivař\": 154, \"Skalka\": 97}","source":11,"target":10,"layer":"L","from":"Dejvická","to":"Hradčanská"},"geometry":{"type":"LineString","coordinates":[[14.393156,50.100513],[14.40319,50.09749]]}},{"type":"Feature","properties":{"shape_id":"{\"L991V1\": 100, \"L991V10\": 1, \"L991V3\": 97, \"L991V5\": 26, \"L991V8\": 26}","direction_id":"{\"0\": 250}","headsign":"{\"Nemocnice Motol\": 249, \"Petřiny\": 1}","duration_avg":86.8,"n_vehicles":250,"d":1070,"route_I_counts":"{\"1\": 250}","source":12,"target":13,"layer":"L","from":"Bořislavka","to":"Nádraží Veleslavín"},"geometry":{"type":"LineString","coordinates":[[14.36282,50.09837],[14.34836,50.09583]]}},{"type":"Feature","properties":{"duration_avg":135.0,"n_vehicles":250,"d":2179,"route_I_counts":"{\"1\": 250}","shape_id":"{\"L991V11\": 1, \"L991V2\": 125, \"L991V4\": 28, \"L991V6\": 70, \"L991V7\": 26}","direction_id":"{\"1\": 250}","headsign":"{\"Depo Hostivař\": 153, \"Skalka\": 97}","source":12,"target":11,"layer":"L","from":"Bořislavka","to":"Dejvická"},"geometry":{"type":"LineString","coordinates":[[14.36282,50.09837],[14.393156,50.100513]]}},{"type":"Feature","properties":{"shape_id":"{\"L991V1\": 100, \"L991V10\": 1, \"L991V3\": 96, \"L991V5\": 26, \"L991V8\": 26}","direction_id":"{\"0\": 249}","headsign":"{\"Nemocnice Motol\": 248, \"Petřiny\": 1}","duration_avg":96.8273092369478,"n_vehicles":249,"d":1032,"route_I_counts":"{\"1\": 249}","source":13,"target":14,"layer":"L","from":"Nádraží Veleslavín","to":"Petřiny"},"geometry":{"type":"LineString","coordinates":[[14.34836,50.09583],[14.34486,50.08683]]}},{"type":"Feature","properties":{"duration_avg":83.60557768924303,"n_vehicles":251,"d":1072,"route_I_counts":"{\"1\": 251}","shape_id":"{\"L991V11\": 1, \"L991V2\": 126, \"L991V4\": 28, \"L991V6\": 70, \"L991V7\": 26}","direction_id":"{\"1\": 251}","headsign":"{\"Depo Hostivař\": 154, \"Skalka\": 97}","source":13,"target":12,"layer":"L","from":"Nádraží Veleslavín","to":"Bořislavka"},"geometry":{"type":"LineString","coordinates":[[14.34836,50.09583],[14.36282,50.09837]]}},{"type":"Feature","properties":{"shape_id":"{\"L991V1\": 100, \"L991V3\": 96, \"L991V5\": 26, \"L991V8\": 26}","direction_id":"{\"0\": 248}","headsign":"{\"Nemocnice Motol\": 248}","duration_avg":116.85483870967742,"n_vehicles":248,"d":1293,"route_I_counts":"{\"1\": 248}","source":14,"target":15,"layer":"L","from":"Petřiny","to":"Nemocnice Motol"},"geometry":{"type":"LineString","coordinates":[[14.34486,50.08683],[14.34152,50.07541]]}},{"type":"Feature","properties":{"duration_avg":88.60557768924303,"n_vehicles":251,"d":1034,"route_I_counts":"{\"1\": 251}","shape_id":"{\"L991V11\": 1, \"L991V2\": 126, \"L991V4\": 28, \"L991V6\": 70, \"L991V7\": 26}","direction_id":"{\"1\": 251}","headsign":"{\"Depo Hostivař\": 154, \"Skalka\": 97}","source":14,"target":13,"layer":"L","from":"Petřiny","to":"Nádraží Veleslavín"},"geometry":{"type":"LineString","coordinates":[[14.34486,50.08683],[14.34836,50.09583]]}},{"type":"Feature","properties":{"duration_avg":108.6,"n_vehicles":250,"d":1300,"route_I_counts":"{\"1\": 250}","shape_id":"{\"L991V2\": 126, \"L991V4\": 28, \"L991V6\": 70, \"L991V7\": 26}","direction_id":"{\"1\": 250}","headsign":"{\"Depo Hostivař\": 154, \"Skalka\": 96}","source":15,"target":14,"layer":"L","from":"Nemocnice Motol","to":"Petřiny"},"geometry":{"type":"LineString","coordinates":[[14.34152,50.07541],[14.34486,50.08683]]}},{"type":"Feature","properties":{"shape_id":"{\"L991V10\": 1, \"L991V3\": 99, \"L991V8\": 26, \"L991V5\": 26}","direction_id":"{\"0\": 152}","headsign":"{\"Nemocnice Motol\": 151, \"Petřiny\": 1}","duration_avg":117.25885225885226,"n_vehicles":152,"d":904,"route_I_counts":"{\"1\": 152}","source":16,"target":0,"layer":"L","from":"Depo Hostivař","to":"Skalka"},"geometry":{"type":"LineString","coordinates":[[14.51527,50.07507],[14.50788,50.06847]]}},{"type":"Feature","properties":{"shape_id":"{\"L992V1\": 274}","direction_id":"{\"0\": 274}","headsign":"{\"Černý Most\": 274}","duration_avg":105.0,"n_vehicles":274,"d":1325,"route_I_counts":"{\"2\": 274}","source":17,"target":18,"layer":"L","from":"Zličín","to":"Stodůlky"},"geometry":{"type":"LineString","coordinates":[[14.29106,50.05324],[14.30654,50.04668]]}},{"type":"Feature","properties":{"shape_id":"{\"L992V1\": 274}","direction_id":"{\"0\": 274}","headsign":"{\"Černý Most\": 274}","duration_avg":84.50729927007299,"n_vehicles":274,"d":1063,"route_I_counts":"{\"2\": 274}","source":18,"target":19,"layer":"L","from":"Stodůlky","to":"Luka"},"geometry":{"type":"LineString","coordinates":[[14.30654,50.04668],[14.32132,50.04563]]}},{"type":"Feature","properties":{"duration_avg":100.0,"n_vehicles":273,"d":1320,"route_I_counts":"{\"2\": 273}","shape_id":"{\"L992V10\": 1, \"L992V2\": 271, \"L992V4\": 1}","direction_id":"{\"1\": 273}","headsign":"{\"Zličín\": 273}","source":18,"target":17,"layer":"L","from":"Stodůlky","to":"Zličín"},"geometry":{"type":"LineString","coordinates":[[14.30654,50.04668],[14.29106,50.05324]]}},{"type":"Feature","properties":{"shape_id":"{\"L992V1\": 274}","direction_id":"{\"0\": 274}","headsign":"{\"Černý Most\": 274}","duration_avg":64.50729927007299,"n_vehicles":274,"d":665,"route_I_counts":"{\"2\": 274}","source":19,"target":20,"layer":"L","from":"Luka","to":"Lužiny"},"geometry":{"type":"LineString","coordinates":[[14.32132,50.04563],[14.33045,50.04447]]}},{"type":"Feature","properties":{"duration_avg":80.0,"n_vehicles":273,"d":1066,"route_I_counts":"{\"2\": 273}","shape_id":"{\"L992V10\": 1, \"L992V2\": 271, \"L992V4\": 1}","direction_id":"{\"1\": 273}","headsign":"{\"Zličín\": 273}","source":19,"target":18,"layer":"L","from":"Luka","to":"Stodůlky"},"geometry":{"type":"LineString","coordinates":[[14.32132,50.04563],[14.30654,50.04668]]}},{"type":"Feature","properties":{"shape_id":"{\"L992V1\": 274}","direction_id":"{\"0\": 274}","headsign":"{\"Černý Most\": 274}","duration_avg":80.0,"n_vehicles":274,"d":1073,"route_I_counts":"{\"2\": 274}","source":20,"target":21,"layer":"L","from":"Lužiny","to":"Hůrka"},"geometry":{"type":"LineString","coordinates":[[14.33045,50.04447],[14.34279,50.04996]]}},{"type":"Feature","properties":{"duration_avg":60.0,"n_vehicles":273,"d":661,"route_I_counts":"{\"2\": 273}","shape_id":"{\"L992V10\": 1, \"L992V2\": 271, \"L992V4\": 1}","direction_id":"{\"1\": 273}","headsign":"{\"Zličín\": 273}","source":20,"target":19,"layer":"L","from":"Lužiny","to":"Luka"},"geometry":{"type":"LineString","coordinates":[[14.33045,50.04447],[14.32132,50.04563]]}},{"type":"Feature","properties":{"shape_id":"{\"L992V1\": 274}","direction_id":"{\"0\": 274}","headsign":"{\"Černý Most\": 274}","duration_avg":60.0,"n_vehicles":274,"d":676,"route_I_counts":"{\"2\": 274}","source":21,"target":22,"layer":"L","from":"Hůrka","to":"Nové Butovice"},"geometry":{"type":"LineString","coordinates":[[14.34279,50.04996],[14.35217,50.05079]]}},{"type":"Feature","properties":{"duration_avg":90.0,"n_vehicles":273,"d":1075,"route_I_counts":"{\"2\": 273}","shape_id":"{\"L992V10\": 1, \"L992V2\": 271, \"L992V4\": 1}","direction_id":"{\"1\": 273}","headsign":"{\"Zličín\": 273}","source":21,"target":20,"layer":"L","from":"Hůrka","to":"Lužiny"},"geometry":{"type":"LineString","coordinates":[[14.34279,50.04996],[14.33045,50.04447]]}},{"type":"Feature","properties":{"shape_id":"{\"L992V1\": 273, \"L992V3\": 1, \"L992V7\": 2}","direction_id":"{\"0\": 276}","headsign":"{\"Černý Most\": 276}","duration_avg":95.0,"n_vehicles":276,"d":1324,"route_I_counts":"{\"2\": 276}","source":22,"target":23,"layer":"L","from":"Nové Butovice","to":"Jinonice"},"geometry":{"type":"LineString","coordinates":[[14.35217,50.05079],[14.36995,50.05414]]}},{"type":"Feature","properties":{"duration_avg":65.0,"n_vehicles":274,"d":676,"route_I_counts":"{\"2\": 274}","shape_id":"{\"L992V10\": 1, \"L992V2\": 272, \"L992V4\": 1}","direction_id":"{\"1\": 274}","headsign":"{\"Zličín\": 274}","source":22,"target":21,"layer":"L","from":"Nové Butovice","to":"Hůrka"},"geometry":{"type":"LineString","coordinates":[[14.35217,50.05079],[14.34279,50.04996]]}},{"type":"Feature","properties":{"shape_id":"{\"L992V1\": 273, \"L992V3\": 1, \"L992V7\": 2}","direction_id":"{\"0\": 276}","headsign":"{\"Černý Most\": 276}","duration_avg":95.0,"n_vehicles":276,"d":1342,"route_I_counts":"{\"2\": 276}","source":23,"target":24,"layer":"L","from":"Jinonice","to":"Radlická"},"geometry":{"type":"LineString","coordinates":[[14.36995,50.05414],[14.38772,50.05806]]}},{"type":"Feature","properties":{"duration_avg":100.0,"n_vehicles":276,"d":1322,"route_I_counts":"{\"2\": 276}","shape_id":"{\"L992V10\": 1, \"L992V2\": 272, \"L992V4\": 1, \"L992V6\": 2}","direction_id":"{\"1\": 276}","headsign":"{\"Nové Butovice\": 2, \"Zličín\": 274}","source":23,"target":22,"layer":"L","from":"Jinonice","to":"Nové Butovice"},"geometry":{"type":"LineString","coordinates":[[14.36995,50.05414],[14.35217,50.05079]]}},{"type":"Feature","properties":{"shape_id":"{\"L992V1\": 273, \"L992V3\": 1, \"L992V7\": 2}","direction_id":"{\"0\": 276}","headsign":"{\"Černý Most\": 276}","duration_avg":140.0,"n_vehicles":276,"d":1573,"route_I_counts":"{\"2\": 276}","source":24,"target":25,"layer":"L","from":"Radlická","to":"Smíchovské nádraží"},"geometry":{"type":"LineString","coordinates":[[14.38772,50.05806],[14.40916,50.06129]]}},{"type":"Feature","properties":{"duration_avg":100.0,"n_vehicles":276,"d":1352,"route_I_counts":"{\"2\": 276}","shape_id":"{\"L992V10\": 1, \"L992V2\": 272, \"L992V4\": 1, \"L992V6\": 2}","direction_id":"{\"1\": 276}","headsign":"{\"Nové Butovice\": 2, \"Zličín\": 274}","source":24,"target":23,"layer":"L","from":"Radlická","to":"Jinonice"},"geometry":{"type":"LineString","coordinates":[[14.38772,50.05806],[14.36995,50.05414]]}},{"type":"Feature","properties":{"shape_id":"{\"L992V1\": 273, \"L992V3\": 1, \"L992V7\": 2, \"L992V8\": 1, \"L992V9\": 1}","direction_id":"{\"0\": 278}","headsign":"{\"Černý Most\": 278}","duration_avg":85.0,"n_vehicles":278,"d":1036,"route_I_counts":"{\"2\": 278}","source":25,"target":26,"layer":"L","from":"Smíchovské nádraží","to":"Anděl"},"geometry":{"type":"LineString","coordinates":[[14.40916,50.06129],[14.403892,50.069967]]}},{"type":"Feature","properties":{"duration_avg":140.0,"n_vehicles":276,"d":1559,"route_I_counts":"{\"2\": 276}","shape_id":"{\"L992V10\": 1, \"L992V2\": 272, \"L992V4\": 1, \"L992V6\": 2}","direction_id":"{\"1\": 276}","headsign":"{\"Nové Butovice\": 2, \"Zličín\": 274}","source":25,"target":24,"layer":"L","from":"Smíchovské nádraží","to":"Radlická"},"geometry":{"type":"LineString","coordinates":[[14.40916,50.06129],[14.38772,50.05806]]}},{"type":"Feature","properties":{"shape_id":"{\"L992V1\": 273, \"L992V3\": 1, \"L992V7\": 2, \"L992V8\": 1, \"L992V9\": 1}","direction_id":"{\"0\": 278}","headsign":"{\"Černý Most\": 278}","duration_avg":90.0,"n_vehicles":278,"d":1067,"route_I_counts":"{\"2\": 278}","source":26,"target":27,"layer":"L","from":"Anděl","to":"Karlovo náměstí"},"geometry":{"type":"LineString","coordinates":[[14.403892,50.069967],[14.41699,50.07458]]}},{"type":"Feature","properties":{"duration_avg":90.0,"n_vehicles":277,"d":1043,"route_I_counts":"{\"2\": 277}","shape_id":"{\"L992V2\": 272, \"L992V4\": 1, \"L992V5\": 2, \"L992V6\": 2}","direction_id":"{\"1\": 277}","headsign":"{\"Nové Butovice\": 2, \"Smíchovské nádraží\": 2, \"Zličín\": 273}","source":26,"target":25,"layer":"L","from":"Anděl","to":"Smíchovské nádraží"},"geometry":{"type":"LineString","coordinates":[[14.403892,50.069967],[14.40916,50.06129]]}},{"type":"Feature","properties":{"shape_id":"{\"L992V1\": 272, \"L992V3\": 1, \"L992V7\": 2, \"L992V8\": 1, \"L992V9\": 1}","direction_id":"{\"0\": 277}","headsign":"{\"Černý Most\": 277}","duration_avg":60.0,"n_vehicles":277,"d":623,"route_I_counts":"{\"2\": 277}","source":27,"target":28,"layer":"L","from":"Karlovo náměstí","to":"Národní třída"},"geometry":{"type":"LineString","coordinates":[[14.41699,50.07458],[14.42035,50.07975]]}},{"type":"Feature","properties":{"duration_avg":90.0,"n_vehicles":278,"d":1079,"route_I_counts":"{\"2\": 278}","shape_id":"{\"L992V2\": 273, \"L992V4\": 1, \"L992V5\": 2, \"L992V6\": 2}","direction_id":"{\"1\": 278}","headsign":"{\"Nové Butovice\": 2, \"Smíchovské nádraží\": 2, \"Zličín\": 274}","source":27,"target":26,"layer":"L","from":"Karlovo náměstí","to":"Anděl"},"geometry":{"type":"LineString","coordinates":[[14.41699,50.07458],[14.403892,50.069967]]}},{"type":"Feature","properties":{"duration_avg":50.0,"n_vehicles":277,"d":453,"route_I_counts":"{\"2\": 277}","shape_id":"{\"L992V1\": 272, \"L992V3\": 1, \"L992V7\": 2, \"L992V8\": 1, \"L992V9\": 1}","direction_id":"{\"0\": 277}","headsign":"{\"Černý Most\": 277}","source":28,"target":7,"layer":"L","from":"Národní třída","to":"Můstek"},"geometry":{"type":"LineString","coordinates":[[14.42035,50.07975],[14.4246,50.08359]]}},{"type":"Feature","properties":{"duration_avg":60.0,"n_vehicles":278,"d":619,"route_I_counts":"{\"2\": 278}","shape_id":"{\"L992V2\": 273, \"L992V4\": 1, \"L992V5\": 2, \"L992V6\": 2}","direction_id":"{\"1\": 278}","headsign":"{\"Nové Butovice\": 2, \"Smíchovské nádraží\": 2, \"Zličín\": 274}","source":28,"target":27,"layer":"L","from":"Národní třída","to":"Karlovo náměstí"},"geometry":{"type":"LineString","coordinates":[[14.42035,50.07975],[14.41699,50.07458]]}},{"type":"Feature","properties":{"shape_id":"{\"L992V1\": 272, \"L992V3\": 1, \"L992V7\": 2, \"L992V8\": 1, \"L992V9\": 1}","direction_id":"{\"0\": 277}","headsign":"{\"Černý Most\": 277}","duration_avg":55.0,"n_vehicles":277,"d":534,"route_I_counts":"{\"2\": 277}","source":29,"target":30,"layer":"L","from":"Náměstí Republiky","to":"Florenc"},"geometry":{"type":"LineString","coordinates":[[14.43061,50.0888],[14.43766,50.09041]]}},{"type":"Feature","properties":{"duration_avg":70.0,"n_vehicles":278,"d":797,"route_I_counts":"{\"2\": 278}","shape_id":"{\"L992V2\": 273, \"L992V4\": 1, \"L992V5\": 2, \"L992V6\": 2}","direction_id":"{\"1\": 278}","headsign":"{\"Nové Butovice\": 2, \"Smíchovské nádraží\": 2, \"Zličín\": 274}","source":29,"target":7,"layer":"L","from":"Náměstí Republiky","to":"Můstek"},"geometry":{"type":"LineString","coordinates":[[14.43061,50.0888],[14.4246,50.08359]]}},{"type":"Feature","properties":{"shape_id":"{\"L992V1\": 272, \"L992V3\": 1, \"L992V7\": 2, \"L992V8\": 1, \"L992V9\": 1}","direction_id":"{\"0\": 277}","headsign":"{\"Černý Most\": 277}","duration_avg":80.0,"n_vehicles":277,"d":1005,"route_I_counts":"{\"2\": 277}","source":30,"target":31,"layer":"L","from":"Florenc","to":"Křižíkova"},"geometry":{"type":"LineString","coordinates":[[14.43766,50.09041],[14.45136,50.0925]]}},{"type":"Feature","properties":{"duration_avg":90.0,"n_vehicles":325,"d":1144,"route_I_counts":"{\"3\": 325}","shape_id":"{\"L993V1\": 308, \"L993V4\": 16, \"L993V7\": 1}","direction_id":"{\"1\": 325}","headsign":"{\"Letňany\": 325}","source":30,"target":51,"layer":"L","from":"Florenc","to":"Vltavská"},"geometry":{"type":"LineString","coordinates":[[14.43766,50.09041],[14.43853,50.10029]]}},{"type":"Feature","properties":{"duration_avg":75.0,"n_vehicles":325,"d":810,"route_I_counts":"{\"3\": 325}","shape_id":"{\"L993V2\": 293, \"L993V3\": 30, \"L993V5\": 1, \"L993V6\": 1}","direction_id":"{\"0\": 325}","headsign":"{\"Háje\": 295, \"Kačerov\": 30}","source":30,"target":50,"layer":"L","from":"Florenc","to":"Hlavní nádraží"},"geometry":{"type":"LineString","coordinates":[[14.43766,50.09041],[14.4342,50.08349]]}},{"type":"Feature","properties":{"duration_avg":56.888489208633096,"n_vehicles":278,"d":536,"route_I_counts":"{\"2\": 278}","shape_id":"{\"L992V2\": 273, \"L992V4\": 1, \"L992V5\": 2, \"L992V6\": 2}","direction_id":"{\"1\": 278}","headsign":"{\"Nové Butovice\": 2, \"Smíchovské nádraží\": 2, \"Zličín\": 274}","source":30,"target":29,"layer":"L","from":"Florenc","to":"Náměstí Republiky"},"geometry":{"type":"LineString","coordinates":[[14.43766,50.09041],[14.43061,50.0888]]}},{"type":"Feature","properties":{"shape_id":"{\"L992V1\": 272, \"L992V3\": 1, \"L992V7\": 2, \"L992V8\": 1, \"L992V9\": 1}","direction_id":"{\"0\": 277}","headsign":"{\"Černý Most\": 277}","duration_avg":79.49458483754513,"n_vehicles":277,"d":968,"route_I_counts":"{\"2\": 277}","source":31,"target":32,"layer":"L","from":"Křižíkova","to":"Invalidovna"},"geometry":{"type":"LineString","coordinates":[[14.45136,50.0925],[14.46318,50.09677]]}},{"type":"Feature","properties":{"duration_avg":80.0,"n_vehicles":278,"d":1003,"route_I_counts":"{\"2\": 278}","shape_id":"{\"L992V2\": 273, \"L992V4\": 1, \"L992V5\": 2, \"L992V6\": 2}","direction_id":"{\"1\": 278}","headsign":"{\"Nové Butovice\": 2, \"Smíchovské nádraží\": 2, \"Zličín\": 274}","source":31,"target":30,"layer":"L","from":"Křižíkova","to":"Florenc"},"geometry":{"type":"LineString","coordinates":[[14.45136,50.0925],[14.43766,50.09041]]}},{"type":"Feature","properties":{"shape_id":"{\"L992V1\": 272, \"L992V3\": 1, \"L992V7\": 2, \"L992V8\": 1, \"L992V9\": 1}","direction_id":"{\"0\": 277}","headsign":"{\"Černý Most\": 277}","duration_avg":90.0,"n_vehicles":277,"d":1153,"route_I_counts":"{\"2\": 277}","source":32,"target":33,"layer":"L","from":"Invalidovna","to":"Palmovka"},"geometry":{"type":"LineString","coordinates":[[14.46318,50.09677],[14.47483,50.10395]]}},{"type":"Feature","properties":{"duration_avg":80.0,"n_vehicles":278,"d":965,"route_I_counts":"{\"2\": 278}","shape_id":"{\"L992V2\": 273, \"L992V4\": 1, \"L992V5\": 2, \"L992V6\": 2}","direction_id":"{\"1\": 278}","headsign":"{\"Nové Butovice\": 2, \"Smíchovské nádraží\": 2, \"Zličín\": 274}","source":32,"target":31,"layer":"L","from":"Invalidovna","to":"Křižíkova"},"geometry":{"type":"LineString","coordinates":[[14.46318,50.09677],[14.45136,50.0925]]}},{"type":"Feature","properties":{"shape_id":"{\"L992V1\": 271, \"L992V3\": 1, \"L992V7\": 2, \"L992V8\": 1, \"L992V9\": 1}","direction_id":"{\"0\": 276}","headsign":"{\"Černý Most\": 276}","duration_avg":94.51086956521739,"n_vehicles":276,"d":1229,"route_I_counts":"{\"2\": 276}","source":33,"target":34,"layer":"L","from":"Palmovka","to":"Českomoravská"},"geometry":{"type":"LineString","coordinates":[[14.47483,50.10395],[14.49172,50.10612]]}},{"type":"Feature","properties":{"duration_avg":90.0,"n_vehicles":279,"d":1154,"route_I_counts":"{\"2\": 279}","shape_id":"{\"L992V2\": 274, \"L992V4\": 1, \"L992V5\": 2, \"L992V6\": 2}","direction_id":"{\"1\": 279}","headsign":"{\"Nové Butovice\": 2, \"Smíchovské nádraží\": 2, \"Zličín\": 275}","source":33,"target":32,"layer":"L","from":"Palmovka","to":"Invalidovna"},"geometry":{"type":"LineString","coordinates":[[14.47483,50.10395],[14.46318,50.09677]]}},{"type":"Feature","properties":{"shape_id":"{\"L992V1\": 271, \"L992V3\": 1, \"L992V7\": 2, \"L992V8\": 1, \"L992V9\": 1}","direction_id":"{\"0\": 276}","headsign":"{\"Černý Most\": 276}","duration_avg":65.0,"n_vehicles":276,"d":800,"route_I_counts":"{\"2\": 276}","source":34,"target":35,"layer":"L","from":"Českomoravská","to":"Vysočanská"},"geometry":{"type":"LineString","coordinates":[[14.49172,50.10612],[14.501063,50.110093]]}},{"type":"Feature","properties":{"duration_avg":90.0,"n_vehicles":279,"d":1229,"route_I_counts":"{\"2\": 279}","shape_id":"{\"L992V2\": 274, \"L992V4\": 1, \"L992V5\": 2, \"L992V6\": 2}","direction_id":"{\"1\": 279}","headsign":"{\"Nové Butovice\": 2, \"Smíchovské nádraží\": 2, \"Zličín\": 275}","source":34,"target":33,"layer":"L","from":"Českomoravská","to":"Palmovka"},"geometry":{"type":"LineString","coordinates":[[14.49172,50.10612],[14.47483,50.10395]]}},{"type":"Feature","properties":{"shape_id":"{\"L992V1\": 271, \"L992V3\": 1, \"L992V7\": 2, \"L992V8\": 1, \"L992V9\": 1}","direction_id":"{\"0\": 276}","headsign":"{\"Černý Most\": 276}","duration_avg":84.51086956521739,"n_vehicles":276,"d":1094,"route_I_counts":"{\"2\": 276}","source":35,"target":36,"layer":"L","from":"Vysočanská","to":"Kolbenova"},"geometry":{"type":"LineString","coordinates":[[14.501063,50.110093],[14.516393,50.110354]]}},{"type":"Feature","properties":{"duration_avg":66.88848920863309,"n_vehicles":278,"d":797,"route_I_counts":"{\"2\": 278}","shape_id":"{\"L992V2\": 274, \"L992V5\": 2, \"L992V6\": 2}","direction_id":"{\"1\": 278}","headsign":"{\"Nové Butovice\": 2, \"Smíchovské nádraží\": 2, \"Zličín\": 274}","source":35,"target":34,"layer":"L","from":"Vysočanská","to":"Českomoravská"},"geometry":{"type":"LineString","coordinates":[[14.501063,50.110093],[14.49172,50.10612]]}},{"type":"Feature","properties":{"shape_id":"{\"L992V1\": 271, \"L992V3\": 1, \"L992V7\": 2, \"L992V8\": 1, \"L992V9\": 1}","direction_id":"{\"0\": 276}","headsign":"{\"Černý Most\": 276}","duration_avg":105.0,"n_vehicles":276,"d":1486,"route_I_counts":"{\"2\": 276}","source":36,"target":37,"layer":"L","from":"Kolbenova","to":"Hloubětín"},"geometry":{"type":"LineString","coordinates":[[14.516393,50.110354],[14.536389,50.106642]]}},{"type":"Feature","properties":{"duration_avg":80.0,"n_vehicles":278,"d":1094,"route_I_counts":"{\"2\": 278}","shape_id":"{\"L992V2\": 274, \"L992V5\": 2, \"L992V6\": 2}","direction_id":"{\"1\": 278}","headsign":"{\"Nové Butovice\": 2, \"Smíchovské nádraží\": 2, \"Zličín\": 274}","source":36,"target":35,"layer":"L","from":"Kolbenova","to":"Vysočanská"},"geometry":{"type":"LineString","coordinates":[[14.516393,50.110354],[14.501063,50.110093]]}},{"type":"Feature","properties":{"shape_id":"{\"L992V1\": 271, \"L992V3\": 1, \"L992V7\": 2, \"L992V8\": 1, \"L992V9\": 1}","direction_id":"{\"0\": 276}","headsign":"{\"Černý Most\": 276}","duration_avg":115.0,"n_vehicles":276,"d":1721,"route_I_counts":"{\"2\": 276}","source":37,"target":38,"layer":"L","from":"Hloubětín","to":"Rajská zahrada"},"geometry":{"type":"LineString","coordinates":[[14.536389,50.106642],[14.5605,50.10683]]}},{"type":"Feature","properties":{"duration_avg":101.88848920863309,"n_vehicles":278,"d":1487,"route_I_counts":"{\"2\": 278}","shape_id":"{\"L992V2\": 274, \"L992V5\": 2, \"L992V6\": 2}","direction_id":"{\"1\": 278}","headsign":"{\"Nové Butovice\": 2, \"Smíchovské nádraží\": 2, \"Zličín\": 274}","source":37,"target":36,"layer":"L","from":"Hloubětín","to":"Kolbenova"},"geometry":{"type":"LineString","coordinates":[[14.536389,50.106642],[14.516393,50.110354]]}},{"type":"Feature","properties":{"shape_id":"{\"L992V1\": 270, \"L992V3\": 1, \"L992V7\": 2, \"L992V8\": 1, \"L992V9\": 1}","direction_id":"{\"0\": 275}","headsign":"{\"Černý Most\": 275}","duration_avg":90.0,"n_vehicles":275,"d":1189,"route_I_counts":"{\"2\": 275}","source":38,"target":39,"layer":"L","from":"Rajská zahrada","to":"Černý Most"},"geometry":{"type":"LineString","coordinates":[[14.5605,50.10683],[14.57684,50.10891]]}},{"type":"Feature","properties":{"duration_avg":111.88172043010752,"n_vehicles":279,"d":1717,"route_I_counts":"{\"2\": 279}","shape_id":"{\"L992V2\": 275, \"L992V5\": 2, \"L992V6\": 2}","direction_id":"{\"1\": 279}","headsign":"{\"Nové Butovice\": 2, \"Smíchovské nádraží\": 2, \"Zličín\": 275}","source":38,"target":37,"layer":"L","from":"Rajská zahrada","to":"Hloubětín"},"geometry":{"type":"LineString","coordinates":[[14.5605,50.10683],[14.536389,50.106642]]}},{"type":"Feature","properties":{"duration_avg":86.88172043010752,"n_vehicles":279,"d":1189,"route_I_counts":"{\"2\": 279}","shape_id":"{\"L992V2\": 275, \"L992V5\": 2, \"L992V6\": 2}","direction_id":"{\"1\": 279}","headsign":"{\"Nové Butovice\": 2, \"Smíchovské nádraží\": 2, \"Zličín\": 275}","source":39,"target":38,"layer":"L","from":"Černý Most","to":"Rajská zahrada"},"geometry":{"type":"LineString","coordinates":[[14.57684,50.10891],[14.5605,50.10683]]}},{"type":"Feature","properties":{"shape_id":"{\"L993V1\": 310}","direction_id":"{\"1\": 310}","headsign":"{\"Letňany\": 310}","duration_avg":90.0,"n_vehicles":310,"d":1332,"route_I_counts":"{\"3\": 310}","source":40,"target":41,"layer":"L","from":"Háje","to":"Opatov"},"geometry":{"type":"LineString","coordinates":[[14.527223,50.030904],[14.50918,50.02793]]}},{"type":"Feature","properties":{"shape_id":"{\"L993V1\": 310}","direction_id":"{\"1\": 310}","headsign":"{\"Letňany\": 310}","duration_avg":100.0,"n_vehicles":310,"d":1368,"route_I_counts":"{\"3\": 310}","source":41,"target":42,"layer":"L","from":"Opatov","to":"Chodov"},"geometry":{"type":"LineString","coordinates":[[14.50918,50.02793],[14.49094,50.03164]]}},{"type":"Feature","properties":{"duration_avg":95.0,"n_vehicles":294,"d":1331,"route_I_counts":"{\"3\": 294}","shape_id":"{\"L993V2\": 292, \"L993V5\": 1, \"L993V6\": 1}","direction_id":"{\"0\": 294}","headsign":"{\"Háje\": 294}","source":41,"target":40,"layer":"L","from":"Opatov","to":"Háje"},"geometry":{"type":"LineString","coordinates":[[14.50918,50.02793],[14.527223,50.030904]]}},{"type":"Feature","properties":{"shape_id":"{\"L993V1\": 309}","direction_id":"{\"1\": 309}","headsign":"{\"Letňany\": 309}","duration_avg":95.0,"n_vehicles":309,"d":1217,"route_I_counts":"{\"3\": 309}","source":42,"target":43,"layer":"L","from":"Chodov","to":"Roztyly"},"geometry":{"type":"LineString","coordinates":[[14.49094,50.03164],[14.47674,50.03767]]}},{"type":"Feature","properties":{"duration_avg":100.0,"n_vehicles":294,"d":1371,"route_I_counts":"{\"3\": 294}","shape_id":"{\"L993V2\": 292, \"L993V5\": 1, \"L993V6\": 1}","direction_id":"{\"0\": 294}","headsign":"{\"Háje\": 294}","source":42,"target":41,"layer":"L","from":"Chodov","to":"Opatov"},"geometry":{"type":"LineString","coordinates":[[14.49094,50.03164],[14.50918,50.02793]]}},{"type":"Feature","properties":{"shape_id":"{\"L993V1\": 309}","direction_id":"{\"1\": 309}","headsign":"{\"Letňany\": 309}","duration_avg":95.0,"n_vehicles":309,"d":1330,"route_I_counts":"{\"3\": 309}","source":43,"target":44,"layer":"L","from":"Roztyly","to":"Kačerov"},"geometry":{"type":"LineString","coordinates":[[14.47674,50.03767],[14.45932,50.04187]]}},{"type":"Feature","properties":{"duration_avg":90.0,"n_vehicles":294,"d":1215,"route_I_counts":"{\"3\": 294}","shape_id":"{\"L993V2\": 292, \"L993V5\": 1, \"L993V6\": 1}","direction_id":"{\"0\": 294}","headsign":"{\"Háje\": 294}","source":43,"target":42,"layer":"L","from":"Roztyly","to":"Chodov"},"geometry":{"type":"LineString","coordinates":[[14.47674,50.03767],[14.49094,50.03164]]}},{"type":"Feature","properties":{"shape_id":"{\"L993V1\": 309, \"L993V4\": 16, \"L993V7\": 1}","direction_id":"{\"1\": 326}","headsign":"{\"Letňany\": 326}","duration_avg":70.0,"n_vehicles":326,"d":813,"route_I_counts":"{\"3\": 326}","source":44,"target":45,"layer":"L","from":"Kačerov","to":"Budějovická"},"geometry":{"type":"LineString","coordinates":[[14.45932,50.04187],[14.4487,50.04449]]}},{"type":"Feature","properties":{"duration_avg":100.0,"n_vehicles":294,"d":1328,"route_I_counts":"{\"3\": 294}","shape_id":"{\"L993V2\": 292, \"L993V5\": 1, \"L993V6\": 1}","direction_id":"{\"0\": 294}","headsign":"{\"Háje\": 294}","source":44,"target":43,"layer":"L","from":"Kačerov","to":"Roztyly"},"geometry":{"type":"LineString","coordinates":[[14.45932,50.04187],[14.47674,50.03767]]}},{"type":"Feature","properties":{"shape_id":"{\"L993V1\": 309, \"L993V4\": 16, \"L993V7\": 1}","direction_id":"{\"1\": 326}","headsign":"{\"Letňany\": 326}","duration_avg":80.0,"n_vehicles":326,"d":972,"route_I_counts":"{\"3\": 326}","source":45,"target":46,"layer":"L","from":"Budějovická","to":"Pankrác"},"geometry":{"type":"LineString","coordinates":[[14.4487,50.04449],[14.43972,50.05105]]}},{"type":"Feature","properties":{"duration_avg":75.0,"n_vehicles":324,"d":816,"route_I_counts":"{\"3\": 324}","shape_id":"{\"L993V2\": 292, \"L993V3\": 30, \"L993V5\": 1, \"L993V6\": 1}","direction_id":"{\"0\": 324}","headsign":"{\"Háje\": 294, \"Kačerov\": 30}","source":45,"target":44,"layer":"L","from":"Budějovická","to":"Kačerov"},"geometry":{"type":"LineString","coordinates":[[14.4487,50.04449],[14.45932,50.04187]]}},{"type":"Feature","properties":{"shape_id":"{\"L993V1\": 309, \"L993V4\": 16, \"L993V7\": 1}","direction_id":"{\"1\": 326}","headsign":"{\"Letňany\": 326}","duration_avg":80.0,"n_vehicles":326,"d":793,"route_I_counts":"{\"3\": 326}","source":46,"target":47,"layer":"L","from":"Pankrác","to":"Pražského povstání"},"geometry":{"type":"LineString","coordinates":[[14.43972,50.05105],[14.43336,50.05689]]}},{"type":"Feature","properties":{"duration_avg":80.0,"n_vehicles":324,"d":973,"route_I_counts":"{\"3\": 324}","shape_id":"{\"L993V2\": 292, \"L993V3\": 30, \"L993V5\": 1, \"L993V6\": 1}","direction_id":"{\"0\": 324}","headsign":"{\"Háje\": 294, \"Kačerov\": 30}","source":46,"target":45,"layer":"L","from":"Pankrác","to":"Budějovická"},"geometry":{"type":"LineString","coordinates":[[14.43972,50.05105],[14.4487,50.04449]]}},{"type":"Feature","properties":{"shape_id":"{\"L993V1\": 309, \"L993V4\": 16, \"L993V7\": 1}","direction_id":"{\"1\": 326}","headsign":"{\"Letňany\": 326}","duration_avg":70.0,"n_vehicles":326,"d":723,"route_I_counts":"{\"3\": 326}","source":47,"target":48,"layer":"L","from":"Pražského povstání","to":"Vyšehrad"},"geometry":{"type":"LineString","coordinates":[[14.43336,50.05689],[14.43056,50.06314]]}},{"type":"Feature","properties":{"duration_avg":70.0,"n_vehicles":325,"d":791,"route_I_counts":"{\"3\": 325}","shape_id":"{\"L993V2\": 293, \"L993V3\": 30, \"L993V5\": 1, \"L993V6\": 1}","direction_id":"{\"0\": 325}","headsign":"{\"Háje\": 295, \"Kačerov\": 30}","source":47,"target":46,"layer":"L","from":"Pražského povstání","to":"Pankrác"},"geometry":{"type":"LineString","coordinates":[[14.43336,50.05689],[14.43972,50.05105]]}},{"type":"Feature","properties":{"shape_id":"{\"L993V1\": 308, \"L993V4\": 16, \"L993V7\": 1}","direction_id":"{\"1\": 325}","headsign":"{\"Letňany\": 325}","duration_avg":105.0,"n_vehicles":325,"d":1245,"route_I_counts":"{\"3\": 325}","source":48,"target":49,"layer":"L","from":"Vyšehrad","to":"I. P. Pavlova"},"geometry":{"type":"LineString","coordinates":[[14.43056,50.06314],[14.43037,50.07433]]}},{"type":"Feature","properties":{"duration_avg":70.0,"n_vehicles":325,"d":729,"route_I_counts":"{\"3\": 325}","shape_id":"{\"L993V2\": 293, \"L993V3\": 30, \"L993V5\": 1, \"L993V6\": 1}","direction_id":"{\"0\": 325}","headsign":"{\"Háje\": 295, \"Kačerov\": 30}","source":48,"target":47,"layer":"L","from":"Vyšehrad","to":"Pražského povstání"},"geometry":{"type":"LineString","coordinates":[[14.43056,50.06314],[14.43336,50.05689]]}},{"type":"Feature","properties":{"duration_avg":70.0,"n_vehicles":325,"d":657,"route_I_counts":"{\"3\": 325}","shape_id":"{\"L993V1\": 308, \"L993V4\": 16, \"L993V7\": 1}","direction_id":"{\"1\": 325}","headsign":"{\"Letňany\": 325}","source":49,"target":6,"layer":"L","from":"I. P. Pavlova","to":"Muzeum"},"geometry":{"type":"LineString","coordinates":[[14.43037,50.07433],[14.43178,50.07953]]}},{"type":"Feature","properties":{"duration_avg":90.0,"n_vehicles":325,"d":1245,"route_I_counts":"{\"3\": 325}","shape_id":"{\"L993V2\": 293, \"L993V3\": 30, \"L993V5\": 1, \"L993V6\": 1}","direction_id":"{\"0\": 325}","headsign":"{\"Háje\": 295, \"Kačerov\": 30}","source":49,"target":48,"layer":"L","from":"I. P. Pavlova","to":"Vyšehrad"},"geometry":{"type":"LineString","coordinates":[[14.43037,50.07433],[14.43056,50.06314]]}},{"type":"Feature","properties":{"duration_avg":80.0,"n_vehicles":325,"d":810,"route_I_counts":"{\"3\": 325}","shape_id":"{\"L993V1\": 308, \"L993V4\": 16, \"L993V7\": 1}","direction_id":"{\"1\": 325}","headsign":"{\"Letňany\": 325}","source":50,"target":30,"layer":"L","from":"Hlavní nádraží","to":"Florenc"},"geometry":{"type":"LineString","coordinates":[[14.4342,50.08349],[14.43766,50.09041]]}},{"type":"Feature","properties":{"duration_avg":50.0,"n_vehicles":325,"d":429,"route_I_counts":"{\"3\": 325}","shape_id":"{\"L993V2\": 293, \"L993V3\": 30, \"L993V5\": 1, \"L993V6\": 1}","direction_id":"{\"0\": 325}","headsign":"{\"Háje\": 295, \"Kačerov\": 30}","source":50,"target":6,"layer":"L","from":"Hlavní nádraží","to":"Muzeum"},"geometry":{"type":"LineString","coordinates":[[14.4342,50.08349],[14.43178,50.07953]]}},{"type":"Feature","properties":{"shape_id":"{\"L993V1\": 308, \"L993V4\": 16, \"L993V7\": 1}","direction_id":"{\"1\": 325}","headsign":"{\"Letňany\": 325}","duration_avg":80.0,"n_vehicles":325,"d":972,"route_I_counts":"{\"3\": 325}","source":51,"target":52,"layer":"L","from":"Vltavská","to":"Nádraží Holešovice"},"geometry":{"type":"LineString","coordinates":[[14.43853,50.10029],[14.44016,50.10896]]}},{"type":"Feature","properties":{"duration_avg":95.0,"n_vehicles":326,"d":1140,"route_I_counts":"{\"3\": 326}","shape_id":"{\"L993V2\": 294, \"L993V3\": 30, \"L993V5\": 1, \"L993V6\": 1}","direction_id":"{\"0\": 326}","headsign":"{\"Háje\": 296, \"Kačerov\": 30}","source":51,"target":30,"layer":"L","from":"Vltavská","to":"Florenc"},"geometry":{"type":"LineString","coordinates":[[14.43853,50.10029],[14.43766,50.09041]]}},{"type":"Feature","properties":{"shape_id":"{\"L993V1\": 307, \"L993V4\": 16, \"L993V7\": 1}","direction_id":"{\"1\": 324}","headsign":"{\"Letňany\": 324}","duration_avg":155.0,"n_vehicles":324,"d":1961,"route_I_counts":"{\"3\": 324}","source":52,"target":53,"layer":"L","from":"Nádraží Holešovice","to":"Kobylisy"},"geometry":{"type":"LineString","coordinates":[[14.44016,50.10896],[14.45428,50.12408]]}},{"type":"Feature","properties":{"duration_avg":80.0,"n_vehicles":326,"d":966,"route_I_counts":"{\"3\": 326}","shape_id":"{\"L993V2\": 294, \"L993V3\": 30, \"L993V5\": 1, \"L993V6\": 1}","direction_id":"{\"0\": 326}","headsign":"{\"Háje\": 296, \"Kačerov\": 30}","source":52,"target":51,"layer":"L","from":"Nádraží Holešovice","to":"Vltavská"},"geometry":{"type":"LineString","coordinates":[[14.44016,50.10896],[14.43853,50.10029]]}},{"type":"Feature","properties":{"shape_id":"{\"L993V1\": 307, \"L993V4\": 16, \"L993V7\": 1}","direction_id":"{\"1\": 324}","headsign":"{\"Letňany\": 324}","duration_avg":95.0,"n_vehicles":324,"d":1126,"route_I_counts":"{\"3\": 324}","source":53,"target":54,"layer":"L","from":"Kobylisy","to":"Ládví"},"geometry":{"type":"LineString","coordinates":[[14.45428,50.12408],[14.46955,50.12663]]}},{"type":"Feature","properties":{"duration_avg":170.0,"n_vehicles":325,"d":1976,"route_I_counts":"{\"3\": 325}","shape_id":"{\"L993V2\": 294, \"L993V3\": 30, \"L993V5\": 1}","direction_id":"{\"0\": 325}","headsign":"{\"Háje\": 295, \"Kačerov\": 30}","source":53,"target":52,"layer":"L","from":"Kobylisy","to":"Nádraží Holešovice"},"geometry":{"type":"LineString","coordinates":[[14.45428,50.12408],[14.44016,50.10896]]}},{"type":"Feature","properties":{"shape_id":"{\"L993V1\": 307, \"L993V4\": 16, \"L993V7\": 1}","direction_id":"{\"1\": 324}","headsign":"{\"Letňany\": 324}","duration_avg":105.0,"n_vehicles":324,"d":1421,"route_I_counts":"{\"3\": 324}","source":54,"target":55,"layer":"L","from":"Ládví","to":"Střížkov"},"geometry":{"type":"LineString","coordinates":[[14.46955,50.12663],[14.48946,50.12615]]}},{"type":"Feature","properties":{"duration_avg":100.0,"n_vehicles":325,"d":1127,"route_I_counts":"{\"3\": 325}","shape_id":"{\"L993V2\": 294, \"L993V3\": 30, \"L993V5\": 1}","direction_id":"{\"0\": 325}","headsign":"{\"Háje\": 295, \"Kačerov\": 30}","source":54,"target":53,"layer":"L","from":"Ládví","to":"Kobylisy"},"geometry":{"type":"LineString","coordinates":[[14.46955,50.12663],[14.45428,50.12408]]}},{"type":"Feature","properties":{"shape_id":"{\"L993V1\": 307, \"L993V4\": 16, \"L993V7\": 1}","direction_id":"{\"1\": 324}","headsign":"{\"Letňany\": 324}","duration_avg":80.0,"n_vehicles":324,"d":1002,"route_I_counts":"{\"3\": 324}","source":55,"target":56,"layer":"L","from":"Střížkov","to":"Prosek"},"geometry":{"type":"LineString","coordinates":[[14.48946,50.12615],[14.49855,50.11928]]}},{"type":"Feature","properties":{"duration_avg":105.0,"n_vehicles":324,"d":1431,"route_I_counts":"{\"3\": 324}","shape_id":"{\"L993V2\": 294, \"L993V3\": 30}","direction_id":"{\"0\": 324}","headsign":"{\"Háje\": 294, \"Kačerov\": 30}","source":55,"target":54,"layer":"L","from":"Střížkov","to":"Ládví"},"geometry":{"type":"LineString","coordinates":[[14.48946,50.12615],[14.46955,50.12663]]}},{"type":"Feature","properties":{"shape_id":"{\"L993V1\": 307, \"L993V4\": 16, \"L993V7\": 1}","direction_id":"{\"1\": 324}","headsign":"{\"Letňany\": 324}","duration_avg":130.0,"n_vehicles":324,"d":1376,"route_I_counts":"{\"3\": 324}","source":56,"target":57,"layer":"L","from":"Prosek","to":"Letňany"},"geometry":{"type":"LineString","coordinates":[[14.49855,50.11928],[14.51627,50.12415]]}},{"type":"Feature","properties":{"duration_avg":80.0,"n_vehicles":325,"d":1002,"route_I_counts":"{\"3\": 325}","shape_id":"{\"L993V2\": 295, \"L993V3\": 30}","direction_id":"{\"0\": 325}","headsign":"{\"Háje\": 295, \"Kačerov\": 30}","source":56,"target":55,"layer":"L","from":"Prosek","to":"Střížkov"},"geometry":{"type":"LineString","coordinates":[[14.49855,50.11928],[14.48946,50.12615]]}},{"type":"Feature","properties":{"duration_avg":135.0,"n_vehicles":325,"d":1360,"route_I_counts":"{\"3\": 325}","shape_id":"{\"L993V2\": 295, \"L993V3\": 30}","direction_id":"{\"0\": 325}","headsign":"{\"Háje\": 295, \"Kačerov\": 30}","source":57,"target":56,"layer":"L","from":"Letňany","to":"Prosek"},"geometry":{"type":"LineString","coordinates":[[14.51627,50.12415],[14.49855,50.11928]]}}]}