{"type":"FeatureCollection","features":[{"type":"Feature","geometry":{"type":"Point","coordinates":[-1.710943,48.121295]},"properties":{"name":"J.F. Kennedy","original_ids":"[1673]","id":0,"layer":"stop"}},{"type":"Feature","geometry":{"type":"Point","coordinates":[-1.703882,48.121197]},"properties":{"name":"Villejean-Université","original_ids":"[1674, 1688]","id":1,"layer":"stop"}},{"type":"Feature","geometry":{"type":"Point","coordinates":[-1.69335,48.121535]},"properties":{"name":"Pontchaillou","original_ids":"[1675, 1689]","id":2,"layer":"stop"}},{"type":"Feature","geometry":{"type":"Point","coordinates":[-1.687529,48.11805]},"properties":{"name":"Anatole France","original_ids":"[1676, 1690]","id":3,"layer":"stop"}},{"type":"Feature","geometry":{"type":"Point","coordinates":[-1.680484,48.114455]},"properties":{"name":"Sainte-Anne","original_ids":"[1677, 1691]","id":4,"layer":"stop"}},{"type":"Feature","geometry":{"type":"Point","coordinates":[-1.679224,48.109667]},"properties":{"name":"République","original_ids":"[1678, 1692]","id":5,"layer":"stop"}},{"type":"Feature","geometry":{"type":"Point","coordinates":[-1.677107,48.105473]},"properties":{"name":"Charles de Gaulle","original_ids":"[1679, 1693]","id":6,"layer":"stop"}},{"type":"Feature","geometry":{"type":"Point","coordinates":[-1.672252,48.103779]},"properties":{"name":"Gares","original_ids":"[1680, 1694]","id":7,"layer":"stop"}},{"type":"Feature","geometry":{"type":"Point","coordinates":[-1.675508,48.097566]},"properties":{"name":"Jacques Cartier","original_ids":"[1681, 1695]","id":8,"layer":"stop"}},{"type":"Feature","geometry":{"type":"Point","coordinates":[-1.674477,48.093565]},"properties":{"name":"Clemenceau","original_ids":"[1682, 1696]","id":9,"layer":"stop"}},{"type":"Feature","geometry":{"type":"Point","coordinates":[-1.674859,48.087577]},"properties":{"name":"Henri Fréville","original_ids":"[1683, 1697]","id":10,"layer":"stop"}},{"type":"Feature","geometry":{"type":"Point","coordinates":[-1.667646,48.086524]},"properties":{"name":"Italie","original_ids":"[1684, 1698]","id":11,"layer":"stop"}},{"type":"Feature","geometry":{"type":"Point","coordinates":[-1.660521,48.086405]},"properties":{"name":"Triangle","original_ids":"[1685, 1699]","id":12,"layer":"stop"}},{"type":"Feature","geometry":{"type":"Point","coordinates":[-1.654294,48.087702]},"properties":{"name":"Le Blosne","original_ids":"[1686, 1700]","id":13,"layer":"stop"}},{"type":"Feature","geometry":{"type":"Point","coordinates":[-1.644513,48.08745]},"properties":{"name":"La Poterie","original_ids":"[1687, 1701]","id":14,"layer":"stop"}},{"type":"Feature","properties":{"shape_id":"{\"1001-A-5001-5015\": 461}","direction_id":"{\"0\": 461}","headsign":"{\"La Poterie\": 461}","duration_avg":79.66811279826464,"n_vehicles":461,"d":524,"route_I_counts":"{\"156\": 461}","source":0,"target":1,"layer":"L","from":"J.F. Kennedy","to":"Villejean-Université"},"geometry":{"type":"LineString","coordinates":[[-1.710943,48.121295],[-1.703882,48.121197]]}},{"type":"Feature","properties":{"shape_id":"{\"1001-A-5001-5015\": 461}","direction_id":"{\"0\": 461}","headsign":"{\"La Poterie\": 461}","duration_avg":90.22125813449024,"n_vehicles":461,"d":783,"route_I_counts":"{\"156\": 461}","source":1,"target":2,"layer":"L","from":"Villejean-Université","to":"Pontchaillou"},"geometry":{"type":"LineString","coordinates":[[-1.703882,48.121197],[-1.69335,48.121535]]}},{"type":"Feature","properties":{"duration_avg":73.5711159737418,"n_vehicles":457,"d":524,"route_I_counts":"{\"156\": 457}","shape_id":"{\"1001-B-5030-5001\": 457}","direction_id":"{\"1\": 457}","headsign":"{\"Kennedy\": 457}","source":1,"target":0,"layer":"L","from":"Villejean-Université","to":"J.F. Kennedy"},"geometry":{"type":"LineString","coordinates":[[-1.703882,48.121197],[-1.710943,48.121295]]}},{"type":"Feature","properties":{"shape_id":"{\"1001-A-5001-5015\": 460}","direction_id":"{\"0\": 460}","headsign":"{\"La Poterie\": 460}","duration_avg":69.21304347826087,"n_vehicles":460,"d":581,"route_I_counts":"{\"156\": 460}","source":2,"target":3,"layer":"L","from":"Pontchaillou","to":"Anatole France"},"geometry":{"type":"LineString","coordinates":[[-1.69335,48.121535],[-1.687529,48.11805]]}},{"type":"Feature","properties":{"duration_avg":84.4061135371179,"n_vehicles":458,"d":774,"route_I_counts":"{\"156\": 458}","shape_id":"{\"1001-B-5030-5001\": 458}","direction_id":"{\"1\": 458}","headsign":"{\"Kennedy\": 458}","source":2,"target":1,"layer":"L","from":"Pontchaillou","to":"Villejean-Université"},"geometry":{"type":"LineString","coordinates":[[-1.69335,48.121535],[-1.703882,48.121197]]}},{"type":"Feature","properties":{"shape_id":"{\"1001-A-5001-5015\": 460}","direction_id":"{\"0\": 460}","headsign":"{\"La Poterie\": 460}","duration_avg":69.02173913043478,"n_vehicles":460,"d":659,"route_I_counts":"{\"156\": 460}","source":3,"target":4,"layer":"L","from":"Anatole France","to":"Sainte-Anne"},"geometry":{"type":"LineString","coordinates":[[-1.687529,48.11805],[-1.680484,48.114455]]}},{"type":"Feature","properties":{"duration_avg":74.8646288209607,"n_vehicles":458,"d":589,"route_I_counts":"{\"156\": 458}","shape_id":"{\"1001-B-5030-5001\": 458}","direction_id":"{\"1\": 458}","headsign":"{\"Kennedy\": 458}","source":3,"target":2,"layer":"L","from":"Anatole France","to":"Pontchaillou"},"geometry":{"type":"LineString","coordinates":[[-1.687529,48.11805],[-1.69335,48.121535]]}},{"type":"Feature","properties":{"shape_id":"{\"1001-A-5001-5015\": 460}","direction_id":"{\"0\": 460}","headsign":"{\"La Poterie\": 460}","duration_avg":72.66956521739131,"n_vehicles":460,"d":541,"route_I_counts":"{\"156\": 460}","source":4,"target":5,"layer":"L","from":"Sainte-Anne","to":"République"},"geometry":{"type":"LineString","coordinates":[[-1.680484,48.114455],[-1.679224,48.109667]]}},{"type":"Feature","properties":{"duration_avg":74.93886462882097,"n_vehicles":458,"d":661,"route_I_counts":"{\"156\": 458}","shape_id":"{\"1001-B-5030-5001\": 458}","direction_id":"{\"1\": 458}","headsign":"{\"Kennedy\": 458}","source":4,"target":3,"layer":"L","from":"Sainte-Anne","to":"Anatole France"},"geometry":{"type":"LineString","coordinates":[[-1.680484,48.114455],[-1.687529,48.11805]]}},{"type":"Feature","properties":{"shape_id":"{\"1001-A-5001-5015\": 460}","direction_id":"{\"0\": 460}","headsign":"{\"La Poterie\": 460}","duration_avg":78.15869565217392,"n_vehicles":460,"d":492,"route_I_counts":"{\"156\": 460}","source":5,"target":6,"layer":"L","from":"République","to":"Charles de Gaulle"},"geometry":{"type":"LineString","coordinates":[[-1.679224,48.109667],[-1.677107,48.105473]]}},{"type":"Feature","properties":{"duration_avg":78.87554585152839,"n_vehicles":458,"d":541,"route_I_counts":"{\"156\": 458}","shape_id":"{\"1001-B-5030-5001\": 458}","direction_id":"{\"1\": 458}","headsign":"{\"Kennedy\": 458}","source":5,"target":4,"layer":"L","from":"République","to":"Sainte-Anne"},"geometry":{"type":"LineString","coordinates":[[-1.679224,48.109667],[-1.680484,48.114455]]}},{"type":"Feature","properties":{"shape_id":"{\"1001-A-5001-5015\": 459}","direction_id":"{\"0\": 459}","headsign":"{\"La Poterie\": 459}","duration_avg":63.50326797385621,"n_vehicles":459,"d":407,"route_I_counts":"{\"156\": 459}","source":6,"target":7,"layer":"L","from":"Charles de Gaulle","to":"Gares"},"geometry":{"type":"LineString","coordinates":[[-1.677107,48.105473],[-1.672252,48.103779]]}},{"type":"Feature","properties":{"duration_avg":72.1525054466231,"n_vehicles":459,"d":490,"route_I_counts":"{\"156\": 459}","shape_id":"{\"1001-B-5030-5001\": 459}","direction_id":"{\"1\": 459}","headsign":"{\"Kennedy\": 459}","source":6,"target":5,"layer":"L","from":"Charles de Gaulle","to":"République"},"geometry":{"type":"LineString","coordinates":[[-1.677107,48.105473],[-1.679224,48.109667]]}},{"type":"Feature","properties":{"shape_id":"{\"1001-A-5001-5015\": 459}","direction_id":"{\"0\": 459}","headsign":"{\"La Poterie\": 459}","duration_avg":90.42265795206971,"n_vehicles":459,"d":732,"route_I_counts":"{\"156\": 459}","source":7,"target":8,"layer":"L","from":"Gares","to":"Jacques Cartier"},"geometry":{"type":"LineString","coordinates":[[-1.672252,48.103779],[-1.675508,48.097566]]}},{"type":"Feature","properties":{"duration_avg":63.67755991285403,"n_vehicles":459,"d":404,"route_I_counts":"{\"156\": 459}","shape_id":"{\"1001-B-5030-5001\": 459}","direction_id":"{\"1\": 459}","headsign":"{\"Kennedy\": 459}","source":7,"target":6,"layer":"L","from":"Gares","to":"Charles de Gaulle"},"geometry":{"type":"LineString","coordinates":[[-1.672252,48.103779],[-1.677107,48.105473]]}},{"type":"Feature","properties":{"shape_id":"{\"1001-A-5001-5015\": 459}","direction_id":"{\"0\": 459}","headsign":"{\"La Poterie\": 459}","duration_avg":61.4161220043573,"n_vehicles":459,"d":451,"route_I_counts":"{\"156\": 459}","source":8,"target":9,"layer":"L","from":"Jacques Cartier","to":"Clemenceau"},"geometry":{"type":"LineString","coordinates":[[-1.675508,48.097566],[-1.674477,48.093565]]}},{"type":"Feature","properties":{"duration_avg":83.18518518518519,"n_vehicles":459,"d":738,"route_I_counts":"{\"156\": 459}","shape_id":"{\"1001-B-5030-5001\": 459}","direction_id":"{\"1\": 459}","headsign":"{\"Kennedy\": 459}","source":8,"target":7,"layer":"L","from":"Jacques Cartier","to":"Gares"},"geometry":{"type":"LineString","coordinates":[[-1.675508,48.097566],[-1.672252,48.103779]]}},{"type":"Feature","properties":{"shape_id":"{\"1001-A-5001-5015\": 459}","direction_id":"{\"0\": 459}","headsign":"{\"La Poterie\": 459}","duration_avg":74.64270152505446,"n_vehicles":459,"d":667,"route_I_counts":"{\"156\": 459}","source":9,"target":10,"layer":"L","from":"Clemenceau","to":"Henri Fréville"},"geometry":{"type":"LineString","coordinates":[[-1.674477,48.093565],[-1.674859,48.087577]]}},{"type":"Feature","properties":{"duration_avg":60.61739130434783,"n_vehicles":460,"d":446,"route_I_counts":"{\"156\": 460}","shape_id":"{\"1001-B-5030-5001\": 460}","direction_id":"{\"1\": 460}","headsign":"{\"Kennedy\": 460}","source":9,"target":8,"layer":"L","from":"Clemenceau","to":"Jacques Cartier"},"geometry":{"type":"LineString","coordinates":[[-1.674477,48.093565],[-1.675508,48.097566]]}},{"type":"Feature","properties":{"shape_id":"{\"1001-A-5001-5015\": 458}","direction_id":"{\"0\": 458}","headsign":"{\"La Poterie\": 458}","duration_avg":74.3471615720524,"n_vehicles":458,"d":549,"route_I_counts":"{\"156\": 458}","source":10,"target":11,"layer":"L","from":"Henri Fréville","to":"Italie"},"geometry":{"type":"LineString","coordinates":[[-1.674859,48.087577],[-1.667646,48.086524]]}},{"type":"Feature","properties":{"duration_avg":74.86521739130434,"n_vehicles":460,"d":666,"route_I_counts":"{\"156\": 460}","shape_id":"{\"1001-B-5030-5001\": 460}","direction_id":"{\"1\": 460}","headsign":"{\"Kennedy\": 460}","source":10,"target":9,"layer":"L","from":"Henri Fréville","to":"Clemenceau"},"geometry":{"type":"LineString","coordinates":[[-1.674859,48.087577],[-1.674477,48.093565]]}},{"type":"Feature","properties":{"shape_id":"{\"1001-A-5001-5015\": 458}","direction_id":"{\"0\": 458}","headsign":"{\"La Poterie\": 458}","duration_avg":65.36681222707423,"n_vehicles":458,"d":529,"route_I_counts":"{\"156\": 458}","source":11,"target":12,"layer":"L","from":"Italie","to":"Triangle"},"geometry":{"type":"LineString","coordinates":[[-1.667646,48.086524],[-1.660521,48.086405]]}},{"type":"Feature","properties":{"duration_avg":73.64565217391305,"n_vehicles":460,"d":536,"route_I_counts":"{\"156\": 460}","shape_id":"{\"1001-B-5030-5001\": 460}","direction_id":"{\"1\": 460}","headsign":"{\"Kennedy\": 460}","source":11,"target":10,"layer":"L","from":"Italie","to":"Henri Fréville"},"geometry":{"type":"LineString","coordinates":[[-1.667646,48.086524],[-1.674859,48.087577]]}},{"type":"Feature","properties":{"shape_id":"{\"1001-A-5001-5015\": 458}","direction_id":"{\"0\": 458}","headsign":"{\"La Poterie\": 458}","duration_avg":63.15065502183406,"n_vehicles":458,"d":485,"route_I_counts":"{\"156\": 458}","source":12,"target":13,"layer":"L","from":"Triangle","to":"Le Blosne"},"geometry":{"type":"LineString","coordinates":[[-1.660521,48.086405],[-1.654294,48.087702]]}},{"type":"Feature","properties":{"duration_avg":65.64565217391305,"n_vehicles":460,"d":527,"route_I_counts":"{\"156\": 460}","shape_id":"{\"1001-B-5030-5001\": 460}","direction_id":"{\"1\": 460}","headsign":"{\"Kennedy\": 460}","source":12,"target":11,"layer":"L","from":"Triangle","to":"Italie"},"geometry":{"type":"LineString","coordinates":[[-1.660521,48.086405],[-1.667646,48.086524]]}},{"type":"Feature","properties":{"shape_id":"{\"1001-A-5001-5015\": 457}","direction_id":"{\"0\": 457}","headsign":"{\"La Poterie\": 457}","duration_avg":78.85557986870897,"n_vehicles":457,"d":727,"route_I_counts":"{\"156\": 457}","source":13,"target":14,"layer":"L","from":"Le Blosne","to":"La Poterie"},"geometry":{"type":"LineString","coordinates":[[-1.654294,48.087702],[-1.644513,48.08745]]}},{"type":"Feature","properties":{"duration_avg":62.64425162689805,"n_vehicles":461,"d":483,"route_I_counts":"{\"156\": 461}","shape_id":"{\"1001-B-5030-5001\": 461}","direction_id":"{\"1\": 461}","headsign":"{\"Kennedy\": 461}","source":13,"target":12,"layer":"L","from":"Le Blosne","to":"Triangle"},"geometry":{"type":"LineString","coordinates":[[-1.654294,48.087702],[-1.660521,48.086405]]}},{"type":"Feature","properties":{"duration_avg":72.0,"n_vehicles":461,"d":729,"route_I_counts":"{\"156\": 461}","shape_id":"{\"1001-B-5030-5001\": 461}","direction_id":"{\"1\": 461}","headsign":"{\"Kennedy\": 461}","source":14,"target":13,"layer":"L","from":"La Poterie","to":"Le Blosne"},"geometry":{"type":"LineString","coordinates":[[-1.644513,48.08745],[-1.654294,48.087702]]}}]}