{"type":"FeatureCollection","features":[{"type":"Feature","geometry":{"type":"Point","coordinates":[12.585897,41.842999]},"properties":{"name":"Anagnina","original_ids":"[8352, 8344]","id":0,"layer":"stop"}},{"type":"Feature","geometry":{"type":"Point","coordinates":[12.57418,41.849686]},"properties":{"name":"Cinecittà","original_ids":"[8363, 8343]","id":1,"layer":"stop"}},{"type":"Feature","geometry":{"type":"Point","coordinates":[12.568163,41.853718]},"properties":{"name":"Subaugusta","original_ids":"[8372, 8342]","id":2,"layer":"stop"}},{"type":"Feature","geometry":{"type":"Point","coordinates":[12.562781,41.856739]},"properties":{"name":"Giulio Agricola","original_ids":"[8373, 8341]","id":3,"layer":"stop"}},{"type":"Feature","geometry":{"type":"Point","coordinates":[12.557253,41.859818]},"properties":{"name":"Lucio Sestio","original_ids":"[8374, 8340]","id":4,"layer":"stop"}},{"type":"Feature","geometry":{"type":"Point","coordinates":[12.55273,41.862152]},"properties":{"name":"Numidio Quadrato","original_ids":"[8375, 8339]","id":5,"layer":"stop"}},{"type":"Feature","geometry":{"type":"Point","coordinates":[12.548173,41.863922]},"properties":{"name":"Porta Furba - Quadraro","original_ids":"[8376, 8338]","id":6,"layer":"stop"}},{"type":"Feature","geometry":{"type":"Point","coordinates":[12.536031,41.866089]},"properties":{"name":"Arco di Travertino","original_ids":"[8377, 8337]","id":7,"layer":"stop"}},{"type":"Feature","geometry":{"type":"Point","coordinates":[12.529521,41.869831]},"properties":{"name":"Colli Albani","original_ids":"[8378, 8335]","id":8,"layer":"stop"}},{"type":"Feature","geometry":{"type":"Point","coordinates":[12.523074,41.874779]},"properties":{"name":"Furio Camillo","original_ids":"[8353, 8334]","id":9,"layer":"stop"}},{"type":"Feature","geometry":{"type":"Point","coordinates":[12.519109,41.877827]},"properties":{"name":"Ponte Lungo","original_ids":"[8354, 8333]","id":10,"layer":"stop"}},{"type":"Feature","geometry":{"type":"Point","coordinates":[12.514229,41.881863]},"properties":{"name":"Re di Roma","original_ids":"[8355, 8332]","id":11,"layer":"stop"}},{"type":"Feature","geometry":{"type":"Point","coordinates":[12.509652,41.885662]},"properties":{"name":"S. Giovanni","original_ids":"[8356, 8331, 8474, 8452]","id":12,"layer":"stop"}},{"type":"Feature","geometry":{"type":"Point","coordinates":[12.506673,41.89061]},"properties":{"name":"Manzoni","original_ids":"[8357, 8330]","id":13,"layer":"stop"}},{"type":"Feature","geometry":{"type":"Point","coordinates":[12.504571,41.894562]},"properties":{"name":"Vittorio Emanuele","original_ids":"[8358, 8329]","id":14,"layer":"stop"}},{"type":"Feature","geometry":{"type":"Point","coordinates":[12.500031,41.901077]},"properties":{"name":"Termini","original_ids":"[8359, 8328, 8408, 8381]","id":15,"layer":"stop"}},{"type":"Feature","geometry":{"type":"Point","coordinates":[12.496328,41.902798]},"properties":{"name":"Repubblica","original_ids":"[8360, 8327]","id":16,"layer":"stop"}},{"type":"Feature","geometry":{"type":"Point","coordinates":[12.488756,41.903801]},"properties":{"name":"Barberini","original_ids":"[8361, 8326]","id":17,"layer":"stop"}},{"type":"Feature","geometry":{"type":"Point","coordinates":[12.482475,41.907925]},"properties":{"name":"Spagna","original_ids":"[8362, 8351]","id":18,"layer":"stop"}},{"type":"Feature","geometry":{"type":"Point","coordinates":[12.476381,41.9128]},"properties":{"name":"Flaminio","original_ids":"[8364, 8350]","id":19,"layer":"stop"}},{"type":"Feature","geometry":{"type":"Point","coordinates":[12.466101,41.911476]},"properties":{"name":"Lepanto","original_ids":"[8365, 8349]","id":20,"layer":"stop"}},{"type":"Feature","geometry":{"type":"Point","coordinates":[12.458088,41.909519]},"properties":{"name":"Ottaviano","original_ids":"[8366, 8348]","id":21,"layer":"stop"}},{"type":"Feature","geometry":{"type":"Point","coordinates":[12.447356,41.907585]},"properties":{"name":"Cipro","original_ids":"[8367, 8347]","id":22,"layer":"stop"}},{"type":"Feature","geometry":{"type":"Point","coordinates":[12.441192,41.902828]},"properties":{"name":"Valle Aurelia","original_ids":"[8368, 8346]","id":23,"layer":"stop"}},{"type":"Feature","geometry":{"type":"Point","coordinates":[12.434465,41.899265]},"properties":{"name":"Baldo degli Ubaldi","original_ids":"[8369, 8345]","id":24,"layer":"stop"}},{"type":"Feature","geometry":{"type":"Point","coordinates":[12.426452,41.900661]},"properties":{"name":"Cornelia","original_ids":"[8370, 8336]","id":25,"layer":"stop"}},{"type":"Feature","geometry":{"type":"Point","coordinates":[12.414956,41.906307]},"properties":{"name":"Battistini","original_ids":"[8371, 8325]","id":26,"layer":"stop"}},{"type":"Feature","geometry":{"type":"Point","coordinates":[12.480657,41.827232]},"properties":{"name":"Laurentina","original_ids":"[8405, 8393]","id":27,"layer":"stop"}},{"type":"Feature","geometry":{"type":"Point","coordinates":[12.470958,41.828773]},"properties":{"name":"EUR Fermi","original_ids":"[8416, 8392]","id":28,"layer":"stop"}},{"type":"Feature","geometry":{"type":"Point","coordinates":[12.466027,41.830196]},"properties":{"name":"EUR Palasport","original_ids":"[8424, 8391]","id":29,"layer":"stop"}},{"type":"Feature","geometry":{"type":"Point","coordinates":[12.463584,41.839516]},"properties":{"name":"EUR Magliana","original_ids":"[8425, 8389]","id":30,"layer":"stop"}},{"type":"Feature","geometry":{"type":"Point","coordinates":[12.475642,41.848804]},"properties":{"name":"Marconi","original_ids":"[8426, 8388]","id":31,"layer":"stop"}},{"type":"Feature","geometry":{"type":"Point","coordinates":[12.478559,41.855976]},"properties":{"name":"Basilica San Paolo","original_ids":"[8427, 8387]","id":32,"layer":"stop"}},{"type":"Feature","geometry":{"type":"Point","coordinates":[12.483265,41.866463]},"properties":{"name":"Garbatella","original_ids":"[8428, 8386]","id":33,"layer":"stop"}},{"type":"Feature","geometry":{"type":"Point","coordinates":[12.482177,41.875713]},"properties":{"name":"Piramide","original_ids":"[8429, 8385]","id":34,"layer":"stop"}},{"type":"Feature","geometry":{"type":"Point","coordinates":[12.487968,41.883324]},"properties":{"name":"Circo Massimo","original_ids":"[8430, 8384]","id":35,"layer":"stop"}},{"type":"Feature","geometry":{"type":"Point","coordinates":[12.491604,41.89122]},"properties":{"name":"Colosseo","original_ids":"[8406, 8383]","id":36,"layer":"stop"}},{"type":"Feature","geometry":{"type":"Point","coordinates":[12.494011,41.894974]},"properties":{"name":"Cavour","original_ids":"[8407, 8382]","id":37,"layer":"stop"}},{"type":"Feature","geometry":{"type":"Point","coordinates":[12.50562,41.906139]},"properties":{"name":"Castro Pretorio","original_ids":"[8409, 8380]","id":38,"layer":"stop"}},{"type":"Feature","geometry":{"type":"Point","coordinates":[12.512219,41.908546]},"properties":{"name":"Policlinico","original_ids":"[8410, 8404]","id":39,"layer":"stop"}},{"type":"Feature","geometry":{"type":"Point","coordinates":[12.520861,41.91354]},"properties":{"name":"Bologna","original_ids":"[8411, 8403]","id":40,"layer":"stop"}},{"type":"Feature","geometry":{"type":"Point","coordinates":[12.530163,41.90995]},"properties":{"name":"Tiburtina","original_ids":"[8412, 8402]","id":41,"layer":"stop"}},{"type":"Feature","geometry":{"type":"Point","coordinates":[12.539096,41.91465]},"properties":{"name":"Quintiliani","original_ids":"[8413, 8401]","id":42,"layer":"stop"}},{"type":"Feature","geometry":{"type":"Point","coordinates":[12.547617,41.915829]},"properties":{"name":"Monti Tiburtini","original_ids":"[8414, 8400]","id":43,"layer":"stop"}},{"type":"Feature","geometry":{"type":"Point","coordinates":[12.555648,41.913971]},"properties":{"name":"Pietralata","original_ids":"[8415, 8399]","id":44,"layer":"stop"}},{"type":"Feature","geometry":{"type":"Point","coordinates":[12.561639,41.915913]},"properties":{"name":"Santa Maria del Soccorso","original_ids":"[8417, 8398]","id":45,"layer":"stop"}},{"type":"Feature","geometry":{"type":"Point","coordinates":[12.565234,41.920918]},"properties":{"name":"Ponte Mammolo","original_ids":"[8418, 8390]","id":46,"layer":"stop"}},{"type":"Feature","geometry":{"type":"Point","coordinates":[12.572738,41.925621]},"properties":{"name":"Rebibbia","original_ids":"[8419, 8379]","id":47,"layer":"stop"}},{"type":"Feature","geometry":{"type":"Point","coordinates":[12.516383,41.923786]},"properties":{"name":"S. Agnese/Annibaliano","original_ids":"[8420, 8394]","id":48,"layer":"stop"}},{"type":"Feature","geometry":{"type":"Point","coordinates":[12.519337,41.931618]},"properties":{"name":"Libia","original_ids":"[8421, 8395]","id":49,"layer":"stop"}},{"type":"Feature","geometry":{"type":"Point","coordinates":[12.527501,41.938915]},"properties":{"name":"Conca d'Oro","original_ids":"[8422, 8396]","id":50,"layer":"stop"}},{"type":"Feature","geometry":{"type":"Point","coordinates":[12.527944,41.947266]},"properties":{"name":"Jonio","original_ids":"[8423, 8397]","id":51,"layer":"stop"}},{"type":"Feature","geometry":{"type":"Point","coordinates":[12.707708,41.865665]},"properties":{"name":"Monte Compatri/Pantano","original_ids":"[8453, 8431]","id":52,"layer":"stop"}},{"type":"Feature","geometry":{"type":"Point","coordinates":[12.69772,41.865723]},"properties":{"name":"Graniti","original_ids":"[8454, 8432]","id":53,"layer":"stop"}},{"type":"Feature","geometry":{"type":"Point","coordinates":[12.687932,41.865566]},"properties":{"name":"Finocchio","original_ids":"[8455, 8433]","id":54,"layer":"stop"}},{"type":"Feature","geometry":{"type":"Point","coordinates":[12.68086,41.865261]},"properties":{"name":"Bolognetta","original_ids":"[8456, 8434]","id":55,"layer":"stop"}},{"type":"Feature","geometry":{"type":"Point","coordinates":[12.666583,41.864857]},"properties":{"name":"Borghesiana","original_ids":"[8457, 8435]","id":56,"layer":"stop"}},{"type":"Feature","geometry":{"type":"Point","coordinates":[12.658104,41.865025]},"properties":{"name":"Due Leoni/Fontana Candida","original_ids":"[8458, 8436]","id":57,"layer":"stop"}},{"type":"Feature","geometry":{"type":"Point","coordinates":[12.646089,41.862991]},"properties":{"name":"Grotte Celoni","original_ids":"[8459, 8437]","id":58,"layer":"stop"}},{"type":"Feature","geometry":{"type":"Point","coordinates":[12.635645,41.864235]},"properties":{"name":"Torre Gaia","original_ids":"[8460, 8438]","id":59,"layer":"stop"}},{"type":"Feature","geometry":{"type":"Point","coordinates":[12.6255,41.86446]},"properties":{"name":"Torre Angela","original_ids":"[8461, 8439]","id":60,"layer":"stop"}},{"type":"Feature","geometry":{"type":"Point","coordinates":[12.616706,41.863453]},"properties":{"name":"Torrenova","original_ids":"[8462, 8440]","id":61,"layer":"stop"}},{"type":"Feature","geometry":{"type":"Point","coordinates":[12.610313,41.86412]},"properties":{"name":"Giardinetti","original_ids":"[8463, 8441]","id":62,"layer":"stop"}},{"type":"Feature","geometry":{"type":"Point","coordinates":[12.596841,41.866882]},"properties":{"name":"Torre Maura","original_ids":"[8464, 8442]","id":63,"layer":"stop"}},{"type":"Feature","geometry":{"type":"Point","coordinates":[12.58653,41.869289]},"properties":{"name":"Torre Spaccata","original_ids":"[8465, 8443]","id":64,"layer":"stop"}},{"type":"Feature","geometry":{"type":"Point","coordinates":[12.579065,41.871002]},"properties":{"name":"Alessandrino","original_ids":"[8466, 8444]","id":65,"layer":"stop"}},{"type":"Feature","geometry":{"type":"Point","coordinates":[12.568499,41.874454]},"properties":{"name":"Parco di Centocelle","original_ids":"[8467, 8445]","id":66,"layer":"stop"}},{"type":"Feature","geometry":{"type":"Point","coordinates":[12.56676,41.881042]},"properties":{"name":"Mirti","original_ids":"[8468, 8446]","id":67,"layer":"stop"}},{"type":"Feature","geometry":{"type":"Point","coordinates":[12.562108,41.886116]},"properties":{"name":"Gardenie","original_ids":"[8469, 8447]","id":68,"layer":"stop"}},{"type":"Feature","geometry":{"type":"Point","coordinates":[12.551361,41.889484]},"properties":{"name":"Teano","original_ids":"[8470, 8448]","id":69,"layer":"stop"}},{"type":"Feature","geometry":{"type":"Point","coordinates":[12.540216,41.887325]},"properties":{"name":"Malatesta","original_ids":"[8471, 8449]","id":70,"layer":"stop"}},{"type":"Feature","geometry":{"type":"Point","coordinates":[12.528663,41.888344]},"properties":{"name":"Pigneto","original_ids":"[8472, 8450]","id":71,"layer":"stop"}},{"type":"Feature","geometry":{"type":"Point","coordinates":[12.518793,41.887054]},"properties":{"name":"Lodi","original_ids":"[8473, 8451]","id":72,"layer":"stop"}},{"type":"Feature","properties":{"shape_id":"{\"RP11e5f618398165fdb38885427069082db74f1643\": 311}","direction_id":"{\"0\": 311}","headsign":"{\"Battistini\": 311}","duration_avg":155.0,"n_vehicles":311,"d":1224,"route_I_counts":"{\"325\": 311}","source":0,"target":1,"layer":"L","from":"Anagnina","to":"Cinecittà"},"geometry":{"type":"LineString","coordinates":[[12.585897,41.842999],[12.57418,41.849686]]}},{"type":"Feature","properties":{"shape_id":"{\"RP11e5f618398165fdb38885427069082db74f1643\": 311}","direction_id":"{\"0\": 311}","headsign":"{\"Battistini\": 311}","duration_avg":84.0,"n_vehicles":311,"d":671,"route_I_counts":"{\"325\": 311}","source":1,"target":2,"layer":"L","from":"Cinecittà","to":"Subaugusta"},"geometry":{"type":"LineString","coordinates":[[12.57418,41.849686],[12.568163,41.853718]]}},{"type":"Feature","properties":{"duration_avg":155.0,"n_vehicles":306,"d":1233,"route_I_counts":"{\"325\": 306}","shape_id":"{\"RPb0f9f8b2db3eb4f38c8afe5c5891cecf30193831\": 306}","direction_id":"{\"1\": 306}","headsign":"{\"Anagnina\": 306}","source":1,"target":0,"layer":"L","from":"Cinecittà","to":"Anagnina"},"geometry":{"type":"LineString","coordinates":[[12.57418,41.849686],[12.585897,41.842999]]}},{"type":"Feature","properties":{"shape_id":"{\"RP11e5f618398165fdb38885427069082db74f1643\": 311}","direction_id":"{\"0\": 311}","headsign":"{\"Battistini\": 311}","duration_avg":70.0,"n_vehicles":311,"d":558,"route_I_counts":"{\"325\": 311}","source":2,"target":3,"layer":"L","from":"Subaugusta","to":"Giulio Agricola"},"geometry":{"type":"LineString","coordinates":[[12.568163,41.853718],[12.562781,41.856739]]}},{"type":"Feature","properties":{"duration_avg":84.0,"n_vehicles":307,"d":669,"route_I_counts":"{\"325\": 307}","shape_id":"{\"RPb0f9f8b2db3eb4f38c8afe5c5891cecf30193831\": 307}","direction_id":"{\"1\": 307}","headsign":"{\"Anagnina\": 307}","source":2,"target":1,"layer":"L","from":"Subaugusta","to":"Cinecittà"},"geometry":{"type":"LineString","coordinates":[[12.568163,41.853718],[12.57418,41.849686]]}},{"type":"Feature","properties":{"shape_id":"{\"RP11e5f618398165fdb38885427069082db74f1643\": 311}","direction_id":"{\"0\": 311}","headsign":"{\"Battistini\": 311}","duration_avg":72.0,"n_vehicles":311,"d":572,"route_I_counts":"{\"325\": 311}","source":3,"target":4,"layer":"L","from":"Giulio Agricola","to":"Lucio Sestio"},"geometry":{"type":"LineString","coordinates":[[12.562781,41.856739],[12.557253,41.859818]]}},{"type":"Feature","properties":{"duration_avg":69.0,"n_vehicles":307,"d":554,"route_I_counts":"{\"325\": 307}","shape_id":"{\"RPb0f9f8b2db3eb4f38c8afe5c5891cecf30193831\": 307}","direction_id":"{\"1\": 307}","headsign":"{\"Anagnina\": 307}","source":3,"target":2,"layer":"L","from":"Giulio Agricola","to":"Subaugusta"},"geometry":{"type":"LineString","coordinates":[[12.562781,41.856739],[12.568163,41.853718]]}},{"type":"Feature","properties":{"shape_id":"{\"RP11e5f618398165fdb38885427069082db74f1643\": 310}","direction_id":"{\"0\": 310}","headsign":"{\"Battistini\": 310}","duration_avg":57.0,"n_vehicles":310,"d":456,"route_I_counts":"{\"325\": 310}","source":4,"target":5,"layer":"L","from":"Lucio Sestio","to":"Numidio Quadrato"},"geometry":{"type":"LineString","coordinates":[[12.557253,41.859818],[12.55273,41.862152]]}},{"type":"Feature","properties":{"duration_avg":72.0,"n_vehicles":307,"d":572,"route_I_counts":"{\"325\": 307}","shape_id":"{\"RPb0f9f8b2db3eb4f38c8afe5c5891cecf30193831\": 307}","direction_id":"{\"1\": 307}","headsign":"{\"Anagnina\": 307}","source":4,"target":3,"layer":"L","from":"Lucio Sestio","to":"Giulio Agricola"},"geometry":{"type":"LineString","coordinates":[[12.557253,41.859818],[12.562781,41.856739]]}},{"type":"Feature","properties":{"shape_id":"{\"RP11e5f618398165fdb38885427069082db74f1643\": 310}","direction_id":"{\"0\": 310}","headsign":"{\"Battistini\": 310}","duration_avg":53.0,"n_vehicles":310,"d":426,"route_I_counts":"{\"325\": 310}","source":5,"target":6,"layer":"L","from":"Numidio Quadrato","to":"Porta Furba - Quadraro"},"geometry":{"type":"LineString","coordinates":[[12.55273,41.862152],[12.548173,41.863922]]}},{"type":"Feature","properties":{"duration_avg":57.0,"n_vehicles":307,"d":455,"route_I_counts":"{\"325\": 307}","shape_id":"{\"RPb0f9f8b2db3eb4f38c8afe5c5891cecf30193831\": 307}","direction_id":"{\"1\": 307}","headsign":"{\"Anagnina\": 307}","source":5,"target":4,"layer":"L","from":"Numidio Quadrato","to":"Lucio Sestio"},"geometry":{"type":"LineString","coordinates":[[12.55273,41.862152],[12.557253,41.859818]]}},{"type":"Feature","properties":{"shape_id":"{\"RP11e5f618398165fdb38885427069082db74f1643\": 310}","direction_id":"{\"0\": 310}","headsign":"{\"Battistini\": 310}","duration_avg":132.0,"n_vehicles":310,"d":1035,"route_I_counts":"{\"325\": 310}","source":6,"target":7,"layer":"L","from":"Porta Furba - Quadraro","to":"Arco di Travertino"},"geometry":{"type":"LineString","coordinates":[[12.548173,41.863922],[12.536031,41.866089]]}},{"type":"Feature","properties":{"duration_avg":53.0,"n_vehicles":307,"d":417,"route_I_counts":"{\"325\": 307}","shape_id":"{\"RPb0f9f8b2db3eb4f38c8afe5c5891cecf30193831\": 307}","direction_id":"{\"1\": 307}","headsign":"{\"Anagnina\": 307}","source":6,"target":5,"layer":"L","from":"Porta Furba - Quadraro","to":"Numidio Quadrato"},"geometry":{"type":"LineString","coordinates":[[12.548173,41.863922],[12.55273,41.862152]]}},{"type":"Feature","properties":{"shape_id":"{\"RP11e5f618398165fdb38885427069082db74f1643\": 310}","direction_id":"{\"0\": 310}","headsign":"{\"Battistini\": 310}","duration_avg":86.0,"n_vehicles":310,"d":681,"route_I_counts":"{\"325\": 310}","source":7,"target":8,"layer":"L","from":"Arco di Travertino","to":"Colli Albani"},"geometry":{"type":"LineString","coordinates":[[12.536031,41.866089],[12.529521,41.869831]]}},{"type":"Feature","properties":{"duration_avg":133.0,"n_vehicles":307,"d":1042,"route_I_counts":"{\"325\": 307}","shape_id":"{\"RPb0f9f8b2db3eb4f38c8afe5c5891cecf30193831\": 307}","direction_id":"{\"1\": 307}","headsign":"{\"Anagnina\": 307}","source":7,"target":6,"layer":"L","from":"Arco di Travertino","to":"Porta Furba - Quadraro"},"geometry":{"type":"LineString","coordinates":[[12.536031,41.866089],[12.548173,41.863922]]}},{"type":"Feature","properties":{"shape_id":"{\"RP11e5f618398165fdb38885427069082db74f1643\": 309}","direction_id":"{\"0\": 309}","headsign":"{\"Battistini\": 309}","duration_avg":96.0,"n_vehicles":309,"d":767,"route_I_counts":"{\"325\": 309}","source":8,"target":9,"layer":"L","from":"Colli Albani","to":"Furio Camillo"},"geometry":{"type":"LineString","coordinates":[[12.529521,41.869831],[12.523074,41.874779]]}},{"type":"Feature","properties":{"duration_avg":85.0,"n_vehicles":308,"d":680,"route_I_counts":"{\"325\": 308}","shape_id":"{\"RPb0f9f8b2db3eb4f38c8afe5c5891cecf30193831\": 308}","direction_id":"{\"1\": 308}","headsign":"{\"Anagnina\": 308}","source":8,"target":7,"layer":"L","from":"Colli Albani","to":"Arco di Travertino"},"geometry":{"type":"LineString","coordinates":[[12.529521,41.869831],[12.536031,41.866089]]}},{"type":"Feature","properties":{"shape_id":"{\"RP11e5f618398165fdb38885427069082db74f1643\": 309}","direction_id":"{\"0\": 309}","headsign":"{\"Battistini\": 309}","duration_avg":59.0,"n_vehicles":309,"d":472,"route_I_counts":"{\"325\": 309}","source":9,"target":10,"layer":"L","from":"Furio Camillo","to":"Ponte Lungo"},"geometry":{"type":"LineString","coordinates":[[12.523074,41.874779],[12.519109,41.877827]]}},{"type":"Feature","properties":{"duration_avg":96.0,"n_vehicles":308,"d":772,"route_I_counts":"{\"325\": 308}","shape_id":"{\"RPb0f9f8b2db3eb4f38c8afe5c5891cecf30193831\": 308}","direction_id":"{\"1\": 308}","headsign":"{\"Anagnina\": 308}","source":9,"target":8,"layer":"L","from":"Furio Camillo","to":"Colli Albani"},"geometry":{"type":"LineString","coordinates":[[12.523074,41.874779],[12.529521,41.869831]]}},{"type":"Feature","properties":{"shape_id":"{\"RP11e5f618398165fdb38885427069082db74f1643\": 309}","direction_id":"{\"0\": 309}","headsign":"{\"Battistini\": 309}","duration_avg":76.0,"n_vehicles":309,"d":604,"route_I_counts":"{\"325\": 309}","source":10,"target":11,"layer":"L","from":"Ponte Lungo","to":"Re di Roma"},"geometry":{"type":"LineString","coordinates":[[12.519109,41.877827],[12.514229,41.881863]]}},{"type":"Feature","properties":{"duration_avg":59.0,"n_vehicles":308,"d":471,"route_I_counts":"{\"325\": 308}","shape_id":"{\"RPb0f9f8b2db3eb4f38c8afe5c5891cecf30193831\": 308}","direction_id":"{\"1\": 308}","headsign":"{\"Anagnina\": 308}","source":10,"target":9,"layer":"L","from":"Ponte Lungo","to":"Furio Camillo"},"geometry":{"type":"LineString","coordinates":[[12.519109,41.877827],[12.523074,41.874779]]}},{"type":"Feature","properties":{"shape_id":"{\"RP11e5f618398165fdb38885427069082db74f1643\": 309}","direction_id":"{\"0\": 309}","headsign":"{\"Battistini\": 309}","duration_avg":71.0,"n_vehicles":309,"d":568,"route_I_counts":"{\"325\": 309}","source":11,"target":12,"layer":"L","from":"Re di Roma","to":"S. Giovanni"},"geometry":{"type":"LineString","coordinates":[[12.514229,41.881863],[12.509652,41.885662]]}},{"type":"Feature","properties":{"duration_avg":76.0,"n_vehicles":309,"d":608,"route_I_counts":"{\"325\": 309}","shape_id":"{\"RPb0f9f8b2db3eb4f38c8afe5c5891cecf30193831\": 309}","direction_id":"{\"1\": 309}","headsign":"{\"Anagnina\": 309}","source":11,"target":10,"layer":"L","from":"Re di Roma","to":"Ponte Lungo"},"geometry":{"type":"LineString","coordinates":[[12.514229,41.881863],[12.519109,41.877827]]}},{"type":"Feature","properties":{"shape_id":"{\"RP11e5f618398165fdb38885427069082db74f1643\": 309}","direction_id":"{\"0\": 309}","headsign":"{\"Battistini\": 309}","duration_avg":76.0,"n_vehicles":309,"d":603,"route_I_counts":"{\"325\": 309}","source":12,"target":13,"layer":"L","from":"S. Giovanni","to":"Manzoni"},"geometry":{"type":"LineString","coordinates":[[12.509652,41.885662],[12.506673,41.89061]]}},{"type":"Feature","properties":{"duration_avg":71.0,"n_vehicles":309,"d":568,"route_I_counts":"{\"325\": 309}","shape_id":"{\"RPb0f9f8b2db3eb4f38c8afe5c5891cecf30193831\": 309}","direction_id":"{\"1\": 309}","headsign":"{\"Anagnina\": 309}","source":12,"target":11,"layer":"L","from":"S. Giovanni","to":"Re di Roma"},"geometry":{"type":"LineString","coordinates":[[12.509652,41.885662],[12.514229,41.881863]]}},{"type":"Feature","properties":{"duration_avg":96.0,"n_vehicles":117,"d":765,"route_I_counts":"{\"330\": 117}","shape_id":"{\"RPba0d83cacabc4cdd5fb191743b101a98752da0ef\": 117}","direction_id":"{\"1\": 117}","headsign":"{\"Pantano\": 117}","source":12,"target":72,"layer":"L","from":"S. Giovanni","to":"Lodi"},"geometry":{"type":"LineString","coordinates":[[12.509652,41.885662],[12.518793,41.887054]]}},{"type":"Feature","properties":{"shape_id":"{\"RP11e5f618398165fdb38885427069082db74f1643\": 309}","direction_id":"{\"0\": 309}","headsign":"{\"Battistini\": 309}","duration_avg":59.0,"n_vehicles":309,"d":473,"route_I_counts":"{\"325\": 309}","source":13,"target":14,"layer":"L","from":"Manzoni","to":"Vittorio Emanuele"},"geometry":{"type":"LineString","coordinates":[[12.506673,41.89061],[12.504571,41.894562]]}},{"type":"Feature","properties":{"duration_avg":77.0,"n_vehicles":309,"d":613,"route_I_counts":"{\"325\": 309}","shape_id":"{\"RPb0f9f8b2db3eb4f38c8afe5c5891cecf30193831\": 309}","direction_id":"{\"1\": 309}","headsign":"{\"Anagnina\": 309}","source":13,"target":12,"layer":"L","from":"Manzoni","to":"S. Giovanni"},"geometry":{"type":"LineString","coordinates":[[12.506673,41.89061],[12.509652,41.885662]]}},{"type":"Feature","properties":{"shape_id":"{\"RP11e5f618398165fdb38885427069082db74f1643\": 308}","direction_id":"{\"0\": 308}","headsign":"{\"Battistini\": 308}","duration_avg":102.0,"n_vehicles":308,"d":817,"route_I_counts":"{\"325\": 308}","source":14,"target":15,"layer":"L","from":"Vittorio Emanuele","to":"Termini"},"geometry":{"type":"LineString","coordinates":[[12.504571,41.894562],[12.500031,41.901077]]}},{"type":"Feature","properties":{"duration_avg":59.0,"n_vehicles":309,"d":473,"route_I_counts":"{\"325\": 309}","shape_id":"{\"RPb0f9f8b2db3eb4f38c8afe5c5891cecf30193831\": 309}","direction_id":"{\"1\": 309}","headsign":"{\"Anagnina\": 309}","source":14,"target":13,"layer":"L","from":"Vittorio Emanuele","to":"Manzoni"},"geometry":{"type":"LineString","coordinates":[[12.504571,41.894562],[12.506673,41.89061]]}},{"type":"Feature","properties":{"shape_id":"{\"RP11e5f618398165fdb38885427069082db74f1643\": 308}","direction_id":"{\"0\": 308}","headsign":"{\"Battistini\": 308}","duration_avg":46.0,"n_vehicles":308,"d":361,"route_I_counts":"{\"325\": 308}","source":15,"target":16,"layer":"L","from":"Termini","to":"Repubblica"},"geometry":{"type":"LineString","coordinates":[[12.500031,41.901077],[12.496328,41.902798]]}},{"type":"Feature","properties":{"duration_avg":91.0,"n_vehicles":283,"d":731,"route_I_counts":"{\"326\": 179, \"328\": 104}","shape_id":"{\"RP4b56a0b1238eb3a93d7c6c2dbdb00074372e4e38\": 104, \"RPd694c3012beb40a61e9bcd13de687d945d8674de\": 179}","direction_id":"{\"0\": 283}","headsign":"{\"Jonio\": 104, \"Rebibbia\": 179}","source":15,"target":38,"layer":"L","from":"Termini","to":"Castro Pretorio"},"geometry":{"type":"LineString","coordinates":[[12.500031,41.901077],[12.50562,41.906139]]}},{"type":"Feature","properties":{"duration_avg":105.0,"n_vehicles":283,"d":845,"route_I_counts":"{\"326\": 179, \"328\": 104}","shape_id":"{\"RP08131e6387afa01a7c75a457831de0f3af964576\": 104, \"RP8501e69e9e79e4a5b5b10534257d65bc786fd88a\": 179}","direction_id":"{\"1\": 283}","headsign":"{\"Laurentina\": 283}","source":15,"target":37,"layer":"L","from":"Termini","to":"Cavour"},"geometry":{"type":"LineString","coordinates":[[12.500031,41.901077],[12.494011,41.894974]]}},{"type":"Feature","properties":{"duration_avg":101.0,"n_vehicles":309,"d":806,"route_I_counts":"{\"325\": 309}","shape_id":"{\"RPb0f9f8b2db3eb4f38c8afe5c5891cecf30193831\": 309}","direction_id":"{\"1\": 309}","headsign":"{\"Anagnina\": 309}","source":15,"target":14,"layer":"L","from":"Termini","to":"Vittorio Emanuele"},"geometry":{"type":"LineString","coordinates":[[12.500031,41.901077],[12.504571,41.894562]]}},{"type":"Feature","properties":{"shape_id":"{\"RP11e5f618398165fdb38885427069082db74f1643\": 308}","direction_id":"{\"0\": 308}","headsign":"{\"Battistini\": 308}","duration_avg":83.0,"n_vehicles":308,"d":637,"route_I_counts":"{\"325\": 308}","source":16,"target":17,"layer":"L","from":"Repubblica","to":"Barberini"},"geometry":{"type":"LineString","coordinates":[[12.496328,41.902798],[12.488756,41.903801]]}},{"type":"Feature","properties":{"duration_avg":46.0,"n_vehicles":309,"d":348,"route_I_counts":"{\"325\": 309}","shape_id":"{\"RPb0f9f8b2db3eb4f38c8afe5c5891cecf30193831\": 309}","direction_id":"{\"1\": 309}","headsign":"{\"Anagnina\": 309}","source":16,"target":15,"layer":"L","from":"Repubblica","to":"Termini"},"geometry":{"type":"LineString","coordinates":[[12.496328,41.902798],[12.500031,41.901077]]}},{"type":"Feature","properties":{"shape_id":"{\"RP11e5f618398165fdb38885427069082db74f1643\": 308}","direction_id":"{\"0\": 308}","headsign":"{\"Battistini\": 308}","duration_avg":90.0,"n_vehicles":308,"d":693,"route_I_counts":"{\"325\": 308}","source":17,"target":18,"layer":"L","from":"Barberini","to":"Spagna"},"geometry":{"type":"LineString","coordinates":[[12.488756,41.903801],[12.482475,41.907925]]}},{"type":"Feature","properties":{"duration_avg":83.0,"n_vehicles":309,"d":647,"route_I_counts":"{\"325\": 309}","shape_id":"{\"RPb0f9f8b2db3eb4f38c8afe5c5891cecf30193831\": 309}","direction_id":"{\"1\": 309}","headsign":"{\"Anagnina\": 309}","source":17,"target":16,"layer":"L","from":"Barberini","to":"Repubblica"},"geometry":{"type":"LineString","coordinates":[[12.488756,41.903801],[12.496328,41.902798]]}},{"type":"Feature","properties":{"shape_id":"{\"RP11e5f618398165fdb38885427069082db74f1643\": 308}","direction_id":"{\"0\": 308}","headsign":"{\"Battistini\": 308}","duration_avg":93.0,"n_vehicles":308,"d":741,"route_I_counts":"{\"325\": 308}","source":18,"target":19,"layer":"L","from":"Spagna","to":"Flaminio"},"geometry":{"type":"LineString","coordinates":[[12.482475,41.907925],[12.476381,41.9128]]}},{"type":"Feature","properties":{"duration_avg":90.0,"n_vehicles":310,"d":694,"route_I_counts":"{\"325\": 310}","shape_id":"{\"RPb0f9f8b2db3eb4f38c8afe5c5891cecf30193831\": 310}","direction_id":"{\"1\": 310}","headsign":"{\"Anagnina\": 310}","source":18,"target":17,"layer":"L","from":"Spagna","to":"Barberini"},"geometry":{"type":"LineString","coordinates":[[12.482475,41.907925],[12.488756,41.903801]]}},{"type":"Feature","properties":{"shape_id":"{\"RP11e5f618398165fdb38885427069082db74f1643\": 307}","direction_id":"{\"0\": 307}","headsign":"{\"Battistini\": 307}","duration_avg":108.0,"n_vehicles":307,"d":864,"route_I_counts":"{\"325\": 307}","source":19,"target":20,"layer":"L","from":"Flaminio","to":"Lepanto"},"geometry":{"type":"LineString","coordinates":[[12.476381,41.9128],[12.466101,41.911476]]}},{"type":"Feature","properties":{"duration_avg":93.0,"n_vehicles":310,"d":725,"route_I_counts":"{\"325\": 310}","shape_id":"{\"RPb0f9f8b2db3eb4f38c8afe5c5891cecf30193831\": 310}","direction_id":"{\"1\": 310}","headsign":"{\"Anagnina\": 310}","source":19,"target":18,"layer":"L","from":"Flaminio","to":"Spagna"},"geometry":{"type":"LineString","coordinates":[[12.476381,41.9128],[12.482475,41.907925]]}},{"type":"Feature","properties":{"shape_id":"{\"RP11e5f618398165fdb38885427069082db74f1643\": 307}","direction_id":"{\"0\": 307}","headsign":"{\"Battistini\": 307}","duration_avg":87.0,"n_vehicles":307,"d":698,"route_I_counts":"{\"325\": 307}","source":20,"target":21,"layer":"L","from":"Lepanto","to":"Ottaviano"},"geometry":{"type":"LineString","coordinates":[[12.466101,41.911476],[12.458088,41.909519]]}},{"type":"Feature","properties":{"duration_avg":108.0,"n_vehicles":310,"d":855,"route_I_counts":"{\"325\": 310}","shape_id":"{\"RPb0f9f8b2db3eb4f38c8afe5c5891cecf30193831\": 310}","direction_id":"{\"1\": 310}","headsign":"{\"Anagnina\": 310}","source":20,"target":19,"layer":"L","from":"Lepanto","to":"Flaminio"},"geometry":{"type":"LineString","coordinates":[[12.466101,41.911476],[12.476381,41.9128]]}},{"type":"Feature","properties":{"shape_id":"{\"RP11e5f618398165fdb38885427069082db74f1643\": 307}","direction_id":"{\"0\": 307}","headsign":"{\"Battistini\": 307}","duration_avg":116.0,"n_vehicles":307,"d":914,"route_I_counts":"{\"325\": 307}","source":21,"target":22,"layer":"L","from":"Ottaviano","to":"Cipro"},"geometry":{"type":"LineString","coordinates":[[12.458088,41.909519],[12.447356,41.907585]]}},{"type":"Feature","properties":{"duration_avg":88.0,"n_vehicles":310,"d":704,"route_I_counts":"{\"325\": 310}","shape_id":"{\"RPb0f9f8b2db3eb4f38c8afe5c5891cecf30193831\": 310}","direction_id":"{\"1\": 310}","headsign":"{\"Anagnina\": 310}","source":21,"target":20,"layer":"L","from":"Ottaviano","to":"Lepanto"},"geometry":{"type":"LineString","coordinates":[[12.458088,41.909519],[12.466101,41.911476]]}},{"type":"Feature","properties":{"shape_id":"{\"RP11e5f618398165fdb38885427069082db74f1643\": 307}","direction_id":"{\"0\": 307}","headsign":"{\"Battistini\": 307}","duration_avg":92.0,"n_vehicles":307,"d":735,"route_I_counts":"{\"325\": 307}","source":22,"target":23,"layer":"L","from":"Cipro","to":"Valle Aurelia"},"geometry":{"type":"LineString","coordinates":[[12.447356,41.907585],[12.441192,41.902828]]}},{"type":"Feature","properties":{"duration_avg":115.0,"n_vehicles":310,"d":911,"route_I_counts":"{\"325\": 310}","shape_id":"{\"RPb0f9f8b2db3eb4f38c8afe5c5891cecf30193831\": 310}","direction_id":"{\"1\": 310}","headsign":"{\"Anagnina\": 310}","source":22,"target":21,"layer":"L","from":"Cipro","to":"Ottaviano"},"geometry":{"type":"LineString","coordinates":[[12.447356,41.907585],[12.458088,41.909519]]}},{"type":"Feature","properties":{"shape_id":"{\"RP11e5f618398165fdb38885427069082db74f1643\": 306}","direction_id":"{\"0\": 306}","headsign":"{\"Battistini\": 306}","duration_avg":87.0,"n_vehicles":306,"d":684,"route_I_counts":"{\"325\": 306}","source":23,"target":24,"layer":"L","from":"Valle Aurelia","to":"Baldo degli Ubaldi"},"geometry":{"type":"LineString","coordinates":[[12.441192,41.902828],[12.434465,41.899265]]}},{"type":"Feature","properties":{"duration_avg":92.0,"n_vehicles":310,"d":730,"route_I_counts":"{\"325\": 310}","shape_id":"{\"RPb0f9f8b2db3eb4f38c8afe5c5891cecf30193831\": 310}","direction_id":"{\"1\": 310}","headsign":"{\"Anagnina\": 310}","source":23,"target":22,"layer":"L","from":"Valle Aurelia","to":"Cipro"},"geometry":{"type":"LineString","coordinates":[[12.441192,41.902828],[12.447356,41.907585]]}},{"type":"Feature","properties":{"shape_id":"{\"RP11e5f618398165fdb38885427069082db74f1643\": 306}","direction_id":"{\"0\": 306}","headsign":"{\"Battistini\": 306}","duration_avg":100.0,"n_vehicles":306,"d":681,"route_I_counts":"{\"325\": 306}","source":24,"target":25,"layer":"L","from":"Baldo degli Ubaldi","to":"Cornelia"},"geometry":{"type":"LineString","coordinates":[[12.434465,41.899265],[12.426452,41.900661]]}},{"type":"Feature","properties":{"duration_avg":87.0,"n_vehicles":311,"d":692,"route_I_counts":"{\"325\": 311}","shape_id":"{\"RPb0f9f8b2db3eb4f38c8afe5c5891cecf30193831\": 311}","direction_id":"{\"1\": 311}","headsign":"{\"Anagnina\": 311}","source":24,"target":23,"layer":"L","from":"Baldo degli Ubaldi","to":"Valle Aurelia"},"geometry":{"type":"LineString","coordinates":[[12.434465,41.899265],[12.441192,41.902828]]}},{"type":"Feature","properties":{"shape_id":"{\"RP11e5f618398165fdb38885427069082db74f1643\": 306}","direction_id":"{\"0\": 306}","headsign":"{\"Battistini\": 306}","duration_avg":151.0,"n_vehicles":306,"d":1141,"route_I_counts":"{\"325\": 306}","source":25,"target":26,"layer":"L","from":"Cornelia","to":"Battistini"},"geometry":{"type":"LineString","coordinates":[[12.426452,41.900661],[12.414956,41.906307]]}},{"type":"Feature","properties":{"duration_avg":100.0,"n_vehicles":311,"d":700,"route_I_counts":"{\"325\": 311}","shape_id":"{\"RPb0f9f8b2db3eb4f38c8afe5c5891cecf30193831\": 311}","direction_id":"{\"1\": 311}","headsign":"{\"Anagnina\": 311}","source":25,"target":24,"layer":"L","from":"Cornelia","to":"Baldo degli Ubaldi"},"geometry":{"type":"LineString","coordinates":[[12.426452,41.900661],[12.434465,41.899265]]}},{"type":"Feature","properties":{"duration_avg":151.0,"n_vehicles":311,"d":1135,"route_I_counts":"{\"325\": 311}","shape_id":"{\"RPb0f9f8b2db3eb4f38c8afe5c5891cecf30193831\": 311}","direction_id":"{\"1\": 311}","headsign":"{\"Anagnina\": 311}","source":26,"target":25,"layer":"L","from":"Battistini","to":"Cornelia"},"geometry":{"type":"LineString","coordinates":[[12.414956,41.906307],[12.426452,41.900661]]}},{"type":"Feature","properties":{"shape_id":"{\"RP4b56a0b1238eb3a93d7c6c2dbdb00074372e4e38\": 104, \"RPd694c3012beb40a61e9bcd13de687d945d8674de\": 179}","direction_id":"{\"0\": 283}","headsign":"{\"Jonio\": 104, \"Rebibbia\": 179}","duration_avg":104.0,"n_vehicles":283,"d":822,"route_I_counts":"{\"326\": 179, \"328\": 104}","source":27,"target":28,"layer":"L","from":"Laurentina","to":"EUR Fermi"},"geometry":{"type":"LineString","coordinates":[[12.480657,41.827232],[12.470958,41.828773]]}},{"type":"Feature","properties":{"shape_id":"{\"RP4b56a0b1238eb3a93d7c6c2dbdb00074372e4e38\": 104, \"RPd694c3012beb40a61e9bcd13de687d945d8674de\": 179}","direction_id":"{\"0\": 283}","headsign":"{\"Jonio\": 104, \"Rebibbia\": 179}","duration_avg":55.0,"n_vehicles":283,"d":438,"route_I_counts":"{\"326\": 179, \"328\": 104}","source":28,"target":29,"layer":"L","from":"EUR Fermi","to":"EUR Palasport"},"geometry":{"type":"LineString","coordinates":[[12.470958,41.828773],[12.466027,41.830196]]}},{"type":"Feature","properties":{"duration_avg":104.0,"n_vehicles":283,"d":824,"route_I_counts":"{\"326\": 179, \"328\": 104}","shape_id":"{\"RP08131e6387afa01a7c75a457831de0f3af964576\": 104, \"RP8501e69e9e79e4a5b5b10534257d65bc786fd88a\": 179}","direction_id":"{\"1\": 283}","headsign":"{\"Laurentina\": 283}","source":28,"target":27,"layer":"L","from":"EUR Fermi","to":"Laurentina"},"geometry":{"type":"LineString","coordinates":[[12.470958,41.828773],[12.480657,41.827232]]}},{"type":"Feature","properties":{"shape_id":"{\"RP4b56a0b1238eb3a93d7c6c2dbdb00074372e4e38\": 104, \"RPd694c3012beb40a61e9bcd13de687d945d8674de\": 179}","direction_id":"{\"0\": 283}","headsign":"{\"Jonio\": 104, \"Rebibbia\": 179}","duration_avg":168.0,"n_vehicles":283,"d":1057,"route_I_counts":"{\"326\": 179, \"328\": 104}","source":29,"target":30,"layer":"L","from":"EUR Palasport","to":"EUR Magliana"},"geometry":{"type":"LineString","coordinates":[[12.466027,41.830196],[12.463584,41.839516]]}},{"type":"Feature","properties":{"duration_avg":55.0,"n_vehicles":283,"d":437,"route_I_counts":"{\"326\": 179, \"328\": 104}","shape_id":"{\"RP08131e6387afa01a7c75a457831de0f3af964576\": 104, \"RP8501e69e9e79e4a5b5b10534257d65bc786fd88a\": 179}","direction_id":"{\"1\": 283}","headsign":"{\"Laurentina\": 283}","source":29,"target":28,"layer":"L","from":"EUR Palasport","to":"EUR Fermi"},"geometry":{"type":"LineString","coordinates":[[12.466027,41.830196],[12.470958,41.828773]]}},{"type":"Feature","properties":{"shape_id":"{\"RP4b56a0b1238eb3a93d7c6c2dbdb00074372e4e38\": 104, \"RPd694c3012beb40a61e9bcd13de687d945d8674de\": 179}","direction_id":"{\"0\": 283}","headsign":"{\"Jonio\": 104, \"Rebibbia\": 179}","duration_avg":183.0,"n_vehicles":283,"d":1438,"route_I_counts":"{\"326\": 179, \"328\": 104}","source":30,"target":31,"layer":"L","from":"EUR Magliana","to":"Marconi"},"geometry":{"type":"LineString","coordinates":[[12.463584,41.839516],[12.475642,41.848804]]}},{"type":"Feature","properties":{"duration_avg":168.0,"n_vehicles":283,"d":1079,"route_I_counts":"{\"326\": 179, \"328\": 104}","shape_id":"{\"RP08131e6387afa01a7c75a457831de0f3af964576\": 104, \"RP8501e69e9e79e4a5b5b10534257d65bc786fd88a\": 179}","direction_id":"{\"1\": 283}","headsign":"{\"Laurentina\": 283}","source":30,"target":29,"layer":"L","from":"EUR Magliana","to":"EUR Palasport"},"geometry":{"type":"LineString","coordinates":[[12.463584,41.839516],[12.466027,41.830196]]}},{"type":"Feature","properties":{"shape_id":"{\"RP4b56a0b1238eb3a93d7c6c2dbdb00074372e4e38\": 104, \"RPd694c3012beb40a61e9bcd13de687d945d8674de\": 179}","direction_id":"{\"0\": 283}","headsign":"{\"Jonio\": 104, \"Rebibbia\": 179}","duration_avg":105.0,"n_vehicles":283,"d":834,"route_I_counts":"{\"326\": 179, \"328\": 104}","source":31,"target":32,"layer":"L","from":"Marconi","to":"Basilica San Paolo"},"geometry":{"type":"LineString","coordinates":[[12.475642,41.848804],[12.478559,41.855976]]}},{"type":"Feature","properties":{"duration_avg":183.0,"n_vehicles":283,"d":1428,"route_I_counts":"{\"326\": 179, \"328\": 104}","shape_id":"{\"RP08131e6387afa01a7c75a457831de0f3af964576\": 104, \"RP8501e69e9e79e4a5b5b10534257d65bc786fd88a\": 179}","direction_id":"{\"1\": 283}","headsign":"{\"Laurentina\": 283}","source":31,"target":30,"layer":"L","from":"Marconi","to":"EUR Magliana"},"geometry":{"type":"LineString","coordinates":[[12.475642,41.848804],[12.463584,41.839516]]}},{"type":"Feature","properties":{"shape_id":"{\"RP4b56a0b1238eb3a93d7c6c2dbdb00074372e4e38\": 104, \"RPd694c3012beb40a61e9bcd13de687d945d8674de\": 179}","direction_id":"{\"0\": 283}","headsign":"{\"Jonio\": 104, \"Rebibbia\": 179}","duration_avg":154.0,"n_vehicles":283,"d":1230,"route_I_counts":"{\"326\": 179, \"328\": 104}","source":32,"target":33,"layer":"L","from":"Basilica San Paolo","to":"Garbatella"},"geometry":{"type":"LineString","coordinates":[[12.478559,41.855976],[12.483265,41.866463]]}},{"type":"Feature","properties":{"duration_avg":104.0,"n_vehicles":283,"d":825,"route_I_counts":"{\"326\": 179, \"328\": 104}","shape_id":"{\"RP08131e6387afa01a7c75a457831de0f3af964576\": 104, \"RP8501e69e9e79e4a5b5b10534257d65bc786fd88a\": 179}","direction_id":"{\"1\": 283}","headsign":"{\"Laurentina\": 283}","source":32,"target":31,"layer":"L","from":"Basilica San Paolo","to":"Marconi"},"geometry":{"type":"LineString","coordinates":[[12.478559,41.855976],[12.475642,41.848804]]}},{"type":"Feature","properties":{"shape_id":"{\"RP4b56a0b1238eb3a93d7c6c2dbdb00074372e4e38\": 104, \"RPd694c3012beb40a61e9bcd13de687d945d8674de\": 179}","direction_id":"{\"0\": 283}","headsign":"{\"Jonio\": 104, \"Rebibbia\": 179}","duration_avg":133.0,"n_vehicles":283,"d":1033,"route_I_counts":"{\"326\": 179, \"328\": 104}","source":33,"target":34,"layer":"L","from":"Garbatella","to":"Piramide"},"geometry":{"type":"LineString","coordinates":[[12.483265,41.866463],[12.482177,41.875713]]}},{"type":"Feature","properties":{"duration_avg":155.0,"n_vehicles":283,"d":1242,"route_I_counts":"{\"326\": 179, \"328\": 104}","shape_id":"{\"RP08131e6387afa01a7c75a457831de0f3af964576\": 104, \"RP8501e69e9e79e4a5b5b10534257d65bc786fd88a\": 179}","direction_id":"{\"1\": 283}","headsign":"{\"Laurentina\": 283}","source":33,"target":32,"layer":"L","from":"Garbatella","to":"Basilica San Paolo"},"geometry":{"type":"LineString","coordinates":[[12.483265,41.866463],[12.478559,41.855976]]}},{"type":"Feature","properties":{"shape_id":"{\"RP4b56a0b1238eb3a93d7c6c2dbdb00074372e4e38\": 104, \"RPd694c3012beb40a61e9bcd13de687d945d8674de\": 179}","direction_id":"{\"0\": 283}","headsign":"{\"Jonio\": 104, \"Rebibbia\": 179}","duration_avg":130.0,"n_vehicles":283,"d":973,"route_I_counts":"{\"326\": 179, \"328\": 104}","source":34,"target":35,"layer":"L","from":"Piramide","to":"Circo Massimo"},"geometry":{"type":"LineString","coordinates":[[12.482177,41.875713],[12.487968,41.883324]]}},{"type":"Feature","properties":{"duration_avg":133.0,"n_vehicles":283,"d":1019,"route_I_counts":"{\"326\": 179, \"328\": 104}","shape_id":"{\"RP08131e6387afa01a7c75a457831de0f3af964576\": 104, \"RP8501e69e9e79e4a5b5b10534257d65bc786fd88a\": 179}","direction_id":"{\"1\": 283}","headsign":"{\"Laurentina\": 283}","source":34,"target":33,"layer":"L","from":"Piramide","to":"Garbatella"},"geometry":{"type":"LineString","coordinates":[[12.482177,41.875713],[12.483265,41.866463]]}},{"type":"Feature","properties":{"shape_id":"{\"RP4b56a0b1238eb3a93d7c6c2dbdb00074372e4e38\": 104, \"RPd694c3012beb40a61e9bcd13de687d945d8674de\": 179}","direction_id":"{\"0\": 283}","headsign":"{\"Jonio\": 104, \"Rebibbia\": 179}","duration_avg":118.0,"n_vehicles":283,"d":929,"route_I_counts":"{\"326\": 179, \"328\": 104}","source":35,"target":36,"layer":"L","from":"Circo Massimo","to":"Colosseo"},"geometry":{"type":"LineString","coordinates":[[12.487968,41.883324],[12.491604,41.89122]]}},{"type":"Feature","properties":{"duration_avg":130.0,"n_vehicles":283,"d":994,"route_I_counts":"{\"326\": 179, \"328\": 104}","shape_id":"{\"RP08131e6387afa01a7c75a457831de0f3af964576\": 104, \"RP8501e69e9e79e4a5b5b10534257d65bc786fd88a\": 179}","direction_id":"{\"1\": 283}","headsign":"{\"Laurentina\": 283}","source":35,"target":34,"layer":"L","from":"Circo Massimo","to":"Piramide"},"geometry":{"type":"LineString","coordinates":[[12.487968,41.883324],[12.482177,41.875713]]}},{"type":"Feature","properties":{"shape_id":"{\"RP4b56a0b1238eb3a93d7c6c2dbdb00074372e4e38\": 104, \"RPd694c3012beb40a61e9bcd13de687d945d8674de\": 179}","direction_id":"{\"0\": 283}","headsign":"{\"Jonio\": 104, \"Rebibbia\": 179}","duration_avg":58.0,"n_vehicles":283,"d":463,"route_I_counts":"{\"326\": 179, \"328\": 104}","source":36,"target":37,"layer":"L","from":"Colosseo","to":"Cavour"},"geometry":{"type":"LineString","coordinates":[[12.491604,41.89122],[12.494011,41.894974]]}},{"type":"Feature","properties":{"duration_avg":118.0,"n_vehicles":283,"d":922,"route_I_counts":"{\"326\": 179, \"328\": 104}","shape_id":"{\"RP08131e6387afa01a7c75a457831de0f3af964576\": 104, \"RP8501e69e9e79e4a5b5b10534257d65bc786fd88a\": 179}","direction_id":"{\"1\": 283}","headsign":"{\"Laurentina\": 283}","source":36,"target":35,"layer":"L","from":"Colosseo","to":"Circo Massimo"},"geometry":{"type":"LineString","coordinates":[[12.491604,41.89122],[12.487968,41.883324]]}},{"type":"Feature","properties":{"duration_avg":58.0,"n_vehicles":283,"d":463,"route_I_counts":"{\"326\": 179, \"328\": 104}","shape_id":"{\"RP08131e6387afa01a7c75a457831de0f3af964576\": 104, \"RP8501e69e9e79e4a5b5b10534257d65bc786fd88a\": 179}","direction_id":"{\"1\": 283}","headsign":"{\"Laurentina\": 283}","source":37,"target":36,"layer":"L","from":"Cavour","to":"Colosseo"},"geometry":{"type":"LineString","coordinates":[[12.494011,41.894974],[12.491604,41.89122]]}},{"type":"Feature","properties":{"duration_avg":105.0,"n_vehicles":283,"d":840,"route_I_counts":"{\"326\": 179, \"328\": 104}","shape_id":"{\"RP4b56a0b1238eb3a93d7c6c2dbdb00074372e4e38\": 104, \"RPd694c3012beb40a61e9bcd13de687d945d8674de\": 179}","direction_id":"{\"0\": 283}","headsign":"{\"Jonio\": 104, \"Rebibbia\": 179}","source":37,"target":15,"layer":"L","from":"Cavour","to":"Termini"},"geometry":{"type":"LineString","coordinates":[[12.494011,41.894974],[12.500031,41.901077]]}},{"type":"Feature","properties":{"shape_id":"{\"RP4b56a0b1238eb3a93d7c6c2dbdb00074372e4e38\": 104, \"RP550a560db1b883f8bb6419838b181a99ac0f5eb4\": 7, \"RPd5c567ce0fdb73f711afafba50f13bfe93d0f373\": 8, \"RPd694c3012beb40a61e9bcd13de687d945d8674de\": 179}","direction_id":"{\"0\": 298}","headsign":"{\"Jonio\": 111, \"Rebibbia\": 187}","duration_avg":87.0,"n_vehicles":298,"d":608,"route_I_counts":"{\"326\": 187, \"328\": 111}","source":38,"target":39,"layer":"L","from":"Castro Pretorio","to":"Policlinico"},"geometry":{"type":"LineString","coordinates":[[12.50562,41.906139],[12.512219,41.908546]]}},{"type":"Feature","properties":{"duration_avg":92.0,"n_vehicles":283,"d":730,"route_I_counts":"{\"326\": 179, \"328\": 104}","shape_id":"{\"RP08131e6387afa01a7c75a457831de0f3af964576\": 104, \"RP8501e69e9e79e4a5b5b10534257d65bc786fd88a\": 179}","direction_id":"{\"1\": 283}","headsign":"{\"Laurentina\": 283}","source":38,"target":15,"layer":"L","from":"Castro Pretorio","to":"Termini"},"geometry":{"type":"LineString","coordinates":[[12.50562,41.906139],[12.500031,41.901077]]}},{"type":"Feature","properties":{"shape_id":"{\"RP4b56a0b1238eb3a93d7c6c2dbdb00074372e4e38\": 104, \"RP550a560db1b883f8bb6419838b181a99ac0f5eb4\": 7, \"RPd5c567ce0fdb73f711afafba50f13bfe93d0f373\": 8, \"RPd694c3012beb40a61e9bcd13de687d945d8674de\": 179}","direction_id":"{\"0\": 298}","headsign":"{\"Jonio\": 111, \"Rebibbia\": 187}","duration_avg":118.0,"n_vehicles":298,"d":906,"route_I_counts":"{\"326\": 187, \"328\": 111}","source":39,"target":40,"layer":"L","from":"Policlinico","to":"Bologna"},"geometry":{"type":"LineString","coordinates":[[12.512219,41.908546],[12.520861,41.91354]]}},{"type":"Feature","properties":{"duration_avg":87.0,"n_vehicles":300,"d":635,"route_I_counts":"{\"326\": 188, \"328\": 112}","shape_id":"{\"RP08131e6387afa01a7c75a457831de0f3af964576\": 104, \"RP8501e69e9e79e4a5b5b10534257d65bc786fd88a\": 179, \"RP8b2ce243d05237b342586c7b6866e48646dcb9e8\": 8, \"RPec11db84afe5e954864ac03ff0f1677d700a7dfd\": 9}","direction_id":"{\"1\": 300}","headsign":"{\"Castro Pretorio\": 17, \"Laurentina\": 283}","source":39,"target":38,"layer":"L","from":"Policlinico","to":"Castro Pretorio"},"geometry":{"type":"LineString","coordinates":[[12.512219,41.908546],[12.50562,41.906139]]}},{"type":"Feature","properties":{"shape_id":"{\"RPd5c567ce0fdb73f711afafba50f13bfe93d0f373\": 7, \"RPd694c3012beb40a61e9bcd13de687d945d8674de\": 179}","direction_id":"{\"0\": 186}","headsign":"{\"Rebibbia\": 186}","duration_avg":113.0,"n_vehicles":186,"d":868,"route_I_counts":"{\"326\": 186}","source":40,"target":41,"layer":"L","from":"Bologna","to":"Tiburtina"},"geometry":{"type":"LineString","coordinates":[[12.520861,41.91354],[12.530163,41.90995]]}},{"type":"Feature","properties":{"shape_id":"{\"RP4b56a0b1238eb3a93d7c6c2dbdb00074372e4e38\": 104, \"RP550a560db1b883f8bb6419838b181a99ac0f5eb4\": 7}","direction_id":"{\"0\": 111}","headsign":"{\"Jonio\": 111}","duration_avg":172.0,"n_vehicles":111,"d":1199,"route_I_counts":"{\"328\": 111}","source":40,"target":48,"layer":"L","from":"Bologna","to":"S. Agnese/Annibaliano"},"geometry":{"type":"LineString","coordinates":[[12.520861,41.91354],[12.516383,41.923786]]}},{"type":"Feature","properties":{"duration_avg":117.0,"n_vehicles":301,"d":891,"route_I_counts":"{\"326\": 188, \"328\": 113}","shape_id":"{\"RP08131e6387afa01a7c75a457831de0f3af964576\": 104, \"RP8501e69e9e79e4a5b5b10534257d65bc786fd88a\": 179, \"RP8b2ce243d05237b342586c7b6866e48646dcb9e8\": 9, \"RPec11db84afe5e954864ac03ff0f1677d700a7dfd\": 9}","direction_id":"{\"1\": 301}","headsign":"{\"Castro Pretorio\": 18, \"Laurentina\": 283}","source":40,"target":39,"layer":"L","from":"Bologna","to":"Policlinico"},"geometry":{"type":"LineString","coordinates":[[12.520861,41.91354],[12.512219,41.908546]]}},{"type":"Feature","properties":{"shape_id":"{\"RPd5c567ce0fdb73f711afafba50f13bfe93d0f373\": 7, \"RPd694c3012beb40a61e9bcd13de687d945d8674de\": 179}","direction_id":"{\"0\": 186}","headsign":"{\"Rebibbia\": 186}","duration_avg":113.0,"n_vehicles":186,"d":906,"route_I_counts":"{\"326\": 186}","source":41,"target":42,"layer":"L","from":"Tiburtina","to":"Quintiliani"},"geometry":{"type":"LineString","coordinates":[[12.530163,41.90995],[12.539096,41.91465]]}},{"type":"Feature","properties":{"duration_avg":112.0,"n_vehicles":188,"d":872,"route_I_counts":"{\"326\": 188}","shape_id":"{\"RP8501e69e9e79e4a5b5b10534257d65bc786fd88a\": 179, \"RPec11db84afe5e954864ac03ff0f1677d700a7dfd\": 9}","direction_id":"{\"1\": 188}","headsign":"{\"Castro Pretorio\": 9, \"Laurentina\": 179}","source":41,"target":40,"layer":"L","from":"Tiburtina","to":"Bologna"},"geometry":{"type":"LineString","coordinates":[[12.530163,41.90995],[12.520861,41.91354]]}},{"type":"Feature","properties":{"shape_id":"{\"RPd5c567ce0fdb73f711afafba50f13bfe93d0f373\": 7, \"RPd694c3012beb40a61e9bcd13de687d945d8674de\": 179}","direction_id":"{\"0\": 186}","headsign":"{\"Rebibbia\": 186}","duration_avg":92.0,"n_vehicles":186,"d":717,"route_I_counts":"{\"326\": 186}","source":42,"target":43,"layer":"L","from":"Quintiliani","to":"Monti Tiburtini"},"geometry":{"type":"LineString","coordinates":[[12.539096,41.91465],[12.547617,41.915829]]}},{"type":"Feature","properties":{"duration_avg":114.0,"n_vehicles":188,"d":881,"route_I_counts":"{\"326\": 188}","shape_id":"{\"RP8501e69e9e79e4a5b5b10534257d65bc786fd88a\": 179, \"RPec11db84afe5e954864ac03ff0f1677d700a7dfd\": 9}","direction_id":"{\"1\": 188}","headsign":"{\"Castro Pretorio\": 9, \"Laurentina\": 179}","source":42,"target":41,"layer":"L","from":"Quintiliani","to":"Tiburtina"},"geometry":{"type":"LineString","coordinates":[[12.539096,41.91465],[12.530163,41.90995]]}},{"type":"Feature","properties":{"shape_id":"{\"RPd5c567ce0fdb73f711afafba50f13bfe93d0f373\": 7, \"RPd694c3012beb40a61e9bcd13de687d945d8674de\": 179}","direction_id":"{\"0\": 186}","headsign":"{\"Rebibbia\": 186}","duration_avg":88.0,"n_vehicles":186,"d":696,"route_I_counts":"{\"326\": 186}","source":43,"target":44,"layer":"L","from":"Monti Tiburtini","to":"Pietralata"},"geometry":{"type":"LineString","coordinates":[[12.547617,41.915829],[12.555648,41.913971]]}},{"type":"Feature","properties":{"duration_avg":92.0,"n_vehicles":188,"d":736,"route_I_counts":"{\"326\": 188}","shape_id":"{\"RP8501e69e9e79e4a5b5b10534257d65bc786fd88a\": 179, \"RPec11db84afe5e954864ac03ff0f1677d700a7dfd\": 9}","direction_id":"{\"1\": 188}","headsign":"{\"Castro Pretorio\": 9, \"Laurentina\": 179}","source":43,"target":42,"layer":"L","from":"Monti Tiburtini","to":"Quintiliani"},"geometry":{"type":"LineString","coordinates":[[12.547617,41.915829],[12.539096,41.91465]]}},{"type":"Feature","properties":{"shape_id":"{\"RPd5c567ce0fdb73f711afafba50f13bfe93d0f373\": 7, \"RPd694c3012beb40a61e9bcd13de687d945d8674de\": 179}","direction_id":"{\"0\": 186}","headsign":"{\"Rebibbia\": 186}","duration_avg":69.0,"n_vehicles":186,"d":541,"route_I_counts":"{\"326\": 186}","source":44,"target":45,"layer":"L","from":"Pietralata","to":"Santa Maria del Soccorso"},"geometry":{"type":"LineString","coordinates":[[12.555648,41.913971],[12.561639,41.915913]]}},{"type":"Feature","properties":{"duration_avg":88.0,"n_vehicles":189,"d":700,"route_I_counts":"{\"326\": 189}","shape_id":"{\"RP8501e69e9e79e4a5b5b10534257d65bc786fd88a\": 179, \"RPec11db84afe5e954864ac03ff0f1677d700a7dfd\": 10}","direction_id":"{\"1\": 189}","headsign":"{\"Castro Pretorio\": 10, \"Laurentina\": 179}","source":44,"target":43,"layer":"L","from":"Pietralata","to":"Monti Tiburtini"},"geometry":{"type":"LineString","coordinates":[[12.555648,41.913971],[12.547617,41.915829]]}},{"type":"Feature","properties":{"shape_id":"{\"RPd5c567ce0fdb73f711afafba50f13bfe93d0f373\": 7, \"RPd694c3012beb40a61e9bcd13de687d945d8674de\": 179}","direction_id":"{\"0\": 186}","headsign":"{\"Rebibbia\": 186}","duration_avg":79.0,"n_vehicles":186,"d":631,"route_I_counts":"{\"326\": 186}","source":45,"target":46,"layer":"L","from":"Santa Maria del Soccorso","to":"Ponte Mammolo"},"geometry":{"type":"LineString","coordinates":[[12.561639,41.915913],[12.565234,41.920918]]}},{"type":"Feature","properties":{"duration_avg":70.0,"n_vehicles":189,"d":517,"route_I_counts":"{\"326\": 189}","shape_id":"{\"RP8501e69e9e79e4a5b5b10534257d65bc786fd88a\": 179, \"RPec11db84afe5e954864ac03ff0f1677d700a7dfd\": 10}","direction_id":"{\"1\": 189}","headsign":"{\"Castro Pretorio\": 10, \"Laurentina\": 179}","source":45,"target":44,"layer":"L","from":"Santa Maria del Soccorso","to":"Pietralata"},"geometry":{"type":"LineString","coordinates":[[12.561639,41.915913],[12.555648,41.913971]]}},{"type":"Feature","properties":{"shape_id":"{\"RPd5c567ce0fdb73f711afafba50f13bfe93d0f373\": 7, \"RPd694c3012beb40a61e9bcd13de687d945d8674de\": 179}","direction_id":"{\"0\": 186}","headsign":"{\"Rebibbia\": 186}","duration_avg":106.0,"n_vehicles":186,"d":812,"route_I_counts":"{\"326\": 186}","source":46,"target":47,"layer":"L","from":"Ponte Mammolo","to":"Rebibbia"},"geometry":{"type":"LineString","coordinates":[[12.565234,41.920918],[12.572738,41.925621]]}},{"type":"Feature","properties":{"duration_avg":78.0,"n_vehicles":189,"d":621,"route_I_counts":"{\"326\": 189}","shape_id":"{\"RP8501e69e9e79e4a5b5b10534257d65bc786fd88a\": 179, \"RPec11db84afe5e954864ac03ff0f1677d700a7dfd\": 10}","direction_id":"{\"1\": 189}","headsign":"{\"Castro Pretorio\": 10, \"Laurentina\": 179}","source":46,"target":45,"layer":"L","from":"Ponte Mammolo","to":"Santa Maria del Soccorso"},"geometry":{"type":"LineString","coordinates":[[12.565234,41.920918],[12.561639,41.915913]]}},{"type":"Feature","properties":{"duration_avg":106.0,"n_vehicles":189,"d":818,"route_I_counts":"{\"326\": 189}","shape_id":"{\"RP8501e69e9e79e4a5b5b10534257d65bc786fd88a\": 179, \"RPec11db84afe5e954864ac03ff0f1677d700a7dfd\": 10}","direction_id":"{\"1\": 189}","headsign":"{\"Castro Pretorio\": 10, \"Laurentina\": 179}","source":47,"target":46,"layer":"L","from":"Rebibbia","to":"Ponte Mammolo"},"geometry":{"type":"LineString","coordinates":[[12.572738,41.925621],[12.565234,41.920918]]}},{"type":"Feature","properties":{"shape_id":"{\"RP4b56a0b1238eb3a93d7c6c2dbdb00074372e4e38\": 104, \"RP550a560db1b883f8bb6419838b181a99ac0f5eb4\": 7}","direction_id":"{\"0\": 111}","headsign":"{\"Jonio\": 111}","duration_avg":121.0,"n_vehicles":111,"d":905,"route_I_counts":"{\"328\": 111}","source":48,"target":49,"layer":"L","from":"S. Agnese/Annibaliano","to":"Libia"},"geometry":{"type":"LineString","coordinates":[[12.516383,41.923786],[12.519337,41.931618]]}},{"type":"Feature","properties":{"duration_avg":172.0,"n_vehicles":113,"d":1192,"route_I_counts":"{\"328\": 113}","shape_id":"{\"RP08131e6387afa01a7c75a457831de0f3af964576\": 104, \"RP8b2ce243d05237b342586c7b6866e48646dcb9e8\": 9}","direction_id":"{\"1\": 113}","headsign":"{\"Castro Pretorio\": 9, \"Laurentina\": 104}","source":48,"target":40,"layer":"L","from":"S. Agnese/Annibaliano","to":"Bologna"},"geometry":{"type":"LineString","coordinates":[[12.516383,41.923786],[12.520861,41.91354]]}},{"type":"Feature","properties":{"shape_id":"{\"RP4b56a0b1238eb3a93d7c6c2dbdb00074372e4e38\": 104, \"RP550a560db1b883f8bb6419838b181a99ac0f5eb4\": 6}","direction_id":"{\"0\": 110}","headsign":"{\"Jonio\": 110}","duration_avg":136.0,"n_vehicles":110,"d":1056,"route_I_counts":"{\"328\": 110}","source":49,"target":50,"layer":"L","from":"Libia","to":"Conca d'Oro"},"geometry":{"type":"LineString","coordinates":[[12.519337,41.931618],[12.527501,41.938915]]}},{"type":"Feature","properties":{"duration_avg":121.0,"n_vehicles":113,"d":916,"route_I_counts":"{\"328\": 113}","shape_id":"{\"RP08131e6387afa01a7c75a457831de0f3af964576\": 104, \"RP8b2ce243d05237b342586c7b6866e48646dcb9e8\": 9}","direction_id":"{\"1\": 113}","headsign":"{\"Castro Pretorio\": 9, \"Laurentina\": 104}","source":49,"target":48,"layer":"L","from":"Libia","to":"S. Agnese/Annibaliano"},"geometry":{"type":"LineString","coordinates":[[12.519337,41.931618],[12.516383,41.923786]]}},{"type":"Feature","properties":{"shape_id":"{\"RP4b56a0b1238eb3a93d7c6c2dbdb00074372e4e38\": 104, \"RP550a560db1b883f8bb6419838b181a99ac0f5eb4\": 6}","direction_id":"{\"0\": 110}","headsign":"{\"Jonio\": 110}","duration_avg":124.0,"n_vehicles":110,"d":930,"route_I_counts":"{\"328\": 110}","source":50,"target":51,"layer":"L","from":"Conca d'Oro","to":"Jonio"},"geometry":{"type":"LineString","coordinates":[[12.527501,41.938915],[12.527944,41.947266]]}},{"type":"Feature","properties":{"duration_avg":136.0,"n_vehicles":113,"d":1056,"route_I_counts":"{\"328\": 113}","shape_id":"{\"RP08131e6387afa01a7c75a457831de0f3af964576\": 104, \"RP8b2ce243d05237b342586c7b6866e48646dcb9e8\": 9}","direction_id":"{\"1\": 113}","headsign":"{\"Castro Pretorio\": 9, \"Laurentina\": 104}","source":50,"target":49,"layer":"L","from":"Conca d'Oro","to":"Libia"},"geometry":{"type":"LineString","coordinates":[[12.527501,41.938915],[12.519337,41.931618]]}},{"type":"Feature","properties":{"duration_avg":124.0,"n_vehicles":113,"d":921,"route_I_counts":"{\"328\": 113}","shape_id":"{\"RP08131e6387afa01a7c75a457831de0f3af964576\": 104, \"RP8b2ce243d05237b342586c7b6866e48646dcb9e8\": 9}","direction_id":"{\"1\": 113}","headsign":"{\"Castro Pretorio\": 9, \"Laurentina\": 104}","source":51,"target":50,"layer":"L","from":"Jonio","to":"Conca d'Oro"},"geometry":{"type":"LineString","coordinates":[[12.527944,41.947266],[12.527501,41.938915]]}},{"type":"Feature","properties":{"shape_id":"{\"RP9403fdde8c7e9d0839be5f07184f98db8b50ccb2\": 117}","direction_id":"{\"0\": 117}","headsign":"{\"San Giovanni\": 117}","duration_avg":104.0,"n_vehicles":117,"d":828,"route_I_counts":"{\"330\": 117}","source":52,"target":53,"layer":"L","from":"Monte Compatri/Pantano","to":"Graniti"},"geometry":{"type":"LineString","coordinates":[[12.707708,41.865665],[12.69772,41.865723]]}},{"type":"Feature","properties":{"shape_id":"{\"RP9403fdde8c7e9d0839be5f07184f98db8b50ccb2\": 117}","direction_id":"{\"0\": 117}","headsign":"{\"San Giovanni\": 117}","duration_avg":103.0,"n_vehicles":117,"d":811,"route_I_counts":"{\"330\": 117}","source":53,"target":54,"layer":"L","from":"Graniti","to":"Finocchio"},"geometry":{"type":"LineString","coordinates":[[12.69772,41.865723],[12.687932,41.865566]]}},{"type":"Feature","properties":{"duration_avg":102.0,"n_vehicles":113,"d":808,"route_I_counts":"{\"330\": 113}","shape_id":"{\"RPba0d83cacabc4cdd5fb191743b101a98752da0ef\": 113}","direction_id":"{\"1\": 113}","headsign":"{\"Pantano\": 113}","source":53,"target":52,"layer":"L","from":"Graniti","to":"Monte Compatri/Pantano"},"geometry":{"type":"LineString","coordinates":[[12.69772,41.865723],[12.707708,41.865665]]}},{"type":"Feature","properties":{"shape_id":"{\"RP9403fdde8c7e9d0839be5f07184f98db8b50ccb2\": 117}","direction_id":"{\"0\": 117}","headsign":"{\"San Giovanni\": 117}","duration_avg":75.0,"n_vehicles":117,"d":587,"route_I_counts":"{\"330\": 117}","source":54,"target":55,"layer":"L","from":"Finocchio","to":"Bolognetta"},"geometry":{"type":"LineString","coordinates":[[12.687932,41.865566],[12.68086,41.865261]]}},{"type":"Feature","properties":{"duration_avg":104.0,"n_vehicles":113,"d":829,"route_I_counts":"{\"330\": 113}","shape_id":"{\"RPba0d83cacabc4cdd5fb191743b101a98752da0ef\": 113}","direction_id":"{\"1\": 113}","headsign":"{\"Pantano\": 113}","source":54,"target":53,"layer":"L","from":"Finocchio","to":"Graniti"},"geometry":{"type":"LineString","coordinates":[[12.687932,41.865566],[12.69772,41.865723]]}},{"type":"Feature","properties":{"shape_id":"{\"RP9403fdde8c7e9d0839be5f07184f98db8b50ccb2\": 116}","direction_id":"{\"0\": 116}","headsign":"{\"San Giovanni\": 116}","duration_avg":152.0,"n_vehicles":116,"d":1184,"route_I_counts":"{\"330\": 116}","source":55,"target":56,"layer":"L","from":"Bolognetta","to":"Borghesiana"},"geometry":{"type":"LineString","coordinates":[[12.68086,41.865261],[12.666583,41.864857]]}},{"type":"Feature","properties":{"duration_avg":74.0,"n_vehicles":113,"d":565,"route_I_counts":"{\"330\": 113}","shape_id":"{\"RPba0d83cacabc4cdd5fb191743b101a98752da0ef\": 113}","direction_id":"{\"1\": 113}","headsign":"{\"Pantano\": 113}","source":55,"target":54,"layer":"L","from":"Bolognetta","to":"Finocchio"},"geometry":{"type":"LineString","coordinates":[[12.68086,41.865261],[12.687932,41.865566]]}},{"type":"Feature","properties":{"shape_id":"{\"RP9403fdde8c7e9d0839be5f07184f98db8b50ccb2\": 116}","direction_id":"{\"0\": 116}","headsign":"{\"San Giovanni\": 116}","duration_avg":88.0,"n_vehicles":116,"d":703,"route_I_counts":"{\"330\": 116}","source":56,"target":57,"layer":"L","from":"Borghesiana","to":"Due Leoni/Fontana Candida"},"geometry":{"type":"LineString","coordinates":[[12.666583,41.864857],[12.658104,41.865025]]}},{"type":"Feature","properties":{"duration_avg":152.0,"n_vehicles":114,"d":1200,"route_I_counts":"{\"330\": 114}","shape_id":"{\"RPba0d83cacabc4cdd5fb191743b101a98752da0ef\": 114}","direction_id":"{\"1\": 114}","headsign":"{\"Pantano\": 114}","source":56,"target":55,"layer":"L","from":"Borghesiana","to":"Bolognetta"},"geometry":{"type":"LineString","coordinates":[[12.666583,41.864857],[12.68086,41.865261]]}},{"type":"Feature","properties":{"shape_id":"{\"RP9403fdde8c7e9d0839be5f07184f98db8b50ccb2\": 116}","direction_id":"{\"0\": 116}","headsign":"{\"San Giovanni\": 116}","duration_avg":131.0,"n_vehicles":116,"d":1021,"route_I_counts":"{\"330\": 116}","source":57,"target":58,"layer":"L","from":"Due Leoni/Fontana Candida","to":"Grotte Celoni"},"geometry":{"type":"LineString","coordinates":[[12.658104,41.865025],[12.646089,41.862991]]}},{"type":"Feature","properties":{"duration_avg":88.0,"n_vehicles":114,"d":704,"route_I_counts":"{\"330\": 114}","shape_id":"{\"RPba0d83cacabc4cdd5fb191743b101a98752da0ef\": 114}","direction_id":"{\"1\": 114}","headsign":"{\"Pantano\": 114}","source":57,"target":56,"layer":"L","from":"Due Leoni/Fontana Candida","to":"Borghesiana"},"geometry":{"type":"LineString","coordinates":[[12.658104,41.865025],[12.666583,41.864857]]}},{"type":"Feature","properties":{"shape_id":"{\"RP9403fdde8c7e9d0839be5f07184f98db8b50ccb2\": 116}","direction_id":"{\"0\": 116}","headsign":"{\"San Giovanni\": 116}","duration_avg":110.0,"n_vehicles":116,"d":876,"route_I_counts":"{\"330\": 116}","source":58,"target":59,"layer":"L","from":"Grotte Celoni","to":"Torre Gaia"},"geometry":{"type":"LineString","coordinates":[[12.646089,41.862991],[12.635645,41.864235]]}},{"type":"Feature","properties":{"duration_avg":130.0,"n_vehicles":114,"d":1020,"route_I_counts":"{\"330\": 114}","shape_id":"{\"RPba0d83cacabc4cdd5fb191743b101a98752da0ef\": 114}","direction_id":"{\"1\": 114}","headsign":"{\"Pantano\": 114}","source":58,"target":57,"layer":"L","from":"Grotte Celoni","to":"Due Leoni/Fontana Candida"},"geometry":{"type":"LineString","coordinates":[[12.646089,41.862991],[12.658104,41.865025]]}},{"type":"Feature","properties":{"shape_id":"{\"RP9403fdde8c7e9d0839be5f07184f98db8b50ccb2\": 116}","direction_id":"{\"0\": 116}","headsign":"{\"San Giovanni\": 116}","duration_avg":105.0,"n_vehicles":116,"d":841,"route_I_counts":"{\"330\": 116}","source":59,"target":60,"layer":"L","from":"Torre Gaia","to":"Torre Angela"},"geometry":{"type":"LineString","coordinates":[[12.635645,41.864235],[12.6255,41.86446]]}},{"type":"Feature","properties":{"duration_avg":110.0,"n_vehicles":114,"d":878,"route_I_counts":"{\"330\": 114}","shape_id":"{\"RPba0d83cacabc4cdd5fb191743b101a98752da0ef\": 114}","direction_id":"{\"1\": 114}","headsign":"{\"Pantano\": 114}","source":59,"target":58,"layer":"L","from":"Torre Gaia","to":"Grotte Celoni"},"geometry":{"type":"LineString","coordinates":[[12.635645,41.864235],[12.646089,41.862991]]}},{"type":"Feature","properties":{"shape_id":"{\"RP9403fdde8c7e9d0839be5f07184f98db8b50ccb2\": 115}","direction_id":"{\"0\": 115}","headsign":"{\"San Giovanni\": 115}","duration_avg":92.0,"n_vehicles":115,"d":737,"route_I_counts":"{\"330\": 115}","source":60,"target":61,"layer":"L","from":"Torre Angela","to":"Torrenova"},"geometry":{"type":"LineString","coordinates":[[12.6255,41.86446],[12.616706,41.863453]]}},{"type":"Feature","properties":{"duration_avg":105.0,"n_vehicles":114,"d":836,"route_I_counts":"{\"330\": 114}","shape_id":"{\"RPba0d83cacabc4cdd5fb191743b101a98752da0ef\": 114}","direction_id":"{\"1\": 114}","headsign":"{\"Pantano\": 114}","source":60,"target":59,"layer":"L","from":"Torre Angela","to":"Torre Gaia"},"geometry":{"type":"LineString","coordinates":[[12.6255,41.86446],[12.635645,41.864235]]}},{"type":"Feature","properties":{"shape_id":"{\"RP9403fdde8c7e9d0839be5f07184f98db8b50ccb2\": 115}","direction_id":"{\"0\": 115}","headsign":"{\"San Giovanni\": 115}","duration_avg":70.0,"n_vehicles":115,"d":535,"route_I_counts":"{\"330\": 115}","source":61,"target":62,"layer":"L","from":"Torrenova","to":"Giardinetti"},"geometry":{"type":"LineString","coordinates":[[12.616706,41.863453],[12.610313,41.86412]]}},{"type":"Feature","properties":{"duration_avg":93.0,"n_vehicles":115,"d":736,"route_I_counts":"{\"330\": 115}","shape_id":"{\"RPba0d83cacabc4cdd5fb191743b101a98752da0ef\": 115}","direction_id":"{\"1\": 115}","headsign":"{\"Pantano\": 115}","source":61,"target":60,"layer":"L","from":"Torrenova","to":"Torre Angela"},"geometry":{"type":"LineString","coordinates":[[12.616706,41.863453],[12.6255,41.86446]]}},{"type":"Feature","properties":{"shape_id":"{\"RP9403fdde8c7e9d0839be5f07184f98db8b50ccb2\": 115}","direction_id":"{\"0\": 115}","headsign":"{\"San Giovanni\": 115}","duration_avg":147.0,"n_vehicles":115,"d":1158,"route_I_counts":"{\"330\": 115}","source":62,"target":63,"layer":"L","from":"Giardinetti","to":"Torre Maura"},"geometry":{"type":"LineString","coordinates":[[12.610313,41.86412],[12.596841,41.866882]]}},{"type":"Feature","properties":{"duration_avg":70.0,"n_vehicles":115,"d":547,"route_I_counts":"{\"330\": 115}","shape_id":"{\"RPba0d83cacabc4cdd5fb191743b101a98752da0ef\": 115}","direction_id":"{\"1\": 115}","headsign":"{\"Pantano\": 115}","source":62,"target":61,"layer":"L","from":"Giardinetti","to":"Torrenova"},"geometry":{"type":"LineString","coordinates":[[12.610313,41.86412],[12.616706,41.863453]]}},{"type":"Feature","properties":{"shape_id":"{\"RP9403fdde8c7e9d0839be5f07184f98db8b50ccb2\": 115}","direction_id":"{\"0\": 115}","headsign":"{\"San Giovanni\": 115}","duration_avg":115.0,"n_vehicles":115,"d":895,"route_I_counts":"{\"330\": 115}","source":63,"target":64,"layer":"L","from":"Torre Maura","to":"Torre Spaccata"},"geometry":{"type":"LineString","coordinates":[[12.596841,41.866882],[12.58653,41.869289]]}},{"type":"Feature","properties":{"duration_avg":146.0,"n_vehicles":115,"d":1149,"route_I_counts":"{\"330\": 115}","shape_id":"{\"RPba0d83cacabc4cdd5fb191743b101a98752da0ef\": 115}","direction_id":"{\"1\": 115}","headsign":"{\"Pantano\": 115}","source":63,"target":62,"layer":"L","from":"Torre Maura","to":"Giardinetti"},"geometry":{"type":"LineString","coordinates":[[12.596841,41.866882],[12.610313,41.86412]]}},{"type":"Feature","properties":{"shape_id":"{\"RP9403fdde8c7e9d0839be5f07184f98db8b50ccb2\": 115}","direction_id":"{\"0\": 115}","headsign":"{\"San Giovanni\": 115}","duration_avg":82.0,"n_vehicles":115,"d":647,"route_I_counts":"{\"330\": 115}","source":64,"target":65,"layer":"L","from":"Torre Spaccata","to":"Alessandrino"},"geometry":{"type":"LineString","coordinates":[[12.58653,41.869289],[12.579065,41.871002]]}},{"type":"Feature","properties":{"duration_avg":115.0,"n_vehicles":115,"d":903,"route_I_counts":"{\"330\": 115}","shape_id":"{\"RPba0d83cacabc4cdd5fb191743b101a98752da0ef\": 115}","direction_id":"{\"1\": 115}","headsign":"{\"Pantano\": 115}","source":64,"target":63,"layer":"L","from":"Torre Spaccata","to":"Torre Maura"},"geometry":{"type":"LineString","coordinates":[[12.58653,41.869289],[12.596841,41.866882]]}},{"type":"Feature","properties":{"shape_id":"{\"RP9403fdde8c7e9d0839be5f07184f98db8b50ccb2\": 114}","direction_id":"{\"0\": 114}","headsign":"{\"San Giovanni\": 114}","duration_avg":130.0,"n_vehicles":114,"d":956,"route_I_counts":"{\"330\": 114}","source":65,"target":66,"layer":"L","from":"Alessandrino","to":"Parco di Centocelle"},"geometry":{"type":"LineString","coordinates":[[12.579065,41.871002],[12.568499,41.874454]]}},{"type":"Feature","properties":{"duration_avg":82.0,"n_vehicles":115,"d":650,"route_I_counts":"{\"330\": 115}","shape_id":"{\"RPba0d83cacabc4cdd5fb191743b101a98752da0ef\": 115}","direction_id":"{\"1\": 115}","headsign":"{\"Pantano\": 115}","source":65,"target":64,"layer":"L","from":"Alessandrino","to":"Torre Spaccata"},"geometry":{"type":"LineString","coordinates":[[12.579065,41.871002],[12.58653,41.869289]]}},{"type":"Feature","properties":{"shape_id":"{\"RP9403fdde8c7e9d0839be5f07184f98db8b50ccb2\": 114}","direction_id":"{\"0\": 114}","headsign":"{\"San Giovanni\": 114}","duration_avg":93.0,"n_vehicles":114,"d":747,"route_I_counts":"{\"330\": 114}","source":66,"target":67,"layer":"L","from":"Parco di Centocelle","to":"Mirti"},"geometry":{"type":"LineString","coordinates":[[12.568499,41.874454],[12.56676,41.881042]]}},{"type":"Feature","properties":{"duration_avg":130.0,"n_vehicles":116,"d":967,"route_I_counts":"{\"330\": 116}","shape_id":"{\"RPba0d83cacabc4cdd5fb191743b101a98752da0ef\": 116}","direction_id":"{\"1\": 116}","headsign":"{\"Pantano\": 116}","source":66,"target":65,"layer":"L","from":"Parco di Centocelle","to":"Alessandrino"},"geometry":{"type":"LineString","coordinates":[[12.568499,41.874454],[12.579065,41.871002]]}},{"type":"Feature","properties":{"shape_id":"{\"RP9403fdde8c7e9d0839be5f07184f98db8b50ccb2\": 114}","direction_id":"{\"0\": 114}","headsign":"{\"San Giovanni\": 114}","duration_avg":89.0,"n_vehicles":114,"d":683,"route_I_counts":"{\"330\": 114}","source":67,"target":68,"layer":"L","from":"Mirti","to":"Gardenie"},"geometry":{"type":"LineString","coordinates":[[12.56676,41.881042],[12.562108,41.886116]]}},{"type":"Feature","properties":{"duration_avg":93.0,"n_vehicles":116,"d":743,"route_I_counts":"{\"330\": 116}","shape_id":"{\"RPba0d83cacabc4cdd5fb191743b101a98752da0ef\": 116}","direction_id":"{\"1\": 116}","headsign":"{\"Pantano\": 116}","source":67,"target":66,"layer":"L","from":"Mirti","to":"Parco di Centocelle"},"geometry":{"type":"LineString","coordinates":[[12.56676,41.881042],[12.568499,41.874454]]}},{"type":"Feature","properties":{"shape_id":"{\"RP9403fdde8c7e9d0839be5f07184f98db8b50ccb2\": 114}","direction_id":"{\"0\": 114}","headsign":"{\"San Giovanni\": 114}","duration_avg":123.0,"n_vehicles":114,"d":966,"route_I_counts":"{\"330\": 114}","source":68,"target":69,"layer":"L","from":"Gardenie","to":"Teano"},"geometry":{"type":"LineString","coordinates":[[12.562108,41.886116],[12.551361,41.889484]]}},{"type":"Feature","properties":{"duration_avg":89.0,"n_vehicles":116,"d":668,"route_I_counts":"{\"330\": 116}","shape_id":"{\"RPba0d83cacabc4cdd5fb191743b101a98752da0ef\": 116}","direction_id":"{\"1\": 116}","headsign":"{\"Pantano\": 116}","source":68,"target":67,"layer":"L","from":"Gardenie","to":"Mirti"},"geometry":{"type":"LineString","coordinates":[[12.562108,41.886116],[12.56676,41.881042]]}},{"type":"Feature","properties":{"shape_id":"{\"RP9403fdde8c7e9d0839be5f07184f98db8b50ccb2\": 114}","direction_id":"{\"0\": 114}","headsign":"{\"San Giovanni\": 114}","duration_avg":124.0,"n_vehicles":114,"d":954,"route_I_counts":"{\"330\": 114}","source":69,"target":70,"layer":"L","from":"Teano","to":"Malatesta"},"geometry":{"type":"LineString","coordinates":[[12.551361,41.889484],[12.540216,41.887325]]}},{"type":"Feature","properties":{"duration_avg":123.0,"n_vehicles":116,"d":959,"route_I_counts":"{\"330\": 116}","shape_id":"{\"RPba0d83cacabc4cdd5fb191743b101a98752da0ef\": 116}","direction_id":"{\"1\": 116}","headsign":"{\"Pantano\": 116}","source":69,"target":68,"layer":"L","from":"Teano","to":"Gardenie"},"geometry":{"type":"LineString","coordinates":[[12.551361,41.889484],[12.562108,41.886116]]}},{"type":"Feature","properties":{"shape_id":"{\"RP9403fdde8c7e9d0839be5f07184f98db8b50ccb2\": 113}","direction_id":"{\"0\": 113}","headsign":"{\"San Giovanni\": 113}","duration_avg":121.0,"n_vehicles":113,"d":964,"route_I_counts":"{\"330\": 113}","source":70,"target":71,"layer":"L","from":"Malatesta","to":"Pigneto"},"geometry":{"type":"LineString","coordinates":[[12.540216,41.887325],[12.528663,41.888344]]}},{"type":"Feature","properties":{"duration_avg":124.0,"n_vehicles":116,"d":954,"route_I_counts":"{\"330\": 116}","shape_id":"{\"RPba0d83cacabc4cdd5fb191743b101a98752da0ef\": 116}","direction_id":"{\"1\": 116}","headsign":"{\"Pantano\": 116}","source":70,"target":69,"layer":"L","from":"Malatesta","to":"Teano"},"geometry":{"type":"LineString","coordinates":[[12.540216,41.887325],[12.551361,41.889484]]}},{"type":"Feature","properties":{"shape_id":"{\"RP9403fdde8c7e9d0839be5f07184f98db8b50ccb2\": 113}","direction_id":"{\"0\": 113}","headsign":"{\"San Giovanni\": 113}","duration_avg":106.0,"n_vehicles":113,"d":830,"route_I_counts":"{\"330\": 113}","source":71,"target":72,"layer":"L","from":"Pigneto","to":"Lodi"},"geometry":{"type":"LineString","coordinates":[[12.528663,41.888344],[12.518793,41.887054]]}},{"type":"Feature","properties":{"duration_avg":121.0,"n_vehicles":117,"d":966,"route_I_counts":"{\"330\": 117}","shape_id":"{\"RPba0d83cacabc4cdd5fb191743b101a98752da0ef\": 117}","direction_id":"{\"1\": 117}","headsign":"{\"Pantano\": 117}","source":71,"target":70,"layer":"L","from":"Pigneto","to":"Malatesta"},"geometry":{"type":"LineString","coordinates":[[12.528663,41.888344],[12.540216,41.887325]]}},{"type":"Feature","properties":{"duration_avg":106.0,"n_vehicles":117,"d":825,"route_I_counts":"{\"330\": 117}","shape_id":"{\"RPba0d83cacabc4cdd5fb191743b101a98752da0ef\": 117}","direction_id":"{\"1\": 117}","headsign":"{\"Pantano\": 117}","source":72,"target":71,"layer":"L","from":"Lodi","to":"Pigneto"},"geometry":{"type":"LineString","coordinates":[[12.518793,41.887054],[12.528663,41.888344]]}},{"type":"Feature","properties":{"duration_avg":96.0,"n_vehicles":113,"d":764,"route_I_counts":"{\"330\": 113}","shape_id":"{\"RP9403fdde8c7e9d0839be5f07184f98db8b50ccb2\": 113}","direction_id":"{\"0\": 113}","headsign":"{\"San Giovanni\": 113}","source":72,"target":12,"layer":"L","from":"Lodi","to":"S. Giovanni"},"geometry":{"type":"LineString","coordinates":[[12.518793,41.887054],[12.509652,41.885662]]}}]}