{"type":"FeatureCollection","features":[{"type":"Feature","geometry":{"type":"Point","coordinates":[4.535093,51.960254]},"properties":{"name":"Rotterdam, Binnenhof","original_ids":"[39595, 33606]","id":0,"layer":"stop"}},{"type":"Feature","geometry":{"type":"Point","coordinates":[4.54194,51.961355]},"properties":{"name":"Rotterdam, Romeynshof","original_ids":"[33608, 33607]","id":1,"layer":"stop"}},{"type":"Feature","geometry":{"type":"Point","coordinates":[4.549457,51.956951]},"properties":{"name":"Rotterdam, Graskruid","original_ids":"[3555, 35263]","id":2,"layer":"stop"}},{"type":"Feature","geometry":{"type":"Point","coordinates":[4.552207,51.950696]},"properties":{"name":"Rotterdam, Alexander","original_ids":"[29224, 30564]","id":3,"layer":"stop"}},{"type":"Feature","geometry":{"type":"Point","coordinates":[4.554621,51.945266]},"properties":{"name":"Rotterdam, Oosterflank","original_ids":"[45512, 9669]","id":4,"layer":"stop"}},{"type":"Feature","geometry":{"type":"Point","coordinates":[4.556993,51.939674]},"properties":{"name":"Rotterdam, Prinsenlaan","original_ids":"[36596, 6580]","id":5,"layer":"stop"}},{"type":"Feature","geometry":{"type":"Point","coordinates":[4.563915,51.930959]},"properties":{"name":"Rotterdam, Schenkel","original_ids":"[15581, 29225]","id":6,"layer":"stop"}},{"type":"Feature","geometry":{"type":"Point","coordinates":[4.557133,51.921104]},"properties":{"name":"Rotterdam, Capelsebrug","original_ids":"[26294, 33610, 23277]","id":7,"layer":"stop"}},{"type":"Feature","geometry":{"type":"Point","coordinates":[4.533398,51.921644]},"properties":{"name":"Rotterdam, Kralingse Zoom","original_ids":"[30565, 33611, 45513]","id":8,"layer":"stop"}},{"type":"Feature","geometry":{"type":"Point","coordinates":[4.512614,51.925141]},"properties":{"name":"Rotterdam, Voorschoterlaan","original_ids":"[17021, 47120]","id":9,"layer":"stop"}},{"type":"Feature","geometry":{"type":"Point","coordinates":[4.505867,51.925972]},"properties":{"name":"Rotterdam, Gerdesiaweg","original_ids":"[39597, 39596]","id":10,"layer":"stop"}},{"type":"Feature","geometry":{"type":"Point","coordinates":[4.496455,51.923267]},"properties":{"name":"Rotterdam, Oostplein","original_ids":"[20052, 26036]","id":11,"layer":"stop"}},{"type":"Feature","geometry":{"type":"Point","coordinates":[4.489731,51.920034]},"properties":{"name":"Rotterdam, Blaak","original_ids":"[30566, 31941, 3556]","id":12,"layer":"stop"}},{"type":"Feature","geometry":{"type":"Point","coordinates":[4.480926,51.918393]},"properties":{"name":"Rotterdam, Beurs","original_ids":"[45514, 24643, 33602, 11287]","id":13,"layer":"stop"}},{"type":"Feature","geometry":{"type":"Point","coordinates":[4.473141,51.915906]},"properties":{"name":"Rotterdam, Eendrachtsplein","original_ids":"[30568, 3557]","id":14,"layer":"stop"}},{"type":"Feature","geometry":{"type":"Point","coordinates":[4.466778,51.912171]},"properties":{"name":"Rotterdam, Dijkzigt","original_ids":"[18656, 46858]","id":15,"layer":"stop"}},{"type":"Feature","geometry":{"type":"Point","coordinates":[4.458509,51.909301]},"properties":{"name":"Rotterdam, Coolhaven","original_ids":"[550, 28958]","id":16,"layer":"stop"}},{"type":"Feature","geometry":{"type":"Point","coordinates":[4.445762,51.910072]},"properties":{"name":"Rotterdam, Delfshaven","original_ids":"[30569, 21626]","id":17,"layer":"stop"}},{"type":"Feature","geometry":{"type":"Point","coordinates":[4.432258,51.913576]},"properties":{"name":"Rotterdam, Marconiplein","original_ids":"[6583, 42621]","id":18,"layer":"stop"}},{"type":"Feature","geometry":{"type":"Point","coordinates":[4.409424,51.921595]},"properties":{"name":"Schiedam, Schiedam Centrum","original_ids":"[6584, 30567, 42622]","id":19,"layer":"stop"}},{"type":"Feature","geometry":{"type":"Point","coordinates":[4.225035,51.932573]},"properties":{"name":"Maassluis, Steendijkpolder","original_ids":"[11288, 14245, 29228]","id":20,"layer":"stop"}},{"type":"Feature","geometry":{"type":"Point","coordinates":[4.235499,51.925989]},"properties":{"name":"Maassluis, Maassluis West","original_ids":"[18658, 23279]","id":21,"layer":"stop"}},{"type":"Feature","geometry":{"type":"Point","coordinates":[4.254066,51.916182]},"properties":{"name":"Maassluis, Maassluis Centrum","original_ids":"[29227, 35265]","id":22,"layer":"stop"}},{"type":"Feature","geometry":{"type":"Point","coordinates":[4.315504,51.903635]},"properties":{"name":"Vlaardingen, Vlaardingen West","original_ids":"[18657, 3558]","id":23,"layer":"stop"}},{"type":"Feature","geometry":{"type":"Point","coordinates":[4.344361,51.903139]},"properties":{"name":"Vlaardingen, Vlaardingen Centrum","original_ids":"[47124, 47123]","id":24,"layer":"stop"}},{"type":"Feature","geometry":{"type":"Point","coordinates":[4.362414,51.910588]},"properties":{"name":"Vlaardingen, Vlaardingen Oost","original_ids":"[15583, 5181]","id":25,"layer":"stop"}},{"type":"Feature","geometry":{"type":"Point","coordinates":[4.383852,51.922935]},"properties":{"name":"Schiedam, Schiedam Nieuwland","original_ids":"[15582, 8249]","id":26,"layer":"stop"}},{"type":"Feature","geometry":{"type":"Point","coordinates":[4.553791,51.963309]},"properties":{"name":"Rotterdam, Hesseplaats","original_ids":"[33605, 20287]","id":27,"layer":"stop"}},{"type":"Feature","geometry":{"type":"Point","coordinates":[4.562042,51.964887]},"properties":{"name":"Rotterdam, Nieuw Verlaat","original_ids":"[5178, 6579]","id":28,"layer":"stop"}},{"type":"Feature","geometry":{"type":"Point","coordinates":[4.570712,51.96581]},"properties":{"name":"Rotterdam, Ambachtsland","original_ids":"[33609, 20051]","id":29,"layer":"stop"}},{"type":"Feature","geometry":{"type":"Point","coordinates":[4.579223,51.969141]},"properties":{"name":"Rotterdam, De Tochten","original_ids":"[42619, 17020]","id":30,"layer":"stop"}},{"type":"Feature","geometry":{"type":"Point","coordinates":[4.586348,51.979257]},"properties":{"name":"Rotterdam, Nesselande","original_ids":"[9668, 33604]","id":31,"layer":"stop"}},{"type":"Feature","geometry":{"type":"Point","coordinates":[4.134129,51.972963]},"properties":{"name":"Hoek van Holland, Hoek van Holland Haven","original_ids":"[21628]","id":32,"layer":"stop"}},{"type":"Feature","geometry":{"type":"Point","coordinates":[4.320151,51.83332]},"properties":{"name":"Spijkenisse, De Akkers","original_ids":"[23011, 20049]","id":33,"layer":"stop"}},{"type":"Feature","geometry":{"type":"Point","coordinates":[4.331601,51.83817]},"properties":{"name":"Spijkenisse, Heemraadlaan","original_ids":"[548, 45510]","id":34,"layer":"stop"}},{"type":"Feature","geometry":{"type":"Point","coordinates":[4.334666,51.846719]},"properties":{"name":"Spijkenisse, Spijkenisse Centrum","original_ids":"[33603, 46856]","id":35,"layer":"stop"}},{"type":"Feature","geometry":{"type":"Point","coordinates":[4.362873,51.855346]},"properties":{"name":"Hoogvliet Rotterdam, Zalmplaat","original_ids":"[1924, 7952]","id":36,"layer":"stop"}},{"type":"Feature","geometry":{"type":"Point","coordinates":[4.367128,51.861019]},"properties":{"name":"Hoogvliet Rotterdam, Hoogvliet","original_ids":"[26033, 7951]","id":37,"layer":"stop"}},{"type":"Feature","geometry":{"type":"Point","coordinates":[4.377304,51.862357]},"properties":{"name":"Hoogvliet Rotterdam, Tussenwater","original_ids":"[4935, 37951, 42618, 31940]","id":38,"layer":"stop"}},{"type":"Feature","geometry":{"type":"Point","coordinates":[4.381731,51.885173]},"properties":{"name":"Pernis Rotterdam, Pernis","original_ids":"[6582, 6581]","id":39,"layer":"stop"}},{"type":"Feature","geometry":{"type":"Point","coordinates":[4.372224,51.909325]},"properties":{"name":"Schiedam, Vijfsluizen","original_ids":"[44178, 8248]","id":40,"layer":"stop"}},{"type":"Feature","geometry":{"type":"Point","coordinates":[4.385044,51.915754]},"properties":{"name":"Schiedam, Troelstralaan","original_ids":"[42620, 29226]","id":41,"layer":"stop"}},{"type":"Feature","geometry":{"type":"Point","coordinates":[4.394355,51.921298]},"properties":{"name":"Schiedam, Parkweg","original_ids":"[23278, 35264]","id":42,"layer":"stop"}},{"type":"Feature","geometry":{"type":"Point","coordinates":[4.579008,51.928556]},"properties":{"name":"Capelle ad IJssel, Slotlaan","original_ids":"[46857, 4937]","id":43,"layer":"stop"}},{"type":"Feature","geometry":{"type":"Point","coordinates":[4.590164,51.931562]},"properties":{"name":"Capelle ad IJssel, Capelle Centrum","original_ids":"[36595, 549]","id":44,"layer":"stop"}},{"type":"Feature","geometry":{"type":"Point","coordinates":[4.599515,51.935625]},"properties":{"name":"Capelle ad IJssel, De Terp","original_ids":"[11026, 13985]","id":45,"layer":"stop"}},{"type":"Feature","geometry":{"type":"Point","coordinates":[4.477951,51.875017]},"properties":{"name":"Rotterdam, Slinge","original_ids":"[7949, 13983, 4934]","id":46,"layer":"stop"}},{"type":"Feature","geometry":{"type":"Point","coordinates":[4.488597,51.887297]},"properties":{"name":"Rotterdam, Zuidplein","original_ids":"[546, 7948]","id":47,"layer":"stop"}},{"type":"Feature","geometry":{"type":"Point","coordinates":[4.494961,51.897503]},"properties":{"name":"Rotterdam, Maashaven","original_ids":"[545, 31939]","id":48,"layer":"stop"}},{"type":"Feature","geometry":{"type":"Point","coordinates":[4.496966,51.904089]},"properties":{"name":"Rotterdam, Rijnhaven","original_ids":"[11025, 45511]","id":49,"layer":"stop"}},{"type":"Feature","geometry":{"type":"Point","coordinates":[4.492519,51.907749]},"properties":{"name":"Rotterdam, Wilhelminaplein","original_ids":"[1925, 28956]","id":50,"layer":"stop"}},{"type":"Feature","geometry":{"type":"Point","coordinates":[4.481761,51.913699]},"properties":{"name":"Rotterdam, Leuvehaven","original_ids":"[547, 6578]","id":51,"layer":"stop"}},{"type":"Feature","geometry":{"type":"Point","coordinates":[4.478032,51.923476]},"properties":{"name":"Rotterdam, Stadhuis","original_ids":"[9667, 9666]","id":52,"layer":"stop"}},{"type":"Feature","geometry":{"type":"Point","coordinates":[4.469997,51.923953]},"properties":{"name":"Rotterdam, Rotterdam Centraal","original_ids":"[41218, 26293, 17278]","id":53,"layer":"stop"}},{"type":"Feature","geometry":{"type":"Point","coordinates":[4.457847,51.930806]},"properties":{"name":"Rotterdam, Blijdorp","original_ids":"[3560, 551]","id":54,"layer":"stop"}},{"type":"Feature","geometry":{"type":"Point","coordinates":[4.464413,51.948799]},"properties":{"name":"Rotterdam, Melanchthonweg","original_ids":"[20053, 21630]","id":55,"layer":"stop"}},{"type":"Feature","geometry":{"type":"Point","coordinates":[4.462264,51.956378]},"properties":{"name":"Rotterdam, Meijersplein / Airport","original_ids":"[12641, 21629]","id":56,"layer":"stop"}},{"type":"Feature","geometry":{"type":"Point","coordinates":[4.460791,51.975602]},"properties":{"name":"Berkel en Rodenrijs, Rodenrijs","original_ids":"[6585, 40951]","id":57,"layer":"stop"}},{"type":"Feature","geometry":{"type":"Point","coordinates":[4.454061,51.99056]},"properties":{"name":"Berkel en Rodenrijs, Berkel Westpolder","original_ids":"[39599, 42623]","id":58,"layer":"stop"}},{"type":"Feature","geometry":{"type":"Point","coordinates":[4.445743,52.005334]},"properties":{"name":"Pijnacker, Pijnacker Zuid","original_ids":"[17022, 37954]","id":59,"layer":"stop"}},{"type":"Feature","geometry":{"type":"Point","coordinates":[4.436762,52.020884]},"properties":{"name":"Pijnacker, Pijnacker Centrum","original_ids":"[11028, 43935]","id":60,"layer":"stop"}},{"type":"Feature","geometry":{"type":"Point","coordinates":[4.414375,52.048063]},"properties":{"name":"Nootdorp, Nootdorp","original_ids":"[33612, 11029]","id":61,"layer":"stop"}},{"type":"Feature","geometry":{"type":"Point","coordinates":[4.400363,52.064728]},"properties":{"name":"'s-Gravenhage, Leidschenveen","original_ids":"[7955, 11030]","id":62,"layer":"stop"}},{"type":"Feature","geometry":{"type":"Point","coordinates":[4.393042,52.069961]},"properties":{"name":"'s-Gravenhage, Forepark","original_ids":"[40952, 11289]","id":63,"layer":"stop"}},{"type":"Feature","geometry":{"type":"Point","coordinates":[4.382342,52.077484]},"properties":{"name":"Voorburg, Leidschendam-Voorburg","original_ids":"[39598, 3559]","id":64,"layer":"stop"}},{"type":"Feature","geometry":{"type":"Point","coordinates":[4.365691,52.082212]},"properties":{"name":"Voorburg, Voorburg 't Loo","original_ids":"[12642, 27674]","id":65,"layer":"stop"}},{"type":"Feature","geometry":{"type":"Point","coordinates":[4.343162,52.079201]},"properties":{"name":"'s-Gravenhage, Laan van NOI","original_ids":"[12643, 23282]","id":66,"layer":"stop"}},{"type":"Feature","geometry":{"type":"Point","coordinates":[4.32611,52.080343]},"properties":{"name":"'s-Gravenhage, Den Haag Centraal","original_ids":"[9670]","id":67,"layer":"stop"}},{"type":"Feature","geometry":{"type":"Point","coordinates":[4.396252,51.861628]},"properties":{"name":"Poortugaal, Poortugaal","original_ids":"[24642, 33601]","id":68,"layer":"stop"}},{"type":"Feature","geometry":{"type":"Point","coordinates":[4.419593,51.859126]},"properties":{"name":"Rhoon, Rhoon","original_ids":"[34988, 7950]","id":69,"layer":"stop"}},{"type":"Feature","properties":{"shape_id":"{\"1038010\": 75, \"1038014\": 15, \"1038011\": 3}","direction_id":"{\"0\": 93}","headsign":"{\"Capelsebrug\": 1, \"Kralingse Zoom\": 15, \"Schiedam Centrum\": 77}","duration_avg":75.0,"n_vehicles":93,"d":485,"route_I_counts":"{\"1\": 93}","source":0,"target":1,"layer":"L","from":"Rotterdam, Binnenhof","to":"Rotterdam, Romeynshof"},"geometry":{"type":"LineString","coordinates":[[4.535093,51.960254],[4.54194,51.961355]]}},{"type":"Feature","properties":{"shape_id":"{\"1038010\": 75, \"1038011\": 3, \"1038014\": 15}","direction_id":"{\"0\": 93}","headsign":"{\"Capelsebrug\": 1, \"Kralingse Zoom\": 15, \"Schiedam Centrum\": 77}","duration_avg":105.0,"n_vehicles":93,"d":711,"route_I_counts":"{\"1\": 93}","source":1,"target":2,"layer":"L","from":"Rotterdam, Romeynshof","to":"Rotterdam, Graskruid"},"geometry":{"type":"LineString","coordinates":[[4.54194,51.961355],[4.549457,51.956951]]}},{"type":"Feature","properties":{"duration_avg":90.0,"n_vehicles":96,"d":577,"route_I_counts":"{\"1\": 96}","shape_id":"{\"1038013\": 77, \"1038015\": 12, \"1038012\": 7}","direction_id":"{\"1\": 96}","headsign":"{\"Binnenhof\": 96}","source":1,"target":0,"layer":"L","from":"Rotterdam, Romeynshof","to":"Rotterdam, Binnenhof"},"geometry":{"type":"LineString","coordinates":[[4.54194,51.961355],[4.535093,51.960254]]}},{"type":"Feature","properties":{"shape_id":"{\"1038010\": 75, \"1038011\": 3, \"1038014\": 15, \"1038020\": 45, \"1038021\": 2, \"1038023\": 45}","direction_id":"{\"0\": 185}","headsign":"{\"Capelsebrug\": 1, \"Hoek van Holland Haven\": 47, \"Kralingse Zoom\": 15, \"Schiedam Centrum\": 77, \"Steendijkpolder\": 45}","duration_avg":90.0,"n_vehicles":185,"d":721,"route_I_counts":"{\"1\": 93, \"2\": 92}","source":2,"target":3,"layer":"L","from":"Rotterdam, Graskruid","to":"Rotterdam, Alexander"},"geometry":{"type":"LineString","coordinates":[[4.549457,51.956951],[4.552207,51.950696]]}},{"type":"Feature","properties":{"duration_avg":105.0,"n_vehicles":97,"d":693,"route_I_counts":"{\"2\": 97}","shape_id":"{\"1038018\": 45, \"1038019\": 6, \"1038025\": 44, \"1038026\": 2}","direction_id":"{\"1\": 97}","headsign":"{\"Nesselande\": 97}","source":2,"target":27,"layer":"L","from":"Rotterdam, Graskruid","to":"Rotterdam, Hesseplaats"},"geometry":{"type":"LineString","coordinates":[[4.549457,51.956951],[4.553791,51.963309]]}},{"type":"Feature","properties":{"duration_avg":105.0,"n_vehicles":96,"d":598,"route_I_counts":"{\"1\": 96}","shape_id":"{\"1038012\": 7, \"1038013\": 77, \"1038015\": 12}","direction_id":"{\"1\": 96}","headsign":"{\"Binnenhof\": 96}","source":2,"target":1,"layer":"L","from":"Rotterdam, Graskruid","to":"Rotterdam, Romeynshof"},"geometry":{"type":"LineString","coordinates":[[4.549457,51.956951],[4.54194,51.961355]]}},{"type":"Feature","properties":{"shape_id":"{\"1038010\": 75, \"1038011\": 3, \"1038014\": 14, \"1038020\": 45, \"1038021\": 2, \"1038023\": 45}","direction_id":"{\"0\": 184}","headsign":"{\"Capelsebrug\": 1, \"Hoek van Holland Haven\": 47, \"Kralingse Zoom\": 14, \"Schiedam Centrum\": 77, \"Steendijkpolder\": 45}","duration_avg":90.0,"n_vehicles":184,"d":626,"route_I_counts":"{\"1\": 92, \"2\": 92}","source":3,"target":4,"layer":"L","from":"Rotterdam, Alexander","to":"Rotterdam, Oosterflank"},"geometry":{"type":"LineString","coordinates":[[4.552207,51.950696],[4.554621,51.945266]]}},{"type":"Feature","properties":{"duration_avg":105.0,"n_vehicles":193,"d":717,"route_I_counts":"{\"1\": 96, \"2\": 97}","shape_id":"{\"1038012\": 7, \"1038013\": 77, \"1038015\": 12, \"1038018\": 45, \"1038019\": 6, \"1038025\": 44, \"1038026\": 2}","direction_id":"{\"1\": 193}","headsign":"{\"Binnenhof\": 96, \"Nesselande\": 97}","source":3,"target":2,"layer":"L","from":"Rotterdam, Alexander","to":"Rotterdam, Graskruid"},"geometry":{"type":"LineString","coordinates":[[4.552207,51.950696],[4.549457,51.956951]]}},{"type":"Feature","properties":{"shape_id":"{\"1038010\": 75, \"1038011\": 3, \"1038014\": 14, \"1038020\": 45, \"1038021\": 2, \"1038023\": 45}","direction_id":"{\"0\": 184}","headsign":"{\"Capelsebrug\": 1, \"Hoek van Holland Haven\": 47, \"Kralingse Zoom\": 14, \"Schiedam Centrum\": 77, \"Steendijkpolder\": 45}","duration_avg":90.0,"n_vehicles":184,"d":643,"route_I_counts":"{\"1\": 92, \"2\": 92}","source":4,"target":5,"layer":"L","from":"Rotterdam, Oosterflank","to":"Rotterdam, Prinsenlaan"},"geometry":{"type":"LineString","coordinates":[[4.554621,51.945266],[4.556993,51.939674]]}},{"type":"Feature","properties":{"duration_avg":90.0,"n_vehicles":193,"d":595,"route_I_counts":"{\"1\": 96, \"2\": 97}","shape_id":"{\"1038012\": 7, \"1038013\": 77, \"1038015\": 12, \"1038018\": 45, \"1038019\": 6, \"1038025\": 44, \"1038026\": 2}","direction_id":"{\"1\": 193}","headsign":"{\"Binnenhof\": 96, \"Nesselande\": 97}","source":4,"target":3,"layer":"L","from":"Rotterdam, Oosterflank","to":"Rotterdam, Alexander"},"geometry":{"type":"LineString","coordinates":[[4.554621,51.945266],[4.552207,51.950696]]}},{"type":"Feature","properties":{"shape_id":"{\"1038010\": 75, \"1038011\": 3, \"1038014\": 14, \"1038020\": 45, \"1038021\": 2, \"1038023\": 45}","direction_id":"{\"0\": 184}","headsign":"{\"Capelsebrug\": 1, \"Hoek van Holland Haven\": 47, \"Kralingse Zoom\": 14, \"Schiedam Centrum\": 77, \"Steendijkpolder\": 45}","duration_avg":120.0,"n_vehicles":184,"d":1080,"route_I_counts":"{\"1\": 92, \"2\": 92}","source":5,"target":6,"layer":"L","from":"Rotterdam, Prinsenlaan","to":"Rotterdam, Schenkel"},"geometry":{"type":"LineString","coordinates":[[4.556993,51.939674],[4.563915,51.930959]]}},{"type":"Feature","properties":{"duration_avg":75.0,"n_vehicles":193,"d":558,"route_I_counts":"{\"1\": 96, \"2\": 97}","shape_id":"{\"1038012\": 7, \"1038013\": 77, \"1038015\": 12, \"1038018\": 45, \"1038019\": 6, \"1038025\": 44, \"1038026\": 2}","direction_id":"{\"1\": 193}","headsign":"{\"Binnenhof\": 96, \"Nesselande\": 97}","source":5,"target":4,"layer":"L","from":"Rotterdam, Prinsenlaan","to":"Rotterdam, Oosterflank"},"geometry":{"type":"LineString","coordinates":[[4.556993,51.939674],[4.554621,51.945266]]}},{"type":"Feature","properties":{"shape_id":"{\"1038010\": 75, \"1038011\": 3, \"1038014\": 14, \"1038020\": 45, \"1038021\": 2, \"1038023\": 45}","direction_id":"{\"0\": 184}","headsign":"{\"Capelsebrug\": 1, \"Hoek van Holland Haven\": 47, \"Kralingse Zoom\": 14, \"Schiedam Centrum\": 77, \"Steendijkpolder\": 45}","duration_avg":150.0,"n_vehicles":184,"d":1191,"route_I_counts":"{\"1\": 92, \"2\": 92}","source":6,"target":7,"layer":"L","from":"Rotterdam, Schenkel","to":"Rotterdam, Capelsebrug"},"geometry":{"type":"LineString","coordinates":[[4.563915,51.930959],[4.557133,51.921104]]}},{"type":"Feature","properties":{"duration_avg":120.0,"n_vehicles":193,"d":1056,"route_I_counts":"{\"1\": 96, \"2\": 97}","shape_id":"{\"1038012\": 7, \"1038013\": 77, \"1038015\": 12, \"1038018\": 45, \"1038019\": 6, \"1038025\": 44, \"1038026\": 2}","direction_id":"{\"1\": 193}","headsign":"{\"Binnenhof\": 96, \"Nesselande\": 97}","source":6,"target":5,"layer":"L","from":"Rotterdam, Schenkel","to":"Rotterdam, Prinsenlaan"},"geometry":{"type":"LineString","coordinates":[[4.563915,51.930959],[4.556993,51.939674]]}},{"type":"Feature","properties":{"shape_id":"{\"1038010\": 74, \"1038011\": 3, \"1038020\": 44, \"1038021\": 2, \"1038023\": 45, \"1038028\": 90, \"1038032\": 3, \"1038014\": 13}","direction_id":"{\"0\": 274}","headsign":"{\"Hoek van Holland Haven\": 46, \"Schiedam Centrum\": 77, \"Steendijkpolder\": 45, \"De Akkers\": 93, \"Kralingse Zoom\": 13}","duration_avg":157.5,"n_vehicles":274,"d":1630,"route_I_counts":"{\"1\": 90, \"2\": 91, \"3\": 93}","source":7,"target":8,"layer":"L","from":"Rotterdam, Capelsebrug","to":"Rotterdam, Kralingse Zoom"},"geometry":{"type":"LineString","coordinates":[[4.557133,51.921104],[4.533398,51.921644]]}},{"type":"Feature","properties":{"duration_avg":137.77173913043478,"n_vehicles":92,"d":1629,"route_I_counts":"{\"3\": 92}","shape_id":"{\"1038029\": 87, \"1038030\": 3, \"1038031\": 1, \"1038036\": 1}","direction_id":"{\"1\": 92}","headsign":"{\"De Terp\": 92}","source":7,"target":43,"layer":"L","from":"Rotterdam, Capelsebrug","to":"Capelle ad IJssel, Slotlaan"},"geometry":{"type":"LineString","coordinates":[[4.557133,51.921104],[4.579008,51.928556]]}},{"type":"Feature","properties":{"duration_avg":150.0,"n_vehicles":184,"d":1321,"route_I_counts":"{\"1\": 92, \"2\": 92}","shape_id":"{\"1038012\": 6, \"1038013\": 73, \"1038015\": 13, \"1038018\": 41, \"1038019\": 5, \"1038025\": 44, \"1038026\": 2}","direction_id":"{\"1\": 184}","headsign":"{\"Binnenhof\": 92, \"Nesselande\": 92}","source":7,"target":6,"layer":"L","from":"Rotterdam, Capelsebrug","to":"Rotterdam, Schenkel"},"geometry":{"type":"LineString","coordinates":[[4.557133,51.921104],[4.563915,51.930959]]}},{"type":"Feature","properties":{"shape_id":"{\"1038010\": 77, \"1038011\": 3, \"1038020\": 48, \"1038021\": 2, \"1038023\": 48, \"1038028\": 90, \"1038032\": 3}","direction_id":"{\"0\": 271}","headsign":"{\"De Akkers\": 93, \"Hoek van Holland Haven\": 50, \"Schiedam Centrum\": 80, \"Steendijkpolder\": 48}","duration_avg":135.0,"n_vehicles":271,"d":1479,"route_I_counts":"{\"1\": 80, \"2\": 98, \"3\": 93}","source":8,"target":9,"layer":"L","from":"Rotterdam, Kralingse Zoom","to":"Rotterdam, Voorschoterlaan"},"geometry":{"type":"LineString","coordinates":[[4.533398,51.921644],[4.512614,51.925141]]}},{"type":"Feature","properties":{"duration_avg":142.5,"n_vehicles":278,"d":1631,"route_I_counts":"{\"1\": 93, \"2\": 93, \"3\": 92}","shape_id":"{\"1038012\": 7, \"1038013\": 73, \"1038018\": 42, \"1038019\": 5, \"1038025\": 44, \"1038026\": 2, \"1038029\": 87, \"1038030\": 3, \"1038031\": 1, \"1038015\": 13, \"1038036\": 1}","direction_id":"{\"1\": 278}","headsign":"{\"Binnenhof\": 92, \"Capelsebrug\": 2, \"De Terp\": 92, \"Nesselande\": 92}","source":8,"target":7,"layer":"L","from":"Rotterdam, Kralingse Zoom","to":"Rotterdam, Capelsebrug"},"geometry":{"type":"LineString","coordinates":[[4.533398,51.921644],[4.557133,51.921104]]}},{"type":"Feature","properties":{"shape_id":"{\"1038010\": 77, \"1038011\": 3, \"1038020\": 48, \"1038021\": 2, \"1038023\": 48, \"1038028\": 90, \"1038032\": 3}","direction_id":"{\"0\": 271}","headsign":"{\"De Akkers\": 93, \"Hoek van Holland Haven\": 50, \"Schiedam Centrum\": 80, \"Steendijkpolder\": 48}","duration_avg":60.0,"n_vehicles":271,"d":472,"route_I_counts":"{\"1\": 80, \"2\": 98, \"3\": 93}","source":9,"target":10,"layer":"L","from":"Rotterdam, Voorschoterlaan","to":"Rotterdam, Gerdesiaweg"},"geometry":{"type":"LineString","coordinates":[[4.512614,51.925141],[4.505867,51.925972]]}},{"type":"Feature","properties":{"duration_avg":135.0,"n_vehicles":265,"d":1565,"route_I_counts":"{\"1\": 80, \"2\": 94, \"3\": 91}","shape_id":"{\"1038012\": 7, \"1038013\": 73, \"1038018\": 43, \"1038019\": 5, \"1038025\": 44, \"1038026\": 2, \"1038029\": 87, \"1038030\": 3, \"1038031\": 1}","direction_id":"{\"1\": 265}","headsign":"{\"Binnenhof\": 79, \"Capelsebrug\": 2, \"De Terp\": 91, \"Nesselande\": 93}","source":9,"target":8,"layer":"L","from":"Rotterdam, Voorschoterlaan","to":"Rotterdam, Kralingse Zoom"},"geometry":{"type":"LineString","coordinates":[[4.512614,51.925141],[4.533398,51.921644]]}},{"type":"Feature","properties":{"shape_id":"{\"1038010\": 77, \"1038011\": 3, \"1038020\": 48, \"1038021\": 2, \"1038023\": 48, \"1038028\": 90, \"1038032\": 3}","direction_id":"{\"0\": 271}","headsign":"{\"De Akkers\": 93, \"Hoek van Holland Haven\": 50, \"Schiedam Centrum\": 80, \"Steendijkpolder\": 48}","duration_avg":75.0,"n_vehicles":271,"d":712,"route_I_counts":"{\"1\": 80, \"2\": 98, \"3\": 93}","source":10,"target":11,"layer":"L","from":"Rotterdam, Gerdesiaweg","to":"Rotterdam, Oostplein"},"geometry":{"type":"LineString","coordinates":[[4.505867,51.925972],[4.496455,51.923267]]}},{"type":"Feature","properties":{"duration_avg":75.0,"n_vehicles":265,"d":472,"route_I_counts":"{\"1\": 80, \"2\": 94, \"3\": 91}","shape_id":"{\"1038012\": 7, \"1038013\": 73, \"1038018\": 43, \"1038019\": 5, \"1038025\": 44, \"1038026\": 2, \"1038029\": 87, \"1038030\": 3, \"1038031\": 1}","direction_id":"{\"1\": 265}","headsign":"{\"Binnenhof\": 79, \"Capelsebrug\": 2, \"De Terp\": 91, \"Nesselande\": 93}","source":10,"target":9,"layer":"L","from":"Rotterdam, Gerdesiaweg","to":"Rotterdam, Voorschoterlaan"},"geometry":{"type":"LineString","coordinates":[[4.505867,51.925972],[4.512614,51.925141]]}},{"type":"Feature","properties":{"shape_id":"{\"1038010\": 77, \"1038011\": 3, \"1038020\": 48, \"1038021\": 2, \"1038023\": 48, \"1038028\": 89, \"1038032\": 3}","direction_id":"{\"0\": 270}","headsign":"{\"De Akkers\": 92, \"Hoek van Holland Haven\": 50, \"Schiedam Centrum\": 80, \"Steendijkpolder\": 48}","duration_avg":90.0,"n_vehicles":270,"d":585,"route_I_counts":"{\"1\": 80, \"2\": 98, \"3\": 92}","source":11,"target":12,"layer":"L","from":"Rotterdam, Oostplein","to":"Rotterdam, Blaak"},"geometry":{"type":"LineString","coordinates":[[4.496455,51.923267],[4.489731,51.920034]]}},{"type":"Feature","properties":{"duration_avg":75.0,"n_vehicles":265,"d":712,"route_I_counts":"{\"1\": 80, \"2\": 94, \"3\": 91}","shape_id":"{\"1038012\": 7, \"1038013\": 73, \"1038018\": 43, \"1038019\": 5, \"1038025\": 44, \"1038026\": 2, \"1038029\": 87, \"1038030\": 3, \"1038031\": 1}","direction_id":"{\"1\": 265}","headsign":"{\"Binnenhof\": 79, \"Capelsebrug\": 2, \"De Terp\": 91, \"Nesselande\": 93}","source":11,"target":10,"layer":"L","from":"Rotterdam, Oostplein","to":"Rotterdam, Gerdesiaweg"},"geometry":{"type":"LineString","coordinates":[[4.496455,51.923267],[4.505867,51.925972]]}},{"type":"Feature","properties":{"shape_id":"{\"1038010\": 77, \"1038011\": 3, \"1038020\": 48, \"1038021\": 2, \"1038023\": 48, \"1038028\": 89, \"1038032\": 3}","direction_id":"{\"0\": 270}","headsign":"{\"De Akkers\": 92, \"Hoek van Holland Haven\": 50, \"Schiedam Centrum\": 80, \"Steendijkpolder\": 48}","duration_avg":90.0,"n_vehicles":270,"d":631,"route_I_counts":"{\"1\": 80, \"2\": 98, \"3\": 92}","source":12,"target":13,"layer":"L","from":"Rotterdam, Blaak","to":"Rotterdam, Beurs"},"geometry":{"type":"LineString","coordinates":[[4.489731,51.920034],[4.480926,51.918393]]}},{"type":"Feature","properties":{"duration_avg":90.0,"n_vehicles":265,"d":585,"route_I_counts":"{\"1\": 80, \"2\": 94, \"3\": 91}","shape_id":"{\"1038012\": 7, \"1038013\": 73, \"1038018\": 43, \"1038019\": 5, \"1038025\": 44, \"1038026\": 2, \"1038029\": 87, \"1038030\": 3, \"1038031\": 1}","direction_id":"{\"1\": 265}","headsign":"{\"Binnenhof\": 79, \"Capelsebrug\": 2, \"De Terp\": 91, \"Nesselande\": 93}","source":12,"target":11,"layer":"L","from":"Rotterdam, Blaak","to":"Rotterdam, Oostplein"},"geometry":{"type":"LineString","coordinates":[[4.489731,51.920034],[4.496455,51.923267]]}},{"type":"Feature","properties":{"shape_id":"{\"1038010\": 77, \"1038011\": 3, \"1038020\": 48, \"1038021\": 2, \"1038023\": 48, \"1038028\": 89, \"1038032\": 3}","direction_id":"{\"0\": 270}","headsign":"{\"De Akkers\": 92, \"Hoek van Holland Haven\": 50, \"Schiedam Centrum\": 80, \"Steendijkpolder\": 48}","duration_avg":90.0,"n_vehicles":270,"d":601,"route_I_counts":"{\"1\": 80, \"2\": 98, \"3\": 92}","source":13,"target":14,"layer":"L","from":"Rotterdam, Beurs","to":"Rotterdam, Eendrachtsplein"},"geometry":{"type":"LineString","coordinates":[[4.480926,51.918393],[4.473141,51.915906]]}},{"type":"Feature","properties":{"duration_avg":90.0,"n_vehicles":220,"d":603,"route_I_counts":"{\"4\": 97, \"5\": 123}","shape_id":"{\"1038038\": 93, \"1038039\": 30, \"1038044\": 9, \"1038046\": 88}","direction_id":"{\"1\": 220}","headsign":"{\"Den Haag Centraal\": 96, \"Leidschenveen\": 1, \"Rotterdam Centraal\": 123}","source":13,"target":52,"layer":"L","from":"Rotterdam, Beurs","to":"Rotterdam, Stadhuis"},"geometry":{"type":"LineString","coordinates":[[4.480926,51.918393],[4.478032,51.923476]]}},{"type":"Feature","properties":{"duration_avg":90.0,"n_vehicles":266,"d":631,"route_I_counts":"{\"1\": 80, \"2\": 94, \"3\": 92}","shape_id":"{\"1038012\": 7, \"1038013\": 73, \"1038018\": 43, \"1038019\": 5, \"1038025\": 44, \"1038026\": 2, \"1038029\": 88, \"1038030\": 3, \"1038031\": 1}","direction_id":"{\"1\": 266}","headsign":"{\"Binnenhof\": 79, \"Capelsebrug\": 2, \"De Terp\": 92, \"Nesselande\": 93}","source":13,"target":12,"layer":"L","from":"Rotterdam, Beurs","to":"Rotterdam, Blaak"},"geometry":{"type":"LineString","coordinates":[[4.480926,51.918393],[4.489731,51.920034]]}},{"type":"Feature","properties":{"duration_avg":75.0,"n_vehicles":214,"d":525,"route_I_counts":"{\"4\": 92, \"5\": 122}","shape_id":"{\"1038037\": 91, \"1038040\": 1, \"1038041\": 30, \"1038045\": 6, \"1038047\": 86}","direction_id":"{\"0\": 214}","headsign":"{\"De Akkers\": 94, \"Slinge\": 120}","source":13,"target":51,"layer":"L","from":"Rotterdam, Beurs","to":"Rotterdam, Leuvehaven"},"geometry":{"type":"LineString","coordinates":[[4.480926,51.918393],[4.481761,51.913699]]}},{"type":"Feature","properties":{"shape_id":"{\"1038010\": 77, \"1038011\": 3, \"1038020\": 48, \"1038021\": 2, \"1038023\": 48, \"1038028\": 89, \"1038032\": 3}","direction_id":"{\"0\": 270}","headsign":"{\"De Akkers\": 92, \"Hoek van Holland Haven\": 50, \"Schiedam Centrum\": 80, \"Steendijkpolder\": 48}","duration_avg":75.0,"n_vehicles":270,"d":603,"route_I_counts":"{\"1\": 80, \"2\": 98, \"3\": 92}","source":14,"target":15,"layer":"L","from":"Rotterdam, Eendrachtsplein","to":"Rotterdam, Dijkzigt"},"geometry":{"type":"LineString","coordinates":[[4.473141,51.915906],[4.466778,51.912171]]}},{"type":"Feature","properties":{"duration_avg":75.0,"n_vehicles":266,"d":601,"route_I_counts":"{\"1\": 80, \"2\": 94, \"3\": 92}","shape_id":"{\"1038012\": 7, \"1038013\": 73, \"1038018\": 43, \"1038019\": 5, \"1038025\": 44, \"1038026\": 2, \"1038029\": 88, \"1038030\": 3, \"1038031\": 1}","direction_id":"{\"1\": 266}","headsign":"{\"Binnenhof\": 79, \"Capelsebrug\": 2, \"De Terp\": 92, \"Nesselande\": 93}","source":14,"target":13,"layer":"L","from":"Rotterdam, Eendrachtsplein","to":"Rotterdam, Beurs"},"geometry":{"type":"LineString","coordinates":[[4.473141,51.915906],[4.480926,51.918393]]}},{"type":"Feature","properties":{"shape_id":"{\"1038010\": 77, \"1038011\": 3, \"1038020\": 48, \"1038021\": 2, \"1038023\": 48, \"1038028\": 89, \"1038032\": 3}","direction_id":"{\"0\": 270}","headsign":"{\"De Akkers\": 92, \"Hoek van Holland Haven\": 50, \"Schiedam Centrum\": 80, \"Steendijkpolder\": 48}","duration_avg":90.0,"n_vehicles":270,"d":651,"route_I_counts":"{\"1\": 80, \"2\": 98, \"3\": 92}","source":15,"target":16,"layer":"L","from":"Rotterdam, Dijkzigt","to":"Rotterdam, Coolhaven"},"geometry":{"type":"LineString","coordinates":[[4.466778,51.912171],[4.458509,51.909301]]}},{"type":"Feature","properties":{"duration_avg":75.0,"n_vehicles":266,"d":603,"route_I_counts":"{\"1\": 80, \"2\": 94, \"3\": 92}","shape_id":"{\"1038012\": 7, \"1038013\": 73, \"1038018\": 43, \"1038019\": 5, \"1038025\": 44, \"1038026\": 2, \"1038029\": 88, \"1038030\": 3, \"1038031\": 1}","direction_id":"{\"1\": 266}","headsign":"{\"Binnenhof\": 79, \"Capelsebrug\": 2, \"De Terp\": 92, \"Nesselande\": 93}","source":15,"target":14,"layer":"L","from":"Rotterdam, Dijkzigt","to":"Rotterdam, Eendrachtsplein"},"geometry":{"type":"LineString","coordinates":[[4.466778,51.912171],[4.473141,51.915906]]}},{"type":"Feature","properties":{"shape_id":"{\"1038010\": 77, \"1038011\": 3, \"1038020\": 48, \"1038021\": 2, \"1038023\": 48, \"1038028\": 89, \"1038032\": 3}","direction_id":"{\"0\": 270}","headsign":"{\"De Akkers\": 92, \"Hoek van Holland Haven\": 50, \"Schiedam Centrum\": 80, \"Steendijkpolder\": 48}","duration_avg":90.0,"n_vehicles":270,"d":879,"route_I_counts":"{\"1\": 80, \"2\": 98, \"3\": 92}","source":16,"target":17,"layer":"L","from":"Rotterdam, Coolhaven","to":"Rotterdam, Delfshaven"},"geometry":{"type":"LineString","coordinates":[[4.458509,51.909301],[4.445762,51.910072]]}},{"type":"Feature","properties":{"duration_avg":75.0,"n_vehicles":266,"d":651,"route_I_counts":"{\"1\": 80, \"2\": 94, \"3\": 92}","shape_id":"{\"1038012\": 7, \"1038013\": 73, \"1038018\": 43, \"1038019\": 5, \"1038025\": 44, \"1038026\": 2, \"1038029\": 88, \"1038030\": 3, \"1038031\": 1}","direction_id":"{\"1\": 266}","headsign":"{\"Binnenhof\": 79, \"Capelsebrug\": 2, \"De Terp\": 92, \"Nesselande\": 93}","source":16,"target":15,"layer":"L","from":"Rotterdam, Coolhaven","to":"Rotterdam, Dijkzigt"},"geometry":{"type":"LineString","coordinates":[[4.458509,51.909301],[4.466778,51.912171]]}},{"type":"Feature","properties":{"shape_id":"{\"1038010\": 77, \"1038011\": 3, \"1038020\": 48, \"1038021\": 2, \"1038023\": 47, \"1038028\": 89, \"1038032\": 3}","direction_id":"{\"0\": 269}","headsign":"{\"De Akkers\": 92, \"Hoek van Holland Haven\": 50, \"Schiedam Centrum\": 80, \"Steendijkpolder\": 47}","duration_avg":90.0,"n_vehicles":269,"d":1006,"route_I_counts":"{\"1\": 80, \"2\": 97, \"3\": 92}","source":17,"target":18,"layer":"L","from":"Rotterdam, Delfshaven","to":"Rotterdam, Marconiplein"},"geometry":{"type":"LineString","coordinates":[[4.445762,51.910072],[4.432258,51.913576]]}},{"type":"Feature","properties":{"duration_avg":90.0,"n_vehicles":266,"d":879,"route_I_counts":"{\"1\": 80, \"2\": 94, \"3\": 92}","shape_id":"{\"1038012\": 7, \"1038013\": 73, \"1038018\": 43, \"1038019\": 5, \"1038025\": 44, \"1038026\": 2, \"1038029\": 88, \"1038030\": 3, \"1038031\": 1}","direction_id":"{\"1\": 266}","headsign":"{\"Binnenhof\": 79, \"Capelsebrug\": 2, \"De Terp\": 92, \"Nesselande\": 93}","source":17,"target":16,"layer":"L","from":"Rotterdam, Delfshaven","to":"Rotterdam, Coolhaven"},"geometry":{"type":"LineString","coordinates":[[4.445762,51.910072],[4.458509,51.909301]]}},{"type":"Feature","properties":{"shape_id":"{\"1038010\": 77, \"1038011\": 3, \"1038020\": 48, \"1038021\": 2, \"1038023\": 47, \"1038028\": 89, \"1038032\": 3}","direction_id":"{\"0\": 269}","headsign":"{\"De Akkers\": 92, \"Hoek van Holland Haven\": 50, \"Schiedam Centrum\": 80, \"Steendijkpolder\": 47}","duration_avg":180.0,"n_vehicles":269,"d":1804,"route_I_counts":"{\"1\": 80, \"2\": 97, \"3\": 92}","source":18,"target":19,"layer":"L","from":"Rotterdam, Marconiplein","to":"Schiedam, Schiedam Centrum"},"geometry":{"type":"LineString","coordinates":[[4.432258,51.913576],[4.409424,51.921595]]}},{"type":"Feature","properties":{"duration_avg":90.0,"n_vehicles":267,"d":1006,"route_I_counts":"{\"1\": 80, \"2\": 95, \"3\": 92}","shape_id":"{\"1038012\": 7, \"1038013\": 73, \"1038018\": 43, \"1038019\": 5, \"1038025\": 45, \"1038026\": 2, \"1038029\": 88, \"1038030\": 3, \"1038031\": 1}","direction_id":"{\"1\": 267}","headsign":"{\"Binnenhof\": 79, \"Capelsebrug\": 2, \"De Terp\": 92, \"Nesselande\": 94}","source":18,"target":17,"layer":"L","from":"Rotterdam, Marconiplein","to":"Rotterdam, Delfshaven"},"geometry":{"type":"LineString","coordinates":[[4.432258,51.913576],[4.445762,51.910072]]}},{"type":"Feature","properties":{"duration_avg":105.0,"n_vehicles":92,"d":1121,"route_I_counts":"{\"3\": 92}","shape_id":"{\"1038028\": 89, \"1038032\": 3}","direction_id":"{\"0\": 92}","headsign":"{\"De Akkers\": 92}","source":19,"target":42,"layer":"L","from":"Schiedam, Schiedam Centrum","to":"Schiedam, Parkweg"},"geometry":{"type":"LineString","coordinates":[[4.409424,51.921595],[4.394355,51.921298]]}},{"type":"Feature","properties":{"duration_avg":165.0,"n_vehicles":267,"d":1803,"route_I_counts":"{\"1\": 80, \"2\": 95, \"3\": 92}","shape_id":"{\"1038012\": 7, \"1038013\": 73, \"1038018\": 43, \"1038019\": 5, \"1038025\": 45, \"1038026\": 2, \"1038029\": 88, \"1038030\": 3, \"1038031\": 1}","direction_id":"{\"1\": 267}","headsign":"{\"Binnenhof\": 79, \"Capelsebrug\": 2, \"Nesselande\": 94, \"De Terp\": 92}","source":19,"target":18,"layer":"L","from":"Schiedam, Schiedam Centrum","to":"Rotterdam, Marconiplein"},"geometry":{"type":"LineString","coordinates":[[4.409424,51.921595],[4.432258,51.913576]]}},{"type":"Feature","properties":{"duration_avg":165.0,"n_vehicles":97,"d":1821,"route_I_counts":"{\"2\": 97}","shape_id":"{\"1038020\": 48, \"1038021\": 2, \"1038023\": 47}","direction_id":"{\"0\": 97}","headsign":"{\"Hoek van Holland Haven\": 50, \"Steendijkpolder\": 47}","source":19,"target":26,"layer":"L","from":"Schiedam, Schiedam Centrum","to":"Schiedam, Schiedam Nieuwland"},"geometry":{"type":"LineString","coordinates":[[4.409424,51.921595],[4.383852,51.922935]]}},{"type":"Feature","properties":{"shape_id":"{\"1038025\": 45, \"1038026\": 2, \"1038018\": 44, \"1038019\": 5}","direction_id":"{\"1\": 96}","headsign":"{\"Nesselande\": 95, \"Capelsebrug\": 1}","duration_avg":105.0,"n_vehicles":96,"d":1026,"route_I_counts":"{\"2\": 96}","source":20,"target":21,"layer":"L","from":"Maassluis, Steendijkpolder","to":"Maassluis, Maassluis West"},"geometry":{"type":"LineString","coordinates":[[4.225035,51.932573],[4.235499,51.925989]]}},{"type":"Feature","properties":{"duration_avg":420.0,"n_vehicles":49,"d":7614,"route_I_counts":"{\"2\": 49}","shape_id":"{\"1038020\": 47, \"1038021\": 2}","direction_id":"{\"0\": 49}","headsign":"{\"Hoek van Holland Haven\": 49}","source":20,"target":32,"layer":"L","from":"Maassluis, Steendijkpolder","to":"Hoek van Holland, Hoek van Holland Haven"},"geometry":{"type":"LineString","coordinates":[[4.225035,51.932573],[4.134129,51.972963]]}},{"type":"Feature","properties":{"shape_id":"{\"1038018\": 44, \"1038019\": 5, \"1038025\": 45, \"1038026\": 2}","direction_id":"{\"1\": 96}","headsign":"{\"Capelsebrug\": 1, \"Nesselande\": 95}","duration_avg":135.0,"n_vehicles":96,"d":1678,"route_I_counts":"{\"2\": 96}","source":21,"target":22,"layer":"L","from":"Maassluis, Maassluis West","to":"Maassluis, Maassluis Centrum"},"geometry":{"type":"LineString","coordinates":[[4.235499,51.925989],[4.254066,51.916182]]}},{"type":"Feature","properties":{"duration_avg":105.0,"n_vehicles":95,"d":948,"route_I_counts":"{\"2\": 95}","shape_id":"{\"1038023\": 46, \"1038020\": 47, \"1038021\": 2}","direction_id":"{\"0\": 95}","headsign":"{\"Steendijkpolder\": 46, \"Hoek van Holland Haven\": 49}","source":21,"target":20,"layer":"L","from":"Maassluis, Maassluis West","to":"Maassluis, Steendijkpolder"},"geometry":{"type":"LineString","coordinates":[[4.235499,51.925989],[4.225035,51.932573]]}},{"type":"Feature","properties":{"shape_id":"{\"1038018\": 43, \"1038019\": 5, \"1038025\": 45, \"1038026\": 2}","direction_id":"{\"1\": 95}","headsign":"{\"Capelsebrug\": 1, \"Nesselande\": 94}","duration_avg":240.0,"n_vehicles":95,"d":4444,"route_I_counts":"{\"2\": 95}","source":22,"target":23,"layer":"L","from":"Maassluis, Maassluis Centrum","to":"Vlaardingen, Vlaardingen West"},"geometry":{"type":"LineString","coordinates":[[4.254066,51.916182],[4.315504,51.903635]]}},{"type":"Feature","properties":{"duration_avg":135.0,"n_vehicles":96,"d":1678,"route_I_counts":"{\"2\": 96}","shape_id":"{\"1038020\": 47, \"1038021\": 2, \"1038023\": 47}","direction_id":"{\"0\": 96}","headsign":"{\"Hoek van Holland Haven\": 49, \"Steendijkpolder\": 47}","source":22,"target":21,"layer":"L","from":"Maassluis, Maassluis Centrum","to":"Maassluis, Maassluis West"},"geometry":{"type":"LineString","coordinates":[[4.254066,51.916182],[4.235499,51.925989]]}},{"type":"Feature","properties":{"shape_id":"{\"1038018\": 43, \"1038019\": 5, \"1038025\": 45, \"1038026\": 2}","direction_id":"{\"1\": 95}","headsign":"{\"Capelsebrug\": 1, \"Nesselande\": 94}","duration_avg":150.0,"n_vehicles":95,"d":1982,"route_I_counts":"{\"2\": 95}","source":23,"target":24,"layer":"L","from":"Vlaardingen, Vlaardingen West","to":"Vlaardingen, Vlaardingen Centrum"},"geometry":{"type":"LineString","coordinates":[[4.315504,51.903635],[4.344361,51.903139]]}},{"type":"Feature","properties":{"duration_avg":225.0,"n_vehicles":96,"d":4436,"route_I_counts":"{\"2\": 96}","shape_id":"{\"1038020\": 47, \"1038021\": 2, \"1038023\": 47}","direction_id":"{\"0\": 96}","headsign":"{\"Hoek van Holland Haven\": 49, \"Steendijkpolder\": 47}","source":23,"target":22,"layer":"L","from":"Vlaardingen, Vlaardingen West","to":"Maassluis, Maassluis Centrum"},"geometry":{"type":"LineString","coordinates":[[4.315504,51.903635],[4.254066,51.916182]]}},{"type":"Feature","properties":{"shape_id":"{\"1038018\": 43, \"1038019\": 5, \"1038025\": 45, \"1038026\": 2}","direction_id":"{\"1\": 95}","headsign":"{\"Capelsebrug\": 1, \"Nesselande\": 94}","duration_avg":120.0,"n_vehicles":95,"d":1491,"route_I_counts":"{\"2\": 95}","source":24,"target":25,"layer":"L","from":"Vlaardingen, Vlaardingen Centrum","to":"Vlaardingen, Vlaardingen Oost"},"geometry":{"type":"LineString","coordinates":[[4.344361,51.903139],[4.362414,51.910588]]}},{"type":"Feature","properties":{"duration_avg":150.0,"n_vehicles":97,"d":1973,"route_I_counts":"{\"2\": 97}","shape_id":"{\"1038020\": 48, \"1038021\": 2, \"1038023\": 47}","direction_id":"{\"0\": 97}","headsign":"{\"Hoek van Holland Haven\": 50, \"Steendijkpolder\": 47}","source":24,"target":23,"layer":"L","from":"Vlaardingen, Vlaardingen Centrum","to":"Vlaardingen, Vlaardingen West"},"geometry":{"type":"LineString","coordinates":[[4.344361,51.903139],[4.315504,51.903635]]}},{"type":"Feature","properties":{"shape_id":"{\"1038018\": 43, \"1038019\": 5, \"1038025\": 45, \"1038026\": 2}","direction_id":"{\"1\": 95}","headsign":"{\"Capelsebrug\": 1, \"Nesselande\": 94}","duration_avg":135.0,"n_vehicles":95,"d":2013,"route_I_counts":"{\"2\": 95}","source":25,"target":26,"layer":"L","from":"Vlaardingen, Vlaardingen Oost","to":"Schiedam, Schiedam Nieuwland"},"geometry":{"type":"LineString","coordinates":[[4.362414,51.910588],[4.383852,51.922935]]}},{"type":"Feature","properties":{"duration_avg":120.0,"n_vehicles":97,"d":1481,"route_I_counts":"{\"2\": 97}","shape_id":"{\"1038020\": 48, \"1038021\": 2, \"1038023\": 47}","direction_id":"{\"0\": 97}","headsign":"{\"Hoek van Holland Haven\": 50, \"Steendijkpolder\": 47}","source":25,"target":24,"layer":"L","from":"Vlaardingen, Vlaardingen Oost","to":"Vlaardingen, Vlaardingen Centrum"},"geometry":{"type":"LineString","coordinates":[[4.362414,51.910588],[4.344361,51.903139]]}},{"type":"Feature","properties":{"duration_avg":150.0,"n_vehicles":95,"d":1756,"route_I_counts":"{\"2\": 95}","shape_id":"{\"1038018\": 43, \"1038019\": 5, \"1038025\": 45, \"1038026\": 2}","direction_id":"{\"1\": 95}","headsign":"{\"Capelsebrug\": 1, \"Nesselande\": 94}","source":26,"target":19,"layer":"L","from":"Schiedam, Schiedam Nieuwland","to":"Schiedam, Schiedam Centrum"},"geometry":{"type":"LineString","coordinates":[[4.383852,51.922935],[4.409424,51.921595]]}},{"type":"Feature","properties":{"duration_avg":135.0,"n_vehicles":97,"d":2017,"route_I_counts":"{\"2\": 97}","shape_id":"{\"1038020\": 48, \"1038021\": 2, \"1038023\": 47}","direction_id":"{\"0\": 97}","headsign":"{\"Hoek van Holland Haven\": 50, \"Steendijkpolder\": 47}","source":26,"target":25,"layer":"L","from":"Schiedam, Schiedam Nieuwland","to":"Vlaardingen, Vlaardingen Oost"},"geometry":{"type":"LineString","coordinates":[[4.383852,51.922935],[4.362414,51.910588]]}},{"type":"Feature","properties":{"shape_id":"{\"1038018\": 45, \"1038019\": 6, \"1038025\": 44, \"1038026\": 2}","direction_id":"{\"1\": 97}","headsign":"{\"Nesselande\": 97}","duration_avg":90.0,"n_vehicles":97,"d":592,"route_I_counts":"{\"2\": 97}","source":27,"target":28,"layer":"L","from":"Rotterdam, Hesseplaats","to":"Rotterdam, Nieuw Verlaat"},"geometry":{"type":"LineString","coordinates":[[4.553791,51.963309],[4.562042,51.964887]]}},{"type":"Feature","properties":{"duration_avg":120.0,"n_vehicles":92,"d":714,"route_I_counts":"{\"2\": 92}","shape_id":"{\"1038020\": 45, \"1038021\": 2, \"1038023\": 45}","direction_id":"{\"0\": 92}","headsign":"{\"Hoek van Holland Haven\": 47, \"Steendijkpolder\": 45}","source":27,"target":2,"layer":"L","from":"Rotterdam, Hesseplaats","to":"Rotterdam, Graskruid"},"geometry":{"type":"LineString","coordinates":[[4.553791,51.963309],[4.549457,51.956951]]}},{"type":"Feature","properties":{"shape_id":"{\"1038018\": 45, \"1038019\": 6, \"1038025\": 44, \"1038026\": 2}","direction_id":"{\"1\": 97}","headsign":"{\"Nesselande\": 97}","duration_avg":90.0,"n_vehicles":97,"d":603,"route_I_counts":"{\"2\": 97}","source":28,"target":29,"layer":"L","from":"Rotterdam, Nieuw Verlaat","to":"Rotterdam, Ambachtsland"},"geometry":{"type":"LineString","coordinates":[[4.562042,51.964887],[4.570712,51.96581]]}},{"type":"Feature","properties":{"duration_avg":75.0,"n_vehicles":92,"d":596,"route_I_counts":"{\"2\": 92}","shape_id":"{\"1038020\": 45, \"1038021\": 2, \"1038023\": 45}","direction_id":"{\"0\": 92}","headsign":"{\"Hoek van Holland Haven\": 47, \"Steendijkpolder\": 45}","source":28,"target":27,"layer":"L","from":"Rotterdam, Nieuw Verlaat","to":"Rotterdam, Hesseplaats"},"geometry":{"type":"LineString","coordinates":[[4.562042,51.964887],[4.553791,51.963309]]}},{"type":"Feature","properties":{"shape_id":"{\"1038018\": 45, \"1038019\": 6, \"1038025\": 43, \"1038026\": 2}","direction_id":"{\"1\": 96}","headsign":"{\"Nesselande\": 96}","duration_avg":90.0,"n_vehicles":96,"d":691,"route_I_counts":"{\"2\": 96}","source":29,"target":30,"layer":"L","from":"Rotterdam, Ambachtsland","to":"Rotterdam, De Tochten"},"geometry":{"type":"LineString","coordinates":[[4.570712,51.96581],[4.579223,51.969141]]}},{"type":"Feature","properties":{"duration_avg":90.0,"n_vehicles":92,"d":605,"route_I_counts":"{\"2\": 92}","shape_id":"{\"1038020\": 45, \"1038021\": 2, \"1038023\": 45}","direction_id":"{\"0\": 92}","headsign":"{\"Hoek van Holland Haven\": 47, \"Steendijkpolder\": 45}","source":29,"target":28,"layer":"L","from":"Rotterdam, Ambachtsland","to":"Rotterdam, Nieuw Verlaat"},"geometry":{"type":"LineString","coordinates":[[4.570712,51.96581],[4.562042,51.964887]]}},{"type":"Feature","properties":{"shape_id":"{\"1038018\": 45, \"1038025\": 43, \"1038019\": 6, \"1038026\": 2}","direction_id":"{\"1\": 96}","headsign":"{\"Nesselande\": 96}","duration_avg":135.0,"n_vehicles":96,"d":1227,"route_I_counts":"{\"2\": 96}","source":30,"target":31,"layer":"L","from":"Rotterdam, De Tochten","to":"Rotterdam, Nesselande"},"geometry":{"type":"LineString","coordinates":[[4.579223,51.969141],[4.586348,51.979257]]}},{"type":"Feature","properties":{"duration_avg":90.0,"n_vehicles":93,"d":680,"route_I_counts":"{\"2\": 93}","shape_id":"{\"1038020\": 45, \"1038021\": 2, \"1038023\": 46}","direction_id":"{\"0\": 93}","headsign":"{\"Hoek van Holland Haven\": 47, \"Steendijkpolder\": 46}","source":30,"target":29,"layer":"L","from":"Rotterdam, De Tochten","to":"Rotterdam, Ambachtsland"},"geometry":{"type":"LineString","coordinates":[[4.579223,51.969141],[4.570712,51.96581]]}},{"type":"Feature","properties":{"duration_avg":120.0,"n_vehicles":93,"d":1301,"route_I_counts":"{\"2\": 93}","shape_id":"{\"1038020\": 45, \"1038023\": 46, \"1038021\": 2}","direction_id":"{\"0\": 93}","headsign":"{\"Hoek van Holland Haven\": 47, \"Steendijkpolder\": 46}","source":31,"target":30,"layer":"L","from":"Rotterdam, Nesselande","to":"Rotterdam, De Tochten"},"geometry":{"type":"LineString","coordinates":[[4.586348,51.979257],[4.579223,51.969141]]}},{"type":"Feature","properties":{"duration_avg":405.0,"n_vehicles":49,"d":7686,"route_I_counts":"{\"2\": 49}","shape_id":"{\"1038018\": 44, \"1038019\": 5}","direction_id":"{\"1\": 49}","headsign":"{\"Capelsebrug\": 1, \"Nesselande\": 48}","source":32,"target":20,"layer":"L","from":"Hoek van Holland, Hoek van Holland Haven","to":"Maassluis, Steendijkpolder"},"geometry":{"type":"LineString","coordinates":[[4.134129,51.972963],[4.225035,51.932573]]}},{"type":"Feature","properties":{"shape_id":"{\"1038029\": 90, \"1038030\": 3, \"1038031\": 1, \"1038038\": 92, \"1038039\": 1}","direction_id":"{\"1\": 187}","headsign":"{\"De Terp\": 94, \"Rotterdam Centraal\": 93}","duration_avg":112.57978723404256,"n_vehicles":187,"d":954,"route_I_counts":"{\"3\": 94, \"5\": 93}","source":33,"target":34,"layer":"L","from":"Spijkenisse, De Akkers","to":"Spijkenisse, Heemraadlaan"},"geometry":{"type":"LineString","coordinates":[[4.320151,51.83332],[4.331601,51.83817]]}},{"type":"Feature","properties":{"shape_id":"{\"1038029\": 89, \"1038030\": 3, \"1038031\": 1, \"1038038\": 92, \"1038039\": 1}","direction_id":"{\"1\": 186}","headsign":"{\"De Terp\": 93, \"Rotterdam Centraal\": 93}","duration_avg":90.0,"n_vehicles":186,"d":974,"route_I_counts":"{\"3\": 93, \"5\": 93}","source":34,"target":35,"layer":"L","from":"Spijkenisse, Heemraadlaan","to":"Spijkenisse, Spijkenisse Centrum"},"geometry":{"type":"LineString","coordinates":[[4.331601,51.83817],[4.334666,51.846719]]}},{"type":"Feature","properties":{"duration_avg":112.58241758241758,"n_vehicles":182,"d":911,"route_I_counts":"{\"3\": 90, \"5\": 92}","shape_id":"{\"1038028\": 87, \"1038032\": 3, \"1038040\": 1, \"1038037\": 64, \"1038041\": 27}","direction_id":"{\"0\": 182}","headsign":"{\"De Akkers\": 182}","source":34,"target":33,"layer":"L","from":"Spijkenisse, Heemraadlaan","to":"Spijkenisse, De Akkers"},"geometry":{"type":"LineString","coordinates":[[4.331601,51.83817],[4.320151,51.83332]]}},{"type":"Feature","properties":{"shape_id":"{\"1038029\": 89, \"1038030\": 3, \"1038031\": 1, \"1038038\": 92, \"1038039\": 1}","direction_id":"{\"1\": 186}","headsign":"{\"De Terp\": 93, \"Rotterdam Centraal\": 93}","duration_avg":165.0,"n_vehicles":186,"d":2164,"route_I_counts":"{\"3\": 93, \"5\": 93}","source":35,"target":36,"layer":"L","from":"Spijkenisse, Spijkenisse Centrum","to":"Hoogvliet Rotterdam, Zalmplaat"},"geometry":{"type":"LineString","coordinates":[[4.334666,51.846719],[4.362873,51.855346]]}},{"type":"Feature","properties":{"duration_avg":105.0,"n_vehicles":183,"d":1068,"route_I_counts":"{\"3\": 90, \"5\": 93}","shape_id":"{\"1038028\": 87, \"1038032\": 3, \"1038037\": 65, \"1038040\": 1, \"1038041\": 27}","direction_id":"{\"0\": 183}","headsign":"{\"De Akkers\": 183}","source":35,"target":34,"layer":"L","from":"Spijkenisse, Spijkenisse Centrum","to":"Spijkenisse, Heemraadlaan"},"geometry":{"type":"LineString","coordinates":[[4.334666,51.846719],[4.331601,51.83817]]}},{"type":"Feature","properties":{"shape_id":"{\"1038029\": 89, \"1038030\": 3, \"1038031\": 1, \"1038038\": 92, \"1038039\": 1}","direction_id":"{\"1\": 186}","headsign":"{\"De Terp\": 93, \"Rotterdam Centraal\": 93}","duration_avg":75.0,"n_vehicles":186,"d":695,"route_I_counts":"{\"3\": 93, \"5\": 93}","source":36,"target":37,"layer":"L","from":"Hoogvliet Rotterdam, Zalmplaat","to":"Hoogvliet Rotterdam, Hoogvliet"},"geometry":{"type":"LineString","coordinates":[[4.362873,51.855346],[4.367128,51.861019]]}},{"type":"Feature","properties":{"duration_avg":165.0,"n_vehicles":184,"d":2091,"route_I_counts":"{\"3\": 91, \"5\": 93}","shape_id":"{\"1038028\": 88, \"1038032\": 3, \"1038037\": 65, \"1038040\": 1, \"1038041\": 27}","direction_id":"{\"0\": 184}","headsign":"{\"De Akkers\": 184}","source":36,"target":35,"layer":"L","from":"Hoogvliet Rotterdam, Zalmplaat","to":"Spijkenisse, Spijkenisse Centrum"},"geometry":{"type":"LineString","coordinates":[[4.362873,51.855346],[4.334666,51.846719]]}},{"type":"Feature","properties":{"shape_id":"{\"1038029\": 89, \"1038030\": 3, \"1038031\": 1, \"1038038\": 91, \"1038039\": 1}","direction_id":"{\"1\": 185}","headsign":"{\"De Terp\": 93, \"Rotterdam Centraal\": 92}","duration_avg":112.5,"n_vehicles":185,"d":715,"route_I_counts":"{\"3\": 93, \"5\": 92}","source":37,"target":38,"layer":"L","from":"Hoogvliet Rotterdam, Hoogvliet","to":"Hoogvliet Rotterdam, Tussenwater"},"geometry":{"type":"LineString","coordinates":[[4.367128,51.861019],[4.377304,51.862357]]}},{"type":"Feature","properties":{"duration_avg":75.0,"n_vehicles":184,"d":677,"route_I_counts":"{\"3\": 91, \"5\": 93}","shape_id":"{\"1038028\": 88, \"1038032\": 3, \"1038037\": 65, \"1038040\": 1, \"1038041\": 27}","direction_id":"{\"0\": 184}","headsign":"{\"De Akkers\": 184}","source":37,"target":36,"layer":"L","from":"Hoogvliet Rotterdam, Hoogvliet","to":"Hoogvliet Rotterdam, Zalmplaat"},"geometry":{"type":"LineString","coordinates":[[4.367128,51.861019],[4.362873,51.855346]]}},{"type":"Feature","properties":{"shape_id":"{\"1038029\": 89, \"1038030\": 3, \"1038031\": 1}","direction_id":"{\"1\": 93}","headsign":"{\"De Terp\": 93}","duration_avg":195.0,"n_vehicles":93,"d":2558,"route_I_counts":"{\"3\": 93}","source":38,"target":39,"layer":"L","from":"Hoogvliet Rotterdam, Tussenwater","to":"Pernis Rotterdam, Pernis"},"geometry":{"type":"LineString","coordinates":[[4.377304,51.862357],[4.381731,51.885173]]}},{"type":"Feature","properties":{"duration_avg":90.0,"n_vehicles":184,"d":728,"route_I_counts":"{\"3\": 91, \"5\": 93}","shape_id":"{\"1038028\": 88, \"1038032\": 3, \"1038037\": 65, \"1038040\": 1, \"1038041\": 27}","direction_id":"{\"0\": 184}","headsign":"{\"De Akkers\": 184}","source":38,"target":37,"layer":"L","from":"Hoogvliet Rotterdam, Tussenwater","to":"Hoogvliet Rotterdam, Hoogvliet"},"geometry":{"type":"LineString","coordinates":[[4.377304,51.862357],[4.367128,51.861019]]}},{"type":"Feature","properties":{"duration_avg":120.0,"n_vehicles":92,"d":1303,"route_I_counts":"{\"5\": 92}","shape_id":"{\"1038038\": 91, \"1038039\": 1}","direction_id":"{\"1\": 92}","headsign":"{\"Rotterdam Centraal\": 92}","source":38,"target":68,"layer":"L","from":"Hoogvliet Rotterdam, Tussenwater","to":"Poortugaal, Poortugaal"},"geometry":{"type":"LineString","coordinates":[[4.377304,51.862357],[4.396252,51.861628]]}},{"type":"Feature","properties":{"shape_id":"{\"1038029\": 89, \"1038030\": 3, \"1038031\": 1}","direction_id":"{\"1\": 93}","headsign":"{\"De Terp\": 93}","duration_avg":180.0,"n_vehicles":93,"d":2766,"route_I_counts":"{\"3\": 93}","source":39,"target":40,"layer":"L","from":"Pernis Rotterdam, Pernis","to":"Schiedam, Vijfsluizen"},"geometry":{"type":"LineString","coordinates":[[4.381731,51.885173],[4.372224,51.909325]]}},{"type":"Feature","properties":{"duration_avg":210.0,"n_vehicles":91,"d":2430,"route_I_counts":"{\"3\": 91}","shape_id":"{\"1038028\": 88, \"1038032\": 3}","direction_id":"{\"0\": 91}","headsign":"{\"De Akkers\": 91}","source":39,"target":38,"layer":"L","from":"Pernis Rotterdam, Pernis","to":"Hoogvliet Rotterdam, Tussenwater"},"geometry":{"type":"LineString","coordinates":[[4.381731,51.885173],[4.377304,51.862357]]}},{"type":"Feature","properties":{"shape_id":"{\"1038029\": 89, \"1038030\": 3, \"1038031\": 1}","direction_id":"{\"1\": 93}","headsign":"{\"De Terp\": 93}","duration_avg":105.0,"n_vehicles":93,"d":1134,"route_I_counts":"{\"3\": 93}","source":40,"target":41,"layer":"L","from":"Schiedam, Vijfsluizen","to":"Schiedam, Troelstralaan"},"geometry":{"type":"LineString","coordinates":[[4.372224,51.909325],[4.385044,51.915754]]}},{"type":"Feature","properties":{"duration_avg":180.0,"n_vehicles":91,"d":2778,"route_I_counts":"{\"3\": 91}","shape_id":"{\"1038028\": 88, \"1038032\": 3}","direction_id":"{\"0\": 91}","headsign":"{\"De Akkers\": 91}","source":40,"target":39,"layer":"L","from":"Schiedam, Vijfsluizen","to":"Pernis Rotterdam, Pernis"},"geometry":{"type":"LineString","coordinates":[[4.372224,51.909325],[4.381731,51.885173]]}},{"type":"Feature","properties":{"shape_id":"{\"1038029\": 88, \"1038030\": 3, \"1038031\": 1}","direction_id":"{\"1\": 92}","headsign":"{\"De Terp\": 92}","duration_avg":90.0,"n_vehicles":92,"d":888,"route_I_counts":"{\"3\": 92}","source":41,"target":42,"layer":"L","from":"Schiedam, Troelstralaan","to":"Schiedam, Parkweg"},"geometry":{"type":"LineString","coordinates":[[4.385044,51.915754],[4.394355,51.921298]]}},{"type":"Feature","properties":{"duration_avg":120.0,"n_vehicles":91,"d":1120,"route_I_counts":"{\"3\": 91}","shape_id":"{\"1038028\": 88, \"1038032\": 3}","direction_id":"{\"0\": 91}","headsign":"{\"De Akkers\": 91}","source":41,"target":40,"layer":"L","from":"Schiedam, Troelstralaan","to":"Schiedam, Vijfsluizen"},"geometry":{"type":"LineString","coordinates":[[4.385044,51.915754],[4.372224,51.909325]]}},{"type":"Feature","properties":{"duration_avg":135.0,"n_vehicles":92,"d":1032,"route_I_counts":"{\"3\": 92}","shape_id":"{\"1038029\": 88, \"1038030\": 3, \"1038031\": 1}","direction_id":"{\"1\": 92}","headsign":"{\"De Terp\": 92}","source":42,"target":19,"layer":"L","from":"Schiedam, Parkweg","to":"Schiedam, Schiedam Centrum"},"geometry":{"type":"LineString","coordinates":[[4.394355,51.921298],[4.409424,51.921595]]}},{"type":"Feature","properties":{"duration_avg":90.0,"n_vehicles":91,"d":902,"route_I_counts":"{\"3\": 91}","shape_id":"{\"1038028\": 88, \"1038032\": 3}","direction_id":"{\"0\": 91}","headsign":"{\"De Akkers\": 91}","source":42,"target":41,"layer":"L","from":"Schiedam, Parkweg","to":"Schiedam, Troelstralaan"},"geometry":{"type":"LineString","coordinates":[[4.394355,51.921298],[4.385044,51.915754]]}},{"type":"Feature","properties":{"shape_id":"{\"1038029\": 91, \"1038030\": 3, \"1038031\": 1, \"1038036\": 1}","direction_id":"{\"1\": 96}","headsign":"{\"De Terp\": 96}","duration_avg":90.0,"n_vehicles":96,"d":835,"route_I_counts":"{\"3\": 96}","source":43,"target":44,"layer":"L","from":"Capelle ad IJssel, Slotlaan","to":"Capelle ad IJssel, Capelle Centrum"},"geometry":{"type":"LineString","coordinates":[[4.579008,51.928556],[4.590164,51.931562]]}},{"type":"Feature","properties":{"duration_avg":150.0,"n_vehicles":93,"d":1630,"route_I_counts":"{\"3\": 93}","shape_id":"{\"1038028\": 90, \"1038032\": 3}","direction_id":"{\"0\": 93}","headsign":"{\"De Akkers\": 93}","source":43,"target":7,"layer":"L","from":"Capelle ad IJssel, Slotlaan","to":"Rotterdam, Capelsebrug"},"geometry":{"type":"LineString","coordinates":[[4.579008,51.928556],[4.557133,51.921104]]}},{"type":"Feature","properties":{"shape_id":"{\"1038029\": 90, \"1038031\": 1, \"1038036\": 1, \"1038030\": 3}","direction_id":"{\"1\": 95}","headsign":"{\"De Terp\": 95}","duration_avg":105.0,"n_vehicles":95,"d":785,"route_I_counts":"{\"3\": 95}","source":44,"target":45,"layer":"L","from":"Capelle ad IJssel, Capelle Centrum","to":"Capelle ad IJssel, De Terp"},"geometry":{"type":"LineString","coordinates":[[4.590164,51.931562],[4.599515,51.935625]]}},{"type":"Feature","properties":{"duration_avg":90.0,"n_vehicles":93,"d":837,"route_I_counts":"{\"3\": 93}","shape_id":"{\"1038028\": 90, \"1038032\": 3}","direction_id":"{\"0\": 93}","headsign":"{\"De Akkers\": 93}","source":44,"target":43,"layer":"L","from":"Capelle ad IJssel, Capelle Centrum","to":"Capelle ad IJssel, Slotlaan"},"geometry":{"type":"LineString","coordinates":[[4.590164,51.931562],[4.579008,51.928556]]}},{"type":"Feature","properties":{"duration_avg":90.0,"n_vehicles":93,"d":869,"route_I_counts":"{\"3\": 93}","shape_id":"{\"1038028\": 90, \"1038032\": 3}","direction_id":"{\"0\": 93}","headsign":"{\"De Akkers\": 93}","source":45,"target":44,"layer":"L","from":"Capelle ad IJssel, De Terp","to":"Capelle ad IJssel, Capelle Centrum"},"geometry":{"type":"LineString","coordinates":[[4.599515,51.935625],[4.590164,51.931562]]}},{"type":"Feature","properties":{"shape_id":"{\"1038046\": 88, \"1038038\": 94, \"1038039\": 30, \"1038044\": 9}","direction_id":"{\"1\": 221}","headsign":"{\"Den Haag Centraal\": 96, \"Leidschenveen\": 1, \"Rotterdam Centraal\": 124}","duration_avg":141.99248120300751,"n_vehicles":221,"d":1550,"route_I_counts":"{\"4\": 97, \"5\": 124}","source":46,"target":47,"layer":"L","from":"Rotterdam, Slinge","to":"Rotterdam, Zuidplein"},"geometry":{"type":"LineString","coordinates":[[4.477951,51.875017],[4.488597,51.887297]]}},{"type":"Feature","properties":{"duration_avg":315.0,"n_vehicles":93,"d":4418,"route_I_counts":"{\"5\": 93}","shape_id":"{\"1038037\": 65, \"1038040\": 1, \"1038041\": 27}","direction_id":"{\"0\": 93}","headsign":"{\"De Akkers\": 93}","source":46,"target":69,"layer":"L","from":"Rotterdam, Slinge","to":"Rhoon, Rhoon"},"geometry":{"type":"LineString","coordinates":[[4.477951,51.875017],[4.419593,51.859126]]}},{"type":"Feature","properties":{"shape_id":"{\"1038038\": 94, \"1038039\": 30, \"1038044\": 9, \"1038046\": 88}","direction_id":"{\"1\": 221}","headsign":"{\"Den Haag Centraal\": 96, \"Leidschenveen\": 1, \"Rotterdam Centraal\": 124}","duration_avg":135.0,"n_vehicles":221,"d":1217,"route_I_counts":"{\"4\": 97, \"5\": 124}","source":47,"target":48,"layer":"L","from":"Rotterdam, Zuidplein","to":"Rotterdam, Maashaven"},"geometry":{"type":"LineString","coordinates":[[4.488597,51.887297],[4.494961,51.897503]]}},{"type":"Feature","properties":{"duration_avg":135.0,"n_vehicles":212,"d":1463,"route_I_counts":"{\"4\": 91, \"5\": 121}","shape_id":"{\"1038047\": 85, \"1038037\": 90, \"1038040\": 1, \"1038041\": 30, \"1038045\": 6}","direction_id":"{\"0\": 212}","headsign":"{\"Slinge\": 119, \"De Akkers\": 93}","source":47,"target":46,"layer":"L","from":"Rotterdam, Zuidplein","to":"Rotterdam, Slinge"},"geometry":{"type":"LineString","coordinates":[[4.488597,51.887297],[4.477951,51.875017]]}},{"type":"Feature","properties":{"shape_id":"{\"1038038\": 93, \"1038039\": 30, \"1038044\": 9, \"1038046\": 88}","direction_id":"{\"1\": 220}","headsign":"{\"Den Haag Centraal\": 96, \"Leidschenveen\": 1, \"Rotterdam Centraal\": 123}","duration_avg":90.0,"n_vehicles":220,"d":745,"route_I_counts":"{\"4\": 97, \"5\": 123}","source":48,"target":49,"layer":"L","from":"Rotterdam, Maashaven","to":"Rotterdam, Rijnhaven"},"geometry":{"type":"LineString","coordinates":[[4.494961,51.897503],[4.496966,51.904089]]}},{"type":"Feature","properties":{"duration_avg":135.0,"n_vehicles":213,"d":1221,"route_I_counts":"{\"4\": 92, \"5\": 121}","shape_id":"{\"1038037\": 90, \"1038040\": 1, \"1038041\": 30, \"1038045\": 6, \"1038047\": 86}","direction_id":"{\"0\": 213}","headsign":"{\"De Akkers\": 93, \"Slinge\": 120}","source":48,"target":47,"layer":"L","from":"Rotterdam, Maashaven","to":"Rotterdam, Zuidplein"},"geometry":{"type":"LineString","coordinates":[[4.494961,51.897503],[4.488597,51.887297]]}},{"type":"Feature","properties":{"shape_id":"{\"1038038\": 93, \"1038039\": 30, \"1038044\": 9, \"1038046\": 88}","direction_id":"{\"1\": 220}","headsign":"{\"Den Haag Centraal\": 96, \"Leidschenveen\": 1, \"Rotterdam Centraal\": 123}","duration_avg":75.0,"n_vehicles":220,"d":509,"route_I_counts":"{\"4\": 97, \"5\": 123}","source":49,"target":50,"layer":"L","from":"Rotterdam, Rijnhaven","to":"Rotterdam, Wilhelminaplein"},"geometry":{"type":"LineString","coordinates":[[4.496966,51.904089],[4.492519,51.907749]]}},{"type":"Feature","properties":{"duration_avg":90.0,"n_vehicles":213,"d":736,"route_I_counts":"{\"4\": 92, \"5\": 121}","shape_id":"{\"1038037\": 90, \"1038040\": 1, \"1038041\": 30, \"1038045\": 6, \"1038047\": 86}","direction_id":"{\"0\": 213}","headsign":"{\"De Akkers\": 93, \"Slinge\": 120}","source":49,"target":48,"layer":"L","from":"Rotterdam, Rijnhaven","to":"Rotterdam, Maashaven"},"geometry":{"type":"LineString","coordinates":[[4.496966,51.904089],[4.494961,51.897503]]}},{"type":"Feature","properties":{"shape_id":"{\"1038038\": 93, \"1038039\": 30, \"1038044\": 9, \"1038046\": 88}","direction_id":"{\"1\": 220}","headsign":"{\"Den Haag Centraal\": 96, \"Leidschenveen\": 1, \"Rotterdam Centraal\": 123}","duration_avg":120.0,"n_vehicles":220,"d":992,"route_I_counts":"{\"4\": 97, \"5\": 123}","source":50,"target":51,"layer":"L","from":"Rotterdam, Wilhelminaplein","to":"Rotterdam, Leuvehaven"},"geometry":{"type":"LineString","coordinates":[[4.492519,51.907749],[4.481761,51.913699]]}},{"type":"Feature","properties":{"duration_avg":90.0,"n_vehicles":214,"d":497,"route_I_counts":"{\"4\": 92, \"5\": 122}","shape_id":"{\"1038037\": 91, \"1038040\": 1, \"1038041\": 30, \"1038045\": 6, \"1038047\": 86}","direction_id":"{\"0\": 214}","headsign":"{\"De Akkers\": 94, \"Slinge\": 120}","source":50,"target":49,"layer":"L","from":"Rotterdam, Wilhelminaplein","to":"Rotterdam, Rijnhaven"},"geometry":{"type":"LineString","coordinates":[[4.492519,51.907749],[4.496966,51.904089]]}},{"type":"Feature","properties":{"duration_avg":75.0,"n_vehicles":220,"d":525,"route_I_counts":"{\"4\": 97, \"5\": 123}","shape_id":"{\"1038038\": 93, \"1038039\": 30, \"1038044\": 9, \"1038046\": 88}","direction_id":"{\"1\": 220}","headsign":"{\"Den Haag Centraal\": 96, \"Leidschenveen\": 1, \"Rotterdam Centraal\": 123}","source":51,"target":13,"layer":"L","from":"Rotterdam, Leuvehaven","to":"Rotterdam, Beurs"},"geometry":{"type":"LineString","coordinates":[[4.481761,51.913699],[4.480926,51.918393]]}},{"type":"Feature","properties":{"duration_avg":120.0,"n_vehicles":214,"d":1078,"route_I_counts":"{\"4\": 92, \"5\": 122}","shape_id":"{\"1038037\": 91, \"1038040\": 1, \"1038041\": 30, \"1038045\": 6, \"1038047\": 86}","direction_id":"{\"0\": 214}","headsign":"{\"De Akkers\": 94, \"Slinge\": 120}","source":51,"target":50,"layer":"L","from":"Rotterdam, Leuvehaven","to":"Rotterdam, Wilhelminaplein"},"geometry":{"type":"LineString","coordinates":[[4.481761,51.913699],[4.492519,51.907749]]}},{"type":"Feature","properties":{"shape_id":"{\"1038044\": 9, \"1038046\": 87, \"1038039\": 30, \"1038038\": 92}","direction_id":"{\"1\": 218}","headsign":"{\"Den Haag Centraal\": 95, \"Leidschenveen\": 1, \"Rotterdam Centraal\": 122}","duration_avg":120.0,"n_vehicles":218,"d":554,"route_I_counts":"{\"4\": 96, \"5\": 122}","source":52,"target":53,"layer":"L","from":"Rotterdam, Stadhuis","to":"Rotterdam, Rotterdam Centraal"},"geometry":{"type":"LineString","coordinates":[[4.478032,51.923476],[4.469997,51.923953]]}},{"type":"Feature","properties":{"duration_avg":75.0,"n_vehicles":214,"d":603,"route_I_counts":"{\"4\": 92, \"5\": 122}","shape_id":"{\"1038037\": 91, \"1038040\": 1, \"1038041\": 30, \"1038045\": 6, \"1038047\": 86}","direction_id":"{\"0\": 214}","headsign":"{\"De Akkers\": 94, \"Slinge\": 120}","source":52,"target":13,"layer":"L","from":"Rotterdam, Stadhuis","to":"Rotterdam, Beurs"},"geometry":{"type":"LineString","coordinates":[[4.478032,51.923476],[4.480926,51.918393]]}},{"type":"Feature","properties":{"shape_id":"{\"1038044\": 9, \"1038046\": 87}","direction_id":"{\"1\": 96}","headsign":"{\"Den Haag Centraal\": 95, \"Leidschenveen\": 1}","duration_avg":120.0,"n_vehicles":96,"d":1130,"route_I_counts":"{\"4\": 96}","source":53,"target":54,"layer":"L","from":"Rotterdam, Rotterdam Centraal","to":"Rotterdam, Blijdorp"},"geometry":{"type":"LineString","coordinates":[[4.469997,51.923953],[4.457847,51.930806]]}},{"type":"Feature","properties":{"duration_avg":92.70491803278688,"n_vehicles":214,"d":554,"route_I_counts":"{\"4\": 92, \"5\": 122}","shape_id":"{\"1038041\": 30, \"1038045\": 6, \"1038047\": 86, \"1038037\": 91, \"1038040\": 1}","direction_id":"{\"0\": 214}","headsign":"{\"De Akkers\": 94, \"Slinge\": 120}","source":53,"target":52,"layer":"L","from":"Rotterdam, Rotterdam Centraal","to":"Rotterdam, Stadhuis"},"geometry":{"type":"LineString","coordinates":[[4.469997,51.923953],[4.478032,51.923476]]}},{"type":"Feature","properties":{"shape_id":"{\"1038044\": 9, \"1038046\": 87}","direction_id":"{\"1\": 96}","headsign":"{\"Den Haag Centraal\": 95, \"Leidschenveen\": 1}","duration_avg":180.0,"n_vehicles":96,"d":2053,"route_I_counts":"{\"4\": 96}","source":54,"target":55,"layer":"L","from":"Rotterdam, Blijdorp","to":"Rotterdam, Melanchthonweg"},"geometry":{"type":"LineString","coordinates":[[4.457847,51.930806],[4.464413,51.948799]]}},{"type":"Feature","properties":{"duration_avg":135.0,"n_vehicles":93,"d":1130,"route_I_counts":"{\"4\": 93}","shape_id":"{\"1038045\": 6, \"1038047\": 87}","direction_id":"{\"0\": 93}","headsign":"{\"Slinge\": 93}","source":54,"target":53,"layer":"L","from":"Rotterdam, Blijdorp","to":"Rotterdam, Rotterdam Centraal"},"geometry":{"type":"LineString","coordinates":[[4.457847,51.930806],[4.469997,51.923953]]}},{"type":"Feature","properties":{"shape_id":"{\"1038044\": 9, \"1038046\": 87}","direction_id":"{\"1\": 96}","headsign":"{\"Den Haag Centraal\": 95, \"Leidschenveen\": 1}","duration_avg":90.0,"n_vehicles":96,"d":856,"route_I_counts":"{\"4\": 96}","source":55,"target":56,"layer":"L","from":"Rotterdam, Melanchthonweg","to":"Rotterdam, Meijersplein / Airport"},"geometry":{"type":"LineString","coordinates":[[4.464413,51.948799],[4.462264,51.956378]]}},{"type":"Feature","properties":{"duration_avg":172.25806451612902,"n_vehicles":93,"d":1991,"route_I_counts":"{\"4\": 93}","shape_id":"{\"1038045\": 6, \"1038047\": 87}","direction_id":"{\"0\": 93}","headsign":"{\"Slinge\": 93}","source":55,"target":54,"layer":"L","from":"Rotterdam, Melanchthonweg","to":"Rotterdam, Blijdorp"},"geometry":{"type":"LineString","coordinates":[[4.464413,51.948799],[4.457847,51.930806]]}},{"type":"Feature","properties":{"shape_id":"{\"1038044\": 9, \"1038046\": 87}","direction_id":"{\"1\": 96}","headsign":"{\"Den Haag Centraal\": 95, \"Leidschenveen\": 1}","duration_avg":135.0,"n_vehicles":96,"d":2142,"route_I_counts":"{\"4\": 96}","source":56,"target":57,"layer":"L","from":"Rotterdam, Meijersplein / Airport","to":"Berkel en Rodenrijs, Rodenrijs"},"geometry":{"type":"LineString","coordinates":[[4.462264,51.956378],[4.460791,51.975602]]}},{"type":"Feature","properties":{"duration_avg":90.0,"n_vehicles":93,"d":853,"route_I_counts":"{\"4\": 93}","shape_id":"{\"1038045\": 6, \"1038047\": 87}","direction_id":"{\"0\": 93}","headsign":"{\"Slinge\": 93}","source":56,"target":55,"layer":"L","from":"Rotterdam, Meijersplein / Airport","to":"Rotterdam, Melanchthonweg"},"geometry":{"type":"LineString","coordinates":[[4.462264,51.956378],[4.464413,51.948799]]}},{"type":"Feature","properties":{"shape_id":"{\"1038044\": 9, \"1038046\": 87}","direction_id":"{\"1\": 96}","headsign":"{\"Den Haag Centraal\": 95, \"Leidschenveen\": 1}","duration_avg":124.6875,"n_vehicles":96,"d":1727,"route_I_counts":"{\"4\": 96}","source":57,"target":58,"layer":"L","from":"Berkel en Rodenrijs, Rodenrijs","to":"Berkel en Rodenrijs, Berkel Westpolder"},"geometry":{"type":"LineString","coordinates":[[4.460791,51.975602],[4.454061,51.99056]]}},{"type":"Feature","properties":{"duration_avg":150.0,"n_vehicles":93,"d":2134,"route_I_counts":"{\"4\": 93}","shape_id":"{\"1038045\": 6, \"1038047\": 87}","direction_id":"{\"0\": 93}","headsign":"{\"Slinge\": 93}","source":57,"target":56,"layer":"L","from":"Berkel en Rodenrijs, Rodenrijs","to":"Rotterdam, Meijersplein / Airport"},"geometry":{"type":"LineString","coordinates":[[4.460791,51.975602],[4.462264,51.956378]]}},{"type":"Feature","properties":{"shape_id":"{\"1038044\": 9, \"1038046\": 87}","direction_id":"{\"1\": 96}","headsign":"{\"Den Haag Centraal\": 95, \"Leidschenveen\": 1}","duration_avg":139.6875,"n_vehicles":96,"d":1740,"route_I_counts":"{\"4\": 96}","source":58,"target":59,"layer":"L","from":"Berkel en Rodenrijs, Berkel Westpolder","to":"Pijnacker, Pijnacker Zuid"},"geometry":{"type":"LineString","coordinates":[[4.454061,51.99056],[4.445743,52.005334]]}},{"type":"Feature","properties":{"duration_avg":135.0,"n_vehicles":93,"d":1729,"route_I_counts":"{\"4\": 93}","shape_id":"{\"1038045\": 6, \"1038047\": 87}","direction_id":"{\"0\": 93}","headsign":"{\"Slinge\": 93}","source":58,"target":57,"layer":"L","from":"Berkel en Rodenrijs, Berkel Westpolder","to":"Berkel en Rodenrijs, Rodenrijs"},"geometry":{"type":"LineString","coordinates":[[4.454061,51.99056],[4.460791,51.975602]]}},{"type":"Feature","properties":{"shape_id":"{\"1038044\": 9, \"1038046\": 86}","direction_id":"{\"1\": 95}","headsign":"{\"Den Haag Centraal\": 94, \"Leidschenveen\": 1}","duration_avg":150.0,"n_vehicles":95,"d":1837,"route_I_counts":"{\"4\": 95}","source":59,"target":60,"layer":"L","from":"Pijnacker, Pijnacker Zuid","to":"Pijnacker, Pijnacker Centrum"},"geometry":{"type":"LineString","coordinates":[[4.445743,52.005334],[4.436762,52.020884]]}},{"type":"Feature","properties":{"duration_avg":142.25806451612902,"n_vehicles":93,"d":1742,"route_I_counts":"{\"4\": 93}","shape_id":"{\"1038045\": 6, \"1038047\": 87}","direction_id":"{\"0\": 93}","headsign":"{\"Slinge\": 93}","source":59,"target":58,"layer":"L","from":"Pijnacker, Pijnacker Zuid","to":"Berkel en Rodenrijs, Berkel Westpolder"},"geometry":{"type":"LineString","coordinates":[[4.445743,52.005334],[4.454061,51.99056]]}},{"type":"Feature","properties":{"shape_id":"{\"1038044\": 9, \"1038046\": 86}","direction_id":"{\"1\": 95}","headsign":"{\"Den Haag Centraal\": 94, \"Leidschenveen\": 1}","duration_avg":195.0,"n_vehicles":95,"d":3391,"route_I_counts":"{\"4\": 95}","source":60,"target":61,"layer":"L","from":"Pijnacker, Pijnacker Centrum","to":"Nootdorp, Nootdorp"},"geometry":{"type":"LineString","coordinates":[[4.436762,52.020884],[4.414375,52.048063]]}},{"type":"Feature","properties":{"duration_avg":157.41935483870967,"n_vehicles":93,"d":1845,"route_I_counts":"{\"4\": 93}","shape_id":"{\"1038045\": 6, \"1038047\": 87}","direction_id":"{\"0\": 93}","headsign":"{\"Slinge\": 93}","source":60,"target":59,"layer":"L","from":"Pijnacker, Pijnacker Centrum","to":"Pijnacker, Pijnacker Zuid"},"geometry":{"type":"LineString","coordinates":[[4.436762,52.020884],[4.445743,52.005334]]}},{"type":"Feature","properties":{"shape_id":"{\"1038044\": 9, \"1038046\": 86}","direction_id":"{\"1\": 95}","headsign":"{\"Den Haag Centraal\": 94, \"Leidschenveen\": 1}","duration_avg":169.73684210526315,"n_vehicles":95,"d":2088,"route_I_counts":"{\"4\": 95}","source":61,"target":62,"layer":"L","from":"Nootdorp, Nootdorp","to":"'s-Gravenhage, Leidschenveen"},"geometry":{"type":"LineString","coordinates":[[4.414375,52.048063],[4.400363,52.064728]]}},{"type":"Feature","properties":{"duration_avg":225.0,"n_vehicles":94,"d":3383,"route_I_counts":"{\"4\": 94}","shape_id":"{\"1038045\": 6, \"1038047\": 88}","direction_id":"{\"0\": 94}","headsign":"{\"Slinge\": 94}","source":61,"target":60,"layer":"L","from":"Nootdorp, Nootdorp","to":"Pijnacker, Pijnacker Centrum"},"geometry":{"type":"LineString","coordinates":[[4.414375,52.048063],[4.436762,52.020884]]}},{"type":"Feature","properties":{"shape_id":"{\"1038044\": 8, \"1038046\": 86}","direction_id":"{\"1\": 94}","headsign":"{\"Den Haag Centraal\": 94}","duration_avg":90.0,"n_vehicles":94,"d":768,"route_I_counts":"{\"4\": 94}","source":62,"target":63,"layer":"L","from":"'s-Gravenhage, Leidschenveen","to":"'s-Gravenhage, Forepark"},"geometry":{"type":"LineString","coordinates":[[4.400363,52.064728],[4.393042,52.069961]]}},{"type":"Feature","properties":{"duration_avg":165.0,"n_vehicles":94,"d":2089,"route_I_counts":"{\"4\": 94}","shape_id":"{\"1038045\": 6, \"1038047\": 88}","direction_id":"{\"0\": 94}","headsign":"{\"Slinge\": 94}","source":62,"target":61,"layer":"L","from":"'s-Gravenhage, Leidschenveen","to":"Nootdorp, Nootdorp"},"geometry":{"type":"LineString","coordinates":[[4.400363,52.064728],[4.414375,52.048063]]}},{"type":"Feature","properties":{"shape_id":"{\"1038044\": 8, \"1038046\": 86}","direction_id":"{\"1\": 94}","headsign":"{\"Den Haag Centraal\": 94}","duration_avg":105.0,"n_vehicles":94,"d":1112,"route_I_counts":"{\"4\": 94}","source":63,"target":64,"layer":"L","from":"'s-Gravenhage, Forepark","to":"Voorburg, Leidschendam-Voorburg"},"geometry":{"type":"LineString","coordinates":[[4.393042,52.069961],[4.382342,52.077484]]}},{"type":"Feature","properties":{"duration_avg":90.0,"n_vehicles":93,"d":773,"route_I_counts":"{\"4\": 93}","shape_id":"{\"1038045\": 6, \"1038047\": 87}","direction_id":"{\"0\": 93}","headsign":"{\"Slinge\": 93}","source":63,"target":62,"layer":"L","from":"'s-Gravenhage, Forepark","to":"'s-Gravenhage, Leidschenveen"},"geometry":{"type":"LineString","coordinates":[[4.393042,52.069961],[4.400363,52.064728]]}},{"type":"Feature","properties":{"shape_id":"{\"1038044\": 8, \"1038046\": 86}","direction_id":"{\"1\": 94}","headsign":"{\"Den Haag Centraal\": 94}","duration_avg":105.0,"n_vehicles":94,"d":1254,"route_I_counts":"{\"4\": 94}","source":64,"target":65,"layer":"L","from":"Voorburg, Leidschendam-Voorburg","to":"Voorburg, Voorburg 't Loo"},"geometry":{"type":"LineString","coordinates":[[4.382342,52.077484],[4.365691,52.082212]]}},{"type":"Feature","properties":{"duration_avg":105.0,"n_vehicles":93,"d":1110,"route_I_counts":"{\"4\": 93}","shape_id":"{\"1038045\": 6, \"1038047\": 87}","direction_id":"{\"0\": 93}","headsign":"{\"Slinge\": 93}","source":64,"target":63,"layer":"L","from":"Voorburg, Leidschendam-Voorburg","to":"'s-Gravenhage, Forepark"},"geometry":{"type":"LineString","coordinates":[[4.382342,52.077484],[4.393042,52.069961]]}},{"type":"Feature","properties":{"shape_id":"{\"1038044\": 8, \"1038046\": 85}","direction_id":"{\"1\": 93}","headsign":"{\"Den Haag Centraal\": 93}","duration_avg":150.0,"n_vehicles":93,"d":1577,"route_I_counts":"{\"4\": 93}","source":65,"target":66,"layer":"L","from":"Voorburg, Voorburg 't Loo","to":"'s-Gravenhage, Laan van NOI"},"geometry":{"type":"LineString","coordinates":[[4.365691,52.082212],[4.343162,52.079201]]}},{"type":"Feature","properties":{"duration_avg":105.0,"n_vehicles":93,"d":1241,"route_I_counts":"{\"4\": 93}","shape_id":"{\"1038045\": 6, \"1038047\": 87}","direction_id":"{\"0\": 93}","headsign":"{\"Slinge\": 93}","source":65,"target":64,"layer":"L","from":"Voorburg, Voorburg 't Loo","to":"Voorburg, Leidschendam-Voorburg"},"geometry":{"type":"LineString","coordinates":[[4.365691,52.082212],[4.382342,52.077484]]}},{"type":"Feature","properties":{"shape_id":"{\"1038044\": 8, \"1038046\": 85}","direction_id":"{\"1\": 93}","headsign":"{\"Den Haag Centraal\": 93}","duration_avg":154.83870967741936,"n_vehicles":93,"d":1173,"route_I_counts":"{\"4\": 93}","source":66,"target":67,"layer":"L","from":"'s-Gravenhage, Laan van NOI","to":"'s-Gravenhage, Den Haag Centraal"},"geometry":{"type":"LineString","coordinates":[[4.343162,52.079201],[4.32611,52.080343]]}},{"type":"Feature","properties":{"duration_avg":150.0,"n_vehicles":93,"d":1562,"route_I_counts":"{\"4\": 93}","shape_id":"{\"1038045\": 6, \"1038047\": 87}","direction_id":"{\"0\": 93}","headsign":"{\"Slinge\": 93}","source":66,"target":65,"layer":"L","from":"'s-Gravenhage, Laan van NOI","to":"Voorburg, Voorburg 't Loo"},"geometry":{"type":"LineString","coordinates":[[4.343162,52.079201],[4.365691,52.082212]]}},{"type":"Feature","properties":{"duration_avg":135.0,"n_vehicles":94,"d":1245,"route_I_counts":"{\"4\": 94}","shape_id":"{\"1038045\": 6, \"1038047\": 88}","direction_id":"{\"0\": 94}","headsign":"{\"Slinge\": 94}","source":67,"target":66,"layer":"L","from":"'s-Gravenhage, Den Haag Centraal","to":"'s-Gravenhage, Laan van NOI"},"geometry":{"type":"LineString","coordinates":[[4.32611,52.080343],[4.343162,52.079201]]}},{"type":"Feature","properties":{"shape_id":"{\"1038038\": 91, \"1038039\": 1}","direction_id":"{\"1\": 92}","headsign":"{\"Rotterdam Centraal\": 92}","duration_avg":135.0,"n_vehicles":92,"d":1628,"route_I_counts":"{\"5\": 92}","source":68,"target":69,"layer":"L","from":"Poortugaal, Poortugaal","to":"Rhoon, Rhoon"},"geometry":{"type":"LineString","coordinates":[[4.396252,51.861628],[4.419593,51.859126]]}},{"type":"Feature","properties":{"duration_avg":120.0,"n_vehicles":94,"d":1291,"route_I_counts":"{\"5\": 94}","shape_id":"{\"1038037\": 66, \"1038040\": 1, \"1038041\": 27}","direction_id":"{\"0\": 94}","headsign":"{\"De Akkers\": 94}","source":68,"target":38,"layer":"L","from":"Poortugaal, Poortugaal","to":"Hoogvliet Rotterdam, Tussenwater"},"geometry":{"type":"LineString","coordinates":[[4.396252,51.861628],[4.377304,51.862357]]}},{"type":"Feature","properties":{"duration_avg":135.0,"n_vehicles":94,"d":1638,"route_I_counts":"{\"5\": 94}","shape_id":"{\"1038037\": 66, \"1038040\": 1, \"1038041\": 27}","direction_id":"{\"0\": 94}","headsign":"{\"De Akkers\": 94}","source":69,"target":68,"layer":"L","from":"Rhoon, Rhoon","to":"Poortugaal, Poortugaal"},"geometry":{"type":"LineString","coordinates":[[4.419593,51.859126],[4.396252,51.861628]]}},{"type":"Feature","properties":{"duration_avg":315.0,"n_vehicles":92,"d":4384,"route_I_counts":"{\"5\": 92}","shape_id":"{\"1038038\": 91, \"1038039\": 1}","direction_id":"{\"1\": 92}","headsign":"{\"Rotterdam Centraal\": 92}","source":69,"target":46,"layer":"L","from":"Rhoon, Rhoon","to":"Rotterdam, Slinge"},"geometry":{"type":"LineString","coordinates":[[4.419593,51.859126],[4.477951,51.875017]]}}]}