{"type":"FeatureCollection","features":[{"type":"Feature","geometry":{"type":"Point","coordinates":[-122.029072,37.973757]},"properties":{"name":"Concord","original_ids":"[15]","id":0,"layer":"stop"}},{"type":"Feature","geometry":{"type":"Point","coordinates":[-122.055971,37.928434]},"properties":{"name":"Pleasant Hill / Contra Costa Centre","original_ids":"[14]","id":1,"layer":"stop"}},{"type":"Feature","geometry":{"type":"Point","coordinates":[-122.067327,37.905791]},"properties":{"name":"Walnut Creek","original_ids":"[13]","id":2,"layer":"stop"}},{"type":"Feature","geometry":{"type":"Point","coordinates":[-122.12462,37.893183]},"properties":{"name":"Lafayette","original_ids":"[12]","id":3,"layer":"stop"}},{"type":"Feature","geometry":{"type":"Point","coordinates":[-122.183667,37.878481]},"properties":{"name":"Orinda","original_ids":"[11]","id":4,"layer":"stop"}},{"type":"Feature","geometry":{"type":"Point","coordinates":[-122.251235,37.844755]},"properties":{"name":"Rockridge","original_ids":"[10]","id":5,"layer":"stop"}},{"type":"Feature","geometry":{"type":"Point","coordinates":[-122.267105,37.828803]},"properties":{"name":"MacArthur","original_ids":"[23]","id":6,"layer":"stop"}},{"type":"Feature","geometry":{"type":"Point","coordinates":[-122.268758,37.808078]},"properties":{"name":"19th Street Oakland","original_ids":"[22]","id":7,"layer":"stop"}},{"type":"Feature","geometry":{"type":"Point","coordinates":[-122.27163,37.803482]},"properties":{"name":"12th Street / Oakland City Center","original_ids":"[21]","id":8,"layer":"stop"}},{"type":"Feature","geometry":{"type":"Point","coordinates":[-122.295151,37.804888]},"properties":{"name":"West Oakland","original_ids":"[27]","id":9,"layer":"stop"}},{"type":"Feature","geometry":{"type":"Point","coordinates":[-122.397037,37.792762]},"properties":{"name":"Embarcadero","original_ids":"[28]","id":10,"layer":"stop"}},{"type":"Feature","geometry":{"type":"Point","coordinates":[-122.401587,37.789173]},"properties":{"name":"Montgomery Street","original_ids":"[29]","id":11,"layer":"stop"}},{"type":"Feature","geometry":{"type":"Point","coordinates":[-122.407331,37.784606]},"properties":{"name":"Powell Street","original_ids":"[30]","id":12,"layer":"stop"}},{"type":"Feature","geometry":{"type":"Point","coordinates":[-122.413826,37.779408]},"properties":{"name":"Civic Center / UN Plaza","original_ids":"[31]","id":13,"layer":"stop"}},{"type":"Feature","geometry":{"type":"Point","coordinates":[-122.419704,37.765173]},"properties":{"name":"16th Street / Mission","original_ids":"[32]","id":14,"layer":"stop"}},{"type":"Feature","geometry":{"type":"Point","coordinates":[-122.418468,37.752419]},"properties":{"name":"24th Street / Mission","original_ids":"[33]","id":15,"layer":"stop"}},{"type":"Feature","geometry":{"type":"Point","coordinates":[-122.433515,37.733235]},"properties":{"name":"Glen Park","original_ids":"[34]","id":16,"layer":"stop"}},{"type":"Feature","geometry":{"type":"Point","coordinates":[-122.447457,37.721747]},"properties":{"name":"Balboa Park","original_ids":"[35]","id":17,"layer":"stop"}},{"type":"Feature","geometry":{"type":"Point","coordinates":[-122.468908,37.706259]},"properties":{"name":"Daly City","original_ids":"[36]","id":18,"layer":"stop"}},{"type":"Feature","geometry":{"type":"Point","coordinates":[-122.466157,37.684635]},"properties":{"name":"Colma","original_ids":"[46]","id":19,"layer":"stop"}},{"type":"Feature","geometry":{"type":"Point","coordinates":[-122.444211,37.664462]},"properties":{"name":"South San Francisco","original_ids":"[47]","id":20,"layer":"stop"}},{"type":"Feature","geometry":{"type":"Point","coordinates":[-122.416326,37.63773]},"properties":{"name":"San Bruno","original_ids":"[48]","id":21,"layer":"stop"}},{"type":"Feature","geometry":{"type":"Point","coordinates":[-122.391954,37.616091]},"properties":{"name":"San Francisco International Airport","original_ids":"[50]","id":22,"layer":"stop"}},{"type":"Feature","geometry":{"type":"Point","coordinates":[-121.780346,37.995373]},"properties":{"name":"Antioch","original_ids":"[19]","id":23,"layer":"stop"}},{"type":"Feature","geometry":{"type":"Point","coordinates":[-121.889062,38.016847]},"properties":{"name":"Pittsburg Center","original_ids":"[18]","id":24,"layer":"stop"}},{"type":"Feature","geometry":{"type":"Point","coordinates":[-121.944236,38.01891]},"properties":{"name":"Pittsburg / Bay Point","original_ids":"[17]","id":25,"layer":"stop"}},{"type":"Feature","geometry":{"type":"Point","coordinates":[-122.024512,38.003383]},"properties":{"name":"North Concord / Martinez","original_ids":"[16]","id":26,"layer":"stop"}},{"type":"Feature","geometry":{"type":"Point","coordinates":[-122.386757,37.600237]},"properties":{"name":"Millbrae (Caltrain Transfer Platform)","original_ids":"[49]","id":27,"layer":"stop"}},{"type":"Feature","geometry":{"type":"Point","coordinates":[-122.057182,37.63434]},"properties":{"name":"South Hayward","original_ids":"[7]","id":28,"layer":"stop"}},{"type":"Feature","geometry":{"type":"Point","coordinates":[-122.086958,37.669699]},"properties":{"name":"Hayward","original_ids":"[6]","id":29,"layer":"stop"}},{"type":"Feature","geometry":{"type":"Point","coordinates":[-122.126446,37.696908]},"properties":{"name":"Bay Fair","original_ids":"[5]","id":30,"layer":"stop"}},{"type":"Feature","geometry":{"type":"Point","coordinates":[-122.16074,37.721784]},"properties":{"name":"San Leandro","original_ids":"[4]","id":31,"layer":"stop"}},{"type":"Feature","geometry":{"type":"Point","coordinates":[-122.196716,37.753576]},"properties":{"name":"Coliseum","original_ids":"[3]","id":32,"layer":"stop"}},{"type":"Feature","geometry":{"type":"Point","coordinates":[-122.224081,37.774841]},"properties":{"name":"Fruitvale","original_ids":"[2]","id":33,"layer":"stop"}},{"type":"Feature","geometry":{"type":"Point","coordinates":[-122.265247,37.797322]},"properties":{"name":"Lake Merritt","original_ids":"[1]","id":34,"layer":"stop"}},{"type":"Feature","geometry":{"type":"Point","coordinates":[-122.269771,37.853072]},"properties":{"name":"Ashby","original_ids":"[37]","id":35,"layer":"stop"}},{"type":"Feature","geometry":{"type":"Point","coordinates":[-122.268109,37.87011]},"properties":{"name":"Downtown Berkeley","original_ids":"[38]","id":36,"layer":"stop"}},{"type":"Feature","geometry":{"type":"Point","coordinates":[-122.283523,37.874005]},"properties":{"name":"North Berkeley","original_ids":"[39]","id":37,"layer":"stop"}},{"type":"Feature","geometry":{"type":"Point","coordinates":[-122.29892,37.90261]},"properties":{"name":"El Cerrito Plaza","original_ids":"[40]","id":38,"layer":"stop"}},{"type":"Feature","geometry":{"type":"Point","coordinates":[-122.316892,37.925184]},"properties":{"name":"El Cerrito Del Norte","original_ids":"[41]","id":39,"layer":"stop"}},{"type":"Feature","geometry":{"type":"Point","coordinates":[-122.353047,37.936758]},"properties":{"name":"Richmond","original_ids":"[42]","id":40,"layer":"stop"}},{"type":"Feature","geometry":{"type":"Point","coordinates":[-121.874681,37.368473]},"properties":{"name":"Berryessa / North San Jose","original_ids":"[45]","id":41,"layer":"stop"}},{"type":"Feature","geometry":{"type":"Point","coordinates":[-121.891081,37.410277]},"properties":{"name":"Milpitas","original_ids":"[44]","id":42,"layer":"stop"}},{"type":"Feature","geometry":{"type":"Point","coordinates":[-121.939395,37.502285]},"properties":{"name":"Warm Springs / South Fremont","original_ids":"[43]","id":43,"layer":"stop"}},{"type":"Feature","geometry":{"type":"Point","coordinates":[-121.976619,37.55748]},"properties":{"name":"Fremont","original_ids":"[9]","id":44,"layer":"stop"}},{"type":"Feature","geometry":{"type":"Point","coordinates":[-122.017248,37.590735]},"properties":{"name":"Union City","original_ids":"[8]","id":45,"layer":"stop"}},{"type":"Feature","geometry":{"type":"Point","coordinates":[-121.899229,37.701646]},"properties":{"name":"Dublin / Pleasanton","original_ids":"[26]","id":46,"layer":"stop"}},{"type":"Feature","geometry":{"type":"Point","coordinates":[-121.928277,37.699721]},"properties":{"name":"West Dublin / Pleasanton","original_ids":"[25]","id":47,"layer":"stop"}},{"type":"Feature","geometry":{"type":"Point","coordinates":[-122.075601,37.690737]},"properties":{"name":"Castro Valley","original_ids":"[24]","id":48,"layer":"stop"}},{"type":"Feature","geometry":{"type":"Point","coordinates":[-122.2122,37.713268]},"properties":{"name":"Oakland International Airport Station","original_ids":"[20]","id":49,"layer":"stop"}},{"type":"Feature","properties":{"shape_id":"{\"1001439_shp\": 37, \"1001440_shp\": 1, \"1009378_shp\": 12}","direction_id":"{\"1\": 50}","headsign":"{\"San Francisco Int'l Airport + Millbrae\": 12, \"San Francisco International Airport\": 38}","duration_avg":297.6,"n_vehicles":50,"d":5570,"route_I_counts":"{\"1\": 50}","source":0,"target":1,"layer":"L","from":"Concord","to":"Pleasant Hill / Contra Costa Centre"},"geometry":{"type":"LineString","coordinates":[[-122.029072,37.973757],[-122.055971,37.928434]]}},{"type":"Feature","properties":{"shape_id":"{\"1001349_shp\": 2, \"1001350_shp\": 35, \"1001357_shp\": 12, \"1001395_shp\": 2}","direction_id":"{\"0\": 51}","headsign":"{\"Antioch\": 37, \"Antioch via SFO\": 12, \"Pittsburg/Bay Point\": 2}","duration_avg":187.05882352941177,"n_vehicles":51,"d":3322,"route_I_counts":"{\"2\": 51}","source":0,"target":26,"layer":"L","from":"Concord","to":"North Concord / Martinez"},"geometry":{"type":"LineString","coordinates":[[-122.029072,37.973757],[-122.024512,38.003383]]}},{"type":"Feature","properties":{"shape_id":"{\"1001439_shp\": 38, \"1001440_shp\": 1, \"1009378_shp\": 12}","direction_id":"{\"1\": 51}","headsign":"{\"San Francisco Int'l Airport + Millbrae\": 12, \"San Francisco International Airport\": 39}","duration_avg":122.3529411764706,"n_vehicles":51,"d":2710,"route_I_counts":"{\"1\": 51}","source":1,"target":2,"layer":"L","from":"Pleasant Hill / Contra Costa Centre","to":"Walnut Creek"},"geometry":{"type":"LineString","coordinates":[[-122.055971,37.928434],[-122.067327,37.905791]]}},{"type":"Feature","properties":{"shape_id":"{\"1001349_shp\": 2, \"1001350_shp\": 35, \"1001357_shp\": 12, \"1001395_shp\": 2}","direction_id":"{\"0\": 51}","headsign":"{\"Antioch\": 37, \"Antioch via SFO\": 12, \"Pittsburg/Bay Point\": 2}","duration_avg":298.8235294117647,"n_vehicles":51,"d":5570,"route_I_counts":"{\"2\": 51}","source":1,"target":0,"layer":"L","from":"Pleasant Hill / Contra Costa Centre","to":"Concord"},"geometry":{"type":"LineString","coordinates":[[-122.055971,37.928434],[-122.029072,37.973757]]}},{"type":"Feature","properties":{"shape_id":"{\"1001439_shp\": 38, \"1001440_shp\": 1, \"1009378_shp\": 12}","direction_id":"{\"1\": 51}","headsign":"{\"San Francisco Int'l Airport + Millbrae\": 12, \"San Francisco International Airport\": 39}","duration_avg":287.05882352941177,"n_vehicles":51,"d":5224,"route_I_counts":"{\"1\": 51}","source":2,"target":3,"layer":"L","from":"Walnut Creek","to":"Lafayette"},"geometry":{"type":"LineString","coordinates":[[-122.067327,37.905791],[-122.12462,37.893183]]}},{"type":"Feature","properties":{"shape_id":"{\"1001349_shp\": 2, \"1001350_shp\": 35, \"1001357_shp\": 12, \"1001395_shp\": 2}","direction_id":"{\"0\": 51}","headsign":"{\"Antioch\": 37, \"Antioch via SFO\": 12, \"Pittsburg/Bay Point\": 2}","duration_avg":138.8235294117647,"n_vehicles":51,"d":2710,"route_I_counts":"{\"2\": 51}","source":2,"target":1,"layer":"L","from":"Walnut Creek","to":"Pleasant Hill / Contra Costa Centre"},"geometry":{"type":"LineString","coordinates":[[-122.067327,37.905791],[-122.055971,37.928434]]}},{"type":"Feature","properties":{"shape_id":"{\"1001439_shp\": 38, \"1001440_shp\": 1, \"1009378_shp\": 12}","direction_id":"{\"1\": 51}","headsign":"{\"San Francisco Int'l Airport + Millbrae\": 12, \"San Francisco International Airport\": 39}","duration_avg":250.58823529411765,"n_vehicles":51,"d":5439,"route_I_counts":"{\"1\": 51}","source":3,"target":4,"layer":"L","from":"Lafayette","to":"Orinda"},"geometry":{"type":"LineString","coordinates":[[-122.12462,37.893183],[-122.183667,37.878481]]}},{"type":"Feature","properties":{"shape_id":"{\"1001349_shp\": 2, \"1001350_shp\": 34, \"1001357_shp\": 12, \"1001395_shp\": 2}","direction_id":"{\"0\": 50}","headsign":"{\"Antioch\": 36, \"Antioch via SFO\": 12, \"Pittsburg/Bay Point\": 2}","duration_avg":242.4,"n_vehicles":50,"d":5224,"route_I_counts":"{\"2\": 50}","source":3,"target":2,"layer":"L","from":"Lafayette","to":"Walnut Creek"},"geometry":{"type":"LineString","coordinates":[[-122.12462,37.893183],[-122.067327,37.905791]]}},{"type":"Feature","properties":{"shape_id":"{\"1001439_shp\": 37, \"1001440_shp\": 1, \"1009378_shp\": 12}","direction_id":"{\"1\": 50}","headsign":"{\"San Francisco Int'l Airport + Millbrae\": 12, \"San Francisco International Airport\": 38}","duration_avg":302.4,"n_vehicles":50,"d":7025,"route_I_counts":"{\"1\": 50}","source":4,"target":5,"layer":"L","from":"Orinda","to":"Rockridge"},"geometry":{"type":"LineString","coordinates":[[-122.183667,37.878481],[-122.251235,37.844755]]}},{"type":"Feature","properties":{"shape_id":"{\"1001349_shp\": 2, \"1001350_shp\": 35, \"1001357_shp\": 12, \"1001395_shp\": 2}","direction_id":"{\"0\": 51}","headsign":"{\"Antioch\": 37, \"Antioch via SFO\": 12, \"Pittsburg/Bay Point\": 2}","duration_avg":296.47058823529414,"n_vehicles":51,"d":5439,"route_I_counts":"{\"2\": 51}","source":4,"target":3,"layer":"L","from":"Orinda","to":"Lafayette"},"geometry":{"type":"LineString","coordinates":[[-122.183667,37.878481],[-122.12462,37.893183]]}},{"type":"Feature","properties":{"shape_id":"{\"1001439_shp\": 38, \"1001440_shp\": 1, \"1009378_shp\": 12}","direction_id":"{\"1\": 51}","headsign":"{\"San Francisco Int'l Airport + Millbrae\": 12, \"San Francisco International Airport\": 39}","duration_avg":176.47058823529412,"n_vehicles":51,"d":2258,"route_I_counts":"{\"1\": 51}","source":5,"target":6,"layer":"L","from":"Rockridge","to":"MacArthur"},"geometry":{"type":"LineString","coordinates":[[-122.251235,37.844755],[-122.267105,37.828803]]}},{"type":"Feature","properties":{"shape_id":"{\"1001349_shp\": 2, \"1001350_shp\": 35, \"1001357_shp\": 12, \"1001395_shp\": 2}","direction_id":"{\"0\": 51}","headsign":"{\"Antioch\": 37, \"Antioch via SFO\": 12, \"Pittsburg/Bay Point\": 2}","duration_avg":300.0,"n_vehicles":51,"d":7025,"route_I_counts":"{\"2\": 51}","source":5,"target":4,"layer":"L","from":"Rockridge","to":"Orinda"},"geometry":{"type":"LineString","coordinates":[[-122.251235,37.844755],[-122.183667,37.878481]]}},{"type":"Feature","properties":{"shape_id":"{\"1001232_shp\": 2, \"1001234_shp\": 36, \"1001604_shp\": 1, \"1001605_shp\": 1, \"1001612_shp\": 48}","direction_id":"{\"0\": 88}","headsign":"{\"Richmond\": 52, \"Richmond via Millbrae\": 36}","duration_avg":178.63636363636363,"n_vehicles":88,"d":2711,"route_I_counts":"{\"3\": 50, \"8\": 38}","source":6,"target":35,"layer":"L","from":"MacArthur","to":"Ashby"},"geometry":{"type":"LineString","coordinates":[[-122.267105,37.828803],[-122.269771,37.853072]]}},{"type":"Feature","properties":{"shape_id":"{\"1001291_shp\": 37, \"1001348_shp\": 1, \"1001439_shp\": 38, \"1001440_shp\": 1, \"1001542_shp\": 51, \"1009378_shp\": 12}","direction_id":"{\"1\": 140}","headsign":"{\"Berryessa/North San Jose\": 51, \"Millbrae (Caltrain Transfer Platform)\": 1, \"San Francisco Int'l Airport + Millbrae\": 49, \"San Francisco International Airport\": 39}","duration_avg":178.28571428571428,"n_vehicles":140,"d":2311,"route_I_counts":"{\"1\": 51, \"4\": 51, \"7\": 38}","source":6,"target":7,"layer":"L","from":"MacArthur","to":"19th Street Oakland"},"geometry":{"type":"LineString","coordinates":[[-122.267105,37.828803],[-122.268758,37.808078]]}},{"type":"Feature","properties":{"shape_id":"{\"1001349_shp\": 2, \"1001350_shp\": 34, \"1001357_shp\": 12, \"1001395_shp\": 2}","direction_id":"{\"0\": 50}","headsign":"{\"Antioch\": 36, \"Antioch via SFO\": 12, \"Pittsburg/Bay Point\": 2}","duration_avg":169.2,"n_vehicles":50,"d":2258,"route_I_counts":"{\"2\": 50}","source":6,"target":5,"layer":"L","from":"MacArthur","to":"Rockridge"},"geometry":{"type":"LineString","coordinates":[[-122.267105,37.828803],[-122.251235,37.844755]]}},{"type":"Feature","properties":{"shape_id":"{\"1001232_shp\": 2, \"1001234_shp\": 36, \"1001349_shp\": 2, \"1001350_shp\": 35, \"1001357_shp\": 12, \"1001395_shp\": 2, \"1001604_shp\": 1, \"1001605_shp\": 1, \"1001612_shp\": 49}","direction_id":"{\"0\": 140}","headsign":"{\"Antioch\": 37, \"Antioch via SFO\": 12, \"Pittsburg/Bay Point\": 2, \"Richmond\": 53, \"Richmond via Millbrae\": 36}","duration_avg":180.0,"n_vehicles":140,"d":2311,"route_I_counts":"{\"2\": 51, \"3\": 51, \"8\": 38}","source":7,"target":6,"layer":"L","from":"19th Street Oakland","to":"MacArthur"},"geometry":{"type":"LineString","coordinates":[[-122.268758,37.808078],[-122.267105,37.828803]]}},{"type":"Feature","properties":{"shape_id":"{\"1001291_shp\": 37, \"1001348_shp\": 1, \"1001439_shp\": 38, \"1001440_shp\": 1, \"1001542_shp\": 51, \"1009378_shp\": 12}","direction_id":"{\"1\": 140}","headsign":"{\"Berryessa/North San Jose\": 51, \"Millbrae (Caltrain Transfer Platform)\": 1, \"San Francisco Int'l Airport + Millbrae\": 49, \"San Francisco International Airport\": 39}","duration_avg":109.28571428571429,"n_vehicles":140,"d":570,"route_I_counts":"{\"1\": 51, \"4\": 51, \"7\": 38}","source":7,"target":8,"layer":"L","from":"19th Street Oakland","to":"12th Street / Oakland City Center"},"geometry":{"type":"LineString","coordinates":[[-122.268758,37.808078],[-122.27163,37.803482]]}},{"type":"Feature","properties":{"shape_id":"{\"1001232_shp\": 2, \"1001234_shp\": 35, \"1001349_shp\": 2, \"1001350_shp\": 35, \"1001357_shp\": 12, \"1001395_shp\": 2, \"1001604_shp\": 1, \"1001605_shp\": 1, \"1001612_shp\": 49}","direction_id":"{\"0\": 139}","headsign":"{\"Antioch\": 37, \"Antioch via SFO\": 12, \"Pittsburg/Bay Point\": 2, \"Richmond\": 53, \"Richmond via Millbrae\": 35}","duration_avg":60.0,"n_vehicles":139,"d":570,"route_I_counts":"{\"2\": 51, \"3\": 51, \"8\": 37}","source":8,"target":7,"layer":"L","from":"12th Street / Oakland City Center","to":"19th Street Oakland"},"geometry":{"type":"LineString","coordinates":[[-122.27163,37.803482],[-122.268758,37.808078]]}},{"type":"Feature","properties":{"shape_id":"{\"1001542_shp\": 50}","direction_id":"{\"1\": 50}","headsign":"{\"Berryessa/North San Jose\": 50}","duration_avg":165.6,"n_vehicles":50,"d":886,"route_I_counts":"{\"4\": 50}","source":8,"target":34,"layer":"L","from":"12th Street / Oakland City Center","to":"Lake Merritt"},"geometry":{"type":"LineString","coordinates":[[-122.27163,37.803482],[-122.265247,37.797322]]}},{"type":"Feature","properties":{"shape_id":"{\"1001291_shp\": 37, \"1001348_shp\": 1, \"1001439_shp\": 37, \"1001440_shp\": 1, \"1009378_shp\": 12}","direction_id":"{\"1\": 88}","headsign":"{\"Millbrae (Caltrain Transfer Platform)\": 1, \"San Francisco Int'l Airport + Millbrae\": 49, \"San Francisco International Airport\": 38}","duration_avg":240.0,"n_vehicles":88,"d":2074,"route_I_counts":"{\"1\": 50, \"7\": 38}","source":8,"target":9,"layer":"L","from":"12th Street / Oakland City Center","to":"West Oakland"},"geometry":{"type":"LineString","coordinates":[[-122.27163,37.803482],[-122.295151,37.804888]]}},{"type":"Feature","properties":{"shape_id":"{\"1001291_shp\": 36, \"1001348_shp\": 1, \"1001439_shp\": 38, \"1001440_shp\": 1, \"1001696_shp\": 48, \"1001860_shp\": 33, \"1009378_shp\": 12, \"1009562_shp\": 1}","direction_id":"{\"1\": 170}","headsign":"{\"Daly City\": 82, \"Millbrae (Caltrain Transfer Platform)\": 1, \"San Francisco Int'l Airport + Millbrae\": 48, \"San Francisco International Airport\": 39}","duration_avg":377.6470588235294,"n_vehicles":170,"d":9063,"route_I_counts":"{\"1\": 51, \"5\": 34, \"7\": 37, \"9\": 48}","source":9,"target":10,"layer":"L","from":"West Oakland","to":"Embarcadero"},"geometry":{"type":"LineString","coordinates":[[-122.295151,37.804888],[-122.397037,37.792762]]}},{"type":"Feature","properties":{"shape_id":"{\"1001744_shp\": 48, \"1009530_shp\": 34}","direction_id":"{\"0\": 82}","headsign":"{\"Berryessa/North San Jose\": 34, \"Dublin/Pleasanton\": 48}","duration_avg":355.609756097561,"n_vehicles":82,"d":2761,"route_I_counts":"{\"6\": 34, \"10\": 48}","source":9,"target":34,"layer":"L","from":"West Oakland","to":"Lake Merritt"},"geometry":{"type":"LineString","coordinates":[[-122.295151,37.804888],[-122.265247,37.797322]]}},{"type":"Feature","properties":{"shape_id":"{\"1001232_shp\": 2, \"1001234_shp\": 36, \"1001349_shp\": 2, \"1001350_shp\": 35, \"1001357_shp\": 12, \"1001395_shp\": 2}","direction_id":"{\"0\": 89}","headsign":"{\"Antioch\": 37, \"Antioch via SFO\": 12, \"Pittsburg/Bay Point\": 2, \"Richmond\": 2, \"Richmond via Millbrae\": 36}","duration_avg":184.7191011235955,"n_vehicles":89,"d":2074,"route_I_counts":"{\"2\": 51, \"8\": 38}","source":9,"target":8,"layer":"L","from":"West Oakland","to":"12th Street / Oakland City Center"},"geometry":{"type":"LineString","coordinates":[[-122.295151,37.804888],[-122.27163,37.803482]]}},{"type":"Feature","properties":{"shape_id":"{\"1001291_shp\": 37, \"1001348_shp\": 1, \"1001439_shp\": 38, \"1001440_shp\": 1, \"1001696_shp\": 49, \"1001860_shp\": 33, \"1009378_shp\": 12, \"1009562_shp\": 1}","direction_id":"{\"1\": 172}","headsign":"{\"Daly City\": 83, \"Millbrae (Caltrain Transfer Platform)\": 1, \"San Francisco Int'l Airport + Millbrae\": 49, \"San Francisco International Airport\": 39}","duration_avg":71.51162790697674,"n_vehicles":172,"d":565,"route_I_counts":"{\"1\": 51, \"5\": 34, \"7\": 38, \"9\": 49}","source":10,"target":11,"layer":"L","from":"Embarcadero","to":"Montgomery Street"},"geometry":{"type":"LineString","coordinates":[[-122.397037,37.792762],[-122.401587,37.789173]]}},{"type":"Feature","properties":{"shape_id":"{\"1001232_shp\": 2, \"1001234_shp\": 36, \"1001349_shp\": 2, \"1001350_shp\": 34, \"1001357_shp\": 12, \"1001395_shp\": 2, \"1001744_shp\": 48, \"1009530_shp\": 33}","direction_id":"{\"0\": 169}","headsign":"{\"Antioch\": 36, \"Antioch via SFO\": 12, \"Berryessa/North San Jose\": 33, \"Dublin/Pleasanton\": 48, \"Pittsburg/Bay Point\": 2, \"Richmond\": 2, \"Richmond via Millbrae\": 36}","duration_avg":391.2426035502959,"n_vehicles":169,"d":9063,"route_I_counts":"{\"2\": 50, \"6\": 33, \"8\": 38, \"10\": 48}","source":10,"target":9,"layer":"L","from":"Embarcadero","to":"West Oakland"},"geometry":{"type":"LineString","coordinates":[[-122.397037,37.792762],[-122.295151,37.804888]]}},{"type":"Feature","properties":{"shape_id":"{\"1001291_shp\": 37, \"1001348_shp\": 1, \"1001439_shp\": 38, \"1001440_shp\": 1, \"1001696_shp\": 49, \"1001860_shp\": 32, \"1009378_shp\": 12, \"1009562_shp\": 1}","direction_id":"{\"1\": 171}","headsign":"{\"Daly City\": 82, \"Millbrae (Caltrain Transfer Platform)\": 1, \"San Francisco Int'l Airport + Millbrae\": 49, \"San Francisco International Airport\": 39}","duration_avg":62.10526315789474,"n_vehicles":171,"d":716,"route_I_counts":"{\"1\": 51, \"5\": 33, \"7\": 38, \"9\": 49}","source":11,"target":12,"layer":"L","from":"Montgomery Street","to":"Powell Street"},"geometry":{"type":"LineString","coordinates":[[-122.401587,37.789173],[-122.407331,37.784606]]}},{"type":"Feature","properties":{"shape_id":"{\"1001232_shp\": 2, \"1001234_shp\": 36, \"1001349_shp\": 2, \"1001350_shp\": 35, \"1001357_shp\": 12, \"1001395_shp\": 2, \"1001744_shp\": 47, \"1009530_shp\": 34}","direction_id":"{\"0\": 170}","headsign":"{\"Antioch\": 37, \"Antioch via SFO\": 12, \"Berryessa/North San Jose\": 34, \"Dublin/Pleasanton\": 47, \"Pittsburg/Bay Point\": 2, \"Richmond\": 2, \"Richmond via Millbrae\": 36}","duration_avg":60.0,"n_vehicles":170,"d":565,"route_I_counts":"{\"2\": 51, \"6\": 34, \"8\": 38, \"10\": 47}","source":11,"target":10,"layer":"L","from":"Montgomery Street","to":"Embarcadero"},"geometry":{"type":"LineString","coordinates":[[-122.401587,37.789173],[-122.397037,37.792762]]}},{"type":"Feature","properties":{"shape_id":"{\"1001291_shp\": 37, \"1001348_shp\": 1, \"1001439_shp\": 38, \"1001440_shp\": 1, \"1001696_shp\": 49, \"1001860_shp\": 33, \"1009378_shp\": 12, \"1009562_shp\": 1}","direction_id":"{\"1\": 172}","headsign":"{\"Daly City\": 83, \"Millbrae (Caltrain Transfer Platform)\": 1, \"San Francisco Int'l Airport + Millbrae\": 49, \"San Francisco International Airport\": 39}","duration_avg":77.44186046511628,"n_vehicles":172,"d":813,"route_I_counts":"{\"1\": 51, \"5\": 34, \"7\": 38, \"9\": 49}","source":12,"target":13,"layer":"L","from":"Powell Street","to":"Civic Center / UN Plaza"},"geometry":{"type":"LineString","coordinates":[[-122.407331,37.784606],[-122.413826,37.779408]]}},{"type":"Feature","properties":{"shape_id":"{\"1001232_shp\": 2, \"1001234_shp\": 35, \"1001349_shp\": 2, \"1001350_shp\": 35, \"1001357_shp\": 12, \"1001395_shp\": 2, \"1001744_shp\": 48, \"1009530_shp\": 34}","direction_id":"{\"0\": 170}","headsign":"{\"Antioch\": 37, \"Antioch via SFO\": 12, \"Berryessa/North San Jose\": 34, \"Dublin/Pleasanton\": 48, \"Pittsburg/Bay Point\": 2, \"Richmond\": 2, \"Richmond via Millbrae\": 35}","duration_avg":60.0,"n_vehicles":170,"d":716,"route_I_counts":"{\"2\": 51, \"6\": 34, \"8\": 37, \"10\": 48}","source":12,"target":11,"layer":"L","from":"Powell Street","to":"Montgomery Street"},"geometry":{"type":"LineString","coordinates":[[-122.407331,37.784606],[-122.401587,37.789173]]}},{"type":"Feature","properties":{"shape_id":"{\"1001291_shp\": 37, \"1001348_shp\": 1, \"1001439_shp\": 37, \"1001440_shp\": 1, \"1001696_shp\": 49, \"1001860_shp\": 33, \"1009378_shp\": 12, \"1009562_shp\": 1}","direction_id":"{\"1\": 171}","headsign":"{\"Daly City\": 83, \"Millbrae (Caltrain Transfer Platform)\": 1, \"San Francisco Int'l Airport + Millbrae\": 49, \"San Francisco International Airport\": 38}","duration_avg":120.0,"n_vehicles":171,"d":1666,"route_I_counts":"{\"1\": 50, \"5\": 34, \"7\": 38, \"9\": 49}","source":13,"target":14,"layer":"L","from":"Civic Center / UN Plaza","to":"16th Street / Mission"},"geometry":{"type":"LineString","coordinates":[[-122.413826,37.779408],[-122.419704,37.765173]]}},{"type":"Feature","properties":{"shape_id":"{\"1001232_shp\": 2, \"1001234_shp\": 35, \"1001349_shp\": 2, \"1001350_shp\": 35, \"1001357_shp\": 12, \"1001395_shp\": 2, \"1001744_shp\": 48, \"1009530_shp\": 34}","direction_id":"{\"0\": 170}","headsign":"{\"Antioch\": 37, \"Antioch via SFO\": 12, \"Berryessa/North San Jose\": 34, \"Dublin/Pleasanton\": 48, \"Pittsburg/Bay Point\": 2, \"Richmond\": 2, \"Richmond via Millbrae\": 35}","duration_avg":86.82352941176471,"n_vehicles":170,"d":813,"route_I_counts":"{\"2\": 51, \"6\": 34, \"8\": 37, \"10\": 48}","source":13,"target":12,"layer":"L","from":"Civic Center / UN Plaza","to":"Powell Street"},"geometry":{"type":"LineString","coordinates":[[-122.413826,37.779408],[-122.407331,37.784606]]}},{"type":"Feature","properties":{"shape_id":"{\"1001291_shp\": 37, \"1001348_shp\": 1, \"1001439_shp\": 38, \"1001440_shp\": 1, \"1001696_shp\": 48, \"1001860_shp\": 33, \"1009378_shp\": 12, \"1009562_shp\": 1}","direction_id":"{\"1\": 171}","headsign":"{\"Daly City\": 82, \"Millbrae (Caltrain Transfer Platform)\": 1, \"San Francisco Int'l Airport + Millbrae\": 49, \"San Francisco International Airport\": 39}","duration_avg":82.45614035087719,"n_vehicles":171,"d":1423,"route_I_counts":"{\"1\": 51, \"5\": 34, \"7\": 38, \"9\": 48}","source":14,"target":15,"layer":"L","from":"16th Street / Mission","to":"24th Street / Mission"},"geometry":{"type":"LineString","coordinates":[[-122.419704,37.765173],[-122.418468,37.752419]]}},{"type":"Feature","properties":{"shape_id":"{\"1001232_shp\": 2, \"1001234_shp\": 36, \"1001349_shp\": 2, \"1001350_shp\": 35, \"1001357_shp\": 12, \"1001395_shp\": 2, \"1001744_shp\": 48, \"1009530_shp\": 34}","direction_id":"{\"0\": 171}","headsign":"{\"Antioch\": 37, \"Antioch via SFO\": 12, \"Berryessa/North San Jose\": 34, \"Dublin/Pleasanton\": 48, \"Pittsburg/Bay Point\": 2, \"Richmond\": 2, \"Richmond via Millbrae\": 36}","duration_avg":120.0,"n_vehicles":171,"d":1666,"route_I_counts":"{\"2\": 51, \"6\": 34, \"8\": 38, \"10\": 48}","source":14,"target":13,"layer":"L","from":"16th Street / Mission","to":"Civic Center / UN Plaza"},"geometry":{"type":"LineString","coordinates":[[-122.419704,37.765173],[-122.413826,37.779408]]}},{"type":"Feature","properties":{"shape_id":"{\"1001291_shp\": 36, \"1001348_shp\": 1, \"1001439_shp\": 38, \"1001440_shp\": 1, \"1001696_shp\": 49, \"1001860_shp\": 33, \"1009378_shp\": 12, \"1009562_shp\": 1}","direction_id":"{\"1\": 171}","headsign":"{\"Daly City\": 83, \"Millbrae (Caltrain Transfer Platform)\": 1, \"San Francisco Int'l Airport + Millbrae\": 48, \"San Francisco International Airport\": 39}","duration_avg":141.75438596491227,"n_vehicles":171,"d":2512,"route_I_counts":"{\"1\": 51, \"5\": 34, \"7\": 37, \"9\": 49}","source":15,"target":16,"layer":"L","from":"24th Street / Mission","to":"Glen Park"},"geometry":{"type":"LineString","coordinates":[[-122.418468,37.752419],[-122.433515,37.733235]]}},{"type":"Feature","properties":{"shape_id":"{\"1001232_shp\": 2, \"1001234_shp\": 36, \"1001349_shp\": 2, \"1001350_shp\": 35, \"1001357_shp\": 12, \"1001395_shp\": 2, \"1001744_shp\": 48, \"1009530_shp\": 34}","direction_id":"{\"0\": 171}","headsign":"{\"Antioch\": 37, \"Antioch via SFO\": 12, \"Berryessa/North San Jose\": 34, \"Dublin/Pleasanton\": 48, \"Pittsburg/Bay Point\": 2, \"Richmond\": 2, \"Richmond via Millbrae\": 36}","duration_avg":118.94736842105263,"n_vehicles":171,"d":1423,"route_I_counts":"{\"2\": 51, \"6\": 34, \"8\": 38, \"10\": 48}","source":15,"target":14,"layer":"L","from":"24th Street / Mission","to":"16th Street / Mission"},"geometry":{"type":"LineString","coordinates":[[-122.418468,37.752419],[-122.419704,37.765173]]}},{"type":"Feature","properties":{"shape_id":"{\"1001291_shp\": 36, \"1001348_shp\": 1, \"1001439_shp\": 38, \"1001440_shp\": 1, \"1001696_shp\": 49, \"1001860_shp\": 33, \"1009378_shp\": 12, \"1009562_shp\": 1}","direction_id":"{\"1\": 171}","headsign":"{\"Daly City\": 83, \"Millbrae (Caltrain Transfer Platform)\": 1, \"San Francisco Int'l Airport + Millbrae\": 48, \"San Francisco International Airport\": 39}","duration_avg":120.0,"n_vehicles":171,"d":1772,"route_I_counts":"{\"1\": 51, \"5\": 34, \"7\": 37, \"9\": 49}","source":16,"target":17,"layer":"L","from":"Glen Park","to":"Balboa Park"},"geometry":{"type":"LineString","coordinates":[[-122.433515,37.733235],[-122.447457,37.721747]]}},{"type":"Feature","properties":{"shape_id":"{\"1001232_shp\": 2, \"1001234_shp\": 36, \"1001349_shp\": 2, \"1001350_shp\": 35, \"1001357_shp\": 12, \"1001395_shp\": 2, \"1001744_shp\": 48, \"1009530_shp\": 33}","direction_id":"{\"0\": 170}","headsign":"{\"Antioch\": 37, \"Antioch via SFO\": 12, \"Berryessa/North San Jose\": 33, \"Dublin/Pleasanton\": 48, \"Pittsburg/Bay Point\": 2, \"Richmond\": 2, \"Richmond via Millbrae\": 36}","duration_avg":150.0,"n_vehicles":170,"d":2512,"route_I_counts":"{\"2\": 51, \"6\": 33, \"8\": 38, \"10\": 48}","source":16,"target":15,"layer":"L","from":"Glen Park","to":"24th Street / Mission"},"geometry":{"type":"LineString","coordinates":[[-122.433515,37.733235],[-122.418468,37.752419]]}},{"type":"Feature","properties":{"shape_id":"{\"1001291_shp\": 37, \"1001348_shp\": 1, \"1001439_shp\": 38, \"1001440_shp\": 1, \"1001696_shp\": 49, \"1001860_shp\": 32, \"1009378_shp\": 12, \"1009562_shp\": 1}","direction_id":"{\"1\": 171}","headsign":"{\"Daly City\": 82, \"Millbrae (Caltrain Transfer Platform)\": 1, \"San Francisco Int'l Airport + Millbrae\": 49, \"San Francisco International Airport\": 39}","duration_avg":237.89473684210526,"n_vehicles":171,"d":2557,"route_I_counts":"{\"1\": 51, \"5\": 33, \"7\": 38, \"9\": 49}","source":17,"target":18,"layer":"L","from":"Balboa Park","to":"Daly City"},"geometry":{"type":"LineString","coordinates":[[-122.447457,37.721747],[-122.468908,37.706259]]}},{"type":"Feature","properties":{"shape_id":"{\"1001232_shp\": 2, \"1001234_shp\": 36, \"1001349_shp\": 2, \"1001350_shp\": 34, \"1001357_shp\": 12, \"1001395_shp\": 2, \"1001744_shp\": 48, \"1009530_shp\": 34}","direction_id":"{\"0\": 170}","headsign":"{\"Antioch\": 36, \"Antioch via SFO\": 12, \"Berryessa/North San Jose\": 34, \"Dublin/Pleasanton\": 48, \"Pittsburg/Bay Point\": 2, \"Richmond\": 2, \"Richmond via Millbrae\": 36}","duration_avg":120.0,"n_vehicles":170,"d":1772,"route_I_counts":"{\"2\": 50, \"6\": 34, \"8\": 38, \"10\": 48}","source":17,"target":16,"layer":"L","from":"Balboa Park","to":"Glen Park"},"geometry":{"type":"LineString","coordinates":[[-122.447457,37.721747],[-122.433515,37.733235]]}},{"type":"Feature","properties":{"shape_id":"{\"1001232_shp\": 2, \"1001234_shp\": 35, \"1001349_shp\": 2, \"1001350_shp\": 35, \"1001357_shp\": 12, \"1001395_shp\": 2, \"1001744_shp\": 47, \"1009530_shp\": 34}","direction_id":"{\"0\": 169}","headsign":"{\"Antioch\": 37, \"Antioch via SFO\": 12, \"Berryessa/North San Jose\": 34, \"Dublin/Pleasanton\": 47, \"Pittsburg/Bay Point\": 2, \"Richmond\": 2, \"Richmond via Millbrae\": 35}","duration_avg":206.62721893491124,"n_vehicles":169,"d":2557,"route_I_counts":"{\"2\": 51, \"6\": 34, \"8\": 37, \"10\": 47}","source":18,"target":17,"layer":"L","from":"Daly City","to":"Balboa Park"},"geometry":{"type":"LineString","coordinates":[[-122.468908,37.706259],[-122.447457,37.721747]]}},{"type":"Feature","properties":{"shape_id":"{\"1001291_shp\": 37, \"1001348_shp\": 1, \"1001439_shp\": 37, \"1001440_shp\": 1, \"1009378_shp\": 12}","direction_id":"{\"1\": 88}","headsign":"{\"Millbrae (Caltrain Transfer Platform)\": 1, \"San Francisco Int'l Airport + Millbrae\": 49, \"San Francisco International Airport\": 38}","duration_avg":231.8181818181818,"n_vehicles":88,"d":2419,"route_I_counts":"{\"1\": 50, \"7\": 38}","source":18,"target":19,"layer":"L","from":"Daly City","to":"Colma"},"geometry":{"type":"LineString","coordinates":[[-122.468908,37.706259],[-122.466157,37.684635]]}},{"type":"Feature","properties":{"shape_id":"{\"1001291_shp\": 37, \"1001348_shp\": 1, \"1001439_shp\": 38, \"1001440_shp\": 1, \"1009378_shp\": 12}","direction_id":"{\"1\": 89}","headsign":"{\"Millbrae (Caltrain Transfer Platform)\": 1, \"San Francisco Int'l Airport + Millbrae\": 49, \"San Francisco International Airport\": 39}","duration_avg":173.93258426966293,"n_vehicles":89,"d":2963,"route_I_counts":"{\"1\": 51, \"7\": 38}","source":19,"target":20,"layer":"L","from":"Colma","to":"South San Francisco"},"geometry":{"type":"LineString","coordinates":[[-122.466157,37.684635],[-122.444211,37.664462]]}},{"type":"Feature","properties":{"shape_id":"{\"1001232_shp\": 2, \"1001234_shp\": 35, \"1001350_shp\": 35, \"1001357_shp\": 12, \"1001395_shp\": 2}","direction_id":"{\"0\": 86}","headsign":"{\"Antioch\": 35, \"Antioch via SFO\": 12, \"Pittsburg/Bay Point\": 2, \"Richmond\": 2, \"Richmond via Millbrae\": 35}","duration_avg":179.30232558139534,"n_vehicles":86,"d":2419,"route_I_counts":"{\"2\": 49, \"8\": 37}","source":19,"target":18,"layer":"L","from":"Colma","to":"Daly City"},"geometry":{"type":"LineString","coordinates":[[-122.466157,37.684635],[-122.468908,37.706259]]}},{"type":"Feature","properties":{"shape_id":"{\"1001291_shp\": 36, \"1001348_shp\": 1, \"1001439_shp\": 38, \"1001440_shp\": 1, \"1009378_shp\": 12}","direction_id":"{\"1\": 88}","headsign":"{\"Millbrae (Caltrain Transfer Platform)\": 1, \"San Francisco Int'l Airport + Millbrae\": 48, \"San Francisco International Airport\": 39}","duration_avg":177.95454545454547,"n_vehicles":88,"d":3859,"route_I_counts":"{\"1\": 51, \"7\": 37}","source":20,"target":21,"layer":"L","from":"South San Francisco","to":"San Bruno"},"geometry":{"type":"LineString","coordinates":[[-122.444211,37.664462],[-122.416326,37.63773]]}},{"type":"Feature","properties":{"shape_id":"{\"1001232_shp\": 2, \"1001234_shp\": 36, \"1001350_shp\": 35, \"1001357_shp\": 12, \"1001395_shp\": 2}","direction_id":"{\"0\": 87}","headsign":"{\"Antioch\": 35, \"Antioch via SFO\": 12, \"Pittsburg/Bay Point\": 2, \"Richmond\": 2, \"Richmond via Millbrae\": 36}","duration_avg":153.10344827586206,"n_vehicles":87,"d":2963,"route_I_counts":"{\"2\": 49, \"8\": 38}","source":20,"target":19,"layer":"L","from":"South San Francisco","to":"Colma"},"geometry":{"type":"LineString","coordinates":[[-122.444211,37.664462],[-122.466157,37.684635]]}},{"type":"Feature","properties":{"shape_id":"{\"1001439_shp\": 38, \"1001440_shp\": 1, \"1009378_shp\": 12}","direction_id":"{\"1\": 51}","headsign":"{\"San Francisco Int'l Airport + Millbrae\": 12, \"San Francisco International Airport\": 39}","duration_avg":290.5882352941176,"n_vehicles":51,"d":3227,"route_I_counts":"{\"1\": 51}","source":21,"target":22,"layer":"L","from":"San Bruno","to":"San Francisco International Airport"},"geometry":{"type":"LineString","coordinates":[[-122.416326,37.63773],[-122.391954,37.616091]]}},{"type":"Feature","properties":{"shape_id":"{\"1001232_shp\": 2, \"1001234_shp\": 36, \"1001350_shp\": 34, \"1001357_shp\": 12, \"1001395_shp\": 2}","direction_id":"{\"0\": 86}","headsign":"{\"Antioch\": 34, \"Antioch via SFO\": 12, \"Pittsburg/Bay Point\": 2, \"Richmond\": 2, \"Richmond via Millbrae\": 36}","duration_avg":158.37209302325581,"n_vehicles":86,"d":3859,"route_I_counts":"{\"2\": 48, \"8\": 38}","source":21,"target":20,"layer":"L","from":"San Bruno","to":"South San Francisco"},"geometry":{"type":"LineString","coordinates":[[-122.416326,37.63773],[-122.444211,37.664462]]}},{"type":"Feature","properties":{"shape_id":"{\"1001291_shp\": 37, \"1001348_shp\": 1}","direction_id":"{\"1\": 38}","headsign":"{\"Millbrae (Caltrain Transfer Platform)\": 1, \"San Francisco Int'l Airport + Millbrae\": 37}","duration_avg":240.0,"n_vehicles":38,"d":4921,"route_I_counts":"{\"7\": 38}","source":21,"target":27,"layer":"L","from":"San Bruno","to":"Millbrae (Caltrain Transfer Platform)"},"geometry":{"type":"LineString","coordinates":[[-122.416326,37.63773],[-122.386757,37.600237]]}},{"type":"Feature","properties":{"shape_id":"{\"1001350_shp\": 35, \"1001357_shp\": 12, \"1001395_shp\": 2}","direction_id":"{\"0\": 49}","headsign":"{\"Antioch\": 35, \"Antioch via SFO\": 12, \"Pittsburg/Bay Point\": 2}","duration_avg":189.79591836734693,"n_vehicles":49,"d":3227,"route_I_counts":"{\"2\": 49}","source":22,"target":21,"layer":"L","from":"San Francisco International Airport","to":"San Bruno"},"geometry":{"type":"LineString","coordinates":[[-122.391954,37.616091],[-122.416326,37.63773]]}},{"type":"Feature","properties":{"shape_id":"{\"1001234_shp\": 35, \"1001290_shp\": 1, \"1009378_shp\": 12}","direction_id":"{\"0\": 36, \"1\": 12}","headsign":"{\"Millbrae (Caltrain Transfer Platform)\": 1, \"Richmond via Millbrae\": 35, \"San Francisco Int'l Airport + Millbrae\": 12}","duration_avg":238.75,"n_vehicles":48,"d":1823,"route_I_counts":"{\"1\": 12, \"8\": 36}","source":22,"target":27,"layer":"L","from":"San Francisco International Airport","to":"Millbrae (Caltrain Transfer Platform)"},"geometry":{"type":"LineString","coordinates":[[-122.391954,37.616091],[-122.386757,37.600237]]}},{"type":"Feature","properties":{"shape_id":"{\"1001439_shp\": 37, \"1009378_shp\": 12}","direction_id":"{\"1\": 49}","headsign":"{\"San Francisco Int'l Airport + Millbrae\": 12, \"San Francisco International Airport\": 37}","duration_avg":420.0,"n_vehicles":49,"d":9830,"route_I_counts":"{\"1\": 49}","source":23,"target":24,"layer":"L","from":"Antioch","to":"Pittsburg Center"},"geometry":{"type":"LineString","coordinates":[[-121.780346,37.995373],[-121.889062,38.016847]]}},{"type":"Feature","properties":{"shape_id":"{\"1001349_shp\": 2, \"1001350_shp\": 35, \"1001357_shp\": 12}","direction_id":"{\"0\": 49}","headsign":"{\"Antioch\": 37, \"Antioch via SFO\": 12}","duration_avg":484.8979591836735,"n_vehicles":49,"d":9830,"route_I_counts":"{\"2\": 49}","source":24,"target":23,"layer":"L","from":"Pittsburg Center","to":"Antioch"},"geometry":{"type":"LineString","coordinates":[[-121.889062,38.016847],[-121.780346,37.995373]]}},{"type":"Feature","properties":{"shape_id":"{\"1001439_shp\": 37, \"1009378_shp\": 12}","direction_id":"{\"1\": 49}","headsign":"{\"San Francisco Int'l Airport + Millbrae\": 12, \"San Francisco International Airport\": 37}","duration_avg":612.2448979591836,"n_vehicles":49,"d":4844,"route_I_counts":"{\"1\": 49}","source":24,"target":25,"layer":"L","from":"Pittsburg Center","to":"Pittsburg / Bay Point"},"geometry":{"type":"LineString","coordinates":[[-121.889062,38.016847],[-121.944236,38.01891]]}},{"type":"Feature","properties":{"shape_id":"{\"1001349_shp\": 2, \"1001350_shp\": 34, \"1001357_shp\": 12}","direction_id":"{\"0\": 48}","headsign":"{\"Antioch\": 36, \"Antioch via SFO\": 12}","duration_avg":502.5,"n_vehicles":48,"d":4844,"route_I_counts":"{\"2\": 48}","source":25,"target":24,"layer":"L","from":"Pittsburg / Bay Point","to":"Pittsburg Center"},"geometry":{"type":"LineString","coordinates":[[-121.944236,38.01891],[-121.889062,38.016847]]}},{"type":"Feature","properties":{"shape_id":"{\"1001439_shp\": 38, \"1009378_shp\": 12}","direction_id":"{\"1\": 50}","headsign":"{\"San Francisco Int'l Airport + Millbrae\": 12, \"San Francisco International Airport\": 38}","duration_avg":360.0,"n_vehicles":50,"d":7249,"route_I_counts":"{\"1\": 50}","source":25,"target":26,"layer":"L","from":"Pittsburg / Bay Point","to":"North Concord / Martinez"},"geometry":{"type":"LineString","coordinates":[[-121.944236,38.01891],[-122.024512,38.003383]]}},{"type":"Feature","properties":{"shape_id":"{\"1001349_shp\": 2, \"1001350_shp\": 34, \"1001357_shp\": 12, \"1001395_shp\": 2}","direction_id":"{\"0\": 50}","headsign":"{\"Antioch\": 36, \"Antioch via SFO\": 12, \"Pittsburg/Bay Point\": 2}","duration_avg":360.0,"n_vehicles":50,"d":7249,"route_I_counts":"{\"2\": 50}","source":26,"target":25,"layer":"L","from":"North Concord / Martinez","to":"Pittsburg / Bay Point"},"geometry":{"type":"LineString","coordinates":[[-122.024512,38.003383],[-121.944236,38.01891]]}},{"type":"Feature","properties":{"shape_id":"{\"1001439_shp\": 38, \"1009378_shp\": 12}","direction_id":"{\"1\": 50}","headsign":"{\"San Francisco Int'l Airport + Millbrae\": 12, \"San Francisco International Airport\": 38}","duration_avg":183.6,"n_vehicles":50,"d":3322,"route_I_counts":"{\"1\": 50}","source":26,"target":0,"layer":"L","from":"North Concord / Martinez","to":"Concord"},"geometry":{"type":"LineString","coordinates":[[-122.024512,38.003383],[-122.029072,37.973757]]}},{"type":"Feature","properties":{"shape_id":"{\"1001291_shp\": 37, \"1001357_shp\": 12}","direction_id":"{\"0\": 12, \"1\": 37}","headsign":"{\"Antioch via SFO\": 12, \"San Francisco Int'l Airport + Millbrae\": 37}","duration_avg":247.3469387755102,"n_vehicles":49,"d":1823,"route_I_counts":"{\"2\": 12, \"7\": 37}","source":27,"target":22,"layer":"L","from":"Millbrae (Caltrain Transfer Platform)","to":"San Francisco International Airport"},"geometry":{"type":"LineString","coordinates":[[-122.386757,37.600237],[-122.391954,37.616091]]}},{"type":"Feature","properties":{"shape_id":"{\"1001232_shp\": 2, \"1001234_shp\": 35}","direction_id":"{\"0\": 37}","headsign":"{\"Richmond\": 2, \"Richmond via Millbrae\": 35}","duration_avg":235.13513513513513,"n_vehicles":37,"d":4921,"route_I_counts":"{\"8\": 37}","source":27,"target":21,"layer":"L","from":"Millbrae (Caltrain Transfer Platform)","to":"San Bruno"},"geometry":{"type":"LineString","coordinates":[[-122.386757,37.600237],[-122.416326,37.63773]]}},{"type":"Feature","properties":{"shape_id":"{\"1001604_shp\": 1, \"1001605_shp\": 1, \"1001612_shp\": 48, \"1001860_shp\": 33, \"1009562_shp\": 1}","direction_id":"{\"0\": 50, \"1\": 34}","headsign":"{\"Daly City\": 34, \"Richmond\": 50}","duration_avg":211.42857142857142,"n_vehicles":84,"d":4730,"route_I_counts":"{\"3\": 50, \"5\": 34}","source":28,"target":29,"layer":"L","from":"South Hayward","to":"Hayward"},"geometry":{"type":"LineString","coordinates":[[-122.057182,37.63434],[-122.086958,37.669699]]}},{"type":"Feature","properties":{"shape_id":"{\"1001542_shp\": 50, \"1009530_shp\": 34}","direction_id":"{\"0\": 34, \"1\": 50}","headsign":"{\"Berryessa/North San Jose\": 84}","duration_avg":268.57142857142856,"n_vehicles":84,"d":5996,"route_I_counts":"{\"4\": 50, \"6\": 34}","source":28,"target":45,"layer":"L","from":"South Hayward","to":"Union City"},"geometry":{"type":"LineString","coordinates":[[-122.057182,37.63434],[-122.017248,37.590735]]}},{"type":"Feature","properties":{"shape_id":"{\"1001604_shp\": 1, \"1001605_shp\": 1, \"1001612_shp\": 49, \"1001860_shp\": 33, \"1009562_shp\": 1}","direction_id":"{\"0\": 51, \"1\": 34}","headsign":"{\"Daly City\": 34, \"Richmond\": 51}","duration_avg":210.35294117647058,"n_vehicles":85,"d":4612,"route_I_counts":"{\"3\": 51, \"5\": 34}","source":29,"target":30,"layer":"L","from":"Hayward","to":"Bay Fair"},"geometry":{"type":"LineString","coordinates":[[-122.086958,37.669699],[-122.126446,37.696908]]}},{"type":"Feature","properties":{"shape_id":"{\"1001542_shp\": 51, \"1009530_shp\": 33}","direction_id":"{\"0\": 33, \"1\": 51}","headsign":"{\"Berryessa/North San Jose\": 84}","duration_avg":214.28571428571428,"n_vehicles":84,"d":4730,"route_I_counts":"{\"4\": 51, \"6\": 33}","source":29,"target":28,"layer":"L","from":"Hayward","to":"South Hayward"},"geometry":{"type":"LineString","coordinates":[[-122.086958,37.669699],[-122.057182,37.63434]]}},{"type":"Feature","properties":{"shape_id":"{\"1001604_shp\": 1, \"1001605_shp\": 1, \"1001612_shp\": 49, \"1001696_shp\": 49, \"1001860_shp\": 32, \"1009562_shp\": 1}","direction_id":"{\"0\": 51, \"1\": 82}","headsign":"{\"Daly City\": 82, \"Richmond\": 51}","duration_avg":235.93984962406014,"n_vehicles":133,"d":4097,"route_I_counts":"{\"3\": 51, \"5\": 33, \"9\": 49}","source":30,"target":31,"layer":"L","from":"Bay Fair","to":"San Leandro"},"geometry":{"type":"LineString","coordinates":[[-122.126446,37.696908],[-122.16074,37.721784]]}},{"type":"Feature","properties":{"shape_id":"{\"1001542_shp\": 51, \"1009530_shp\": 34}","direction_id":"{\"0\": 34, \"1\": 51}","headsign":"{\"Berryessa/North San Jose\": 85}","duration_avg":209.64705882352942,"n_vehicles":85,"d":4612,"route_I_counts":"{\"4\": 51, \"6\": 34}","source":30,"target":29,"layer":"L","from":"Bay Fair","to":"Hayward"},"geometry":{"type":"LineString","coordinates":[[-122.126446,37.696908],[-122.086958,37.669699]]}},{"type":"Feature","properties":{"shape_id":"{\"1001740_shp\": 1, \"1001744_shp\": 47}","direction_id":"{\"0\": 48}","headsign":"{\"Dublin/Pleasanton\": 48}","duration_avg":240.0,"n_vehicles":48,"d":4531,"route_I_counts":"{\"10\": 48}","source":30,"target":48,"layer":"L","from":"Bay Fair","to":"Castro Valley"},"geometry":{"type":"LineString","coordinates":[[-122.126446,37.696908],[-122.075601,37.690737]]}},{"type":"Feature","properties":{"shape_id":"{\"1001604_shp\": 1, \"1001605_shp\": 1, \"1001612_shp\": 49, \"1001696_shp\": 48, \"1001860_shp\": 33, \"1009562_shp\": 1}","direction_id":"{\"0\": 51, \"1\": 82}","headsign":"{\"Daly City\": 82, \"Richmond\": 51}","duration_avg":238.1954887218045,"n_vehicles":133,"d":4749,"route_I_counts":"{\"3\": 51, \"5\": 34, \"9\": 48}","source":31,"target":32,"layer":"L","from":"San Leandro","to":"Coliseum"},"geometry":{"type":"LineString","coordinates":[[-122.16074,37.721784],[-122.196716,37.753576]]}},{"type":"Feature","properties":{"shape_id":"{\"1001542_shp\": 50, \"1001744_shp\": 48, \"1009530_shp\": 34}","direction_id":"{\"0\": 82, \"1\": 50}","headsign":"{\"Berryessa/North San Jose\": 84, \"Dublin/Pleasanton\": 48}","duration_avg":184.0909090909091,"n_vehicles":132,"d":4097,"route_I_counts":"{\"4\": 50, \"6\": 34, \"10\": 48}","source":31,"target":30,"layer":"L","from":"San Leandro","to":"Bay Fair"},"geometry":{"type":"LineString","coordinates":[[-122.16074,37.721784],[-122.126446,37.696908]]}},{"type":"Feature","properties":{"shape_id":"{\"1001604_shp\": 1, \"1001605_shp\": 1, \"1001612_shp\": 48, \"1001696_shp\": 49, \"1001860_shp\": 33, \"1009562_shp\": 1}","direction_id":"{\"0\": 50, \"1\": 83}","headsign":"{\"Daly City\": 83, \"Richmond\": 50}","duration_avg":178.1954887218045,"n_vehicles":133,"d":3376,"route_I_counts":"{\"3\": 50, \"5\": 34, \"9\": 49}","source":32,"target":33,"layer":"L","from":"Coliseum","to":"Fruitvale"},"geometry":{"type":"LineString","coordinates":[[-122.196716,37.753576],[-122.224081,37.774841]]}},{"type":"Feature","properties":{"shape_id":"{\"1001542_shp\": 51, \"1001744_shp\": 48, \"1009530_shp\": 34}","direction_id":"{\"0\": 82, \"1\": 51}","headsign":"{\"Berryessa/North San Jose\": 85, \"Dublin/Pleasanton\": 48}","duration_avg":219.69924812030075,"n_vehicles":133,"d":4749,"route_I_counts":"{\"4\": 51, \"6\": 34, \"10\": 48}","source":32,"target":31,"layer":"L","from":"Coliseum","to":"San Leandro"},"geometry":{"type":"LineString","coordinates":[[-122.196716,37.753576],[-122.16074,37.721784]]}},{"type":"Feature","properties":{"shape_id":"{\"1003859_shp\": 129}","direction_id":"{\"1\": 129}","headsign":"{\"Oakland Airport\": 129}","duration_avg":505.5813953488372,"n_vehicles":129,"d":4689,"route_I_counts":"{\"12\": 129}","source":32,"target":49,"layer":"L","from":"Coliseum","to":"Oakland International Airport Station"},"geometry":{"type":"LineString","coordinates":[[-122.196716,37.753576],[-122.2122,37.713268]]}},{"type":"Feature","properties":{"shape_id":"{\"1001604_shp\": 1, \"1001605_shp\": 1, \"1001612_shp\": 49, \"1001696_shp\": 49, \"1001860_shp\": 32, \"1009562_shp\": 1}","direction_id":"{\"0\": 51, \"1\": 82}","headsign":"{\"Daly City\": 82, \"Richmond\": 51}","duration_avg":240.0,"n_vehicles":133,"d":4402,"route_I_counts":"{\"3\": 51, \"5\": 33, \"9\": 49}","source":33,"target":34,"layer":"L","from":"Fruitvale","to":"Lake Merritt"},"geometry":{"type":"LineString","coordinates":[[-122.224081,37.774841],[-122.265247,37.797322]]}},{"type":"Feature","properties":{"shape_id":"{\"1001542_shp\": 51, \"1001744_shp\": 48, \"1009530_shp\": 33}","direction_id":"{\"0\": 81, \"1\": 51}","headsign":"{\"Berryessa/North San Jose\": 84, \"Dublin/Pleasanton\": 48}","duration_avg":180.0,"n_vehicles":132,"d":3376,"route_I_counts":"{\"4\": 51, \"6\": 33, \"10\": 48}","source":33,"target":32,"layer":"L","from":"Fruitvale","to":"Coliseum"},"geometry":{"type":"LineString","coordinates":[[-122.224081,37.774841],[-122.196716,37.753576]]}},{"type":"Feature","properties":{"shape_id":"{\"1001696_shp\": 48, \"1001860_shp\": 32, \"1009562_shp\": 1}","direction_id":"{\"1\": 81}","headsign":"{\"Daly City\": 81}","duration_avg":300.0,"n_vehicles":81,"d":2761,"route_I_counts":"{\"5\": 33, \"9\": 48}","source":34,"target":9,"layer":"L","from":"Lake Merritt","to":"West Oakland"},"geometry":{"type":"LineString","coordinates":[[-122.265247,37.797322],[-122.295151,37.804888]]}},{"type":"Feature","properties":{"shape_id":"{\"1001542_shp\": 51, \"1001744_shp\": 47, \"1009530_shp\": 34}","direction_id":"{\"0\": 81, \"1\": 51}","headsign":"{\"Berryessa/North San Jose\": 85, \"Dublin/Pleasanton\": 47}","duration_avg":230.0,"n_vehicles":132,"d":4402,"route_I_counts":"{\"4\": 51, \"6\": 34, \"10\": 47}","source":34,"target":33,"layer":"L","from":"Lake Merritt","to":"Fruitvale"},"geometry":{"type":"LineString","coordinates":[[-122.265247,37.797322],[-122.224081,37.774841]]}},{"type":"Feature","properties":{"shape_id":"{\"1001604_shp\": 1, \"1001605_shp\": 1, \"1001612_shp\": 49}","direction_id":"{\"0\": 51}","headsign":"{\"Richmond\": 51}","duration_avg":124.70588235294117,"n_vehicles":51,"d":886,"route_I_counts":"{\"3\": 51}","source":34,"target":8,"layer":"L","from":"Lake Merritt","to":"12th Street / Oakland City Center"},"geometry":{"type":"LineString","coordinates":[[-122.265247,37.797322],[-122.27163,37.803482]]}},{"type":"Feature","properties":{"shape_id":"{\"1001232_shp\": 2, \"1001234_shp\": 36, \"1001604_shp\": 1, \"1001605_shp\": 1, \"1001612_shp\": 49}","direction_id":"{\"0\": 89}","headsign":"{\"Richmond\": 53, \"Richmond via Millbrae\": 36}","duration_avg":120.0,"n_vehicles":89,"d":1902,"route_I_counts":"{\"3\": 51, \"8\": 38}","source":35,"target":36,"layer":"L","from":"Ashby","to":"Downtown Berkeley"},"geometry":{"type":"LineString","coordinates":[[-122.269771,37.853072],[-122.268109,37.87011]]}},{"type":"Feature","properties":{"shape_id":"{\"1001291_shp\": 36, \"1001348_shp\": 1, \"1001542_shp\": 51}","direction_id":"{\"1\": 88}","headsign":"{\"Berryessa/North San Jose\": 51, \"Millbrae (Caltrain Transfer Platform)\": 1, \"San Francisco Int'l Airport + Millbrae\": 36}","duration_avg":179.3181818181818,"n_vehicles":88,"d":2711,"route_I_counts":"{\"4\": 51, \"7\": 37}","source":35,"target":6,"layer":"L","from":"Ashby","to":"MacArthur"},"geometry":{"type":"LineString","coordinates":[[-122.269771,37.853072],[-122.267105,37.828803]]}},{"type":"Feature","properties":{"shape_id":"{\"1001232_shp\": 2, \"1001234_shp\": 36, \"1001604_shp\": 1, \"1001605_shp\": 1, \"1001612_shp\": 49}","direction_id":"{\"0\": 89}","headsign":"{\"Richmond\": 53, \"Richmond via Millbrae\": 36}","duration_avg":120.0,"n_vehicles":89,"d":1422,"route_I_counts":"{\"3\": 51, \"8\": 38}","source":36,"target":37,"layer":"L","from":"Downtown Berkeley","to":"North Berkeley"},"geometry":{"type":"LineString","coordinates":[[-122.268109,37.87011],[-122.283523,37.874005]]}},{"type":"Feature","properties":{"shape_id":"{\"1001291_shp\": 37, \"1001348_shp\": 1, \"1001542_shp\": 51}","direction_id":"{\"1\": 89}","headsign":"{\"Berryessa/North San Jose\": 51, \"Millbrae (Caltrain Transfer Platform)\": 1, \"San Francisco Int'l Airport + Millbrae\": 37}","duration_avg":120.0,"n_vehicles":89,"d":1902,"route_I_counts":"{\"4\": 51, \"7\": 38}","source":36,"target":35,"layer":"L","from":"Downtown Berkeley","to":"Ashby"},"geometry":{"type":"LineString","coordinates":[[-122.268109,37.87011],[-122.269771,37.853072]]}},{"type":"Feature","properties":{"shape_id":"{\"1001232_shp\": 2, \"1001234_shp\": 35, \"1001604_shp\": 1, \"1001605_shp\": 1, \"1001612_shp\": 49}","direction_id":"{\"0\": 88}","headsign":"{\"Richmond\": 53, \"Richmond via Millbrae\": 35}","duration_avg":176.5909090909091,"n_vehicles":88,"d":3459,"route_I_counts":"{\"3\": 51, \"8\": 37}","source":37,"target":38,"layer":"L","from":"North Berkeley","to":"El Cerrito Plaza"},"geometry":{"type":"LineString","coordinates":[[-122.283523,37.874005],[-122.29892,37.90261]]}},{"type":"Feature","properties":{"shape_id":"{\"1001291_shp\": 37, \"1001348_shp\": 1, \"1001542_shp\": 50}","direction_id":"{\"1\": 88}","headsign":"{\"Berryessa/North San Jose\": 50, \"Millbrae (Caltrain Transfer Platform)\": 1, \"San Francisco Int'l Airport + Millbrae\": 37}","duration_avg":120.68181818181819,"n_vehicles":88,"d":1422,"route_I_counts":"{\"4\": 50, \"7\": 38}","source":37,"target":36,"layer":"L","from":"North Berkeley","to":"Downtown Berkeley"},"geometry":{"type":"LineString","coordinates":[[-122.283523,37.874005],[-122.268109,37.87011]]}},{"type":"Feature","properties":{"shape_id":"{\"1001232_shp\": 2, \"1001234_shp\": 36, \"1001604_shp\": 1, \"1001605_shp\": 1, \"1001612_shp\": 49}","direction_id":"{\"0\": 89}","headsign":"{\"Richmond\": 53, \"Richmond via Millbrae\": 36}","duration_avg":175.2808988764045,"n_vehicles":89,"d":2967,"route_I_counts":"{\"3\": 51, \"8\": 38}","source":38,"target":39,"layer":"L","from":"El Cerrito Plaza","to":"El Cerrito Del Norte"},"geometry":{"type":"LineString","coordinates":[[-122.29892,37.90261],[-122.316892,37.925184]]}},{"type":"Feature","properties":{"shape_id":"{\"1001291_shp\": 37, \"1001348_shp\": 1, \"1001542_shp\": 51}","direction_id":"{\"1\": 89}","headsign":"{\"Berryessa/North San Jose\": 51, \"Millbrae (Caltrain Transfer Platform)\": 1, \"San Francisco Int'l Airport + Millbrae\": 37}","duration_avg":180.0,"n_vehicles":89,"d":3459,"route_I_counts":"{\"4\": 51, \"7\": 38}","source":38,"target":37,"layer":"L","from":"El Cerrito Plaza","to":"North Berkeley"},"geometry":{"type":"LineString","coordinates":[[-122.29892,37.90261],[-122.283523,37.874005]]}},{"type":"Feature","properties":{"shape_id":"{\"1001232_shp\": 2, \"1001234_shp\": 36, \"1001604_shp\": 1, \"1001605_shp\": 1, \"1001612_shp\": 48}","direction_id":"{\"0\": 88}","headsign":"{\"Richmond\": 52, \"Richmond via Millbrae\": 36}","duration_avg":240.0,"n_vehicles":88,"d":3426,"route_I_counts":"{\"3\": 50, \"8\": 38}","source":39,"target":40,"layer":"L","from":"El Cerrito Del Norte","to":"Richmond"},"geometry":{"type":"LineString","coordinates":[[-122.316892,37.925184],[-122.353047,37.936758]]}},{"type":"Feature","properties":{"shape_id":"{\"1001291_shp\": 37, \"1001348_shp\": 1, \"1001542_shp\": 51}","direction_id":"{\"1\": 89}","headsign":"{\"Berryessa/North San Jose\": 51, \"Millbrae (Caltrain Transfer Platform)\": 1, \"San Francisco Int'l Airport + Millbrae\": 37}","duration_avg":122.69662921348315,"n_vehicles":89,"d":2967,"route_I_counts":"{\"4\": 51, \"7\": 38}","source":39,"target":38,"layer":"L","from":"El Cerrito Del Norte","to":"El Cerrito Plaza"},"geometry":{"type":"LineString","coordinates":[[-122.316892,37.925184],[-122.29892,37.90261]]}},{"type":"Feature","properties":{"shape_id":"{\"1001291_shp\": 36, \"1001348_shp\": 1, \"1001542_shp\": 51}","direction_id":"{\"1\": 88}","headsign":"{\"Berryessa/North San Jose\": 51, \"Millbrae (Caltrain Transfer Platform)\": 1, \"San Francisco Int'l Airport + Millbrae\": 36}","duration_avg":204.54545454545453,"n_vehicles":88,"d":3426,"route_I_counts":"{\"4\": 51, \"7\": 37}","source":40,"target":39,"layer":"L","from":"Richmond","to":"El Cerrito Del Norte"},"geometry":{"type":"LineString","coordinates":[[-122.353047,37.936758],[-122.316892,37.925184]]}},{"type":"Feature","properties":{"shape_id":"{\"1001612_shp\": 48, \"1001860_shp\": 33}","direction_id":"{\"0\": 48, \"1\": 33}","headsign":"{\"Daly City\": 33, \"Richmond\": 48}","duration_avg":239.25925925925927,"n_vehicles":81,"d":4874,"route_I_counts":"{\"3\": 48, \"5\": 33}","source":41,"target":42,"layer":"L","from":"Berryessa / North San Jose","to":"Milpitas"},"geometry":{"type":"LineString","coordinates":[[-121.874681,37.368473],[-121.891081,37.410277]]}},{"type":"Feature","properties":{"shape_id":"{\"1001612_shp\": 49, \"1001860_shp\": 32}","direction_id":"{\"0\": 49, \"1\": 32}","headsign":"{\"Daly City\": 32, \"Richmond\": 49}","duration_avg":480.0,"n_vehicles":81,"d":11096,"route_I_counts":"{\"3\": 49, \"5\": 32}","source":42,"target":43,"layer":"L","from":"Milpitas","to":"Warm Springs / South Fremont"},"geometry":{"type":"LineString","coordinates":[[-121.891081,37.410277],[-121.939395,37.502285]]}},{"type":"Feature","properties":{"shape_id":"{\"1001542_shp\": 51, \"1001614_shp\": 4, \"1009530_shp\": 33}","direction_id":"{\"0\": 34, \"1\": 54}","headsign":"{\"Berryessa/North San Jose\": 88}","duration_avg":270.0,"n_vehicles":88,"d":4874,"route_I_counts":"{\"4\": 54, \"6\": 34}","source":42,"target":41,"layer":"L","from":"Milpitas","to":"Berryessa / North San Jose"},"geometry":{"type":"LineString","coordinates":[[-121.891081,37.410277],[-121.874681,37.368473]]}},{"type":"Feature","properties":{"shape_id":"{\"1001612_shp\": 48, \"1001860_shp\": 33}","direction_id":"{\"0\": 48, \"1\": 33}","headsign":"{\"Daly City\": 33, \"Richmond\": 48}","duration_avg":334.81481481481484,"n_vehicles":81,"d":6967,"route_I_counts":"{\"3\": 48, \"5\": 33}","source":43,"target":44,"layer":"L","from":"Warm Springs / South Fremont","to":"Fremont"},"geometry":{"type":"LineString","coordinates":[[-121.939395,37.502285],[-121.976619,37.55748]]}},{"type":"Feature","properties":{"shape_id":"{\"1001542_shp\": 50, \"1001614_shp\": 4, \"1009530_shp\": 34}","direction_id":"{\"0\": 35, \"1\": 53}","headsign":"{\"Berryessa/North San Jose\": 88}","duration_avg":480.0,"n_vehicles":88,"d":11096,"route_I_counts":"{\"4\": 53, \"6\": 35}","source":43,"target":42,"layer":"L","from":"Warm Springs / South Fremont","to":"Milpitas"},"geometry":{"type":"LineString","coordinates":[[-121.939395,37.502285],[-121.891081,37.410277]]}},{"type":"Feature","properties":{"shape_id":"{\"1001604_shp\": 1, \"1001612_shp\": 49, \"1001860_shp\": 32}","direction_id":"{\"0\": 50, \"1\": 32}","headsign":"{\"Daly City\": 32, \"Richmond\": 50}","duration_avg":240.73170731707316,"n_vehicles":82,"d":5153,"route_I_counts":"{\"3\": 50, \"5\": 32}","source":44,"target":45,"layer":"L","from":"Fremont","to":"Union City"},"geometry":{"type":"LineString","coordinates":[[-121.976619,37.55748],[-122.017248,37.590735]]}},{"type":"Feature","properties":{"shape_id":"{\"1001542_shp\": 51, \"1001614_shp\": 4, \"1009530_shp\": 33}","direction_id":"{\"0\": 34, \"1\": 54}","headsign":"{\"Berryessa/North San Jose\": 88}","duration_avg":388.6363636363636,"n_vehicles":88,"d":6967,"route_I_counts":"{\"4\": 54, \"6\": 34}","source":44,"target":43,"layer":"L","from":"Fremont","to":"Warm Springs / South Fremont"},"geometry":{"type":"LineString","coordinates":[[-121.976619,37.55748],[-121.939395,37.502285]]}},{"type":"Feature","properties":{"shape_id":"{\"1001604_shp\": 1, \"1001612_shp\": 49, \"1001860_shp\": 33}","direction_id":"{\"0\": 50, \"1\": 33}","headsign":"{\"Daly City\": 33, \"Richmond\": 50}","duration_avg":271.0843373493976,"n_vehicles":83,"d":5996,"route_I_counts":"{\"3\": 50, \"5\": 33}","source":45,"target":28,"layer":"L","from":"Union City","to":"South Hayward"},"geometry":{"type":"LineString","coordinates":[[-122.017248,37.590735],[-122.057182,37.63434]]}},{"type":"Feature","properties":{"shape_id":"{\"1001542_shp\": 51, \"1001614_shp\": 4, \"1009530_shp\": 34}","direction_id":"{\"0\": 35, \"1\": 54}","headsign":"{\"Berryessa/North San Jose\": 89}","duration_avg":242.02247191011236,"n_vehicles":89,"d":5153,"route_I_counts":"{\"4\": 54, \"6\": 35}","source":45,"target":44,"layer":"L","from":"Union City","to":"Fremont"},"geometry":{"type":"LineString","coordinates":[[-122.017248,37.590735],[-121.976619,37.55748]]}},{"type":"Feature","properties":{"shape_id":"{\"1001672_shp\": 1, \"1001696_shp\": 49}","direction_id":"{\"1\": 50}","headsign":"{\"Bay Fair\": 1, \"Daly City\": 49}","duration_avg":124.8,"n_vehicles":50,"d":2567,"route_I_counts":"{\"9\": 50}","source":46,"target":47,"layer":"L","from":"Dublin / Pleasanton","to":"West Dublin / Pleasanton"},"geometry":{"type":"LineString","coordinates":[[-121.899229,37.701646],[-121.928277,37.699721]]}},{"type":"Feature","properties":{"shape_id":"{\"1001672_shp\": 1, \"1001696_shp\": 48}","direction_id":"{\"1\": 49}","headsign":"{\"Bay Fair\": 1, \"Daly City\": 48}","duration_avg":544.8979591836735,"n_vehicles":49,"d":13015,"route_I_counts":"{\"9\": 49}","source":47,"target":48,"layer":"L","from":"West Dublin / Pleasanton","to":"Castro Valley"},"geometry":{"type":"LineString","coordinates":[[-121.928277,37.699721],[-122.075601,37.690737]]}},{"type":"Feature","properties":{"shape_id":"{\"1001740_shp\": 1, \"1001744_shp\": 47}","direction_id":"{\"0\": 48}","headsign":"{\"Dublin/Pleasanton\": 48}","duration_avg":176.25,"n_vehicles":48,"d":2567,"route_I_counts":"{\"10\": 48}","source":47,"target":46,"layer":"L","from":"West Dublin / Pleasanton","to":"Dublin / Pleasanton"},"geometry":{"type":"LineString","coordinates":[[-121.928277,37.699721],[-121.899229,37.701646]]}},{"type":"Feature","properties":{"shape_id":"{\"1001672_shp\": 1, \"1001696_shp\": 49}","direction_id":"{\"1\": 50}","headsign":"{\"Bay Fair\": 1, \"Daly City\": 49}","duration_avg":240.0,"n_vehicles":50,"d":4531,"route_I_counts":"{\"9\": 50}","source":48,"target":30,"layer":"L","from":"Castro Valley","to":"Bay Fair"},"geometry":{"type":"LineString","coordinates":[[-122.075601,37.690737],[-122.126446,37.696908]]}},{"type":"Feature","properties":{"shape_id":"{\"1001740_shp\": 1, \"1001744_shp\": 48}","direction_id":"{\"0\": 49}","headsign":"{\"Dublin/Pleasanton\": 49}","duration_avg":548.5714285714286,"n_vehicles":49,"d":13015,"route_I_counts":"{\"10\": 49}","source":48,"target":47,"layer":"L","from":"Castro Valley","to":"West Dublin / Pleasanton"},"geometry":{"type":"LineString","coordinates":[[-122.075601,37.690737],[-121.928277,37.699721]]}},{"type":"Feature","properties":{"shape_id":"{\"1004175_shp\": 131}","direction_id":"{\"0\": 131}","headsign":"{\"Coliseum\": 131}","duration_avg":510.68702290076334,"n_vehicles":131,"d":4689,"route_I_counts":"{\"11\": 131}","source":49,"target":32,"layer":"L","from":"Oakland International Airport Station","to":"Coliseum"},"geometry":{"type":"LineString","coordinates":[[-122.2122,37.713268],[-122.196716,37.753576]]}}]}