{"type":"FeatureCollection","features":[{"type":"Feature","geometry":{"type":"Point","coordinates":[-79.415692,43.780147]},"properties":{"name":"Finch Station - Southbound Platform","original_ids":"[8657, 8720]","id":0,"layer":"stop"}},{"type":"Feature","geometry":{"type":"Point","coordinates":[-79.412492,43.767347]},"properties":{"name":"North York Centre Station - Southbound Platform","original_ids":"[8658, 8719]","id":1,"layer":"stop"}},{"type":"Feature","geometry":{"type":"Point","coordinates":[-79.410691,43.760348]},"properties":{"name":"Sheppard-Yonge Station - Southbound Platform","original_ids":"[8659, 8718, 8783, 8792]","id":2,"layer":"stop"}},{"type":"Feature","geometry":{"type":"Point","coordinates":[-79.405991,43.743248]},"properties":{"name":"York Mills Station - Southbound Platform","original_ids":"[8660, 8717]","id":3,"layer":"stop"}},{"type":"Feature","geometry":{"type":"Point","coordinates":[-79.40229,43.725348]},"properties":{"name":"Lawrence Station - Southbound Platform","original_ids":"[8661, 8716]","id":4,"layer":"stop"}},{"type":"Feature","geometry":{"type":"Point","coordinates":[-79.39889,43.704648]},"properties":{"name":"Eglinton Station - Southbound Platform","original_ids":"[8662, 8715]","id":5,"layer":"stop"}},{"type":"Feature","geometry":{"type":"Point","coordinates":[-79.39689,43.697048]},"properties":{"name":"Davisville Station - Southbound Platform","original_ids":"[8663, 8714]","id":6,"layer":"stop"}},{"type":"Feature","geometry":{"type":"Point","coordinates":[-79.393089,43.687449]},"properties":{"name":"St Clair Station - Southbound Platform","original_ids":"[8664, 8713]","id":7,"layer":"stop"}},{"type":"Feature","geometry":{"type":"Point","coordinates":[-79.390789,43.682049]},"properties":{"name":"Summerhill Station - Southbound Platform","original_ids":"[8665, 8712]","id":8,"layer":"stop"}},{"type":"Feature","geometry":{"type":"Point","coordinates":[-79.388089,43.676049]},"properties":{"name":"Rosedale Station - Southbound Platform","original_ids":"[8666, 8711]","id":9,"layer":"stop"}},{"type":"Feature","geometry":{"type":"Point","coordinates":[-79.385389,43.670049]},"properties":{"name":"Bloor Station - Southbound Platform","original_ids":"[8667, 8710, 8738, 8765]","id":10,"layer":"stop"}},{"type":"Feature","geometry":{"type":"Point","coordinates":[-79.383488,43.664949]},"properties":{"name":"Wellesley Station - Southbound Platform","original_ids":"[8668, 8709]","id":11,"layer":"stop"}},{"type":"Feature","geometry":{"type":"Point","coordinates":[-79.382688,43.660149]},"properties":{"name":"College Station - Southbound Platform","original_ids":"[8669, 8708]","id":12,"layer":"stop"}},{"type":"Feature","geometry":{"type":"Point","coordinates":[-79.380788,43.655949]},"properties":{"name":"Dundas Station - Southbound Platform","original_ids":"[8670, 8707]","id":13,"layer":"stop"}},{"type":"Feature","geometry":{"type":"Point","coordinates":[-79.379188,43.652149]},"properties":{"name":"Queen Station - Southbound Platform","original_ids":"[8671, 8706]","id":14,"layer":"stop"}},{"type":"Feature","geometry":{"type":"Point","coordinates":[-79.377688,43.648449]},"properties":{"name":"King Station - Southbound Platform","original_ids":"[8672, 8705]","id":15,"layer":"stop"}},{"type":"Feature","geometry":{"type":"Point","coordinates":[-79.385088,43.648249]},"properties":{"name":"St Andrew Station - Northbound Platform","original_ids":"[8674, 8703]","id":16,"layer":"stop"}},{"type":"Feature","geometry":{"type":"Point","coordinates":[-79.386888,43.651749]},"properties":{"name":"Osgoode Station - Northbound Platform","original_ids":"[8675, 8702]","id":17,"layer":"stop"}},{"type":"Feature","geometry":{"type":"Point","coordinates":[-79.388388,43.655249]},"properties":{"name":"St Patrick Station - Northbound Platform","original_ids":"[8676, 8701]","id":18,"layer":"stop"}},{"type":"Feature","geometry":{"type":"Point","coordinates":[-79.390689,43.660549]},"properties":{"name":"Queen'S Park Station - Northbound Platform","original_ids":"[8677, 8700]","id":19,"layer":"stop"}},{"type":"Feature","geometry":{"type":"Point","coordinates":[-79.393389,43.667249]},"properties":{"name":"Museum Station - Northbound Platform","original_ids":"[8678, 8699]","id":20,"layer":"stop"}},{"type":"Feature","geometry":{"type":"Point","coordinates":[-79.399689,43.668249]},"properties":{"name":"St George Station - Northbound Platform","original_ids":"[8679, 8767, 8698, 8736]","id":21,"layer":"stop"}},{"type":"Feature","geometry":{"type":"Point","coordinates":[-79.405189,43.670249]},"properties":{"name":"Spadina Station - Northbound Platform","original_ids":"[8680, 8697, 8735, 8768]","id":22,"layer":"stop"}},{"type":"Feature","geometry":{"type":"Point","coordinates":[-79.40709,43.674949]},"properties":{"name":"Dupont Station - Northbound Platform","original_ids":"[8681, 8696]","id":23,"layer":"stop"}},{"type":"Feature","geometry":{"type":"Point","coordinates":[-79.41589,43.685148]},"properties":{"name":"St Clair West Station - Northbound Platform","original_ids":"[8682, 8695]","id":24,"layer":"stop"}},{"type":"Feature","geometry":{"type":"Point","coordinates":[-79.436691,43.700648]},"properties":{"name":"Eglinton West Station - Northbound Platform","original_ids":"[8683, 8694]","id":25,"layer":"stop"}},{"type":"Feature","geometry":{"type":"Point","coordinates":[-79.440892,43.709148]},"properties":{"name":"Glencairn Station - Northbound Platform","original_ids":"[8684, 8693]","id":26,"layer":"stop"}},{"type":"Feature","geometry":{"type":"Point","coordinates":[-79.444038,43.715784]},"properties":{"name":"Lawrence West Station - Northbound Platform","original_ids":"[8685, 8692]","id":27,"layer":"stop"}},{"type":"Feature","geometry":{"type":"Point","coordinates":[-79.447692,43.725248]},"properties":{"name":"Yorkdale Station - Northbound Platform","original_ids":"[8686, 8691]","id":28,"layer":"stop"}},{"type":"Feature","geometry":{"type":"Point","coordinates":[-79.450192,43.735048]},"properties":{"name":"Wilson Station - Northbound Platform","original_ids":"[8687, 8690]","id":29,"layer":"stop"}},{"type":"Feature","geometry":{"type":"Point","coordinates":[-79.462781,43.750204]},"properties":{"name":"Sheppard West Station - Subway Platform","original_ids":"[8688, 8689]","id":30,"layer":"stop"}},{"type":"Feature","geometry":{"type":"Point","coordinates":[-79.478693,43.753311]},"properties":{"name":"Downsview Park Station - Northbound Platform","original_ids":"[9137, 9138]","id":31,"layer":"stop"}},{"type":"Feature","geometry":{"type":"Point","coordinates":[-79.491118,43.764855]},"properties":{"name":"Finch West Station - Northbound Platform","original_ids":"[9135, 9136]","id":32,"layer":"stop"}},{"type":"Feature","geometry":{"type":"Point","coordinates":[-79.499888,43.774097]},"properties":{"name":"York University - Northbound Platform","original_ids":"[9133, 9134]","id":33,"layer":"stop"}},{"type":"Feature","geometry":{"type":"Point","coordinates":[-79.509334,43.776741]},"properties":{"name":"Pioneer Village Station - Northbound Platform","original_ids":"[9132, 9131]","id":34,"layer":"stop"}},{"type":"Feature","geometry":{"type":"Point","coordinates":[-79.523454,43.783359]},"properties":{"name":"Highway 407 Station - Northbound Platform","original_ids":"[9139, 9140]","id":35,"layer":"stop"}},{"type":"Feature","geometry":{"type":"Point","coordinates":[-79.527906,43.794021]},"properties":{"name":"Vaughan Metropolitan Centre Station - Northbound Platform","original_ids":"[9141, 9142]","id":36,"layer":"stop"}},{"type":"Feature","geometry":{"type":"Point","coordinates":[-79.379688,43.645849]},"properties":{"name":"Union Station - Northbound Platform Towards Finch","original_ids":"[8704, 8673]","id":37,"layer":"stop"}},{"type":"Feature","geometry":{"type":"Point","coordinates":[-79.523293,43.645548]},"properties":{"name":"Islington Station - Eastbound Platform","original_ids":"[8722, 8781]","id":38,"layer":"stop"}},{"type":"Feature","geometry":{"type":"Point","coordinates":[-79.508693,43.648548]},"properties":{"name":"Royal York Station - Eastbound Platform","original_ids":"[8723, 8780]","id":39,"layer":"stop"}},{"type":"Feature","geometry":{"type":"Point","coordinates":[-79.493392,43.649448]},"properties":{"name":"Old Mill Station - Eastbound Platform","original_ids":"[8724, 8779]","id":40,"layer":"stop"}},{"type":"Feature","geometry":{"type":"Point","coordinates":[-79.482892,43.650149]},"properties":{"name":"Jane Station - Eastbound Platform","original_ids":"[8725, 8778]","id":41,"layer":"stop"}},{"type":"Feature","geometry":{"type":"Point","coordinates":[-79.474992,43.652049]},"properties":{"name":"Runnymede Station - Eastbound Platform","original_ids":"[8726, 8777]","id":42,"layer":"stop"}},{"type":"Feature","geometry":{"type":"Point","coordinates":[-79.466991,43.653849]},"properties":{"name":"High Park Station - Eastbound Platform","original_ids":"[8727, 8776]","id":43,"layer":"stop"}},{"type":"Feature","geometry":{"type":"Point","coordinates":[-79.458691,43.655649]},"properties":{"name":"Keele Station - Eastbound Platform","original_ids":"[8728, 8775]","id":44,"layer":"stop"}},{"type":"Feature","geometry":{"type":"Point","coordinates":[-79.451091,43.657449]},"properties":{"name":"Dundas West Station - Eastbound Platform","original_ids":"[8729, 8774]","id":45,"layer":"stop"}},{"type":"Feature","geometry":{"type":"Point","coordinates":[-79.442463,43.659246]},"properties":{"name":"Lansdowne Station - Eastbound Platform","original_ids":"[8730, 8773]","id":46,"layer":"stop"}},{"type":"Feature","geometry":{"type":"Point","coordinates":[-79.43389,43.660849]},"properties":{"name":"Dufferin Station - Eastbound Platform","original_ids":"[8731, 8772]","id":47,"layer":"stop"}},{"type":"Feature","geometry":{"type":"Point","coordinates":[-79.42609,43.662349]},"properties":{"name":"Ossington Station - Eastbound Platform","original_ids":"[8732, 8771]","id":48,"layer":"stop"}},{"type":"Feature","geometry":{"type":"Point","coordinates":[-79.41729,43.664449]},"properties":{"name":"Christie Station - Eastbound Platform","original_ids":"[8733, 8770]","id":49,"layer":"stop"}},{"type":"Feature","geometry":{"type":"Point","coordinates":[-79.410589,43.665949]},"properties":{"name":"Bathurst Station - Eastbound Platform","original_ids":"[8734, 8769]","id":50,"layer":"stop"}},{"type":"Feature","geometry":{"type":"Point","coordinates":[-79.390089,43.670149]},"properties":{"name":"Bay Station - Eastbound Platform","original_ids":"[8737, 8766]","id":51,"layer":"stop"}},{"type":"Feature","geometry":{"type":"Point","coordinates":[-79.376162,43.672103]},"properties":{"name":"Sherbourne Station - Eastbound Platform","original_ids":"[8739, 8764]","id":52,"layer":"stop"}},{"type":"Feature","geometry":{"type":"Point","coordinates":[-79.368088,43.674049]},"properties":{"name":"Castle Frank Station - Eastbound Platform","original_ids":"[8740, 8763]","id":53,"layer":"stop"}},{"type":"Feature","geometry":{"type":"Point","coordinates":[-79.358088,43.677049]},"properties":{"name":"Broadview Station - Eastbound Platform","original_ids":"[8741, 8762]","id":54,"layer":"stop"}},{"type":"Feature","geometry":{"type":"Point","coordinates":[-79.352502,43.678241]},"properties":{"name":"Chester Station - Eastbound Platform","original_ids":"[8742, 8761]","id":55,"layer":"stop"}},{"type":"Feature","geometry":{"type":"Point","coordinates":[-79.344087,43.679949]},"properties":{"name":"Pape Station - Eastbound Platform","original_ids":"[8743, 8760]","id":56,"layer":"stop"}},{"type":"Feature","geometry":{"type":"Point","coordinates":[-79.337487,43.681149]},"properties":{"name":"Donlands Station - Eastbound Platform","original_ids":"[8744, 8759]","id":57,"layer":"stop"}},{"type":"Feature","geometry":{"type":"Point","coordinates":[-79.331687,43.682549]},"properties":{"name":"Greenwood Station - Eastbound Platform","original_ids":"[8745, 8758]","id":58,"layer":"stop"}},{"type":"Feature","geometry":{"type":"Point","coordinates":[-79.321986,43.684549]},"properties":{"name":"Coxwell Station - Eastbound Platform","original_ids":"[8746, 8757]","id":59,"layer":"stop"}},{"type":"Feature","geometry":{"type":"Point","coordinates":[-79.312286,43.686649]},"properties":{"name":"Woodbine Station - Eastbound Platform","original_ids":"[8747, 8756]","id":60,"layer":"stop"}},{"type":"Feature","geometry":{"type":"Point","coordinates":[-79.300686,43.689249]},"properties":{"name":"Main Street Station - Eastbound Platform","original_ids":"[8748, 8755]","id":61,"layer":"stop"}},{"type":"Feature","geometry":{"type":"Point","coordinates":[-79.287885,43.695149]},"properties":{"name":"Victoria Park Station - Eastbound Platform","original_ids":"[8749, 8754]","id":62,"layer":"stop"}},{"type":"Feature","geometry":{"type":"Point","coordinates":[-79.278785,43.712149]},"properties":{"name":"Warden Station - Eastbound Platform","original_ids":"[8750, 8753]","id":63,"layer":"stop"}},{"type":"Feature","geometry":{"type":"Point","coordinates":[-79.263718,43.732487]},"properties":{"name":"Kennedy Station - Subway Platform","original_ids":"[8751, 8798, 8799, 8752]","id":64,"layer":"stop"}},{"type":"Feature","geometry":{"type":"Point","coordinates":[-79.535892,43.637392]},"properties":{"name":"Kipling Station - Subway Platform","original_ids":"[8782, 8721]","id":65,"layer":"stop"}},{"type":"Feature","geometry":{"type":"Point","coordinates":[-79.257786,43.774448]},"properties":{"name":"Scarborough Centre Station - Westbound Platform","original_ids":"[8794, 8803]","id":66,"layer":"stop"}},{"type":"Feature","geometry":{"type":"Point","coordinates":[-79.272286,43.770448]},"properties":{"name":"Midland Station - Westbound Platform","original_ids":"[8795, 8802]","id":67,"layer":"stop"}},{"type":"Feature","geometry":{"type":"Point","coordinates":[-79.276186,43.766548]},"properties":{"name":"Ellesmere Station - Southbound Platform","original_ids":"[8796, 8801]","id":68,"layer":"stop"}},{"type":"Feature","geometry":{"type":"Point","coordinates":[-79.270186,43.750148]},"properties":{"name":"Lawrence East Station - Southbound Platform","original_ids":"[8797, 8800]","id":69,"layer":"stop"}},{"type":"Feature","geometry":{"type":"Point","coordinates":[-79.251111,43.77496]},"properties":{"name":"McCowan Station - Platform","original_ids":"[8804, 8793]","id":70,"layer":"stop"}},{"type":"Feature","geometry":{"type":"Point","coordinates":[-79.36499,43.771348]},"properties":{"name":"Leslie Station - Eastbound Platform","original_ids":"[8786, 8789]","id":71,"layer":"stop"}},{"type":"Feature","geometry":{"type":"Point","coordinates":[-79.376312,43.769202]},"properties":{"name":"Bessarion Station - Eastbound Platform","original_ids":"[8785, 8790]","id":72,"layer":"stop"}},{"type":"Feature","geometry":{"type":"Point","coordinates":[-79.386703,43.766872]},"properties":{"name":"Bayview Station - Eastbound Platform","original_ids":"[8784, 8791]","id":73,"layer":"stop"}},{"type":"Feature","geometry":{"type":"Point","coordinates":[-79.346189,43.775248]},"properties":{"name":"Don Mills Station - Westbound Platform","original_ids":"[8788, 8787]","id":74,"layer":"stop"}},{"type":"Feature","properties":{"shape_id":"{\"909397\": 202, \"909399\": 1, \"909421\": 3, \"909474\": 42}","direction_id":"{\"0\": 248}","headsign":"{\"LINE 1 (YONGE-UNIVERSITY) towards SHEPPARD WEST STATION\": 3, \"LINE 1 (YONGE-UNIVERSITY) towards VAUGHAN METROPOLITAN CENTRE STATION\": 245}","duration_avg":137.81451612903226,"n_vehicles":248,"d":1447,"route_I_counts":"{\"1\": 248}","source":0,"target":1,"layer":"L","from":"Finch Station - Southbound Platform","to":"North York Centre Station - Southbound Platform"},"geometry":{"type":"LineString","coordinates":[[-79.415692,43.780147],[-79.412492,43.767347]]}},{"type":"Feature","properties":{"shape_id":"{\"909397\": 202, \"909399\": 1, \"909421\": 3, \"909474\": 42}","direction_id":"{\"0\": 248}","headsign":"{\"LINE 1 (YONGE-UNIVERSITY) towards SHEPPARD WEST STATION\": 3, \"LINE 1 (YONGE-UNIVERSITY) towards VAUGHAN METROPOLITAN CENTRE STATION\": 245}","duration_avg":71.81451612903226,"n_vehicles":248,"d":792,"route_I_counts":"{\"1\": 248}","source":1,"target":2,"layer":"L","from":"North York Centre Station - Southbound Platform","to":"Sheppard-Yonge Station - Southbound Platform"},"geometry":{"type":"LineString","coordinates":[[-79.412492,43.767347],[-79.410691,43.760348]]}},{"type":"Feature","properties":{"duration_avg":263.7692307692308,"n_vehicles":234,"d":1386,"route_I_counts":"{\"1\": 234}","shape_id":"{\"909690\": 176, \"909711\": 56, \"909712\": 1, \"909713\": 1}","direction_id":"{\"1\": 234}","headsign":"{\"LINE 1 (YONGE-UNIVERSITY) towards FINCH STATION\": 234}","source":1,"target":0,"layer":"L","from":"North York Centre Station - Southbound Platform","to":"Finch Station - Southbound Platform"},"geometry":{"type":"LineString","coordinates":[[-79.412492,43.767347],[-79.415692,43.780147]]}},{"type":"Feature","properties":{"shape_id":"{\"909397\": 202, \"909399\": 1, \"909421\": 3, \"909474\": 42}","direction_id":"{\"0\": 248}","headsign":"{\"LINE 1 (YONGE-UNIVERSITY) towards SHEPPARD WEST STATION\": 3, \"LINE 1 (YONGE-UNIVERSITY) towards VAUGHAN METROPOLITAN CENTRE STATION\": 245}","duration_avg":178.18548387096774,"n_vehicles":248,"d":1940,"route_I_counts":"{\"1\": 248}","source":2,"target":3,"layer":"L","from":"Sheppard-Yonge Station - Southbound Platform","to":"York Mills Station - Southbound Platform"},"geometry":{"type":"LineString","coordinates":[[-79.410691,43.760348],[-79.405991,43.743248]]}},{"type":"Feature","properties":{"duration_avg":87.0,"n_vehicles":234,"d":780,"route_I_counts":"{\"1\": 234}","shape_id":"{\"909690\": 176, \"909711\": 56, \"909712\": 1, \"909713\": 1}","direction_id":"{\"1\": 234}","headsign":"{\"LINE 1 (YONGE-UNIVERSITY) towards FINCH STATION\": 234}","source":2,"target":1,"layer":"L","from":"Sheppard-Yonge Station - Southbound Platform","to":"North York Centre Station - Southbound Platform"},"geometry":{"type":"LineString","coordinates":[[-79.410691,43.760348],[-79.412492,43.767347]]}},{"type":"Feature","properties":{"duration_avg":183.0,"n_vehicles":177,"d":1996,"route_I_counts":"{\"104\": 177}","shape_id":"{\"910195\": 177}","direction_id":"{\"0\": 177}","headsign":"{\"LINE 4 (SHEPPARD) towards DON MILLS STATION\": 177}","source":2,"target":73,"layer":"L","from":"Sheppard-Yonge Station - Southbound Platform","to":"Bayview Station - Eastbound Platform"},"geometry":{"type":"LineString","coordinates":[[-79.410691,43.760348],[-79.386703,43.766872]]}},{"type":"Feature","properties":{"shape_id":"{\"909397\": 202, \"909399\": 1, \"909421\": 3, \"909474\": 42}","direction_id":"{\"0\": 248}","headsign":"{\"LINE 1 (YONGE-UNIVERSITY) towards SHEPPARD WEST STATION\": 3, \"LINE 1 (YONGE-UNIVERSITY) towards VAUGHAN METROPOLITAN CENTRE STATION\": 245}","duration_avg":191.0,"n_vehicles":248,"d":2014,"route_I_counts":"{\"1\": 248}","source":3,"target":4,"layer":"L","from":"York Mills Station - Southbound Platform","to":"Lawrence Station - Southbound Platform"},"geometry":{"type":"LineString","coordinates":[[-79.405991,43.743248],[-79.40229,43.725348]]}},{"type":"Feature","properties":{"duration_avg":218.0,"n_vehicles":234,"d":1951,"route_I_counts":"{\"1\": 234}","shape_id":"{\"909690\": 176, \"909711\": 56, \"909712\": 1, \"909713\": 1}","direction_id":"{\"1\": 234}","headsign":"{\"LINE 1 (YONGE-UNIVERSITY) towards FINCH STATION\": 234}","source":3,"target":2,"layer":"L","from":"York Mills Station - Southbound Platform","to":"Sheppard-Yonge Station - Southbound Platform"},"geometry":{"type":"LineString","coordinates":[[-79.405991,43.743248],[-79.410691,43.760348]]}},{"type":"Feature","properties":{"shape_id":"{\"909397\": 202, \"909399\": 1, \"909421\": 3, \"909474\": 42}","direction_id":"{\"0\": 248}","headsign":"{\"LINE 1 (YONGE-UNIVERSITY) towards SHEPPARD WEST STATION\": 3, \"LINE 1 (YONGE-UNIVERSITY) towards VAUGHAN METROPOLITAN CENTRE STATION\": 245}","duration_avg":223.0,"n_vehicles":248,"d":2320,"route_I_counts":"{\"1\": 248}","source":4,"target":5,"layer":"L","from":"Lawrence Station - Southbound Platform","to":"Eglinton Station - Southbound Platform"},"geometry":{"type":"LineString","coordinates":[[-79.40229,43.725348],[-79.39889,43.704648]]}},{"type":"Feature","properties":{"duration_avg":174.0,"n_vehicles":234,"d":2014,"route_I_counts":"{\"1\": 234}","shape_id":"{\"909690\": 176, \"909711\": 56, \"909712\": 1, \"909713\": 1}","direction_id":"{\"1\": 234}","headsign":"{\"LINE 1 (YONGE-UNIVERSITY) towards FINCH STATION\": 234}","source":4,"target":3,"layer":"L","from":"Lawrence Station - Southbound Platform","to":"York Mills Station - Southbound Platform"},"geometry":{"type":"LineString","coordinates":[[-79.40229,43.725348],[-79.405991,43.743248]]}},{"type":"Feature","properties":{"shape_id":"{\"909397\": 202, \"909399\": 1, \"909421\": 3, \"909474\": 42}","direction_id":"{\"0\": 248}","headsign":"{\"LINE 1 (YONGE-UNIVERSITY) towards SHEPPARD WEST STATION\": 3, \"LINE 1 (YONGE-UNIVERSITY) towards VAUGHAN METROPOLITAN CENTRE STATION\": 245}","duration_avg":110.54435483870968,"n_vehicles":248,"d":861,"route_I_counts":"{\"1\": 248}","source":5,"target":6,"layer":"L","from":"Eglinton Station - Southbound Platform","to":"Davisville Station - Southbound Platform"},"geometry":{"type":"LineString","coordinates":[[-79.39889,43.704648],[-79.39689,43.697048]]}},{"type":"Feature","properties":{"duration_avg":193.12820512820514,"n_vehicles":234,"d":2250,"route_I_counts":"{\"1\": 234}","shape_id":"{\"909690\": 176, \"909711\": 56, \"909712\": 1, \"909713\": 1}","direction_id":"{\"1\": 234}","headsign":"{\"LINE 1 (YONGE-UNIVERSITY) towards FINCH STATION\": 234}","source":5,"target":4,"layer":"L","from":"Eglinton Station - Southbound Platform","to":"Lawrence Station - Southbound Platform"},"geometry":{"type":"LineString","coordinates":[[-79.39889,43.704648],[-79.40229,43.725348]]}},{"type":"Feature","properties":{"shape_id":"{\"909397\": 202, \"909399\": 1, \"909474\": 42}","direction_id":"{\"0\": 245}","headsign":"{\"LINE 1 (YONGE-UNIVERSITY) towards VAUGHAN METROPOLITAN CENTRE STATION\": 245}","duration_avg":145.0,"n_vehicles":245,"d":1111,"route_I_counts":"{\"1\": 245}","source":6,"target":7,"layer":"L","from":"Davisville Station - Southbound Platform","to":"St Clair Station - Southbound Platform"},"geometry":{"type":"LineString","coordinates":[[-79.39689,43.697048],[-79.393089,43.687449]]}},{"type":"Feature","properties":{"duration_avg":122.05982905982906,"n_vehicles":234,"d":928,"route_I_counts":"{\"1\": 234}","shape_id":"{\"909690\": 176, \"909711\": 56, \"909712\": 1, \"909713\": 1}","direction_id":"{\"1\": 234}","headsign":"{\"LINE 1 (YONGE-UNIVERSITY) towards FINCH STATION\": 234}","source":6,"target":5,"layer":"L","from":"Davisville Station - Southbound Platform","to":"Eglinton Station - Southbound Platform"},"geometry":{"type":"LineString","coordinates":[[-79.39689,43.697048],[-79.39889,43.704648]]}},{"type":"Feature","properties":{"shape_id":"{\"909397\": 202, \"909399\": 1, \"909474\": 42}","direction_id":"{\"0\": 245}","headsign":"{\"LINE 1 (YONGE-UNIVERSITY) towards VAUGHAN METROPOLITAN CENTRE STATION\": 245}","duration_avg":88.0,"n_vehicles":245,"d":628,"route_I_counts":"{\"1\": 245}","source":7,"target":8,"layer":"L","from":"St Clair Station - Southbound Platform","to":"Summerhill Station - Southbound Platform"},"geometry":{"type":"LineString","coordinates":[[-79.393089,43.687449],[-79.390789,43.682049]]}},{"type":"Feature","properties":{"duration_avg":145.06837606837607,"n_vehicles":234,"d":1111,"route_I_counts":"{\"1\": 234}","shape_id":"{\"909690\": 176, \"909711\": 56, \"909712\": 1, \"909713\": 1}","direction_id":"{\"1\": 234}","headsign":"{\"LINE 1 (YONGE-UNIVERSITY) towards FINCH STATION\": 234}","source":7,"target":6,"layer":"L","from":"St Clair Station - Southbound Platform","to":"Davisville Station - Southbound Platform"},"geometry":{"type":"LineString","coordinates":[[-79.393089,43.687449],[-79.39689,43.697048]]}},{"type":"Feature","properties":{"shape_id":"{\"909397\": 202, \"909399\": 1, \"909474\": 42}","direction_id":"{\"0\": 245}","headsign":"{\"LINE 1 (YONGE-UNIVERSITY) towards VAUGHAN METROPOLITAN CENTRE STATION\": 245}","duration_avg":99.0,"n_vehicles":245,"d":702,"route_I_counts":"{\"1\": 245}","source":8,"target":9,"layer":"L","from":"Summerhill Station - Southbound Platform","to":"Rosedale Station - Southbound Platform"},"geometry":{"type":"LineString","coordinates":[[-79.390789,43.682049],[-79.388089,43.676049]]}},{"type":"Feature","properties":{"duration_avg":92.04700854700855,"n_vehicles":234,"d":618,"route_I_counts":"{\"1\": 234}","shape_id":"{\"909690\": 176, \"909711\": 56, \"909712\": 1, \"909713\": 1}","direction_id":"{\"1\": 234}","headsign":"{\"LINE 1 (YONGE-UNIVERSITY) towards FINCH STATION\": 234}","source":8,"target":7,"layer":"L","from":"Summerhill Station - Southbound Platform","to":"St Clair Station - Southbound Platform"},"geometry":{"type":"LineString","coordinates":[[-79.390789,43.682049],[-79.393089,43.687449]]}},{"type":"Feature","properties":{"shape_id":"{\"909397\": 202, \"909399\": 1, \"909474\": 42}","direction_id":"{\"0\": 245}","headsign":"{\"LINE 1 (YONGE-UNIVERSITY) towards VAUGHAN METROPOLITAN CENTRE STATION\": 245}","duration_avg":101.0,"n_vehicles":245,"d":702,"route_I_counts":"{\"1\": 245}","source":9,"target":10,"layer":"L","from":"Rosedale Station - Southbound Platform","to":"Bloor Station - Southbound Platform"},"geometry":{"type":"LineString","coordinates":[[-79.388089,43.676049],[-79.385389,43.670049]]}},{"type":"Feature","properties":{"duration_avg":103.05555555555556,"n_vehicles":234,"d":710,"route_I_counts":"{\"1\": 234}","shape_id":"{\"909690\": 176, \"909711\": 56, \"909712\": 1, \"909713\": 1}","direction_id":"{\"1\": 234}","headsign":"{\"LINE 1 (YONGE-UNIVERSITY) towards FINCH STATION\": 234}","source":9,"target":8,"layer":"L","from":"Rosedale Station - Southbound Platform","to":"Summerhill Station - Southbound Platform"},"geometry":{"type":"LineString","coordinates":[[-79.388089,43.676049],[-79.390789,43.682049]]}},{"type":"Feature","properties":{"shape_id":"{\"909397\": 202, \"909399\": 1, \"909474\": 42}","direction_id":"{\"0\": 245}","headsign":"{\"LINE 1 (YONGE-UNIVERSITY) towards VAUGHAN METROPOLITAN CENTRE STATION\": 245}","duration_avg":92.0,"n_vehicles":245,"d":588,"route_I_counts":"{\"1\": 245}","source":10,"target":11,"layer":"L","from":"Bloor Station - Southbound Platform","to":"Wellesley Station - Southbound Platform"},"geometry":{"type":"LineString","coordinates":[[-79.385389,43.670049],[-79.383488,43.664949]]}},{"type":"Feature","properties":{"duration_avg":87.27319587628865,"n_vehicles":194,"d":798,"route_I_counts":"{\"52\": 194}","shape_id":"{\"909786\": 48, \"909787\": 145, \"909789\": 1}","direction_id":"{\"0\": 194}","headsign":"{\"LINE 2 (BLOOR-DANFORTH) towards KENNEDY STATION\": 194}","source":10,"target":52,"layer":"L","from":"Bloor Station - Southbound Platform","to":"Sherbourne Station - Eastbound Platform"},"geometry":{"type":"LineString","coordinates":[[-79.385389,43.670049],[-79.376162,43.672103]]}},{"type":"Feature","properties":{"duration_avg":105.05555555555556,"n_vehicles":234,"d":723,"route_I_counts":"{\"1\": 234}","shape_id":"{\"909690\": 176, \"909711\": 56, \"909712\": 1, \"909713\": 1}","direction_id":"{\"1\": 234}","headsign":"{\"LINE 1 (YONGE-UNIVERSITY) towards FINCH STATION\": 234}","source":10,"target":9,"layer":"L","from":"Bloor Station - Southbound Platform","to":"Rosedale Station - Southbound Platform"},"geometry":{"type":"LineString","coordinates":[[-79.385389,43.670049],[-79.388089,43.676049]]}},{"type":"Feature","properties":{"duration_avg":58.0,"n_vehicles":189,"d":424,"route_I_counts":"{\"52\": 189}","shape_id":"{\"909973\": 55, \"909974\": 134}","direction_id":"{\"1\": 189}","headsign":"{\"LINE 2 (BLOOR-DANFORTH) towards KIPLING STATION\": 189}","source":10,"target":51,"layer":"L","from":"Bloor Station - Southbound Platform","to":"Bay Station - Eastbound Platform"},"geometry":{"type":"LineString","coordinates":[[-79.385389,43.670049],[-79.390089,43.670149]]}},{"type":"Feature","properties":{"shape_id":"{\"909397\": 202, \"909399\": 1, \"909474\": 42}","direction_id":"{\"0\": 245}","headsign":"{\"LINE 1 (YONGE-UNIVERSITY) towards VAUGHAN METROPOLITAN CENTRE STATION\": 245}","duration_avg":85.0,"n_vehicles":245,"d":538,"route_I_counts":"{\"1\": 245}","source":11,"target":12,"layer":"L","from":"Wellesley Station - Southbound Platform","to":"College Station - Southbound Platform"},"geometry":{"type":"LineString","coordinates":[[-79.383488,43.664949],[-79.382688,43.660149]]}},{"type":"Feature","properties":{"duration_avg":93.88034188034187,"n_vehicles":234,"d":571,"route_I_counts":"{\"1\": 234}","shape_id":"{\"909690\": 176, \"909711\": 56, \"909712\": 1, \"909713\": 1}","direction_id":"{\"1\": 234}","headsign":"{\"LINE 1 (YONGE-UNIVERSITY) towards FINCH STATION\": 234}","source":11,"target":10,"layer":"L","from":"Wellesley Station - Southbound Platform","to":"Bloor Station - Southbound Platform"},"geometry":{"type":"LineString","coordinates":[[-79.383488,43.664949],[-79.385389,43.670049]]}},{"type":"Feature","properties":{"shape_id":"{\"909397\": 202, \"909399\": 1, \"909474\": 42}","direction_id":"{\"0\": 245}","headsign":"{\"LINE 1 (YONGE-UNIVERSITY) towards VAUGHAN METROPOLITAN CENTRE STATION\": 245}","duration_avg":78.0,"n_vehicles":245,"d":491,"route_I_counts":"{\"1\": 245}","source":12,"target":13,"layer":"L","from":"College Station - Southbound Platform","to":"Dundas Station - Southbound Platform"},"geometry":{"type":"LineString","coordinates":[[-79.382688,43.660149],[-79.380788,43.655949]]}},{"type":"Feature","properties":{"duration_avg":85.8931623931624,"n_vehicles":234,"d":526,"route_I_counts":"{\"1\": 234}","shape_id":"{\"909690\": 176, \"909711\": 56, \"909712\": 1, \"909713\": 1}","direction_id":"{\"1\": 234}","headsign":"{\"LINE 1 (YONGE-UNIVERSITY) towards FINCH STATION\": 234}","source":12,"target":11,"layer":"L","from":"College Station - Southbound Platform","to":"Wellesley Station - Southbound Platform"},"geometry":{"type":"LineString","coordinates":[[-79.382688,43.660149],[-79.383488,43.664949]]}},{"type":"Feature","properties":{"shape_id":"{\"909397\": 202, \"909399\": 1, \"909474\": 42}","direction_id":"{\"0\": 245}","headsign":"{\"LINE 1 (YONGE-UNIVERSITY) towards VAUGHAN METROPOLITAN CENTRE STATION\": 245}","duration_avg":79.0,"n_vehicles":245,"d":442,"route_I_counts":"{\"1\": 245}","source":13,"target":14,"layer":"L","from":"Dundas Station - Southbound Platform","to":"Queen Station - Southbound Platform"},"geometry":{"type":"LineString","coordinates":[[-79.380788,43.655949],[-79.379188,43.652149]]}},{"type":"Feature","properties":{"duration_avg":80.8974358974359,"n_vehicles":234,"d":502,"route_I_counts":"{\"1\": 234}","shape_id":"{\"909690\": 176, \"909711\": 56, \"909712\": 1, \"909713\": 1}","direction_id":"{\"1\": 234}","headsign":"{\"LINE 1 (YONGE-UNIVERSITY) towards FINCH STATION\": 234}","source":13,"target":12,"layer":"L","from":"Dundas Station - Southbound Platform","to":"College Station - Southbound Platform"},"geometry":{"type":"LineString","coordinates":[[-79.380788,43.655949],[-79.382688,43.660149]]}},{"type":"Feature","properties":{"shape_id":"{\"909397\": 202, \"909399\": 1, \"909474\": 42}","direction_id":"{\"0\": 245}","headsign":"{\"LINE 1 (YONGE-UNIVERSITY) towards VAUGHAN METROPOLITAN CENTRE STATION\": 245}","duration_avg":77.0,"n_vehicles":245,"d":429,"route_I_counts":"{\"1\": 245}","source":14,"target":15,"layer":"L","from":"Queen Station - Southbound Platform","to":"King Station - Southbound Platform"},"geometry":{"type":"LineString","coordinates":[[-79.379188,43.652149],[-79.377688,43.648449]]}},{"type":"Feature","properties":{"duration_avg":93.91452991452991,"n_vehicles":234,"d":442,"route_I_counts":"{\"1\": 234}","shape_id":"{\"909690\": 176, \"909711\": 56, \"909712\": 1, \"909713\": 1}","direction_id":"{\"1\": 234}","headsign":"{\"LINE 1 (YONGE-UNIVERSITY) towards FINCH STATION\": 234}","source":14,"target":13,"layer":"L","from":"Queen Station - Southbound Platform","to":"Dundas Station - Southbound Platform"},"geometry":{"type":"LineString","coordinates":[[-79.379188,43.652149],[-79.380788,43.655949]]}},{"type":"Feature","properties":{"duration_avg":89.67948717948718,"n_vehicles":234,"d":429,"route_I_counts":"{\"1\": 234}","shape_id":"{\"909690\": 176, \"909711\": 56, \"909712\": 1, \"909713\": 1}","direction_id":"{\"1\": 234}","headsign":"{\"LINE 1 (YONGE-UNIVERSITY) towards FINCH STATION\": 234}","source":15,"target":14,"layer":"L","from":"King Station - Southbound Platform","to":"Queen Station - Southbound Platform"},"geometry":{"type":"LineString","coordinates":[[-79.377688,43.648449],[-79.379188,43.652149]]}},{"type":"Feature","properties":{"duration_avg":94.0,"n_vehicles":245,"d":444,"route_I_counts":"{\"1\": 245}","shape_id":"{\"909397\": 202, \"909399\": 1, \"909474\": 42}","direction_id":"{\"0\": 245}","headsign":"{\"LINE 1 (YONGE-UNIVERSITY) towards VAUGHAN METROPOLITAN CENTRE STATION\": 245}","source":15,"target":37,"layer":"L","from":"King Station - Southbound Platform","to":"Union Station - Northbound Platform Towards Finch"},"geometry":{"type":"LineString","coordinates":[[-79.377688,43.648449],[-79.379688,43.645849]]}},{"type":"Feature","properties":{"shape_id":"{\"909397\": 202, \"909399\": 1, \"909474\": 42}","direction_id":"{\"0\": 245}","headsign":"{\"LINE 1 (YONGE-UNIVERSITY) towards VAUGHAN METROPOLITAN CENTRE STATION\": 245}","duration_avg":76.0,"n_vehicles":245,"d":415,"route_I_counts":"{\"1\": 245}","source":16,"target":17,"layer":"L","from":"St Andrew Station - Northbound Platform","to":"Osgoode Station - Northbound Platform"},"geometry":{"type":"LineString","coordinates":[[-79.385088,43.648249],[-79.386888,43.651749]]}},{"type":"Feature","properties":{"duration_avg":98.0,"n_vehicles":234,"d":409,"route_I_counts":"{\"1\": 234}","shape_id":"{\"909690\": 176, \"909711\": 56, \"909712\": 1, \"909713\": 1}","direction_id":"{\"1\": 234}","headsign":"{\"LINE 1 (YONGE-UNIVERSITY) towards FINCH STATION\": 234}","source":16,"target":37,"layer":"L","from":"St Andrew Station - Northbound Platform","to":"Union Station - Northbound Platform Towards Finch"},"geometry":{"type":"LineString","coordinates":[[-79.385088,43.648249],[-79.379688,43.645849]]}},{"type":"Feature","properties":{"shape_id":"{\"909397\": 202, \"909399\": 1, \"909474\": 42}","direction_id":"{\"0\": 245}","headsign":"{\"LINE 1 (YONGE-UNIVERSITY) towards VAUGHAN METROPOLITAN CENTRE STATION\": 245}","duration_avg":75.0,"n_vehicles":245,"d":407,"route_I_counts":"{\"1\": 245}","source":17,"target":18,"layer":"L","from":"Osgoode Station - Northbound Platform","to":"St Patrick Station - Northbound Platform"},"geometry":{"type":"LineString","coordinates":[[-79.386888,43.651749],[-79.388388,43.655249]]}},{"type":"Feature","properties":{"duration_avg":82.0,"n_vehicles":234,"d":411,"route_I_counts":"{\"1\": 234}","shape_id":"{\"909690\": 176, \"909711\": 56, \"909712\": 1, \"909713\": 1}","direction_id":"{\"1\": 234}","headsign":"{\"LINE 1 (YONGE-UNIVERSITY) towards FINCH STATION\": 234}","source":17,"target":16,"layer":"L","from":"Osgoode Station - Northbound Platform","to":"St Andrew Station - Northbound Platform"},"geometry":{"type":"LineString","coordinates":[[-79.386888,43.651749],[-79.385088,43.648249]]}},{"type":"Feature","properties":{"shape_id":"{\"909397\": 202, \"909399\": 1, \"909474\": 42}","direction_id":"{\"0\": 245}","headsign":"{\"LINE 1 (YONGE-UNIVERSITY) towards VAUGHAN METROPOLITAN CENTRE STATION\": 245}","duration_avg":92.0,"n_vehicles":245,"d":618,"route_I_counts":"{\"1\": 245}","source":18,"target":19,"layer":"L","from":"St Patrick Station - Northbound Platform","to":"Queen'S Park Station - Northbound Platform"},"geometry":{"type":"LineString","coordinates":[[-79.388388,43.655249],[-79.390689,43.660549]]}},{"type":"Feature","properties":{"duration_avg":82.0,"n_vehicles":234,"d":418,"route_I_counts":"{\"1\": 234}","shape_id":"{\"909690\": 176, \"909711\": 56, \"909712\": 1, \"909713\": 1}","direction_id":"{\"1\": 234}","headsign":"{\"LINE 1 (YONGE-UNIVERSITY) towards FINCH STATION\": 234}","source":18,"target":17,"layer":"L","from":"St Patrick Station - Northbound Platform","to":"Osgoode Station - Northbound Platform"},"geometry":{"type":"LineString","coordinates":[[-79.388388,43.655249],[-79.386888,43.651749]]}},{"type":"Feature","properties":{"shape_id":"{\"909397\": 202, \"909399\": 1, \"909474\": 42}","direction_id":"{\"0\": 245}","headsign":"{\"LINE 1 (YONGE-UNIVERSITY) towards VAUGHAN METROPOLITAN CENTRE STATION\": 245}","duration_avg":117.0,"n_vehicles":245,"d":776,"route_I_counts":"{\"1\": 245}","source":19,"target":20,"layer":"L","from":"Queen'S Park Station - Northbound Platform","to":"Museum Station - Northbound Platform"},"geometry":{"type":"LineString","coordinates":[[-79.390689,43.660549],[-79.393389,43.667249]]}},{"type":"Feature","properties":{"duration_avg":92.51282051282051,"n_vehicles":234,"d":607,"route_I_counts":"{\"1\": 234}","shape_id":"{\"909690\": 176, \"909711\": 56, \"909712\": 1, \"909713\": 1}","direction_id":"{\"1\": 234}","headsign":"{\"LINE 1 (YONGE-UNIVERSITY) towards FINCH STATION\": 234}","source":19,"target":18,"layer":"L","from":"Queen'S Park Station - Northbound Platform","to":"St Patrick Station - Northbound Platform"},"geometry":{"type":"LineString","coordinates":[[-79.390689,43.660549],[-79.388388,43.655249]]}},{"type":"Feature","properties":{"shape_id":"{\"909397\": 202, \"909399\": 1, \"909474\": 42}","direction_id":"{\"0\": 245}","headsign":"{\"LINE 1 (YONGE-UNIVERSITY) towards VAUGHAN METROPOLITAN CENTRE STATION\": 245}","duration_avg":89.0,"n_vehicles":245,"d":519,"route_I_counts":"{\"1\": 245}","source":20,"target":21,"layer":"L","from":"Museum Station - Northbound Platform","to":"St George Station - Northbound Platform"},"geometry":{"type":"LineString","coordinates":[[-79.393389,43.667249],[-79.399689,43.668249]]}},{"type":"Feature","properties":{"duration_avg":117.26923076923077,"n_vehicles":234,"d":776,"route_I_counts":"{\"1\": 234}","shape_id":"{\"909690\": 176, \"909711\": 56, \"909712\": 1, \"909713\": 1}","direction_id":"{\"1\": 234}","headsign":"{\"LINE 1 (YONGE-UNIVERSITY) towards FINCH STATION\": 234}","source":20,"target":19,"layer":"L","from":"Museum Station - Northbound Platform","to":"Queen'S Park Station - Northbound Platform"},"geometry":{"type":"LineString","coordinates":[[-79.393389,43.667249],[-79.390689,43.660549]]}},{"type":"Feature","properties":{"shape_id":"{\"909397\": 202, \"909399\": 1, \"909474\": 42, \"909973\": 55, \"909974\": 134}","direction_id":"{\"0\": 245, \"1\": 189}","headsign":"{\"LINE 1 (YONGE-UNIVERSITY) towards VAUGHAN METROPOLITAN CENTRE STATION\": 245, \"LINE 2 (BLOOR-DANFORTH) towards KIPLING STATION\": 189}","duration_avg":74.41224489795918,"n_vehicles":434,"d":495,"route_I_counts":"{\"1\": 245, \"52\": 189}","source":21,"target":22,"layer":"L","from":"St George Station - Northbound Platform","to":"Spadina Station - Northbound Platform"},"geometry":{"type":"LineString","coordinates":[[-79.399689,43.668249],[-79.405189,43.670249]]}},{"type":"Feature","properties":{"duration_avg":105.04123711340206,"n_vehicles":194,"d":660,"route_I_counts":"{\"52\": 194}","shape_id":"{\"909786\": 48, \"909787\": 145, \"909789\": 1}","direction_id":"{\"0\": 194}","headsign":"{\"LINE 2 (BLOOR-DANFORTH) towards KENNEDY STATION\": 194}","source":21,"target":51,"layer":"L","from":"St George Station - Northbound Platform","to":"Bay Station - Eastbound Platform"},"geometry":{"type":"LineString","coordinates":[[-79.399689,43.668249],[-79.390089,43.670149]]}},{"type":"Feature","properties":{"duration_avg":88.51282051282051,"n_vehicles":234,"d":489,"route_I_counts":"{\"1\": 234}","shape_id":"{\"909690\": 176, \"909711\": 56, \"909712\": 1, \"909713\": 1}","direction_id":"{\"1\": 234}","headsign":"{\"LINE 1 (YONGE-UNIVERSITY) towards FINCH STATION\": 234}","source":21,"target":20,"layer":"L","from":"St George Station - Northbound Platform","to":"Museum Station - Northbound Platform"},"geometry":{"type":"LineString","coordinates":[[-79.399689,43.668249],[-79.393389,43.667249]]}},{"type":"Feature","properties":{"shape_id":"{\"909397\": 202, \"909399\": 1, \"909474\": 42}","direction_id":"{\"0\": 245}","headsign":"{\"LINE 1 (YONGE-UNIVERSITY) towards VAUGHAN METROPOLITAN CENTRE STATION\": 245}","duration_avg":70.82857142857142,"n_vehicles":245,"d":545,"route_I_counts":"{\"1\": 245}","source":22,"target":23,"layer":"L","from":"Spadina Station - Northbound Platform","to":"Dupont Station - Northbound Platform"},"geometry":{"type":"LineString","coordinates":[[-79.405189,43.670249],[-79.40709,43.674949]]}},{"type":"Feature","properties":{"duration_avg":76.87886597938144,"n_vehicles":428,"d":558,"route_I_counts":"{\"1\": 234, \"52\": 194}","shape_id":"{\"909690\": 176, \"909711\": 56, \"909712\": 1, \"909713\": 1, \"909786\": 48, \"909787\": 145, \"909789\": 1}","direction_id":"{\"1\": 234, \"0\": 194}","headsign":"{\"LINE 1 (YONGE-UNIVERSITY) towards FINCH STATION\": 234, \"LINE 2 (BLOOR-DANFORTH) towards KENNEDY STATION\": 194}","source":22,"target":21,"layer":"L","from":"Spadina Station - Northbound Platform","to":"St George Station - Northbound Platform"},"geometry":{"type":"LineString","coordinates":[[-79.405189,43.670249],[-79.399689,43.668249]]}},{"type":"Feature","properties":{"duration_avg":73.91005291005291,"n_vehicles":189,"d":550,"route_I_counts":"{\"52\": 189}","shape_id":"{\"909973\": 55, \"909974\": 134}","direction_id":"{\"1\": 189}","headsign":"{\"LINE 2 (BLOOR-DANFORTH) towards KIPLING STATION\": 189}","source":22,"target":50,"layer":"L","from":"Spadina Station - Northbound Platform","to":"Bathurst Station - Eastbound Platform"},"geometry":{"type":"LineString","coordinates":[[-79.405189,43.670249],[-79.410589,43.665949]]}},{"type":"Feature","properties":{"shape_id":"{\"909397\": 202, \"909399\": 1, \"909474\": 42}","direction_id":"{\"0\": 245}","headsign":"{\"LINE 1 (YONGE-UNIVERSITY) towards VAUGHAN METROPOLITAN CENTRE STATION\": 245}","duration_avg":196.4816326530612,"n_vehicles":245,"d":1338,"route_I_counts":"{\"1\": 245}","source":23,"target":24,"layer":"L","from":"Dupont Station - Northbound Platform","to":"St Clair West Station - Northbound Platform"},"geometry":{"type":"LineString","coordinates":[[-79.40709,43.674949],[-79.41589,43.685148]]}},{"type":"Feature","properties":{"duration_avg":68.0,"n_vehicles":234,"d":545,"route_I_counts":"{\"1\": 234}","shape_id":"{\"909690\": 176, \"909711\": 56, \"909712\": 1, \"909713\": 1}","direction_id":"{\"1\": 234}","headsign":"{\"LINE 1 (YONGE-UNIVERSITY) towards FINCH STATION\": 234}","source":23,"target":22,"layer":"L","from":"Dupont Station - Northbound Platform","to":"Spadina Station - Northbound Platform"},"geometry":{"type":"LineString","coordinates":[[-79.40709,43.674949],[-79.405189,43.670249]]}},{"type":"Feature","properties":{"shape_id":"{\"909397\": 202, \"909399\": 1, \"909474\": 42}","direction_id":"{\"0\": 245}","headsign":"{\"LINE 1 (YONGE-UNIVERSITY) towards VAUGHAN METROPOLITAN CENTRE STATION\": 245}","duration_avg":274.6530612244898,"n_vehicles":245,"d":2404,"route_I_counts":"{\"1\": 245}","source":24,"target":25,"layer":"L","from":"St Clair West Station - Northbound Platform","to":"Eglinton West Station - Northbound Platform"},"geometry":{"type":"LineString","coordinates":[[-79.41589,43.685148],[-79.436691,43.700648]]}},{"type":"Feature","properties":{"duration_avg":187.0,"n_vehicles":234,"d":1334,"route_I_counts":"{\"1\": 234}","shape_id":"{\"909690\": 176, \"909711\": 56, \"909712\": 1, \"909713\": 1}","direction_id":"{\"1\": 234}","headsign":"{\"LINE 1 (YONGE-UNIVERSITY) towards FINCH STATION\": 234}","source":24,"target":23,"layer":"L","from":"St Clair West Station - Northbound Platform","to":"Dupont Station - Northbound Platform"},"geometry":{"type":"LineString","coordinates":[[-79.41589,43.685148],[-79.40709,43.674949]]}},{"type":"Feature","properties":{"shape_id":"{\"909397\": 202, \"909399\": 1, \"909474\": 42}","direction_id":"{\"0\": 245}","headsign":"{\"LINE 1 (YONGE-UNIVERSITY) towards VAUGHAN METROPOLITAN CENTRE STATION\": 245}","duration_avg":108.65306122448979,"n_vehicles":245,"d":1004,"route_I_counts":"{\"1\": 245}","source":25,"target":26,"layer":"L","from":"Eglinton West Station - Northbound Platform","to":"Glencairn Station - Northbound Platform"},"geometry":{"type":"LineString","coordinates":[[-79.436691,43.700648],[-79.440892,43.709148]]}},{"type":"Feature","properties":{"duration_avg":254.008547008547,"n_vehicles":234,"d":2401,"route_I_counts":"{\"1\": 234}","shape_id":"{\"909690\": 176, \"909711\": 56, \"909712\": 1, \"909713\": 1}","direction_id":"{\"1\": 234}","headsign":"{\"LINE 1 (YONGE-UNIVERSITY) towards FINCH STATION\": 234}","source":25,"target":24,"layer":"L","from":"Eglinton West Station - Northbound Platform","to":"St Clair West Station - Northbound Platform"},"geometry":{"type":"LineString","coordinates":[[-79.436691,43.700648],[-79.41589,43.685148]]}},{"type":"Feature","properties":{"shape_id":"{\"909397\": 202, \"909399\": 1, \"909474\": 42}","direction_id":"{\"0\": 245}","headsign":"{\"LINE 1 (YONGE-UNIVERSITY) towards VAUGHAN METROPOLITAN CENTRE STATION\": 245}","duration_avg":107.13061224489796,"n_vehicles":245,"d":780,"route_I_counts":"{\"1\": 245}","source":26,"target":27,"layer":"L","from":"Glencairn Station - Northbound Platform","to":"Lawrence West Station - Northbound Platform"},"geometry":{"type":"LineString","coordinates":[[-79.440892,43.709148],[-79.444038,43.715784]]}},{"type":"Feature","properties":{"duration_avg":100.5042735042735,"n_vehicles":234,"d":1018,"route_I_counts":"{\"1\": 234}","shape_id":"{\"909690\": 176, \"909711\": 56, \"909712\": 1, \"909713\": 1}","direction_id":"{\"1\": 234}","headsign":"{\"LINE 1 (YONGE-UNIVERSITY) towards FINCH STATION\": 234}","source":26,"target":25,"layer":"L","from":"Glencairn Station - Northbound Platform","to":"Eglinton West Station - Northbound Platform"},"geometry":{"type":"LineString","coordinates":[[-79.440892,43.709148],[-79.436691,43.700648]]}},{"type":"Feature","properties":{"shape_id":"{\"909397\": 202, \"909399\": 1, \"909474\": 42}","direction_id":"{\"0\": 245}","headsign":"{\"LINE 1 (YONGE-UNIVERSITY) towards VAUGHAN METROPOLITAN CENTRE STATION\": 245}","duration_avg":148.6122448979592,"n_vehicles":245,"d":1093,"route_I_counts":"{\"1\": 245}","source":27,"target":28,"layer":"L","from":"Lawrence West Station - Northbound Platform","to":"Yorkdale Station - Northbound Platform"},"geometry":{"type":"LineString","coordinates":[[-79.444038,43.715784],[-79.447692,43.725248]]}},{"type":"Feature","properties":{"duration_avg":87.75213675213675,"n_vehicles":234,"d":800,"route_I_counts":"{\"1\": 234}","shape_id":"{\"909690\": 176, \"909711\": 56, \"909712\": 1, \"909713\": 1}","direction_id":"{\"1\": 234}","headsign":"{\"LINE 1 (YONGE-UNIVERSITY) towards FINCH STATION\": 234}","source":27,"target":26,"layer":"L","from":"Lawrence West Station - Northbound Platform","to":"Glencairn Station - Northbound Platform"},"geometry":{"type":"LineString","coordinates":[[-79.444038,43.715784],[-79.440892,43.709148]]}},{"type":"Feature","properties":{"shape_id":"{\"909397\": 202, \"909399\": 1, \"909474\": 42}","direction_id":"{\"0\": 245}","headsign":"{\"LINE 1 (YONGE-UNIVERSITY) towards VAUGHAN METROPOLITAN CENTRE STATION\": 245}","duration_avg":152.78775510204082,"n_vehicles":245,"d":1109,"route_I_counts":"{\"1\": 245}","source":28,"target":29,"layer":"L","from":"Yorkdale Station - Northbound Platform","to":"Wilson Station - Northbound Platform"},"geometry":{"type":"LineString","coordinates":[[-79.447692,43.725248],[-79.450192,43.735048]]}},{"type":"Feature","properties":{"duration_avg":114.0,"n_vehicles":234,"d":1062,"route_I_counts":"{\"1\": 234}","shape_id":"{\"909690\": 176, \"909711\": 56, \"909712\": 1, \"909713\": 1}","direction_id":"{\"1\": 234}","headsign":"{\"LINE 1 (YONGE-UNIVERSITY) towards FINCH STATION\": 234}","source":28,"target":27,"layer":"L","from":"Yorkdale Station - Northbound Platform","to":"Lawrence West Station - Northbound Platform"},"geometry":{"type":"LineString","coordinates":[[-79.447692,43.725248],[-79.444038,43.715784]]}},{"type":"Feature","properties":{"shape_id":"{\"909397\": 202, \"909399\": 1, \"909474\": 42}","direction_id":"{\"0\": 245}","headsign":"{\"LINE 1 (YONGE-UNIVERSITY) towards VAUGHAN METROPOLITAN CENTRE STATION\": 245}","duration_avg":254.0,"n_vehicles":245,"d":1967,"route_I_counts":"{\"1\": 245}","source":29,"target":30,"layer":"L","from":"Wilson Station - Northbound Platform","to":"Sheppard West Station - Subway Platform"},"geometry":{"type":"LineString","coordinates":[[-79.450192,43.735048],[-79.462781,43.750204]]}},{"type":"Feature","properties":{"duration_avg":121.75213675213675,"n_vehicles":234,"d":1121,"route_I_counts":"{\"1\": 234}","shape_id":"{\"909690\": 176, \"909711\": 56, \"909712\": 1, \"909713\": 1}","direction_id":"{\"1\": 234}","headsign":"{\"LINE 1 (YONGE-UNIVERSITY) towards FINCH STATION\": 234}","source":29,"target":28,"layer":"L","from":"Wilson Station - Northbound Platform","to":"Yorkdale Station - Northbound Platform"},"geometry":{"type":"LineString","coordinates":[[-79.450192,43.735048],[-79.447692,43.725248]]}},{"type":"Feature","properties":{"shape_id":"{\"909397\": 202, \"909399\": 1, \"909474\": 42}","direction_id":"{\"0\": 245}","headsign":"{\"LINE 1 (YONGE-UNIVERSITY) towards VAUGHAN METROPOLITAN CENTRE STATION\": 245}","duration_avg":146.0,"n_vehicles":245,"d":1325,"route_I_counts":"{\"1\": 245}","source":30,"target":31,"layer":"L","from":"Sheppard West Station - Subway Platform","to":"Downsview Park Station - Northbound Platform"},"geometry":{"type":"LineString","coordinates":[[-79.462781,43.750204],[-79.478693,43.753311]]}},{"type":"Feature","properties":{"duration_avg":216.0,"n_vehicles":234,"d":1961,"route_I_counts":"{\"1\": 234}","shape_id":"{\"909690\": 176, \"909711\": 56, \"909712\": 1, \"909713\": 1}","direction_id":"{\"1\": 234}","headsign":"{\"LINE 1 (YONGE-UNIVERSITY) towards FINCH STATION\": 234}","source":30,"target":29,"layer":"L","from":"Sheppard West Station - Subway Platform","to":"Wilson Station - Northbound Platform"},"geometry":{"type":"LineString","coordinates":[[-79.462781,43.750204],[-79.450192,43.735048]]}},{"type":"Feature","properties":{"shape_id":"{\"909397\": 202, \"909399\": 1, \"909474\": 42}","direction_id":"{\"0\": 245}","headsign":"{\"LINE 1 (YONGE-UNIVERSITY) towards VAUGHAN METROPOLITAN CENTRE STATION\": 245}","duration_avg":158.0,"n_vehicles":245,"d":1627,"route_I_counts":"{\"1\": 245}","source":31,"target":32,"layer":"L","from":"Downsview Park Station - Northbound Platform","to":"Finch West Station - Northbound Platform"},"geometry":{"type":"LineString","coordinates":[[-79.478693,43.753311],[-79.491118,43.764855]]}},{"type":"Feature","properties":{"duration_avg":146.0,"n_vehicles":239,"d":1420,"route_I_counts":"{\"1\": 239}","shape_id":"{\"909690\": 176, \"909711\": 56, \"909712\": 1, \"909713\": 1, \"909748\": 5}","direction_id":"{\"1\": 239}","headsign":"{\"LINE 1 (YONGE-UNIVERSITY) towards FINCH STATION\": 239}","source":31,"target":30,"layer":"L","from":"Downsview Park Station - Northbound Platform","to":"Sheppard West Station - Subway Platform"},"geometry":{"type":"LineString","coordinates":[[-79.478693,43.753311],[-79.462781,43.750204]]}},{"type":"Feature","properties":{"shape_id":"{\"909397\": 202, \"909399\": 1, \"909474\": 42}","direction_id":"{\"0\": 245}","headsign":"{\"LINE 1 (YONGE-UNIVERSITY) towards VAUGHAN METROPOLITAN CENTRE STATION\": 245}","duration_avg":132.00408163265305,"n_vehicles":245,"d":1247,"route_I_counts":"{\"1\": 245}","source":32,"target":33,"layer":"L","from":"Finch West Station - Northbound Platform","to":"York University - Northbound Platform"},"geometry":{"type":"LineString","coordinates":[[-79.491118,43.764855],[-79.499888,43.774097]]}},{"type":"Feature","properties":{"duration_avg":158.0,"n_vehicles":239,"d":1627,"route_I_counts":"{\"1\": 239}","shape_id":"{\"909690\": 176, \"909711\": 56, \"909712\": 1, \"909713\": 1, \"909748\": 5}","direction_id":"{\"1\": 239}","headsign":"{\"LINE 1 (YONGE-UNIVERSITY) towards FINCH STATION\": 239}","source":32,"target":31,"layer":"L","from":"Finch West Station - Northbound Platform","to":"Downsview Park Station - Northbound Platform"},"geometry":{"type":"LineString","coordinates":[[-79.491118,43.764855],[-79.478693,43.753311]]}},{"type":"Feature","properties":{"shape_id":"{\"909397\": 202, \"909399\": 1, \"909474\": 42}","direction_id":"{\"0\": 245}","headsign":"{\"LINE 1 (YONGE-UNIVERSITY) towards VAUGHAN METROPOLITAN CENTRE STATION\": 245}","duration_avg":111.99591836734695,"n_vehicles":245,"d":814,"route_I_counts":"{\"1\": 245}","source":33,"target":34,"layer":"L","from":"York University - Northbound Platform","to":"Pioneer Village Station - Northbound Platform"},"geometry":{"type":"LineString","coordinates":[[-79.499888,43.774097],[-79.509334,43.776741]]}},{"type":"Feature","properties":{"duration_avg":132.0,"n_vehicles":239,"d":1247,"route_I_counts":"{\"1\": 239}","shape_id":"{\"909690\": 176, \"909711\": 56, \"909712\": 1, \"909713\": 1, \"909748\": 5}","direction_id":"{\"1\": 239}","headsign":"{\"LINE 1 (YONGE-UNIVERSITY) towards FINCH STATION\": 239}","source":33,"target":32,"layer":"L","from":"York University - Northbound Platform","to":"Finch West Station - Northbound Platform"},"geometry":{"type":"LineString","coordinates":[[-79.499888,43.774097],[-79.491118,43.764855]]}},{"type":"Feature","properties":{"shape_id":"{\"909397\": 202, \"909399\": 1, \"909474\": 42}","direction_id":"{\"0\": 245}","headsign":"{\"LINE 1 (YONGE-UNIVERSITY) towards VAUGHAN METROPOLITAN CENTRE STATION\": 245}","duration_avg":123.0,"n_vehicles":245,"d":1353,"route_I_counts":"{\"1\": 245}","source":34,"target":35,"layer":"L","from":"Pioneer Village Station - Northbound Platform","to":"Highway 407 Station - Northbound Platform"},"geometry":{"type":"LineString","coordinates":[[-79.509334,43.776741],[-79.523454,43.783359]]}},{"type":"Feature","properties":{"duration_avg":112.0,"n_vehicles":239,"d":817,"route_I_counts":"{\"1\": 239}","shape_id":"{\"909690\": 176, \"909711\": 56, \"909712\": 1, \"909713\": 1, \"909748\": 5}","direction_id":"{\"1\": 239}","headsign":"{\"LINE 1 (YONGE-UNIVERSITY) towards FINCH STATION\": 239}","source":34,"target":33,"layer":"L","from":"Pioneer Village Station - Northbound Platform","to":"York University - Northbound Platform"},"geometry":{"type":"LineString","coordinates":[[-79.509334,43.776741],[-79.499888,43.774097]]}},{"type":"Feature","properties":{"shape_id":"{\"909397\": 202, \"909399\": 1, \"909474\": 42}","direction_id":"{\"0\": 245}","headsign":"{\"LINE 1 (YONGE-UNIVERSITY) towards VAUGHAN METROPOLITAN CENTRE STATION\": 245}","duration_avg":120.97142857142858,"n_vehicles":245,"d":1239,"route_I_counts":"{\"1\": 245}","source":35,"target":36,"layer":"L","from":"Highway 407 Station - Northbound Platform","to":"Vaughan Metropolitan Centre Station - Northbound Platform"},"geometry":{"type":"LineString","coordinates":[[-79.523454,43.783359],[-79.527906,43.794021]]}},{"type":"Feature","properties":{"duration_avg":123.0,"n_vehicles":239,"d":1349,"route_I_counts":"{\"1\": 239}","shape_id":"{\"909690\": 176, \"909711\": 56, \"909712\": 1, \"909713\": 1, \"909748\": 5}","direction_id":"{\"1\": 239}","headsign":"{\"LINE 1 (YONGE-UNIVERSITY) towards FINCH STATION\": 239}","source":35,"target":34,"layer":"L","from":"Highway 407 Station - Northbound Platform","to":"Pioneer Village Station - Northbound Platform"},"geometry":{"type":"LineString","coordinates":[[-79.523454,43.783359],[-79.509334,43.776741]]}},{"type":"Feature","properties":{"duration_avg":121.0,"n_vehicles":239,"d":1239,"route_I_counts":"{\"1\": 239}","shape_id":"{\"909690\": 176, \"909711\": 56, \"909712\": 1, \"909713\": 1, \"909748\": 5}","direction_id":"{\"1\": 239}","headsign":"{\"LINE 1 (YONGE-UNIVERSITY) towards FINCH STATION\": 239}","source":36,"target":35,"layer":"L","from":"Vaughan Metropolitan Centre Station - Northbound Platform","to":"Highway 407 Station - Northbound Platform"},"geometry":{"type":"LineString","coordinates":[[-79.527906,43.794021],[-79.523454,43.783359]]}},{"type":"Feature","properties":{"duration_avg":103.90598290598291,"n_vehicles":234,"d":442,"route_I_counts":"{\"1\": 234}","shape_id":"{\"909690\": 176, \"909711\": 56, \"909712\": 1, \"909713\": 1}","direction_id":"{\"1\": 234}","headsign":"{\"LINE 1 (YONGE-UNIVERSITY) towards FINCH STATION\": 234}","source":37,"target":15,"layer":"L","from":"Union Station - Northbound Platform Towards Finch","to":"King Station - Southbound Platform"},"geometry":{"type":"LineString","coordinates":[[-79.379688,43.645849],[-79.377688,43.648449]]}},{"type":"Feature","properties":{"duration_avg":88.0,"n_vehicles":245,"d":417,"route_I_counts":"{\"1\": 245}","shape_id":"{\"909397\": 202, \"909399\": 1, \"909474\": 42}","direction_id":"{\"0\": 245}","headsign":"{\"LINE 1 (YONGE-UNIVERSITY) towards VAUGHAN METROPOLITAN CENTRE STATION\": 245}","source":37,"target":16,"layer":"L","from":"Union Station - Northbound Platform Towards Finch","to":"St Andrew Station - Northbound Platform"},"geometry":{"type":"LineString","coordinates":[[-79.379688,43.645849],[-79.385088,43.648249]]}},{"type":"Feature","properties":{"shape_id":"{\"909786\": 48, \"909787\": 145, \"909789\": 1}","direction_id":"{\"0\": 194}","headsign":"{\"LINE 2 (BLOOR-DANFORTH) towards KENNEDY STATION\": 194}","duration_avg":115.75257731958763,"n_vehicles":194,"d":1222,"route_I_counts":"{\"52\": 194}","source":38,"target":39,"layer":"L","from":"Islington Station - Eastbound Platform","to":"Royal York Station - Eastbound Platform"},"geometry":{"type":"LineString","coordinates":[[-79.523293,43.645548],[-79.508693,43.648548]]}},{"type":"Feature","properties":{"duration_avg":172.9100529100529,"n_vehicles":189,"d":1239,"route_I_counts":"{\"52\": 189}","shape_id":"{\"909973\": 55, \"909974\": 134}","direction_id":"{\"1\": 189}","headsign":"{\"LINE 2 (BLOOR-DANFORTH) towards KIPLING STATION\": 189}","source":38,"target":65,"layer":"L","from":"Islington Station - Eastbound Platform","to":"Kipling Station - Subway Platform"},"geometry":{"type":"LineString","coordinates":[[-79.523293,43.645548],[-79.535892,43.637392]]}},{"type":"Feature","properties":{"shape_id":"{\"909786\": 48, \"909787\": 145, \"909789\": 1}","direction_id":"{\"0\": 194}","headsign":"{\"LINE 2 (BLOOR-DANFORTH) towards KENNEDY STATION\": 194}","duration_avg":122.75257731958763,"n_vehicles":194,"d":1236,"route_I_counts":"{\"52\": 194}","source":39,"target":40,"layer":"L","from":"Royal York Station - Eastbound Platform","to":"Old Mill Station - Eastbound Platform"},"geometry":{"type":"LineString","coordinates":[[-79.508693,43.648548],[-79.493392,43.649448]]}},{"type":"Feature","properties":{"duration_avg":126.03703703703704,"n_vehicles":189,"d":1217,"route_I_counts":"{\"52\": 189}","shape_id":"{\"909973\": 55, \"909974\": 134}","direction_id":"{\"1\": 189}","headsign":"{\"LINE 2 (BLOOR-DANFORTH) towards KIPLING STATION\": 189}","source":39,"target":38,"layer":"L","from":"Royal York Station - Eastbound Platform","to":"Islington Station - Eastbound Platform"},"geometry":{"type":"LineString","coordinates":[[-79.508693,43.648548],[-79.523293,43.645548]]}},{"type":"Feature","properties":{"shape_id":"{\"909786\": 48, \"909787\": 145, \"909789\": 1}","direction_id":"{\"0\": 194}","headsign":"{\"LINE 2 (BLOOR-DANFORTH) towards KENNEDY STATION\": 194}","duration_avg":90.75257731958763,"n_vehicles":194,"d":849,"route_I_counts":"{\"52\": 194}","source":40,"target":41,"layer":"L","from":"Old Mill Station - Eastbound Platform","to":"Jane Station - Eastbound Platform"},"geometry":{"type":"LineString","coordinates":[[-79.493392,43.649448],[-79.482892,43.650149]]}},{"type":"Feature","properties":{"duration_avg":133.32804232804233,"n_vehicles":189,"d":1270,"route_I_counts":"{\"52\": 189}","shape_id":"{\"909973\": 55, \"909974\": 134}","direction_id":"{\"1\": 189}","headsign":"{\"LINE 2 (BLOOR-DANFORTH) towards KIPLING STATION\": 189}","source":40,"target":39,"layer":"L","from":"Old Mill Station - Eastbound Platform","to":"Royal York Station - Eastbound Platform"},"geometry":{"type":"LineString","coordinates":[[-79.493392,43.649448],[-79.508693,43.648548]]}},{"type":"Feature","properties":{"shape_id":"{\"909786\": 48, \"909787\": 145, \"909789\": 1}","direction_id":"{\"0\": 194}","headsign":"{\"LINE 2 (BLOOR-DANFORTH) towards KENNEDY STATION\": 194}","duration_avg":60.0,"n_vehicles":194,"d":670,"route_I_counts":"{\"52\": 194}","source":41,"target":42,"layer":"L","from":"Jane Station - Eastbound Platform","to":"Runnymede Station - Eastbound Platform"},"geometry":{"type":"LineString","coordinates":[[-79.482892,43.650149],[-79.474992,43.652049]]}},{"type":"Feature","properties":{"duration_avg":90.0,"n_vehicles":189,"d":830,"route_I_counts":"{\"52\": 189}","shape_id":"{\"909973\": 55, \"909974\": 134}","direction_id":"{\"1\": 189}","headsign":"{\"LINE 2 (BLOOR-DANFORTH) towards KIPLING STATION\": 189}","source":41,"target":40,"layer":"L","from":"Jane Station - Eastbound Platform","to":"Old Mill Station - Eastbound Platform"},"geometry":{"type":"LineString","coordinates":[[-79.482892,43.650149],[-79.493392,43.649448]]}},{"type":"Feature","properties":{"shape_id":"{\"909786\": 48, \"909787\": 145, \"909789\": 1}","direction_id":"{\"0\": 194}","headsign":"{\"LINE 2 (BLOOR-DANFORTH) towards KENNEDY STATION\": 194}","duration_avg":79.75773195876289,"n_vehicles":194,"d":674,"route_I_counts":"{\"52\": 194}","source":42,"target":43,"layer":"L","from":"Runnymede Station - Eastbound Platform","to":"High Park Station - Eastbound Platform"},"geometry":{"type":"LineString","coordinates":[[-79.474992,43.652049],[-79.466991,43.653849]]}},{"type":"Feature","properties":{"duration_avg":74.70899470899471,"n_vehicles":189,"d":674,"route_I_counts":"{\"52\": 189}","shape_id":"{\"909973\": 55, \"909974\": 134}","direction_id":"{\"1\": 189}","headsign":"{\"LINE 2 (BLOOR-DANFORTH) towards KIPLING STATION\": 189}","source":42,"target":41,"layer":"L","from":"Runnymede Station - Eastbound Platform","to":"Jane Station - Eastbound Platform"},"geometry":{"type":"LineString","coordinates":[[-79.474992,43.652049],[-79.482892,43.650149]]}},{"type":"Feature","properties":{"shape_id":"{\"909786\": 48, \"909787\": 145, \"909789\": 1}","direction_id":"{\"0\": 194}","headsign":"{\"LINE 2 (BLOOR-DANFORTH) towards KENNEDY STATION\": 194}","duration_avg":84.00515463917526,"n_vehicles":194,"d":697,"route_I_counts":"{\"52\": 194}","source":43,"target":44,"layer":"L","from":"High Park Station - Eastbound Platform","to":"Keele Station - Eastbound Platform"},"geometry":{"type":"LineString","coordinates":[[-79.466991,43.653849],[-79.458691,43.655649]]}},{"type":"Feature","properties":{"duration_avg":73.41798941798942,"n_vehicles":189,"d":674,"route_I_counts":"{\"52\": 189}","shape_id":"{\"909973\": 55, \"909974\": 134}","direction_id":"{\"1\": 189}","headsign":"{\"LINE 2 (BLOOR-DANFORTH) towards KIPLING STATION\": 189}","source":43,"target":42,"layer":"L","from":"High Park Station - Eastbound Platform","to":"Runnymede Station - Eastbound Platform"},"geometry":{"type":"LineString","coordinates":[[-79.466991,43.653849],[-79.474992,43.652049]]}},{"type":"Feature","properties":{"shape_id":"{\"909786\": 48, \"909787\": 145, \"909789\": 1}","direction_id":"{\"0\": 194}","headsign":"{\"LINE 2 (BLOOR-DANFORTH) towards KENNEDY STATION\": 194}","duration_avg":70.74742268041237,"n_vehicles":194,"d":644,"route_I_counts":"{\"52\": 194}","source":44,"target":45,"layer":"L","from":"Keele Station - Eastbound Platform","to":"Dundas West Station - Eastbound Platform"},"geometry":{"type":"LineString","coordinates":[[-79.458691,43.655649],[-79.451091,43.657449]]}},{"type":"Feature","properties":{"duration_avg":75.41798941798942,"n_vehicles":189,"d":697,"route_I_counts":"{\"52\": 189}","shape_id":"{\"909973\": 55, \"909974\": 134}","direction_id":"{\"1\": 189}","headsign":"{\"LINE 2 (BLOOR-DANFORTH) towards KIPLING STATION\": 189}","source":44,"target":43,"layer":"L","from":"Keele Station - Eastbound Platform","to":"High Park Station - Eastbound Platform"},"geometry":{"type":"LineString","coordinates":[[-79.458691,43.655649],[-79.466991,43.653849]]}},{"type":"Feature","properties":{"shape_id":"{\"909786\": 48, \"909787\": 145, \"909789\": 1}","direction_id":"{\"0\": 194}","headsign":"{\"LINE 2 (BLOOR-DANFORTH) towards KENNEDY STATION\": 194}","duration_avg":79.74742268041237,"n_vehicles":194,"d":723,"route_I_counts":"{\"52\": 194}","source":45,"target":46,"layer":"L","from":"Dundas West Station - Eastbound Platform","to":"Lansdowne Station - Eastbound Platform"},"geometry":{"type":"LineString","coordinates":[[-79.451091,43.657449],[-79.442463,43.659246]]}},{"type":"Feature","properties":{"duration_avg":95.2010582010582,"n_vehicles":189,"d":644,"route_I_counts":"{\"52\": 189}","shape_id":"{\"909973\": 55, \"909974\": 134}","direction_id":"{\"1\": 189}","headsign":"{\"LINE 2 (BLOOR-DANFORTH) towards KIPLING STATION\": 189}","source":45,"target":44,"layer":"L","from":"Dundas West Station - Eastbound Platform","to":"Keele Station - Eastbound Platform"},"geometry":{"type":"LineString","coordinates":[[-79.451091,43.657449],[-79.458691,43.655649]]}},{"type":"Feature","properties":{"shape_id":"{\"909786\": 48, \"909787\": 145, \"909789\": 1}","direction_id":"{\"0\": 194}","headsign":"{\"LINE 2 (BLOOR-DANFORTH) towards KENNEDY STATION\": 194}","duration_avg":79.49484536082474,"n_vehicles":194,"d":713,"route_I_counts":"{\"52\": 194}","source":46,"target":47,"layer":"L","from":"Lansdowne Station - Eastbound Platform","to":"Dufferin Station - Eastbound Platform"},"geometry":{"type":"LineString","coordinates":[[-79.442463,43.659246],[-79.43389,43.660849]]}},{"type":"Feature","properties":{"duration_avg":127.07407407407408,"n_vehicles":189,"d":865,"route_I_counts":"{\"52\": 189}","shape_id":"{\"909973\": 55, \"909974\": 134}","direction_id":"{\"1\": 189}","headsign":"{\"LINE 2 (BLOOR-DANFORTH) towards KIPLING STATION\": 189}","source":46,"target":45,"layer":"L","from":"Lansdowne Station - Eastbound Platform","to":"Dundas West Station - Eastbound Platform"},"geometry":{"type":"LineString","coordinates":[[-79.442463,43.659246],[-79.451091,43.657449]]}},{"type":"Feature","properties":{"shape_id":"{\"909786\": 48, \"909787\": 145, \"909789\": 1}","direction_id":"{\"0\": 194}","headsign":"{\"LINE 2 (BLOOR-DANFORTH) towards KENNEDY STATION\": 194}","duration_avg":73.74742268041237,"n_vehicles":194,"d":649,"route_I_counts":"{\"52\": 194}","source":47,"target":48,"layer":"L","from":"Dufferin Station - Eastbound Platform","to":"Ossington Station - Eastbound Platform"},"geometry":{"type":"LineString","coordinates":[[-79.43389,43.660849],[-79.42609,43.662349]]}},{"type":"Feature","properties":{"duration_avg":42.0,"n_vehicles":189,"d":563,"route_I_counts":"{\"52\": 189}","shape_id":"{\"909973\": 55, \"909974\": 134}","direction_id":"{\"1\": 189}","headsign":"{\"LINE 2 (BLOOR-DANFORTH) towards KIPLING STATION\": 189}","source":47,"target":46,"layer":"L","from":"Dufferin Station - Eastbound Platform","to":"Lansdowne Station - Eastbound Platform"},"geometry":{"type":"LineString","coordinates":[[-79.43389,43.660849],[-79.442463,43.659246]]}},{"type":"Feature","properties":{"shape_id":"{\"909786\": 48, \"909787\": 145, \"909789\": 1}","direction_id":"{\"0\": 194}","headsign":"{\"LINE 2 (BLOOR-DANFORTH) towards KENNEDY STATION\": 194}","duration_avg":96.26288659793815,"n_vehicles":194,"d":746,"route_I_counts":"{\"52\": 194}","source":48,"target":49,"layer":"L","from":"Ossington Station - Eastbound Platform","to":"Christie Station - Eastbound Platform"},"geometry":{"type":"LineString","coordinates":[[-79.42609,43.662349],[-79.41729,43.664449]]}},{"type":"Feature","properties":{"duration_avg":48.0,"n_vehicles":189,"d":649,"route_I_counts":"{\"52\": 189}","shape_id":"{\"909973\": 55, \"909974\": 134}","direction_id":"{\"1\": 189}","headsign":"{\"LINE 2 (BLOOR-DANFORTH) towards KIPLING STATION\": 189}","source":48,"target":47,"layer":"L","from":"Ossington Station - Eastbound Platform","to":"Dufferin Station - Eastbound Platform"},"geometry":{"type":"LineString","coordinates":[[-79.42609,43.662349],[-79.43389,43.660849]]}},{"type":"Feature","properties":{"shape_id":"{\"909786\": 48, \"909787\": 145, \"909789\": 1}","direction_id":"{\"0\": 194}","headsign":"{\"LINE 2 (BLOOR-DANFORTH) towards KENNEDY STATION\": 194}","duration_avg":73.75773195876289,"n_vehicles":194,"d":564,"route_I_counts":"{\"52\": 194}","source":49,"target":50,"layer":"L","from":"Christie Station - Eastbound Platform","to":"Bathurst Station - Eastbound Platform"},"geometry":{"type":"LineString","coordinates":[[-79.41729,43.664449],[-79.410589,43.665949]]}},{"type":"Feature","properties":{"duration_avg":90.0,"n_vehicles":189,"d":753,"route_I_counts":"{\"52\": 189}","shape_id":"{\"909973\": 55, \"909974\": 134}","direction_id":"{\"1\": 189}","headsign":"{\"LINE 2 (BLOOR-DANFORTH) towards KIPLING STATION\": 189}","source":49,"target":48,"layer":"L","from":"Christie Station - Eastbound Platform","to":"Ossington Station - Eastbound Platform"},"geometry":{"type":"LineString","coordinates":[[-79.41729,43.664449],[-79.42609,43.662349]]}},{"type":"Feature","properties":{"duration_avg":72.01030927835052,"n_vehicles":194,"d":558,"route_I_counts":"{\"52\": 194}","shape_id":"{\"909786\": 48, \"909787\": 145, \"909789\": 1}","direction_id":"{\"0\": 194}","headsign":"{\"LINE 2 (BLOOR-DANFORTH) towards KENNEDY STATION\": 194}","source":50,"target":22,"layer":"L","from":"Bathurst Station - Eastbound Platform","to":"Spadina Station - Northbound Platform"},"geometry":{"type":"LineString","coordinates":[[-79.410589,43.665949],[-79.405189,43.670249]]}},{"type":"Feature","properties":{"duration_avg":76.91005291005291,"n_vehicles":189,"d":564,"route_I_counts":"{\"52\": 189}","shape_id":"{\"909973\": 55, \"909974\": 134}","direction_id":"{\"1\": 189}","headsign":"{\"LINE 2 (BLOOR-DANFORTH) towards KIPLING STATION\": 189}","source":50,"target":49,"layer":"L","from":"Bathurst Station - Eastbound Platform","to":"Christie Station - Eastbound Platform"},"geometry":{"type":"LineString","coordinates":[[-79.410589,43.665949],[-79.41729,43.664449]]}},{"type":"Feature","properties":{"duration_avg":56.27319587628866,"n_vehicles":194,"d":345,"route_I_counts":"{\"52\": 194}","shape_id":"{\"909786\": 48, \"909787\": 145, \"909789\": 1}","direction_id":"{\"0\": 194}","headsign":"{\"LINE 2 (BLOOR-DANFORTH) towards KENNEDY STATION\": 194}","source":51,"target":10,"layer":"L","from":"Bay Station - Eastbound Platform","to":"Bloor Station - Southbound Platform"},"geometry":{"type":"LineString","coordinates":[[-79.390089,43.670149],[-79.385389,43.670049]]}},{"type":"Feature","properties":{"duration_avg":92.0,"n_vehicles":189,"d":660,"route_I_counts":"{\"52\": 189}","shape_id":"{\"909973\": 55, \"909974\": 134}","direction_id":"{\"1\": 189}","headsign":"{\"LINE 2 (BLOOR-DANFORTH) towards KIPLING STATION\": 189}","source":51,"target":21,"layer":"L","from":"Bay Station - Eastbound Platform","to":"St George Station - Northbound Platform"},"geometry":{"type":"LineString","coordinates":[[-79.390089,43.670149],[-79.399689,43.668249]]}},{"type":"Feature","properties":{"shape_id":"{\"909786\": 48, \"909787\": 145, \"909789\": 1}","direction_id":"{\"0\": 194}","headsign":"{\"LINE 2 (BLOOR-DANFORTH) towards KENNEDY STATION\": 194}","duration_avg":75.76804123711341,"n_vehicles":194,"d":685,"route_I_counts":"{\"52\": 194}","source":52,"target":53,"layer":"L","from":"Sherbourne Station - Eastbound Platform","to":"Castle Frank Station - Eastbound Platform"},"geometry":{"type":"LineString","coordinates":[[-79.376162,43.672103],[-79.368088,43.674049]]}},{"type":"Feature","properties":{"duration_avg":166.45502645502646,"n_vehicles":189,"d":863,"route_I_counts":"{\"52\": 189}","shape_id":"{\"909973\": 55, \"909974\": 134}","direction_id":"{\"1\": 189}","headsign":"{\"LINE 2 (BLOOR-DANFORTH) towards KIPLING STATION\": 189}","source":52,"target":10,"layer":"L","from":"Sherbourne Station - Eastbound Platform","to":"Bloor Station - Southbound Platform"},"geometry":{"type":"LineString","coordinates":[[-79.376162,43.672103],[-79.385389,43.670049]]}},{"type":"Feature","properties":{"shape_id":"{\"909786\": 48, \"909787\": 145, \"909789\": 1}","direction_id":"{\"0\": 194}","headsign":"{\"LINE 2 (BLOOR-DANFORTH) towards KENNEDY STATION\": 194}","duration_avg":98.27319587628865,"n_vehicles":194,"d":871,"route_I_counts":"{\"52\": 194}","source":53,"target":54,"layer":"L","from":"Castle Frank Station - Eastbound Platform","to":"Broadview Station - Eastbound Platform"},"geometry":{"type":"LineString","coordinates":[[-79.368088,43.674049],[-79.358088,43.677049]]}},{"type":"Feature","properties":{"duration_avg":60.0,"n_vehicles":189,"d":536,"route_I_counts":"{\"52\": 189}","shape_id":"{\"909973\": 55, \"909974\": 134}","direction_id":"{\"1\": 189}","headsign":"{\"LINE 2 (BLOOR-DANFORTH) towards KIPLING STATION\": 189}","source":53,"target":52,"layer":"L","from":"Castle Frank Station - Eastbound Platform","to":"Sherbourne Station - Eastbound Platform"},"geometry":{"type":"LineString","coordinates":[[-79.368088,43.674049],[-79.376162,43.672103]]}},{"type":"Feature","properties":{"shape_id":"{\"909786\": 48, \"909787\": 145, \"909789\": 1}","direction_id":"{\"0\": 194}","headsign":"{\"LINE 2 (BLOOR-DANFORTH) towards KENNEDY STATION\": 194}","duration_avg":59.74742268041237,"n_vehicles":194,"d":468,"route_I_counts":"{\"52\": 194}","source":54,"target":55,"layer":"L","from":"Broadview Station - Eastbound Platform","to":"Chester Station - Eastbound Platform"},"geometry":{"type":"LineString","coordinates":[[-79.358088,43.677049],[-79.352502,43.678241]]}},{"type":"Feature","properties":{"duration_avg":60.0,"n_vehicles":189,"d":878,"route_I_counts":"{\"52\": 189}","shape_id":"{\"909973\": 55, \"909974\": 134}","direction_id":"{\"1\": 189}","headsign":"{\"LINE 2 (BLOOR-DANFORTH) towards KIPLING STATION\": 189}","source":54,"target":53,"layer":"L","from":"Broadview Station - Eastbound Platform","to":"Castle Frank Station - Eastbound Platform"},"geometry":{"type":"LineString","coordinates":[[-79.358088,43.677049],[-79.368088,43.674049]]}},{"type":"Feature","properties":{"shape_id":"{\"909786\": 48, \"909787\": 145, \"909789\": 1}","direction_id":"{\"0\": 194}","headsign":"{\"LINE 2 (BLOOR-DANFORTH) towards KENNEDY STATION\": 194}","duration_avg":88.49484536082474,"n_vehicles":194,"d":703,"route_I_counts":"{\"52\": 194}","source":55,"target":56,"layer":"L","from":"Chester Station - Eastbound Platform","to":"Pape Station - Eastbound Platform"},"geometry":{"type":"LineString","coordinates":[[-79.352502,43.678241],[-79.344087,43.679949]]}},{"type":"Feature","properties":{"duration_avg":60.0,"n_vehicles":189,"d":609,"route_I_counts":"{\"52\": 189}","shape_id":"{\"909973\": 55, \"909974\": 134}","direction_id":"{\"1\": 189}","headsign":"{\"LINE 2 (BLOOR-DANFORTH) towards KIPLING STATION\": 189}","source":55,"target":54,"layer":"L","from":"Chester Station - Eastbound Platform","to":"Broadview Station - Eastbound Platform"},"geometry":{"type":"LineString","coordinates":[[-79.352502,43.678241],[-79.358088,43.677049]]}},{"type":"Feature","properties":{"shape_id":"{\"909786\": 48, \"909787\": 145, \"909789\": 1}","direction_id":"{\"0\": 194}","headsign":"{\"LINE 2 (BLOOR-DANFORTH) towards KENNEDY STATION\": 194}","duration_avg":70.49484536082474,"n_vehicles":194,"d":547,"route_I_counts":"{\"52\": 194}","source":56,"target":57,"layer":"L","from":"Pape Station - Eastbound Platform","to":"Donlands Station - Eastbound Platform"},"geometry":{"type":"LineString","coordinates":[[-79.344087,43.679949],[-79.337487,43.681149]]}},{"type":"Feature","properties":{"duration_avg":81.87301587301587,"n_vehicles":189,"d":562,"route_I_counts":"{\"52\": 189}","shape_id":"{\"909973\": 55, \"909974\": 134}","direction_id":"{\"1\": 189}","headsign":"{\"LINE 2 (BLOOR-DANFORTH) towards KIPLING STATION\": 189}","source":56,"target":55,"layer":"L","from":"Pape Station - Eastbound Platform","to":"Chester Station - Eastbound Platform"},"geometry":{"type":"LineString","coordinates":[[-79.344087,43.679949],[-79.352502,43.678241]]}},{"type":"Feature","properties":{"shape_id":"{\"909786\": 48, \"909787\": 145, \"909789\": 1}","direction_id":"{\"0\": 194}","headsign":"{\"LINE 2 (BLOOR-DANFORTH) towards KENNEDY STATION\": 194}","duration_avg":60.0,"n_vehicles":194,"d":492,"route_I_counts":"{\"52\": 194}","source":57,"target":58,"layer":"L","from":"Donlands Station - Eastbound Platform","to":"Greenwood Station - Eastbound Platform"},"geometry":{"type":"LineString","coordinates":[[-79.337487,43.681149],[-79.331687,43.682549]]}},{"type":"Feature","properties":{"duration_avg":79.58201058201058,"n_vehicles":189,"d":550,"route_I_counts":"{\"52\": 189}","shape_id":"{\"909973\": 55, \"909974\": 134}","direction_id":"{\"1\": 189}","headsign":"{\"LINE 2 (BLOOR-DANFORTH) towards KIPLING STATION\": 189}","source":57,"target":56,"layer":"L","from":"Donlands Station - Eastbound Platform","to":"Pape Station - Eastbound Platform"},"geometry":{"type":"LineString","coordinates":[[-79.337487,43.681149],[-79.344087,43.679949]]}},{"type":"Feature","properties":{"shape_id":"{\"909786\": 48, \"909787\": 145, \"909789\": 1}","direction_id":"{\"0\": 194}","headsign":"{\"LINE 2 (BLOOR-DANFORTH) towards KENNEDY STATION\": 194}","duration_avg":60.0,"n_vehicles":194,"d":812,"route_I_counts":"{\"52\": 194}","source":58,"target":59,"layer":"L","from":"Greenwood Station - Eastbound Platform","to":"Coxwell Station - Eastbound Platform"},"geometry":{"type":"LineString","coordinates":[[-79.331687,43.682549],[-79.321986,43.684549]]}},{"type":"Feature","properties":{"duration_avg":60.0,"n_vehicles":189,"d":770,"route_I_counts":"{\"52\": 189}","shape_id":"{\"909973\": 55, \"909974\": 134}","direction_id":"{\"1\": 189}","headsign":"{\"LINE 2 (BLOOR-DANFORTH) towards KIPLING STATION\": 189}","source":58,"target":57,"layer":"L","from":"Greenwood Station - Eastbound Platform","to":"Donlands Station - Eastbound Platform"},"geometry":{"type":"LineString","coordinates":[[-79.331687,43.682549],[-79.337487,43.681149]]}},{"type":"Feature","properties":{"shape_id":"{\"909786\": 48, \"909787\": 145, \"909789\": 1}","direction_id":"{\"0\": 194}","headsign":"{\"LINE 2 (BLOOR-DANFORTH) towards KENNEDY STATION\": 194}","duration_avg":127.47422680412372,"n_vehicles":194,"d":815,"route_I_counts":"{\"52\": 194}","source":59,"target":60,"layer":"L","from":"Coxwell Station - Eastbound Platform","to":"Woodbine Station - Eastbound Platform"},"geometry":{"type":"LineString","coordinates":[[-79.321986,43.684549],[-79.312286,43.686649]]}},{"type":"Feature","properties":{"duration_avg":87.08994708994709,"n_vehicles":189,"d":530,"route_I_counts":"{\"52\": 189}","shape_id":"{\"909973\": 55, \"909974\": 134}","direction_id":"{\"1\": 189}","headsign":"{\"LINE 2 (BLOOR-DANFORTH) towards KIPLING STATION\": 189}","source":59,"target":58,"layer":"L","from":"Coxwell Station - Eastbound Platform","to":"Greenwood Station - Eastbound Platform"},"geometry":{"type":"LineString","coordinates":[[-79.321986,43.684549],[-79.331687,43.682549]]}},{"type":"Feature","properties":{"shape_id":"{\"909786\": 48, \"909787\": 145, \"909789\": 1}","direction_id":"{\"0\": 194}","headsign":"{\"LINE 2 (BLOOR-DANFORTH) towards KENNEDY STATION\": 194}","duration_avg":89.73711340206185,"n_vehicles":194,"d":977,"route_I_counts":"{\"52\": 194}","source":60,"target":61,"layer":"L","from":"Woodbine Station - Eastbound Platform","to":"Main Street Station - Eastbound Platform"},"geometry":{"type":"LineString","coordinates":[[-79.312286,43.686649],[-79.300686,43.689249]]}},{"type":"Feature","properties":{"duration_avg":60.0,"n_vehicles":189,"d":815,"route_I_counts":"{\"52\": 189}","shape_id":"{\"909973\": 55, \"909974\": 134}","direction_id":"{\"1\": 189}","headsign":"{\"LINE 2 (BLOOR-DANFORTH) towards KIPLING STATION\": 189}","source":60,"target":59,"layer":"L","from":"Woodbine Station - Eastbound Platform","to":"Coxwell Station - Eastbound Platform"},"geometry":{"type":"LineString","coordinates":[[-79.312286,43.686649],[-79.321986,43.684549]]}},{"type":"Feature","properties":{"shape_id":"{\"909786\": 48, \"909787\": 145, \"909789\": 1}","direction_id":"{\"0\": 194}","headsign":"{\"LINE 2 (BLOOR-DANFORTH) towards KENNEDY STATION\": 194}","duration_avg":112.73711340206185,"n_vehicles":194,"d":1221,"route_I_counts":"{\"52\": 194}","source":61,"target":62,"layer":"L","from":"Main Street Station - Eastbound Platform","to":"Victoria Park Station - Eastbound Platform"},"geometry":{"type":"LineString","coordinates":[[-79.300686,43.689249],[-79.287885,43.695149]]}},{"type":"Feature","properties":{"duration_avg":81.12698412698413,"n_vehicles":189,"d":977,"route_I_counts":"{\"52\": 189}","shape_id":"{\"909973\": 55, \"909974\": 134}","direction_id":"{\"1\": 189}","headsign":"{\"LINE 2 (BLOOR-DANFORTH) towards KIPLING STATION\": 189}","source":61,"target":60,"layer":"L","from":"Main Street Station - Eastbound Platform","to":"Woodbine Station - Eastbound Platform"},"geometry":{"type":"LineString","coordinates":[[-79.300686,43.689249],[-79.312286,43.686649]]}},{"type":"Feature","properties":{"shape_id":"{\"909786\": 48, \"909787\": 145, \"909789\": 1}","direction_id":"{\"0\": 194}","headsign":"{\"LINE 2 (BLOOR-DANFORTH) towards KENNEDY STATION\": 194}","duration_avg":202.4742268041237,"n_vehicles":194,"d":2029,"route_I_counts":"{\"52\": 194}","source":62,"target":63,"layer":"L","from":"Victoria Park Station - Eastbound Platform","to":"Warden Station - Eastbound Platform"},"geometry":{"type":"LineString","coordinates":[[-79.287885,43.695149],[-79.278785,43.712149]]}},{"type":"Feature","properties":{"duration_avg":99.12698412698413,"n_vehicles":189,"d":1216,"route_I_counts":"{\"52\": 189}","shape_id":"{\"909973\": 55, \"909974\": 134}","direction_id":"{\"1\": 189}","headsign":"{\"LINE 2 (BLOOR-DANFORTH) towards KIPLING STATION\": 189}","source":62,"target":61,"layer":"L","from":"Victoria Park Station - Eastbound Platform","to":"Main Street Station - Eastbound Platform"},"geometry":{"type":"LineString","coordinates":[[-79.287885,43.695149],[-79.300686,43.689249]]}},{"type":"Feature","properties":{"shape_id":"{\"909786\": 48, \"909787\": 145, \"909789\": 1}","direction_id":"{\"0\": 194}","headsign":"{\"LINE 2 (BLOOR-DANFORTH) towards KENNEDY STATION\": 194}","duration_avg":212.5257731958763,"n_vehicles":194,"d":2568,"route_I_counts":"{\"52\": 194}","source":63,"target":64,"layer":"L","from":"Warden Station - Eastbound Platform","to":"Kennedy Station - Subway Platform"},"geometry":{"type":"LineString","coordinates":[[-79.278785,43.712149],[-79.263718,43.732487]]}},{"type":"Feature","properties":{"duration_avg":176.25396825396825,"n_vehicles":189,"d":1998,"route_I_counts":"{\"52\": 189}","shape_id":"{\"909973\": 55, \"909974\": 134}","direction_id":"{\"1\": 189}","headsign":"{\"LINE 2 (BLOOR-DANFORTH) towards KIPLING STATION\": 189}","source":63,"target":62,"layer":"L","from":"Warden Station - Eastbound Platform","to":"Victoria Park Station - Eastbound Platform"},"geometry":{"type":"LineString","coordinates":[[-79.278785,43.712149],[-79.287885,43.695149]]}},{"type":"Feature","properties":{"duration_avg":182.42138364779873,"n_vehicles":159,"d":2099,"route_I_counts":"{\"62\": 159}","shape_id":"{\"910171\": 14, \"910172\": 68, \"910188\": 77}","direction_id":"{\"1\": 159}","headsign":"{\"LINE 3 (SCARBOROUGH) towards MCCOWAN STATION\": 159}","source":64,"target":69,"layer":"L","from":"Kennedy Station - Subway Platform","to":"Lawrence East Station - Southbound Platform"},"geometry":{"type":"LineString","coordinates":[[-79.263718,43.732487],[-79.270186,43.750148]]}},{"type":"Feature","properties":{"duration_avg":222.67195767195767,"n_vehicles":189,"d":2625,"route_I_counts":"{\"52\": 189}","shape_id":"{\"909973\": 55, \"909974\": 134}","direction_id":"{\"1\": 189}","headsign":"{\"LINE 2 (BLOOR-DANFORTH) towards KIPLING STATION\": 189}","source":64,"target":63,"layer":"L","from":"Kennedy Station - Subway Platform","to":"Warden Station - Eastbound Platform"},"geometry":{"type":"LineString","coordinates":[[-79.263718,43.732487],[-79.278785,43.712149]]}},{"type":"Feature","properties":{"duration_avg":129.50515463917526,"n_vehicles":194,"d":1330,"route_I_counts":"{\"52\": 194}","shape_id":"{\"909786\": 48, \"909787\": 145, \"909789\": 1}","direction_id":"{\"0\": 194}","headsign":"{\"LINE 2 (BLOOR-DANFORTH) towards KENNEDY STATION\": 194}","source":65,"target":38,"layer":"L","from":"Kipling Station - Subway Platform","to":"Islington Station - Eastbound Platform"},"geometry":{"type":"LineString","coordinates":[[-79.535892,43.637392],[-79.523293,43.645548]]}},{"type":"Feature","properties":{"shape_id":"{\"910156\": 12, \"910157\": 68, \"910163\": 77}","direction_id":"{\"0\": 157}","headsign":"{\"LINE 3 (SCARBOROUGH) towards KENNEDY STATION\": 157}","duration_avg":109.45222929936305,"n_vehicles":157,"d":1247,"route_I_counts":"{\"62\": 157}","source":66,"target":67,"layer":"L","from":"Scarborough Centre Station - Westbound Platform","to":"Midland Station - Westbound Platform"},"geometry":{"type":"LineString","coordinates":[[-79.257786,43.774448],[-79.272286,43.770448]]}},{"type":"Feature","properties":{"duration_avg":265.61006289308176,"n_vehicles":159,"d":482,"route_I_counts":"{\"62\": 159}","shape_id":"{\"910171\": 14, \"910172\": 68, \"910188\": 77}","direction_id":"{\"1\": 159}","headsign":"{\"LINE 3 (SCARBOROUGH) towards MCCOWAN STATION\": 159}","source":66,"target":70,"layer":"L","from":"Scarborough Centre Station - Westbound Platform","to":"McCowan Station - Platform"},"geometry":{"type":"LineString","coordinates":[[-79.257786,43.774448],[-79.251111,43.77496]]}},{"type":"Feature","properties":{"shape_id":"{\"910156\": 12, \"910157\": 68, \"910163\": 77}","direction_id":"{\"0\": 157}","headsign":"{\"LINE 3 (SCARBOROUGH) towards KENNEDY STATION\": 157}","duration_avg":92.45222929936305,"n_vehicles":157,"d":535,"route_I_counts":"{\"62\": 157}","source":67,"target":68,"layer":"L","from":"Midland Station - Westbound Platform","to":"Ellesmere Station - Southbound Platform"},"geometry":{"type":"LineString","coordinates":[[-79.272286,43.770448],[-79.276186,43.766548]]}},{"type":"Feature","properties":{"duration_avg":110.42138364779875,"n_vehicles":159,"d":1251,"route_I_counts":"{\"62\": 159}","shape_id":"{\"910171\": 14, \"910172\": 68, \"910188\": 77}","direction_id":"{\"1\": 159}","headsign":"{\"LINE 3 (SCARBOROUGH) towards MCCOWAN STATION\": 159}","source":67,"target":66,"layer":"L","from":"Midland Station - Westbound Platform","to":"Scarborough Centre Station - Westbound Platform"},"geometry":{"type":"LineString","coordinates":[[-79.272286,43.770448],[-79.257786,43.774448]]}},{"type":"Feature","properties":{"shape_id":"{\"910156\": 12, \"910157\": 68, \"910163\": 77}","direction_id":"{\"0\": 157}","headsign":"{\"LINE 3 (SCARBOROUGH) towards KENNEDY STATION\": 157}","duration_avg":145.45222929936307,"n_vehicles":157,"d":1888,"route_I_counts":"{\"62\": 157}","source":68,"target":69,"layer":"L","from":"Ellesmere Station - Southbound Platform","to":"Lawrence East Station - Southbound Platform"},"geometry":{"type":"LineString","coordinates":[[-79.276186,43.766548],[-79.270186,43.750148]]}},{"type":"Feature","properties":{"duration_avg":87.42138364779875,"n_vehicles":159,"d":534,"route_I_counts":"{\"62\": 159}","shape_id":"{\"910171\": 14, \"910172\": 68, \"910188\": 77}","direction_id":"{\"1\": 159}","headsign":"{\"LINE 3 (SCARBOROUGH) towards MCCOWAN STATION\": 159}","source":68,"target":67,"layer":"L","from":"Ellesmere Station - Southbound Platform","to":"Midland Station - Westbound Platform"},"geometry":{"type":"LineString","coordinates":[[-79.276186,43.766548],[-79.272286,43.770448]]}},{"type":"Feature","properties":{"duration_avg":304.6687898089172,"n_vehicles":157,"d":2042,"route_I_counts":"{\"62\": 157}","shape_id":"{\"910156\": 12, \"910157\": 68, \"910163\": 77}","direction_id":"{\"0\": 157}","headsign":"{\"LINE 3 (SCARBOROUGH) towards KENNEDY STATION\": 157}","source":69,"target":64,"layer":"L","from":"Lawrence East Station - Southbound Platform","to":"Kennedy Station - Subway Platform"},"geometry":{"type":"LineString","coordinates":[[-79.270186,43.750148],[-79.263718,43.732487]]}},{"type":"Feature","properties":{"duration_avg":157.42138364779873,"n_vehicles":159,"d":1879,"route_I_counts":"{\"62\": 159}","shape_id":"{\"910171\": 14, \"910172\": 68, \"910188\": 77}","direction_id":"{\"1\": 159}","headsign":"{\"LINE 3 (SCARBOROUGH) towards MCCOWAN STATION\": 159}","source":69,"target":68,"layer":"L","from":"Lawrence East Station - Southbound Platform","to":"Ellesmere Station - Southbound Platform"},"geometry":{"type":"LineString","coordinates":[[-79.270186,43.750148],[-79.276186,43.766548]]}},{"type":"Feature","properties":{"duration_avg":103.45222929936305,"n_vehicles":157,"d":495,"route_I_counts":"{\"62\": 157}","shape_id":"{\"910156\": 12, \"910157\": 68, \"910163\": 77}","direction_id":"{\"0\": 157}","headsign":"{\"LINE 3 (SCARBOROUGH) towards KENNEDY STATION\": 157}","source":70,"target":66,"layer":"L","from":"McCowan Station - Platform","to":"Scarborough Centre Station - Westbound Platform"},"geometry":{"type":"LineString","coordinates":[[-79.251111,43.77496],[-79.257786,43.774448]]}},{"type":"Feature","properties":{"duration_avg":105.0,"n_vehicles":180,"d":798,"route_I_counts":"{\"104\": 180}","shape_id":"{\"910196\": 180}","direction_id":"{\"1\": 180}","headsign":"{\"LINE 4 (SHEPPARD) towards SHEPPARD-YONGE STATION\": 180}","source":71,"target":72,"layer":"L","from":"Leslie Station - Eastbound Platform","to":"Bessarion Station - Eastbound Platform"},"geometry":{"type":"LineString","coordinates":[[-79.36499,43.771348],[-79.376312,43.769202]]}},{"type":"Feature","properties":{"duration_avg":159.0,"n_vehicles":177,"d":1551,"route_I_counts":"{\"104\": 177}","shape_id":"{\"910195\": 177}","direction_id":"{\"0\": 177}","headsign":"{\"LINE 4 (SHEPPARD) towards DON MILLS STATION\": 177}","source":71,"target":74,"layer":"L","from":"Leslie Station - Eastbound Platform","to":"Don Mills Station - Westbound Platform"},"geometry":{"type":"LineString","coordinates":[[-79.36499,43.771348],[-79.346189,43.775248]]}},{"type":"Feature","properties":{"shape_id":"{\"910195\": 177}","direction_id":"{\"0\": 177}","headsign":"{\"LINE 4 (SHEPPARD) towards DON MILLS STATION\": 177}","duration_avg":75.0,"n_vehicles":177,"d":940,"route_I_counts":"{\"104\": 177}","source":72,"target":71,"layer":"L","from":"Bessarion Station - Eastbound Platform","to":"Leslie Station - Eastbound Platform"},"geometry":{"type":"LineString","coordinates":[[-79.376312,43.769202],[-79.36499,43.771348]]}},{"type":"Feature","properties":{"duration_avg":113.0,"n_vehicles":180,"d":874,"route_I_counts":"{\"104\": 180}","shape_id":"{\"910196\": 180}","direction_id":"{\"1\": 180}","headsign":"{\"LINE 4 (SHEPPARD) towards SHEPPARD-YONGE STATION\": 180}","source":72,"target":73,"layer":"L","from":"Bessarion Station - Eastbound Platform","to":"Bayview Station - Eastbound Platform"},"geometry":{"type":"LineString","coordinates":[[-79.376312,43.769202],[-79.386703,43.766872]]}},{"type":"Feature","properties":{"shape_id":"{\"910195\": 177}","direction_id":"{\"0\": 177}","headsign":"{\"LINE 4 (SHEPPARD) towards DON MILLS STATION\": 177}","duration_avg":87.0,"n_vehicles":177,"d":874,"route_I_counts":"{\"104\": 177}","source":73,"target":72,"layer":"L","from":"Bayview Station - Eastbound Platform","to":"Bessarion Station - Eastbound Platform"},"geometry":{"type":"LineString","coordinates":[[-79.386703,43.766872],[-79.376312,43.769202]]}},{"type":"Feature","properties":{"duration_avg":161.0,"n_vehicles":180,"d":1968,"route_I_counts":"{\"104\": 180}","shape_id":"{\"910196\": 180}","direction_id":"{\"1\": 180}","headsign":"{\"LINE 4 (SHEPPARD) towards SHEPPARD-YONGE STATION\": 180}","source":73,"target":2,"layer":"L","from":"Bayview Station - Eastbound Platform","to":"Sheppard-Yonge Station - Southbound Platform"},"geometry":{"type":"LineString","coordinates":[[-79.386703,43.766872],[-79.410691,43.760348]]}},{"type":"Feature","properties":{"duration_avg":125.0,"n_vehicles":180,"d":1714,"route_I_counts":"{\"104\": 180}","shape_id":"{\"910196\": 180}","direction_id":"{\"1\": 180}","headsign":"{\"LINE 4 (SHEPPARD) towards SHEPPARD-YONGE STATION\": 180}","source":74,"target":71,"layer":"L","from":"Don Mills Station - Westbound Platform","to":"Leslie Station - Eastbound Platform"},"geometry":{"type":"LineString","coordinates":[[-79.346189,43.775248],[-79.36499,43.771348]]}}]}