{"type":"FeatureCollection","features":[{"type":"Feature","geometry":{"type":"Point","coordinates":[1.392211,43.570087]},"properties":{"name":"Basso Cambo","original_ids":"[69, 68]","id":0,"layer":"stop"}},{"type":"Feature","geometry":{"type":"Point","coordinates":[1.398944,43.566296]},"properties":{"name":"Bellefontaine","original_ids":"[262, 261]","id":1,"layer":"stop"}},{"type":"Feature","geometry":{"type":"Point","coordinates":[1.401997,43.570241]},"properties":{"name":"Reynerie","original_ids":"[257, 258]","id":2,"layer":"stop"}},{"type":"Feature","geometry":{"type":"Point","coordinates":[1.402197,43.574711]},"properties":{"name":"Mirail-Université","original_ids":"[256, 255]","id":3,"layer":"stop"}},{"type":"Feature","geometry":{"type":"Point","coordinates":[1.412436,43.579886]},"properties":{"name":"Bagatelle","original_ids":"[77, 76]","id":4,"layer":"stop"}},{"type":"Feature","geometry":{"type":"Point","coordinates":[1.415558,43.583444]},"properties":{"name":"Mermoz","original_ids":"[252, 251]","id":5,"layer":"stop"}},{"type":"Feature","geometry":{"type":"Point","coordinates":[1.418336,43.587536]},"properties":{"name":"Fontaine Lestang","original_ids":"[250, 249]","id":6,"layer":"stop"}},{"type":"Feature","geometry":{"type":"Point","coordinates":[1.419404,43.593222]},"properties":{"name":"Arènes","original_ids":"[48, 47]","id":7,"layer":"stop"}},{"type":"Feature","geometry":{"type":"Point","coordinates":[1.423254,43.596038]},"properties":{"name":"Patte d'Oie","original_ids":"[89, 88]","id":8,"layer":"stop"}},{"type":"Feature","geometry":{"type":"Point","coordinates":[1.43174,43.597625]},"properties":{"name":"St Cyprien - République","original_ids":"[57, 56]","id":9,"layer":"stop"}},{"type":"Feature","geometry":{"type":"Point","coordinates":[1.44408,43.600441]},"properties":{"name":"Esquirol","original_ids":"[119, 120]","id":10,"layer":"stop"}},{"type":"Feature","geometry":{"type":"Point","coordinates":[1.445573,43.604444]},"properties":{"name":"Capitole","original_ids":"[85, 84]","id":11,"layer":"stop"}},{"type":"Feature","geometry":{"type":"Point","coordinates":[1.448587,43.605531]},"properties":{"name":"Jean Jaurès","original_ids":"[80, 79, 2372, 2371]","id":12,"layer":"stop"}},{"type":"Feature","geometry":{"type":"Point","coordinates":[1.455617,43.610102]},"properties":{"name":"Marengo-SNCF","original_ids":"[4, 5]","id":13,"layer":"stop"}},{"type":"Feature","geometry":{"type":"Point","coordinates":[1.463265,43.615327]},"properties":{"name":"Jolimont","original_ids":"[248, 247]","id":14,"layer":"stop"}},{"type":"Feature","geometry":{"type":"Point","coordinates":[1.469639,43.61968]},"properties":{"name":"Roseraie","original_ids":"[2091, 2092]","id":15,"layer":"stop"}},{"type":"Feature","geometry":{"type":"Point","coordinates":[1.476791,43.624391]},"properties":{"name":"Argoulets","original_ids":"[2031, 2032]","id":16,"layer":"stop"}},{"type":"Feature","geometry":{"type":"Point","coordinates":[1.482867,43.628822]},"properties":{"name":"Balma-Gramont","original_ids":"[484, 483]","id":17,"layer":"stop"}},{"type":"Feature","geometry":{"type":"Point","coordinates":[1.452572,43.640812]},"properties":{"name":"Borderouge","original_ids":"[2366, 2365]","id":18,"layer":"stop"}},{"type":"Feature","geometry":{"type":"Point","coordinates":[1.443999,43.637967]},"properties":{"name":"Trois Cocus","original_ids":"[2327, 2326]","id":19,"layer":"stop"}},{"type":"Feature","geometry":{"type":"Point","coordinates":[1.434892,43.633661]},"properties":{"name":"La Vache","original_ids":"[2368, 2367]","id":20,"layer":"stop"}},{"type":"Feature","geometry":{"type":"Point","coordinates":[1.434185,43.626939]},"properties":{"name":"Barrière de Paris","original_ids":"[2417, 2416]","id":21,"layer":"stop"}},{"type":"Feature","geometry":{"type":"Point","coordinates":[1.435785,43.620632]},"properties":{"name":"Minimes - Cl. Nougaro","original_ids":"[2419, 2418]","id":22,"layer":"stop"}},{"type":"Feature","geometry":{"type":"Point","coordinates":[1.433587,43.615479]},"properties":{"name":"Canal du Midi","original_ids":"[2421, 2420]","id":23,"layer":"stop"}},{"type":"Feature","geometry":{"type":"Point","coordinates":[1.435591,43.610892]},"properties":{"name":"Compans - Caffarelli","original_ids":"[2384, 2383]","id":24,"layer":"stop"}},{"type":"Feature","geometry":{"type":"Point","coordinates":[1.44573,43.609142]},"properties":{"name":"Jeanne d'Arc","original_ids":"[2422, 2423]","id":25,"layer":"stop"}},{"type":"Feature","geometry":{"type":"Point","coordinates":[1.452604,43.600725]},"properties":{"name":"François Verdier","original_ids":"[2408, 2407]","id":26,"layer":"stop"}},{"type":"Feature","geometry":{"type":"Point","coordinates":[1.445378,43.597933]},"properties":{"name":"Carmes","original_ids":"[2425, 2424]","id":27,"layer":"stop"}},{"type":"Feature","geometry":{"type":"Point","coordinates":[1.443891,43.592822]},"properties":{"name":"Palais de Justice","original_ids":"[2345, 2344]","id":28,"layer":"stop"}},{"type":"Feature","geometry":{"type":"Point","coordinates":[1.446621,43.586189]},"properties":{"name":"St Michel - Marcel Langer","original_ids":"[2427, 2426]","id":29,"layer":"stop"}},{"type":"Feature","geometry":{"type":"Point","coordinates":[1.442053,43.579898]},"properties":{"name":"Empalot","original_ids":"[2324, 2323]","id":30,"layer":"stop"}},{"type":"Feature","geometry":{"type":"Point","coordinates":[1.449832,43.579915]},"properties":{"name":"Saint Agne SNCF","original_ids":"[2429, 2428]","id":31,"layer":"stop"}},{"type":"Feature","geometry":{"type":"Point","coordinates":[1.459087,43.579452]},"properties":{"name":"Saouzelong","original_ids":"[2354, 2353]","id":32,"layer":"stop"}},{"type":"Feature","geometry":{"type":"Point","coordinates":[1.461777,43.574844]},"properties":{"name":"Rangueil","original_ids":"[2337, 2336]","id":33,"layer":"stop"}},{"type":"Feature","geometry":{"type":"Point","coordinates":[1.46462,43.568093]},"properties":{"name":"Faculté de Pharmacie","original_ids":"[2431, 2430]","id":34,"layer":"stop"}},{"type":"Feature","geometry":{"type":"Point","coordinates":[1.463331,43.560767]},"properties":{"name":"Université Paul Sabatier","original_ids":"[2342, 2341]","id":35,"layer":"stop"}},{"type":"Feature","geometry":{"type":"Point","coordinates":[1.476384,43.555764]},"properties":{"name":"Ramonville","original_ids":"[2393, 2392]","id":36,"layer":"stop"}},{"type":"Feature","properties":{"shape_id":"{\"4503857325514699\": 378}","direction_id":"{\"1\": 378}","headsign":"{\"Balma-Gramont BALMA\": 378}","duration_avg":60.0,"n_vehicles":378,"d":687,"route_I_counts":"{\"43\": 378}","source":0,"target":1,"layer":"L","from":"Basso Cambo","to":"Bellefontaine"},"geometry":{"type":"LineString","coordinates":[[1.392211,43.570087],[1.398944,43.566296]]}},{"type":"Feature","properties":{"shape_id":"{\"4503857325514699\": 377}","direction_id":"{\"1\": 377}","headsign":"{\"Balma-Gramont BALMA\": 377}","duration_avg":60.0,"n_vehicles":377,"d":503,"route_I_counts":"{\"43\": 377}","source":1,"target":2,"layer":"L","from":"Bellefontaine","to":"Reynerie"},"geometry":{"type":"LineString","coordinates":[[1.398944,43.566296],[1.401997,43.570241]]}},{"type":"Feature","properties":{"duration_avg":60.0,"n_vehicles":373,"d":671,"route_I_counts":"{\"43\": 373}","shape_id":"{\"4503857325514910\": 373}","direction_id":"{\"0\": 373}","headsign":"{\"Basso Cambo TOULOUSE\": 373}","source":1,"target":0,"layer":"L","from":"Bellefontaine","to":"Basso Cambo"},"geometry":{"type":"LineString","coordinates":[[1.398944,43.566296],[1.392211,43.570087]]}},{"type":"Feature","properties":{"shape_id":"{\"4503857325514699\": 377}","direction_id":"{\"1\": 377}","headsign":"{\"Balma-Gramont BALMA\": 377}","duration_avg":120.0,"n_vehicles":377,"d":497,"route_I_counts":"{\"43\": 377}","source":2,"target":3,"layer":"L","from":"Reynerie","to":"Mirail-Université"},"geometry":{"type":"LineString","coordinates":[[1.401997,43.570241],[1.402197,43.574711]]}},{"type":"Feature","properties":{"duration_avg":60.0,"n_vehicles":373,"d":492,"route_I_counts":"{\"43\": 373}","shape_id":"{\"4503857325514910\": 373}","direction_id":"{\"0\": 373}","headsign":"{\"Basso Cambo TOULOUSE\": 373}","source":2,"target":1,"layer":"L","from":"Reynerie","to":"Bellefontaine"},"geometry":{"type":"LineString","coordinates":[[1.401997,43.570241],[1.398944,43.566296]]}},{"type":"Feature","properties":{"shape_id":"{\"4503857325514699\": 377}","direction_id":"{\"1\": 377}","headsign":"{\"Balma-Gramont BALMA\": 377}","duration_avg":60.0,"n_vehicles":377,"d":1006,"route_I_counts":"{\"43\": 377}","source":3,"target":4,"layer":"L","from":"Mirail-Université","to":"Bagatelle"},"geometry":{"type":"LineString","coordinates":[[1.402197,43.574711],[1.412436,43.579886]]}},{"type":"Feature","properties":{"duration_avg":120.0,"n_vehicles":373,"d":497,"route_I_counts":"{\"43\": 373}","shape_id":"{\"4503857325514910\": 373}","direction_id":"{\"0\": 373}","headsign":"{\"Basso Cambo TOULOUSE\": 373}","source":3,"target":2,"layer":"L","from":"Mirail-Université","to":"Reynerie"},"geometry":{"type":"LineString","coordinates":[[1.402197,43.574711],[1.401997,43.570241]]}},{"type":"Feature","properties":{"shape_id":"{\"4503857325514699\": 377}","direction_id":"{\"1\": 377}","headsign":"{\"Balma-Gramont BALMA\": 377}","duration_avg":60.0,"n_vehicles":377,"d":469,"route_I_counts":"{\"43\": 377}","source":4,"target":5,"layer":"L","from":"Bagatelle","to":"Mermoz"},"geometry":{"type":"LineString","coordinates":[[1.412436,43.579886],[1.415558,43.583444]]}},{"type":"Feature","properties":{"duration_avg":60.0,"n_vehicles":374,"d":1012,"route_I_counts":"{\"43\": 374}","shape_id":"{\"4503857325514910\": 374}","direction_id":"{\"0\": 374}","headsign":"{\"Basso Cambo TOULOUSE\": 374}","source":4,"target":3,"layer":"L","from":"Bagatelle","to":"Mirail-Université"},"geometry":{"type":"LineString","coordinates":[[1.412436,43.579886],[1.402197,43.574711]]}},{"type":"Feature","properties":{"shape_id":"{\"4503857325514699\": 377}","direction_id":"{\"1\": 377}","headsign":"{\"Balma-Gramont BALMA\": 377}","duration_avg":60.0,"n_vehicles":377,"d":507,"route_I_counts":"{\"43\": 377}","source":5,"target":6,"layer":"L","from":"Mermoz","to":"Fontaine Lestang"},"geometry":{"type":"LineString","coordinates":[[1.415558,43.583444],[1.418336,43.587536]]}},{"type":"Feature","properties":{"duration_avg":120.0,"n_vehicles":374,"d":467,"route_I_counts":"{\"43\": 374}","shape_id":"{\"4503857325514910\": 374}","direction_id":"{\"0\": 374}","headsign":"{\"Basso Cambo TOULOUSE\": 374}","source":5,"target":4,"layer":"L","from":"Mermoz","to":"Bagatelle"},"geometry":{"type":"LineString","coordinates":[[1.415558,43.583444],[1.412436,43.579886]]}},{"type":"Feature","properties":{"shape_id":"{\"4503857325514699\": 376}","direction_id":"{\"1\": 376}","headsign":"{\"Balma-Gramont BALMA\": 376}","duration_avg":120.0,"n_vehicles":376,"d":638,"route_I_counts":"{\"43\": 376}","source":6,"target":7,"layer":"L","from":"Fontaine Lestang","to":"Arènes"},"geometry":{"type":"LineString","coordinates":[[1.418336,43.587536],[1.419404,43.593222]]}},{"type":"Feature","properties":{"duration_avg":60.0,"n_vehicles":374,"d":506,"route_I_counts":"{\"43\": 374}","shape_id":"{\"4503857325514910\": 374}","direction_id":"{\"0\": 374}","headsign":"{\"Basso Cambo TOULOUSE\": 374}","source":6,"target":5,"layer":"L","from":"Fontaine Lestang","to":"Mermoz"},"geometry":{"type":"LineString","coordinates":[[1.418336,43.587536],[1.415558,43.583444]]}},{"type":"Feature","properties":{"shape_id":"{\"4503857325514699\": 376}","direction_id":"{\"1\": 376}","headsign":"{\"Balma-Gramont BALMA\": 376}","duration_avg":60.0,"n_vehicles":376,"d":441,"route_I_counts":"{\"43\": 376}","source":7,"target":8,"layer":"L","from":"Arènes","to":"Patte d'Oie"},"geometry":{"type":"LineString","coordinates":[[1.419404,43.593222],[1.423254,43.596038]]}},{"type":"Feature","properties":{"duration_avg":60.0,"n_vehicles":374,"d":635,"route_I_counts":"{\"43\": 374}","shape_id":"{\"4503857325514910\": 374}","direction_id":"{\"0\": 374}","headsign":"{\"Basso Cambo TOULOUSE\": 374}","source":7,"target":6,"layer":"L","from":"Arènes","to":"Fontaine Lestang"},"geometry":{"type":"LineString","coordinates":[[1.419404,43.593222],[1.418336,43.587536]]}},{"type":"Feature","properties":{"shape_id":"{\"4503857325514699\": 376}","direction_id":"{\"1\": 376}","headsign":"{\"Balma-Gramont BALMA\": 376}","duration_avg":60.0,"n_vehicles":376,"d":706,"route_I_counts":"{\"43\": 376}","source":8,"target":9,"layer":"L","from":"Patte d'Oie","to":"St Cyprien - République"},"geometry":{"type":"LineString","coordinates":[[1.423254,43.596038],[1.43174,43.597625]]}},{"type":"Feature","properties":{"duration_avg":120.0,"n_vehicles":374,"d":452,"route_I_counts":"{\"43\": 374}","shape_id":"{\"4503857325514910\": 374}","direction_id":"{\"0\": 374}","headsign":"{\"Basso Cambo TOULOUSE\": 374}","source":8,"target":7,"layer":"L","from":"Patte d'Oie","to":"Arènes"},"geometry":{"type":"LineString","coordinates":[[1.423254,43.596038],[1.419404,43.593222]]}},{"type":"Feature","properties":{"shape_id":"{\"4503857325514699\": 376}","direction_id":"{\"1\": 376}","headsign":"{\"Balma-Gramont BALMA\": 376}","duration_avg":120.0,"n_vehicles":376,"d":1043,"route_I_counts":"{\"43\": 376}","source":9,"target":10,"layer":"L","from":"St Cyprien - République","to":"Esquirol"},"geometry":{"type":"LineString","coordinates":[[1.43174,43.597625],[1.44408,43.600441]]}},{"type":"Feature","properties":{"duration_avg":60.0,"n_vehicles":375,"d":706,"route_I_counts":"{\"43\": 375}","shape_id":"{\"4503857325514910\": 375}","direction_id":"{\"0\": 375}","headsign":"{\"Basso Cambo TOULOUSE\": 375}","source":9,"target":8,"layer":"L","from":"St Cyprien - République","to":"Patte d'Oie"},"geometry":{"type":"LineString","coordinates":[[1.43174,43.597625],[1.423254,43.596038]]}},{"type":"Feature","properties":{"shape_id":"{\"4503857325514699\": 376}","direction_id":"{\"1\": 376}","headsign":"{\"Balma-Gramont BALMA\": 376}","duration_avg":60.0,"n_vehicles":376,"d":461,"route_I_counts":"{\"43\": 376}","source":10,"target":11,"layer":"L","from":"Esquirol","to":"Capitole"},"geometry":{"type":"LineString","coordinates":[[1.44408,43.600441],[1.445573,43.604444]]}},{"type":"Feature","properties":{"duration_avg":60.0,"n_vehicles":375,"d":1033,"route_I_counts":"{\"43\": 375}","shape_id":"{\"4503857325514910\": 375}","direction_id":"{\"0\": 375}","headsign":"{\"Basso Cambo TOULOUSE\": 375}","source":10,"target":9,"layer":"L","from":"Esquirol","to":"St Cyprien - République"},"geometry":{"type":"LineString","coordinates":[[1.44408,43.600441],[1.43174,43.597625]]}},{"type":"Feature","properties":{"shape_id":"{\"4503857325514699\": 376}","direction_id":"{\"1\": 376}","headsign":"{\"Balma-Gramont BALMA\": 376}","duration_avg":60.0,"n_vehicles":376,"d":271,"route_I_counts":"{\"43\": 376}","source":11,"target":12,"layer":"L","from":"Capitole","to":"Jean Jaurès"},"geometry":{"type":"LineString","coordinates":[[1.445573,43.604444],[1.448587,43.605531]]}},{"type":"Feature","properties":{"duration_avg":120.0,"n_vehicles":375,"d":470,"route_I_counts":"{\"43\": 375}","shape_id":"{\"4503857325514910\": 375}","direction_id":"{\"0\": 375}","headsign":"{\"Basso Cambo TOULOUSE\": 375}","source":11,"target":10,"layer":"L","from":"Capitole","to":"Esquirol"},"geometry":{"type":"LineString","coordinates":[[1.445573,43.604444],[1.44408,43.600441]]}},{"type":"Feature","properties":{"shape_id":"{\"4503857325514699\": 375}","direction_id":"{\"1\": 375}","headsign":"{\"Balma-Gramont BALMA\": 375}","duration_avg":120.0,"n_vehicles":375,"d":761,"route_I_counts":"{\"43\": 375}","source":12,"target":13,"layer":"L","from":"Jean Jaurès","to":"Marengo-SNCF"},"geometry":{"type":"LineString","coordinates":[[1.448587,43.605531],[1.455617,43.610102]]}},{"type":"Feature","properties":{"duration_avg":60.0,"n_vehicles":375,"d":270,"route_I_counts":"{\"43\": 375}","shape_id":"{\"4503857325514910\": 375}","direction_id":"{\"0\": 375}","headsign":"{\"Basso Cambo TOULOUSE\": 375}","source":12,"target":11,"layer":"L","from":"Jean Jaurès","to":"Capitole"},"geometry":{"type":"LineString","coordinates":[[1.448587,43.605531],[1.445573,43.604444]]}},{"type":"Feature","properties":{"duration_avg":60.0,"n_vehicles":548,"d":649,"route_I_counts":"{\"49\": 548}","shape_id":"{\"4503857325513847\": 548}","direction_id":"{\"1\": 548}","headsign":"{\"Ramonville RAMONVILLE-SAINT-AGNE\": 548}","source":12,"target":26,"layer":"L","from":"Jean Jaurès","to":"François Verdier"},"geometry":{"type":"LineString","coordinates":[[1.448587,43.605531],[1.452604,43.600725]]}},{"type":"Feature","properties":{"duration_avg":60.0,"n_vehicles":548,"d":444,"route_I_counts":"{\"49\": 548}","shape_id":"{\"4503857325514115\": 548}","direction_id":"{\"0\": 548}","headsign":"{\"Borderouge TOULOUSE\": 548}","source":12,"target":25,"layer":"L","from":"Jean Jaurès","to":"Jeanne d'Arc"},"geometry":{"type":"LineString","coordinates":[[1.448587,43.605531],[1.44573,43.609142]]}},{"type":"Feature","properties":{"shape_id":"{\"4503857325514699\": 375}","direction_id":"{\"1\": 375}","headsign":"{\"Balma-Gramont BALMA\": 375}","duration_avg":60.0,"n_vehicles":375,"d":847,"route_I_counts":"{\"43\": 375}","source":13,"target":14,"layer":"L","from":"Marengo-SNCF","to":"Jolimont"},"geometry":{"type":"LineString","coordinates":[[1.455617,43.610102],[1.463265,43.615327]]}},{"type":"Feature","properties":{"duration_avg":60.0,"n_vehicles":375,"d":759,"route_I_counts":"{\"43\": 375}","shape_id":"{\"4503857325514910\": 375}","direction_id":"{\"0\": 375}","headsign":"{\"Basso Cambo TOULOUSE\": 375}","source":13,"target":12,"layer":"L","from":"Marengo-SNCF","to":"Jean Jaurès"},"geometry":{"type":"LineString","coordinates":[[1.455617,43.610102],[1.448587,43.605531]]}},{"type":"Feature","properties":{"shape_id":"{\"4503857325514699\": 375}","direction_id":"{\"1\": 375}","headsign":"{\"Balma-Gramont BALMA\": 375}","duration_avg":120.0,"n_vehicles":375,"d":706,"route_I_counts":"{\"43\": 375}","source":14,"target":15,"layer":"L","from":"Jolimont","to":"Roseraie"},"geometry":{"type":"LineString","coordinates":[[1.463265,43.615327],[1.469639,43.61968]]}},{"type":"Feature","properties":{"duration_avg":60.0,"n_vehicles":375,"d":847,"route_I_counts":"{\"43\": 375}","shape_id":"{\"4503857325514910\": 375}","direction_id":"{\"0\": 375}","headsign":"{\"Basso Cambo TOULOUSE\": 375}","source":14,"target":13,"layer":"L","from":"Jolimont","to":"Marengo-SNCF"},"geometry":{"type":"LineString","coordinates":[[1.463265,43.615327],[1.455617,43.610102]]}},{"type":"Feature","properties":{"shape_id":"{\"4503857325514699\": 375}","direction_id":"{\"1\": 375}","headsign":"{\"Balma-Gramont BALMA\": 375}","duration_avg":60.0,"n_vehicles":375,"d":779,"route_I_counts":"{\"43\": 375}","source":15,"target":16,"layer":"L","from":"Roseraie","to":"Argoulets"},"geometry":{"type":"LineString","coordinates":[[1.469639,43.61968],[1.476791,43.624391]]}},{"type":"Feature","properties":{"duration_avg":120.0,"n_vehicles":376,"d":706,"route_I_counts":"{\"43\": 376}","shape_id":"{\"4503857325514910\": 376}","direction_id":"{\"0\": 376}","headsign":"{\"Basso Cambo TOULOUSE\": 376}","source":15,"target":14,"layer":"L","from":"Roseraie","to":"Jolimont"},"geometry":{"type":"LineString","coordinates":[[1.469639,43.61968],[1.463265,43.615327]]}},{"type":"Feature","properties":{"shape_id":"{\"4503857325514699\": 375}","direction_id":"{\"1\": 375}","headsign":"{\"Balma-Gramont BALMA\": 375}","duration_avg":60.0,"n_vehicles":375,"d":694,"route_I_counts":"{\"43\": 375}","source":16,"target":17,"layer":"L","from":"Argoulets","to":"Balma-Gramont"},"geometry":{"type":"LineString","coordinates":[[1.476791,43.624391],[1.482867,43.628822]]}},{"type":"Feature","properties":{"duration_avg":60.0,"n_vehicles":376,"d":780,"route_I_counts":"{\"43\": 376}","shape_id":"{\"4503857325514910\": 376}","direction_id":"{\"0\": 376}","headsign":"{\"Basso Cambo TOULOUSE\": 376}","source":16,"target":15,"layer":"L","from":"Argoulets","to":"Roseraie"},"geometry":{"type":"LineString","coordinates":[[1.476791,43.624391],[1.469639,43.61968]]}},{"type":"Feature","properties":{"duration_avg":60.0,"n_vehicles":376,"d":685,"route_I_counts":"{\"43\": 376}","shape_id":"{\"4503857325514910\": 376}","direction_id":"{\"0\": 376}","headsign":"{\"Basso Cambo TOULOUSE\": 376}","source":17,"target":16,"layer":"L","from":"Balma-Gramont","to":"Argoulets"},"geometry":{"type":"LineString","coordinates":[[1.482867,43.628822],[1.476791,43.624391]]}},{"type":"Feature","properties":{"shape_id":"{\"4503857325513847\": 551}","direction_id":"{\"1\": 551}","headsign":"{\"Ramonville RAMONVILLE-SAINT-AGNE\": 551}","duration_avg":60.0,"n_vehicles":551,"d":759,"route_I_counts":"{\"49\": 551}","source":18,"target":19,"layer":"L","from":"Borderouge","to":"Trois Cocus"},"geometry":{"type":"LineString","coordinates":[[1.452572,43.640812],[1.443999,43.637967]]}},{"type":"Feature","properties":{"shape_id":"{\"4503857325513847\": 550}","direction_id":"{\"1\": 550}","headsign":"{\"Ramonville RAMONVILLE-SAINT-AGNE\": 550}","duration_avg":120.0,"n_vehicles":550,"d":876,"route_I_counts":"{\"49\": 550}","source":19,"target":20,"layer":"L","from":"Trois Cocus","to":"La Vache"},"geometry":{"type":"LineString","coordinates":[[1.443999,43.637967],[1.434892,43.633661]]}},{"type":"Feature","properties":{"duration_avg":120.0,"n_vehicles":546,"d":772,"route_I_counts":"{\"49\": 546}","shape_id":"{\"4503857325514115\": 546}","direction_id":"{\"0\": 546}","headsign":"{\"Borderouge TOULOUSE\": 546}","source":19,"target":18,"layer":"L","from":"Trois Cocus","to":"Borderouge"},"geometry":{"type":"LineString","coordinates":[[1.443999,43.637967],[1.452572,43.640812]]}},{"type":"Feature","properties":{"shape_id":"{\"4503857325513847\": 550}","direction_id":"{\"1\": 550}","headsign":"{\"Ramonville RAMONVILLE-SAINT-AGNE\": 550}","duration_avg":60.0,"n_vehicles":550,"d":750,"route_I_counts":"{\"49\": 550}","source":20,"target":21,"layer":"L","from":"La Vache","to":"Barrière de Paris"},"geometry":{"type":"LineString","coordinates":[[1.434892,43.633661],[1.434185,43.626939]]}},{"type":"Feature","properties":{"duration_avg":60.0,"n_vehicles":547,"d":866,"route_I_counts":"{\"49\": 547}","shape_id":"{\"4503857325514115\": 547}","direction_id":"{\"0\": 547}","headsign":"{\"Borderouge TOULOUSE\": 547}","source":20,"target":19,"layer":"L","from":"La Vache","to":"Trois Cocus"},"geometry":{"type":"LineString","coordinates":[[1.434892,43.633661],[1.443999,43.637967]]}},{"type":"Feature","properties":{"shape_id":"{\"4503857325513847\": 550}","direction_id":"{\"1\": 550}","headsign":"{\"Ramonville RAMONVILLE-SAINT-AGNE\": 550}","duration_avg":120.0,"n_vehicles":550,"d":713,"route_I_counts":"{\"49\": 550}","source":21,"target":22,"layer":"L","from":"Barrière de Paris","to":"Minimes - Cl. Nougaro"},"geometry":{"type":"LineString","coordinates":[[1.434185,43.626939],[1.435785,43.620632]]}},{"type":"Feature","properties":{"duration_avg":120.0,"n_vehicles":547,"d":745,"route_I_counts":"{\"49\": 547}","shape_id":"{\"4503857325514115\": 547}","direction_id":"{\"0\": 547}","headsign":"{\"Borderouge TOULOUSE\": 547}","source":21,"target":20,"layer":"L","from":"Barrière de Paris","to":"La Vache"},"geometry":{"type":"LineString","coordinates":[[1.434185,43.626939],[1.434892,43.633661]]}},{"type":"Feature","properties":{"shape_id":"{\"4503857325513847\": 550}","direction_id":"{\"1\": 550}","headsign":"{\"Ramonville RAMONVILLE-SAINT-AGNE\": 550}","duration_avg":60.0,"n_vehicles":550,"d":600,"route_I_counts":"{\"49\": 550}","source":22,"target":23,"layer":"L","from":"Minimes - Cl. Nougaro","to":"Canal du Midi"},"geometry":{"type":"LineString","coordinates":[[1.435785,43.620632],[1.433587,43.615479]]}},{"type":"Feature","properties":{"duration_avg":60.0,"n_vehicles":547,"d":711,"route_I_counts":"{\"49\": 547}","shape_id":"{\"4503857325514115\": 547}","direction_id":"{\"0\": 547}","headsign":"{\"Borderouge TOULOUSE\": 547}","source":22,"target":21,"layer":"L","from":"Minimes - Cl. Nougaro","to":"Barrière de Paris"},"geometry":{"type":"LineString","coordinates":[[1.435785,43.620632],[1.434185,43.626939]]}},{"type":"Feature","properties":{"shape_id":"{\"4503857325513847\": 549}","direction_id":"{\"1\": 549}","headsign":"{\"Ramonville RAMONVILLE-SAINT-AGNE\": 549}","duration_avg":60.0,"n_vehicles":549,"d":535,"route_I_counts":"{\"49\": 549}","source":23,"target":24,"layer":"L","from":"Canal du Midi","to":"Compans - Caffarelli"},"geometry":{"type":"LineString","coordinates":[[1.433587,43.615479],[1.435591,43.610892]]}},{"type":"Feature","properties":{"duration_avg":60.0,"n_vehicles":547,"d":613,"route_I_counts":"{\"49\": 547}","shape_id":"{\"4503857325514115\": 547}","direction_id":"{\"0\": 547}","headsign":"{\"Borderouge TOULOUSE\": 547}","source":23,"target":22,"layer":"L","from":"Canal du Midi","to":"Minimes - Cl. Nougaro"},"geometry":{"type":"LineString","coordinates":[[1.433587,43.615479],[1.435785,43.620632]]}},{"type":"Feature","properties":{"shape_id":"{\"4503857325513847\": 549}","direction_id":"{\"1\": 549}","headsign":"{\"Ramonville RAMONVILLE-SAINT-AGNE\": 549}","duration_avg":120.0,"n_vehicles":549,"d":840,"route_I_counts":"{\"49\": 549}","source":24,"target":25,"layer":"L","from":"Compans - Caffarelli","to":"Jeanne d'Arc"},"geometry":{"type":"LineString","coordinates":[[1.435591,43.610892],[1.44573,43.609142]]}},{"type":"Feature","properties":{"duration_avg":120.0,"n_vehicles":548,"d":515,"route_I_counts":"{\"49\": 548}","shape_id":"{\"4503857325514115\": 548}","direction_id":"{\"0\": 548}","headsign":"{\"Borderouge TOULOUSE\": 548}","source":24,"target":23,"layer":"L","from":"Compans - Caffarelli","to":"Canal du Midi"},"geometry":{"type":"LineString","coordinates":[[1.435591,43.610892],[1.433587,43.615479]]}},{"type":"Feature","properties":{"duration_avg":60.0,"n_vehicles":549,"d":444,"route_I_counts":"{\"49\": 549}","shape_id":"{\"4503857325513847\": 549}","direction_id":"{\"1\": 549}","headsign":"{\"Ramonville RAMONVILLE-SAINT-AGNE\": 549}","source":25,"target":12,"layer":"L","from":"Jeanne d'Arc","to":"Jean Jaurès"},"geometry":{"type":"LineString","coordinates":[[1.44573,43.609142],[1.448587,43.605531]]}},{"type":"Feature","properties":{"duration_avg":60.0,"n_vehicles":548,"d":852,"route_I_counts":"{\"49\": 548}","shape_id":"{\"4503857325514115\": 548}","direction_id":"{\"0\": 548}","headsign":"{\"Borderouge TOULOUSE\": 548}","source":25,"target":24,"layer":"L","from":"Jeanne d'Arc","to":"Compans - Caffarelli"},"geometry":{"type":"LineString","coordinates":[[1.44573,43.609142],[1.435591,43.610892]]}},{"type":"Feature","properties":{"shape_id":"{\"4503857325513847\": 548}","direction_id":"{\"1\": 548}","headsign":"{\"Ramonville RAMONVILLE-SAINT-AGNE\": 548}","duration_avg":60.0,"n_vehicles":548,"d":660,"route_I_counts":"{\"49\": 548}","source":26,"target":27,"layer":"L","from":"François Verdier","to":"Carmes"},"geometry":{"type":"LineString","coordinates":[[1.452604,43.600725],[1.445378,43.597933]]}},{"type":"Feature","properties":{"duration_avg":120.0,"n_vehicles":549,"d":657,"route_I_counts":"{\"49\": 549}","shape_id":"{\"4503857325514115\": 549}","direction_id":"{\"0\": 549}","headsign":"{\"Borderouge TOULOUSE\": 549}","source":26,"target":12,"layer":"L","from":"François Verdier","to":"Jean Jaurès"},"geometry":{"type":"LineString","coordinates":[[1.452604,43.600725],[1.448587,43.605531]]}},{"type":"Feature","properties":{"shape_id":"{\"4503857325513847\": 548}","direction_id":"{\"1\": 548}","headsign":"{\"Ramonville RAMONVILLE-SAINT-AGNE\": 548}","duration_avg":120.0,"n_vehicles":548,"d":581,"route_I_counts":"{\"49\": 548}","source":27,"target":28,"layer":"L","from":"Carmes","to":"Palais de Justice"},"geometry":{"type":"LineString","coordinates":[[1.445378,43.597933],[1.443891,43.592822]]}},{"type":"Feature","properties":{"duration_avg":60.0,"n_vehicles":549,"d":666,"route_I_counts":"{\"49\": 549}","shape_id":"{\"4503857325514115\": 549}","direction_id":"{\"0\": 549}","headsign":"{\"Borderouge TOULOUSE\": 549}","source":27,"target":26,"layer":"L","from":"Carmes","to":"François Verdier"},"geometry":{"type":"LineString","coordinates":[[1.445378,43.597933],[1.452604,43.600725]]}},{"type":"Feature","properties":{"shape_id":"{\"4503857325513847\": 547}","direction_id":"{\"1\": 547}","headsign":"{\"Ramonville RAMONVILLE-SAINT-AGNE\": 547}","duration_avg":60.0,"n_vehicles":547,"d":770,"route_I_counts":"{\"49\": 547}","source":28,"target":29,"layer":"L","from":"Palais de Justice","to":"St Michel - Marcel Langer"},"geometry":{"type":"LineString","coordinates":[[1.443891,43.592822],[1.446621,43.586189]]}},{"type":"Feature","properties":{"duration_avg":60.0,"n_vehicles":549,"d":570,"route_I_counts":"{\"49\": 549}","shape_id":"{\"4503857325514115\": 549}","direction_id":"{\"0\": 549}","headsign":"{\"Borderouge TOULOUSE\": 549}","source":28,"target":27,"layer":"L","from":"Palais de Justice","to":"Carmes"},"geometry":{"type":"LineString","coordinates":[[1.443891,43.592822],[1.445378,43.597933]]}},{"type":"Feature","properties":{"shape_id":"{\"4503857325513847\": 547}","direction_id":"{\"1\": 547}","headsign":"{\"Ramonville RAMONVILLE-SAINT-AGNE\": 547}","duration_avg":120.0,"n_vehicles":547,"d":791,"route_I_counts":"{\"49\": 547}","source":29,"target":30,"layer":"L","from":"St Michel - Marcel Langer","to":"Empalot"},"geometry":{"type":"LineString","coordinates":[[1.446621,43.586189],[1.442053,43.579898]]}},{"type":"Feature","properties":{"duration_avg":120.0,"n_vehicles":550,"d":770,"route_I_counts":"{\"49\": 550}","shape_id":"{\"4503857325514115\": 550}","direction_id":"{\"0\": 550}","headsign":"{\"Borderouge TOULOUSE\": 550}","source":29,"target":28,"layer":"L","from":"St Michel - Marcel Langer","to":"Palais de Justice"},"geometry":{"type":"LineString","coordinates":[[1.446621,43.586189],[1.443891,43.592822]]}},{"type":"Feature","properties":{"shape_id":"{\"4503857325513847\": 547}","direction_id":"{\"1\": 547}","headsign":"{\"Ramonville RAMONVILLE-SAINT-AGNE\": 547}","duration_avg":60.0,"n_vehicles":547,"d":627,"route_I_counts":"{\"49\": 547}","source":30,"target":31,"layer":"L","from":"Empalot","to":"Saint Agne SNCF"},"geometry":{"type":"LineString","coordinates":[[1.442053,43.579898],[1.449832,43.579915]]}},{"type":"Feature","properties":{"duration_avg":60.0,"n_vehicles":550,"d":797,"route_I_counts":"{\"49\": 550}","shape_id":"{\"4503857325514115\": 550}","direction_id":"{\"0\": 550}","headsign":"{\"Borderouge TOULOUSE\": 550}","source":30,"target":29,"layer":"L","from":"Empalot","to":"St Michel - Marcel Langer"},"geometry":{"type":"LineString","coordinates":[[1.442053,43.579898],[1.446621,43.586189]]}},{"type":"Feature","properties":{"shape_id":"{\"4503857325513847\": 546}","direction_id":"{\"1\": 546}","headsign":"{\"Ramonville RAMONVILLE-SAINT-AGNE\": 546}","duration_avg":120.0,"n_vehicles":546,"d":748,"route_I_counts":"{\"49\": 546}","source":31,"target":32,"layer":"L","from":"Saint Agne SNCF","to":"Saouzelong"},"geometry":{"type":"LineString","coordinates":[[1.449832,43.579915],[1.459087,43.579452]]}},{"type":"Feature","properties":{"duration_avg":120.0,"n_vehicles":550,"d":613,"route_I_counts":"{\"49\": 550}","shape_id":"{\"4503857325514115\": 550}","direction_id":"{\"0\": 550}","headsign":"{\"Borderouge TOULOUSE\": 550}","source":31,"target":30,"layer":"L","from":"Saint Agne SNCF","to":"Empalot"},"geometry":{"type":"LineString","coordinates":[[1.449832,43.579915],[1.442053,43.579898]]}},{"type":"Feature","properties":{"shape_id":"{\"4503857325513847\": 546}","direction_id":"{\"1\": 546}","headsign":"{\"Ramonville RAMONVILLE-SAINT-AGNE\": 546}","duration_avg":60.0,"n_vehicles":546,"d":556,"route_I_counts":"{\"49\": 546}","source":32,"target":33,"layer":"L","from":"Saouzelong","to":"Rangueil"},"geometry":{"type":"LineString","coordinates":[[1.459087,43.579452],[1.461777,43.574844]]}},{"type":"Feature","properties":{"duration_avg":60.0,"n_vehicles":551,"d":759,"route_I_counts":"{\"49\": 551}","shape_id":"{\"4503857325514115\": 551}","direction_id":"{\"0\": 551}","headsign":"{\"Borderouge TOULOUSE\": 551}","source":32,"target":31,"layer":"L","from":"Saouzelong","to":"Saint Agne SNCF"},"geometry":{"type":"LineString","coordinates":[[1.459087,43.579452],[1.449832,43.579915]]}},{"type":"Feature","properties":{"shape_id":"{\"4503857325513847\": 546}","direction_id":"{\"1\": 546}","headsign":"{\"Ramonville RAMONVILLE-SAINT-AGNE\": 546}","duration_avg":60.0,"n_vehicles":546,"d":785,"route_I_counts":"{\"49\": 546}","source":33,"target":34,"layer":"L","from":"Rangueil","to":"Faculté de Pharmacie"},"geometry":{"type":"LineString","coordinates":[[1.461777,43.574844],[1.46462,43.568093]]}},{"type":"Feature","properties":{"duration_avg":60.0,"n_vehicles":551,"d":560,"route_I_counts":"{\"49\": 551}","shape_id":"{\"4503857325514115\": 551}","direction_id":"{\"0\": 551}","headsign":"{\"Borderouge TOULOUSE\": 551}","source":33,"target":32,"layer":"L","from":"Rangueil","to":"Saouzelong"},"geometry":{"type":"LineString","coordinates":[[1.461777,43.574844],[1.459087,43.579452]]}},{"type":"Feature","properties":{"shape_id":"{\"4503857325513847\": 545}","direction_id":"{\"1\": 545}","headsign":"{\"Ramonville RAMONVILLE-SAINT-AGNE\": 545}","duration_avg":120.0,"n_vehicles":545,"d":822,"route_I_counts":"{\"49\": 545}","source":34,"target":35,"layer":"L","from":"Faculté de Pharmacie","to":"Université Paul Sabatier"},"geometry":{"type":"LineString","coordinates":[[1.46462,43.568093],[1.463331,43.560767]]}},{"type":"Feature","properties":{"duration_avg":120.0,"n_vehicles":551,"d":782,"route_I_counts":"{\"49\": 551}","shape_id":"{\"4503857325514115\": 551}","direction_id":"{\"0\": 551}","headsign":"{\"Borderouge TOULOUSE\": 551}","source":34,"target":33,"layer":"L","from":"Faculté de Pharmacie","to":"Rangueil"},"geometry":{"type":"LineString","coordinates":[[1.46462,43.568093],[1.461777,43.574844]]}},{"type":"Feature","properties":{"shape_id":"{\"4503857325513847\": 545}","direction_id":"{\"1\": 545}","headsign":"{\"Ramonville RAMONVILLE-SAINT-AGNE\": 545}","duration_avg":120.0,"n_vehicles":545,"d":1191,"route_I_counts":"{\"49\": 545}","source":35,"target":36,"layer":"L","from":"Université Paul Sabatier","to":"Ramonville"},"geometry":{"type":"LineString","coordinates":[[1.463331,43.560767],[1.476384,43.555764]]}},{"type":"Feature","properties":{"duration_avg":60.0,"n_vehicles":552,"d":786,"route_I_counts":"{\"49\": 552}","shape_id":"{\"4503857325514115\": 552}","direction_id":"{\"0\": 552}","headsign":"{\"Borderouge TOULOUSE\": 552}","source":35,"target":34,"layer":"L","from":"Université Paul Sabatier","to":"Faculté de Pharmacie"},"geometry":{"type":"LineString","coordinates":[[1.463331,43.560767],[1.46462,43.568093]]}},{"type":"Feature","properties":{"duration_avg":120.0,"n_vehicles":552,"d":1213,"route_I_counts":"{\"49\": 552}","shape_id":"{\"4503857325514115\": 552}","direction_id":"{\"0\": 552}","headsign":"{\"Borderouge TOULOUSE\": 552}","source":36,"target":35,"layer":"L","from":"Ramonville","to":"Université Paul Sabatier"},"geometry":{"type":"LineString","coordinates":[[1.476384,43.555764],[1.463331,43.560767]]}}]}