{"type":"FeatureCollection","features":[{"type":"Feature","geometry":{"type":"Point","coordinates":[7.59139,45.07605]},"properties":{"name":"METRO FERMI","original_ids":"[3655]","id":0,"layer":"stop"}},{"type":"Feature","geometry":{"type":"Point","coordinates":[7.60206,45.07381]},"properties":{"name":"METRO PARADISO","original_ids":"[3656]","id":1,"layer":"stop"}},{"type":"Feature","geometry":{"type":"Point","coordinates":[7.61456,45.07432]},"properties":{"name":"METRO MARCHE","original_ids":"[3657]","id":2,"layer":"stop"}},{"type":"Feature","geometry":{"type":"Point","coordinates":[7.62013,45.07457]},"properties":{"name":"METRO MASSAUA","original_ids":"[3658]","id":3,"layer":"stop"}},{"type":"Feature","geometry":{"type":"Point","coordinates":[7.62893,45.07493]},"properties":{"name":"METRO POZZO STRADA","original_ids":"[3659]","id":4,"layer":"stop"}},{"type":"Feature","geometry":{"type":"Point","coordinates":[7.63559,45.07521]},"properties":{"name":"METRO MONTE GRAPPA","original_ids":"[3660]","id":5,"layer":"stop"}},{"type":"Feature","geometry":{"type":"Point","coordinates":[7.64395,45.07557]},"properties":{"name":"METRO RIVOLI","original_ids":"[3661]","id":6,"layer":"stop"}},{"type":"Feature","geometry":{"type":"Point","coordinates":[7.64826,45.07568]},"properties":{"name":"METRO RACCONIGI","original_ids":"[3662]","id":7,"layer":"stop"}},{"type":"Feature","geometry":{"type":"Point","coordinates":[7.65568,45.07598]},"properties":{"name":"METRO BERNINI","original_ids":"[3663]","id":8,"layer":"stop"}},{"type":"Feature","geometry":{"type":"Point","coordinates":[7.66447,45.07632]},"properties":{"name":"METRO PRINCIPI ACAJA","original_ids":"[3664]","id":9,"layer":"stop"}},{"type":"Feature","geometry":{"type":"Point","coordinates":[7.66846,45.07419]},"properties":{"name":"METRO XVIII DICEMBRE","original_ids":"[3665]","id":10,"layer":"stop"}},{"type":"Feature","geometry":{"type":"Point","coordinates":[7.66477,45.06987]},"properties":{"name":"METRO PORTA SUSA","original_ids":"[3666]","id":11,"layer":"stop"}},{"type":"Feature","geometry":{"type":"Point","coordinates":[7.66623,45.06727]},"properties":{"name":"METRO VINZAGLIO","original_ids":"[3667]","id":12,"layer":"stop"}},{"type":"Feature","geometry":{"type":"Point","coordinates":[7.67402,45.06451]},"properties":{"name":"METRO RE UMBERTO","original_ids":"[3668]","id":13,"layer":"stop"}},{"type":"Feature","geometry":{"type":"Point","coordinates":[7.679,45.06276]},"properties":{"name":"METRO PORTA NUOVA","original_ids":"[3669]","id":14,"layer":"stop"}},{"type":"Feature","geometry":{"type":"Point","coordinates":[7.67693,45.05713]},"properties":{"name":"METRO MARCONI","original_ids":"[3670]","id":15,"layer":"stop"}},{"type":"Feature","geometry":{"type":"Point","coordinates":[7.67466,45.0514]},"properties":{"name":"METRO NIZZA","original_ids":"[3671]","id":16,"layer":"stop"}},{"type":"Feature","geometry":{"type":"Point","coordinates":[7.67288,45.04689]},"properties":{"name":"METRO DANTE","original_ids":"[3672]","id":17,"layer":"stop"}},{"type":"Feature","geometry":{"type":"Point","coordinates":[7.67112,45.0423]},"properties":{"name":"METRO CARDUCCI","original_ids":"[3673]","id":18,"layer":"stop"}},{"type":"Feature","geometry":{"type":"Point","coordinates":[7.66933,45.03768]},"properties":{"name":"METRO SPEZIA","original_ids":"[3674]","id":19,"layer":"stop"}},{"type":"Feature","geometry":{"type":"Point","coordinates":[7.6666,45.03077]},"properties":{"name":"METRO LINGOTTO","original_ids":"[3675]","id":20,"layer":"stop"}},{"type":"Feature","geometry":{"type":"Point","coordinates":[7.66433,45.02476]},"properties":{"name":"METRO ITALIA61","original_ids":"[3676]","id":21,"layer":"stop"}},{"type":"Feature","geometry":{"type":"Point","coordinates":[7.66122,45.01663]},"properties":{"name":"METRO BENGASI","original_ids":"[3677]","id":22,"layer":"stop"}},{"type":"Feature","properties":{"shape_id":"{\"METROUAsM1A5\": 353}","direction_id":"{\"1\": 353}","headsign":"{\"METRO BENGASI\": 353}","duration_avg":60.0,"n_vehicles":353,"d":875,"route_I_counts":"{\"1\": 353}","source":0,"target":1,"layer":"L","from":"METRO FERMI","to":"METRO PARADISO"},"geometry":{"type":"LineString","coordinates":[[7.59139,45.07605],[7.60206,45.07381]]}},{"type":"Feature","properties":{"shape_id":"{\"METROUAsM1A5\": 353}","direction_id":"{\"1\": 353}","headsign":"{\"METRO BENGASI\": 353}","duration_avg":120.0,"n_vehicles":353,"d":984,"route_I_counts":"{\"1\": 353}","source":1,"target":2,"layer":"L","from":"METRO PARADISO","to":"METRO MARCHE"},"geometry":{"type":"LineString","coordinates":[[7.60206,45.07381],[7.61456,45.07432]]}},{"type":"Feature","properties":{"shape_id":"{\"METROUDiM1R6\": 349}","direction_id":"{\"0\": 349}","headsign":"{\"METRO FERMI\": 349}","duration_avg":60.0,"n_vehicles":349,"d":875,"route_I_counts":"{\"1\": 349}","source":1,"target":0,"layer":"L","from":"METRO PARADISO","to":"METRO FERMI"},"geometry":{"type":"LineString","coordinates":[[7.60206,45.07381],[7.59139,45.07605]]}},{"type":"Feature","properties":{"shape_id":"{\"METROUAsM1A5\": 352}","direction_id":"{\"1\": 352}","headsign":"{\"METRO BENGASI\": 352}","duration_avg":120.0,"n_vehicles":352,"d":438,"route_I_counts":"{\"1\": 352}","source":2,"target":3,"layer":"L","from":"METRO MARCHE","to":"METRO MASSAUA"},"geometry":{"type":"LineString","coordinates":[[7.61456,45.07432],[7.62013,45.07457]]}},{"type":"Feature","properties":{"shape_id":"{\"METROUDiM1R6\": 350}","direction_id":"{\"0\": 350}","headsign":"{\"METRO FERMI\": 350}","duration_avg":60.0,"n_vehicles":350,"d":984,"route_I_counts":"{\"1\": 350}","source":2,"target":1,"layer":"L","from":"METRO MARCHE","to":"METRO PARADISO"},"geometry":{"type":"LineString","coordinates":[[7.61456,45.07432],[7.60206,45.07381]]}},{"type":"Feature","properties":{"shape_id":"{\"METROUAsM1A5\": 352}","direction_id":"{\"1\": 352}","headsign":"{\"METRO BENGASI\": 352}","duration_avg":60.0,"n_vehicles":352,"d":692,"route_I_counts":"{\"1\": 352}","source":3,"target":4,"layer":"L","from":"METRO MASSAUA","to":"METRO POZZO STRADA"},"geometry":{"type":"LineString","coordinates":[[7.62013,45.07457],[7.62893,45.07493]]}},{"type":"Feature","properties":{"shape_id":"{\"METROUDiM1R6\": 350}","direction_id":"{\"0\": 350}","headsign":"{\"METRO FERMI\": 350}","duration_avg":120.0,"n_vehicles":350,"d":438,"route_I_counts":"{\"1\": 350}","source":3,"target":2,"layer":"L","from":"METRO MASSAUA","to":"METRO MARCHE"},"geometry":{"type":"LineString","coordinates":[[7.62013,45.07457],[7.61456,45.07432]]}},{"type":"Feature","properties":{"shape_id":"{\"METROUAsM1A5\": 352}","direction_id":"{\"1\": 352}","headsign":"{\"METRO BENGASI\": 352}","duration_avg":120.0,"n_vehicles":352,"d":524,"route_I_counts":"{\"1\": 352}","source":4,"target":5,"layer":"L","from":"METRO POZZO STRADA","to":"METRO MONTE GRAPPA"},"geometry":{"type":"LineString","coordinates":[[7.62893,45.07493],[7.63559,45.07521]]}},{"type":"Feature","properties":{"shape_id":"{\"METROUDiM1R6\": 350}","direction_id":"{\"0\": 350}","headsign":"{\"METRO FERMI\": 350}","duration_avg":60.0,"n_vehicles":350,"d":692,"route_I_counts":"{\"1\": 350}","source":4,"target":3,"layer":"L","from":"METRO POZZO STRADA","to":"METRO MASSAUA"},"geometry":{"type":"LineString","coordinates":[[7.62893,45.07493],[7.62013,45.07457]]}},{"type":"Feature","properties":{"shape_id":"{\"METROUAsM1A5\": 352}","direction_id":"{\"1\": 352}","headsign":"{\"METRO BENGASI\": 352}","duration_avg":60.0,"n_vehicles":352,"d":658,"route_I_counts":"{\"1\": 352}","source":5,"target":6,"layer":"L","from":"METRO MONTE GRAPPA","to":"METRO RIVOLI"},"geometry":{"type":"LineString","coordinates":[[7.63559,45.07521],[7.64395,45.07557]]}},{"type":"Feature","properties":{"shape_id":"{\"METROUDiM1R6\": 350}","direction_id":"{\"0\": 350}","headsign":"{\"METRO FERMI\": 350}","duration_avg":60.0,"n_vehicles":350,"d":524,"route_I_counts":"{\"1\": 350}","source":5,"target":4,"layer":"L","from":"METRO MONTE GRAPPA","to":"METRO POZZO STRADA"},"geometry":{"type":"LineString","coordinates":[[7.63559,45.07521],[7.62893,45.07493]]}},{"type":"Feature","properties":{"shape_id":"{\"METROUAsM1A5\": 352}","direction_id":"{\"1\": 352}","headsign":"{\"METRO BENGASI\": 352}","duration_avg":120.0,"n_vehicles":352,"d":339,"route_I_counts":"{\"1\": 352}","source":6,"target":7,"layer":"L","from":"METRO RIVOLI","to":"METRO RACCONIGI"},"geometry":{"type":"LineString","coordinates":[[7.64395,45.07557],[7.64826,45.07568]]}},{"type":"Feature","properties":{"shape_id":"{\"METROUDiM1R6\": 350}","direction_id":"{\"0\": 350}","headsign":"{\"METRO FERMI\": 350}","duration_avg":120.0,"n_vehicles":350,"d":658,"route_I_counts":"{\"1\": 350}","source":6,"target":5,"layer":"L","from":"METRO RIVOLI","to":"METRO MONTE GRAPPA"},"geometry":{"type":"LineString","coordinates":[[7.64395,45.07557],[7.63559,45.07521]]}},{"type":"Feature","properties":{"shape_id":"{\"METROUAsM1A5\": 352}","direction_id":"{\"1\": 352}","headsign":"{\"METRO BENGASI\": 352}","duration_avg":60.0,"n_vehicles":352,"d":584,"route_I_counts":"{\"1\": 352}","source":7,"target":8,"layer":"L","from":"METRO RACCONIGI","to":"METRO BERNINI"},"geometry":{"type":"LineString","coordinates":[[7.64826,45.07568],[7.65568,45.07598]]}},{"type":"Feature","properties":{"shape_id":"{\"METROUDiM1R6\": 350}","direction_id":"{\"0\": 350}","headsign":"{\"METRO FERMI\": 350}","duration_avg":60.0,"n_vehicles":350,"d":339,"route_I_counts":"{\"1\": 350}","source":7,"target":6,"layer":"L","from":"METRO RACCONIGI","to":"METRO RIVOLI"},"geometry":{"type":"LineString","coordinates":[[7.64826,45.07568],[7.64395,45.07557]]}},{"type":"Feature","properties":{"shape_id":"{\"METROUAsM1A5\": 351}","direction_id":"{\"1\": 351}","headsign":"{\"METRO BENGASI\": 351}","duration_avg":120.0,"n_vehicles":351,"d":692,"route_I_counts":"{\"1\": 351}","source":8,"target":9,"layer":"L","from":"METRO BERNINI","to":"METRO PRINCIPI ACAJA"},"geometry":{"type":"LineString","coordinates":[[7.65568,45.07598],[7.66447,45.07632]]}},{"type":"Feature","properties":{"shape_id":"{\"METROUDiM1R6\": 350}","direction_id":"{\"0\": 350}","headsign":"{\"METRO FERMI\": 350}","duration_avg":120.0,"n_vehicles":350,"d":584,"route_I_counts":"{\"1\": 350}","source":8,"target":7,"layer":"L","from":"METRO BERNINI","to":"METRO RACCONIGI"},"geometry":{"type":"LineString","coordinates":[[7.65568,45.07598],[7.64826,45.07568]]}},{"type":"Feature","properties":{"shape_id":"{\"METROUAsM1A5\": 351}","direction_id":"{\"1\": 351}","headsign":"{\"METRO BENGASI\": 351}","duration_avg":60.0,"n_vehicles":351,"d":393,"route_I_counts":"{\"1\": 351}","source":9,"target":10,"layer":"L","from":"METRO PRINCIPI ACAJA","to":"METRO XVIII DICEMBRE"},"geometry":{"type":"LineString","coordinates":[[7.66447,45.07632],[7.66846,45.07419]]}},{"type":"Feature","properties":{"shape_id":"{\"METROUDiM1R6\": 351}","direction_id":"{\"0\": 351}","headsign":"{\"METRO FERMI\": 351}","duration_avg":60.0,"n_vehicles":351,"d":692,"route_I_counts":"{\"1\": 351}","source":9,"target":8,"layer":"L","from":"METRO PRINCIPI ACAJA","to":"METRO BERNINI"},"geometry":{"type":"LineString","coordinates":[[7.66447,45.07632],[7.65568,45.07598]]}},{"type":"Feature","properties":{"shape_id":"{\"METROUAsM1A5\": 351}","direction_id":"{\"1\": 351}","headsign":"{\"METRO BENGASI\": 351}","duration_avg":120.0,"n_vehicles":351,"d":561,"route_I_counts":"{\"1\": 351}","source":10,"target":11,"layer":"L","from":"METRO XVIII DICEMBRE","to":"METRO PORTA SUSA"},"geometry":{"type":"LineString","coordinates":[[7.66846,45.07419],[7.66477,45.06987]]}},{"type":"Feature","properties":{"shape_id":"{\"METROUDiM1R6\": 351}","direction_id":"{\"0\": 351}","headsign":"{\"METRO FERMI\": 351}","duration_avg":120.0,"n_vehicles":351,"d":393,"route_I_counts":"{\"1\": 351}","source":10,"target":9,"layer":"L","from":"METRO XVIII DICEMBRE","to":"METRO PRINCIPI ACAJA"},"geometry":{"type":"LineString","coordinates":[[7.66846,45.07419],[7.66447,45.07632]]}},{"type":"Feature","properties":{"shape_id":"{\"METROUAsM1A5\": 351}","direction_id":"{\"1\": 351}","headsign":"{\"METRO BENGASI\": 351}","duration_avg":60.0,"n_vehicles":351,"d":311,"route_I_counts":"{\"1\": 351}","source":11,"target":12,"layer":"L","from":"METRO PORTA SUSA","to":"METRO VINZAGLIO"},"geometry":{"type":"LineString","coordinates":[[7.66477,45.06987],[7.66623,45.06727]]}},{"type":"Feature","properties":{"shape_id":"{\"METROUDiM1R6\": 351}","direction_id":"{\"0\": 351}","headsign":"{\"METRO FERMI\": 351}","duration_avg":60.0,"n_vehicles":351,"d":561,"route_I_counts":"{\"1\": 351}","source":11,"target":10,"layer":"L","from":"METRO PORTA SUSA","to":"METRO XVIII DICEMBRE"},"geometry":{"type":"LineString","coordinates":[[7.66477,45.06987],[7.66846,45.07419]]}},{"type":"Feature","properties":{"shape_id":"{\"METROUAsM1A5\": 351}","direction_id":"{\"1\": 351}","headsign":"{\"METRO BENGASI\": 351}","duration_avg":120.0,"n_vehicles":351,"d":685,"route_I_counts":"{\"1\": 351}","source":12,"target":13,"layer":"L","from":"METRO VINZAGLIO","to":"METRO RE UMBERTO"},"geometry":{"type":"LineString","coordinates":[[7.66623,45.06727],[7.67402,45.06451]]}},{"type":"Feature","properties":{"shape_id":"{\"METROUDiM1R6\": 351}","direction_id":"{\"0\": 351}","headsign":"{\"METRO FERMI\": 351}","duration_avg":120.0,"n_vehicles":351,"d":311,"route_I_counts":"{\"1\": 351}","source":12,"target":11,"layer":"L","from":"METRO VINZAGLIO","to":"METRO PORTA SUSA"},"geometry":{"type":"LineString","coordinates":[[7.66623,45.06727],[7.66477,45.06987]]}},{"type":"Feature","properties":{"shape_id":"{\"METROUAsM1A5\": 351}","direction_id":"{\"1\": 351}","headsign":"{\"METRO BENGASI\": 351}","duration_avg":60.0,"n_vehicles":351,"d":437,"route_I_counts":"{\"1\": 351}","source":13,"target":14,"layer":"L","from":"METRO RE UMBERTO","to":"METRO PORTA NUOVA"},"geometry":{"type":"LineString","coordinates":[[7.67402,45.06451],[7.679,45.06276]]}},{"type":"Feature","properties":{"shape_id":"{\"METROUDiM1R6\": 351}","direction_id":"{\"0\": 351}","headsign":"{\"METRO FERMI\": 351}","duration_avg":60.0,"n_vehicles":351,"d":685,"route_I_counts":"{\"1\": 351}","source":13,"target":12,"layer":"L","from":"METRO RE UMBERTO","to":"METRO VINZAGLIO"},"geometry":{"type":"LineString","coordinates":[[7.67402,45.06451],[7.66623,45.06727]]}},{"type":"Feature","properties":{"shape_id":"{\"METROUAsM1A5\": 350}","direction_id":"{\"1\": 350}","headsign":"{\"METRO BENGASI\": 350}","duration_avg":120.0,"n_vehicles":350,"d":647,"route_I_counts":"{\"1\": 350}","source":14,"target":15,"layer":"L","from":"METRO PORTA NUOVA","to":"METRO MARCONI"},"geometry":{"type":"LineString","coordinates":[[7.679,45.06276],[7.67693,45.05713]]}},{"type":"Feature","properties":{"shape_id":"{\"METROUDiM1R6\": 351}","direction_id":"{\"0\": 351}","headsign":"{\"METRO FERMI\": 351}","duration_avg":120.0,"n_vehicles":351,"d":437,"route_I_counts":"{\"1\": 351}","source":14,"target":13,"layer":"L","from":"METRO PORTA NUOVA","to":"METRO RE UMBERTO"},"geometry":{"type":"LineString","coordinates":[[7.679,45.06276],[7.67402,45.06451]]}},{"type":"Feature","properties":{"shape_id":"{\"METROUAsM1A5\": 350}","direction_id":"{\"1\": 350}","headsign":"{\"METRO BENGASI\": 350}","duration_avg":60.0,"n_vehicles":350,"d":662,"route_I_counts":"{\"1\": 350}","source":15,"target":16,"layer":"L","from":"METRO MARCONI","to":"METRO NIZZA"},"geometry":{"type":"LineString","coordinates":[[7.67693,45.05713],[7.67466,45.0514]]}},{"type":"Feature","properties":{"shape_id":"{\"METROUDiM1R6\": 352}","direction_id":"{\"0\": 352}","headsign":"{\"METRO FERMI\": 352}","duration_avg":60.0,"n_vehicles":352,"d":647,"route_I_counts":"{\"1\": 352}","source":15,"target":14,"layer":"L","from":"METRO MARCONI","to":"METRO PORTA NUOVA"},"geometry":{"type":"LineString","coordinates":[[7.67693,45.05713],[7.679,45.06276]]}},{"type":"Feature","properties":{"shape_id":"{\"METROUAsM1A5\": 350}","direction_id":"{\"1\": 350}","headsign":"{\"METRO BENGASI\": 350}","duration_avg":120.0,"n_vehicles":350,"d":521,"route_I_counts":"{\"1\": 350}","source":16,"target":17,"layer":"L","from":"METRO NIZZA","to":"METRO DANTE"},"geometry":{"type":"LineString","coordinates":[[7.67466,45.0514],[7.67288,45.04689]]}},{"type":"Feature","properties":{"shape_id":"{\"METROUDiM1R6\": 352}","direction_id":"{\"0\": 352}","headsign":"{\"METRO FERMI\": 352}","duration_avg":120.0,"n_vehicles":352,"d":662,"route_I_counts":"{\"1\": 352}","source":16,"target":15,"layer":"L","from":"METRO NIZZA","to":"METRO MARCONI"},"geometry":{"type":"LineString","coordinates":[[7.67466,45.0514],[7.67693,45.05713]]}},{"type":"Feature","properties":{"shape_id":"{\"METROUAsM1A5\": 350}","direction_id":"{\"1\": 350}","headsign":"{\"METRO BENGASI\": 350}","duration_avg":60.0,"n_vehicles":350,"d":529,"route_I_counts":"{\"1\": 350}","source":17,"target":18,"layer":"L","from":"METRO DANTE","to":"METRO CARDUCCI"},"geometry":{"type":"LineString","coordinates":[[7.67288,45.04689],[7.67112,45.0423]]}},{"type":"Feature","properties":{"shape_id":"{\"METROUDiM1R6\": 352}","direction_id":"{\"0\": 352}","headsign":"{\"METRO FERMI\": 352}","duration_avg":120.0,"n_vehicles":352,"d":521,"route_I_counts":"{\"1\": 352}","source":17,"target":16,"layer":"L","from":"METRO DANTE","to":"METRO NIZZA"},"geometry":{"type":"LineString","coordinates":[[7.67288,45.04689],[7.67466,45.0514]]}},{"type":"Feature","properties":{"shape_id":"{\"METROUAsM1A5\": 350}","direction_id":"{\"1\": 350}","headsign":"{\"METRO BENGASI\": 350}","duration_avg":120.0,"n_vehicles":350,"d":533,"route_I_counts":"{\"1\": 350}","source":18,"target":19,"layer":"L","from":"METRO CARDUCCI","to":"METRO SPEZIA"},"geometry":{"type":"LineString","coordinates":[[7.67112,45.0423],[7.66933,45.03768]]}},{"type":"Feature","properties":{"shape_id":"{\"METROUDiM1R6\": 352}","direction_id":"{\"0\": 352}","headsign":"{\"METRO FERMI\": 352}","duration_avg":60.0,"n_vehicles":352,"d":529,"route_I_counts":"{\"1\": 352}","source":18,"target":17,"layer":"L","from":"METRO CARDUCCI","to":"METRO DANTE"},"geometry":{"type":"LineString","coordinates":[[7.67112,45.0423],[7.67288,45.04689]]}},{"type":"Feature","properties":{"shape_id":"{\"METROUAsM1A5\": 350}","direction_id":"{\"1\": 350}","headsign":"{\"METRO BENGASI\": 350}","duration_avg":60.0,"n_vehicles":350,"d":798,"route_I_counts":"{\"1\": 350}","source":19,"target":20,"layer":"L","from":"METRO SPEZIA","to":"METRO LINGOTTO"},"geometry":{"type":"LineString","coordinates":[[7.66933,45.03768],[7.6666,45.03077]]}},{"type":"Feature","properties":{"shape_id":"{\"METROUDiM1R6\": 352}","direction_id":"{\"0\": 352}","headsign":"{\"METRO FERMI\": 352}","duration_avg":120.0,"n_vehicles":352,"d":533,"route_I_counts":"{\"1\": 352}","source":19,"target":18,"layer":"L","from":"METRO SPEZIA","to":"METRO CARDUCCI"},"geometry":{"type":"LineString","coordinates":[[7.66933,45.03768],[7.67112,45.0423]]}},{"type":"Feature","properties":{"shape_id":"{\"METROUAsM1A5\": 349}","direction_id":"{\"1\": 349}","headsign":"{\"METRO BENGASI\": 349}","duration_avg":120.0,"n_vehicles":349,"d":692,"route_I_counts":"{\"1\": 349}","source":20,"target":21,"layer":"L","from":"METRO LINGOTTO","to":"METRO ITALIA61"},"geometry":{"type":"LineString","coordinates":[[7.6666,45.03077],[7.66433,45.02476]]}},{"type":"Feature","properties":{"shape_id":"{\"METROUDiM1R6\": 353}","direction_id":"{\"0\": 353}","headsign":"{\"METRO FERMI\": 353}","duration_avg":60.0,"n_vehicles":353,"d":798,"route_I_counts":"{\"1\": 353}","source":20,"target":19,"layer":"L","from":"METRO LINGOTTO","to":"METRO SPEZIA"},"geometry":{"type":"LineString","coordinates":[[7.6666,45.03077],[7.66933,45.03768]]}},{"type":"Feature","properties":{"shape_id":"{\"METROUAsM1A5\": 349}","direction_id":"{\"1\": 349}","headsign":"{\"METRO BENGASI\": 349}","duration_avg":60.0,"n_vehicles":349,"d":937,"route_I_counts":"{\"1\": 349}","source":21,"target":22,"layer":"L","from":"METRO ITALIA61","to":"METRO BENGASI"},"geometry":{"type":"LineString","coordinates":[[7.66433,45.02476],[7.66122,45.01663]]}},{"type":"Feature","properties":{"shape_id":"{\"METROUDiM1R6\": 353}","direction_id":"{\"0\": 353}","headsign":"{\"METRO FERMI\": 353}","duration_avg":120.0,"n_vehicles":353,"d":692,"route_I_counts":"{\"1\": 353}","source":21,"target":20,"layer":"L","from":"METRO ITALIA61","to":"METRO LINGOTTO"},"geometry":{"type":"LineString","coordinates":[[7.66433,45.02476],[7.6666,45.03077]]}},{"type":"Feature","properties":{"shape_id":"{\"METROUDiM1R6\": 353}","direction_id":"{\"0\": 353}","headsign":"{\"METRO FERMI\": 353}","duration_avg":60.0,"n_vehicles":353,"d":937,"route_I_counts":"{\"1\": 353}","source":22,"target":21,"layer":"L","from":"METRO BENGASI","to":"METRO ITALIA61"},"geometry":{"type":"LineString","coordinates":[[7.66122,45.01663],[7.66433,45.02476]]}}]}