{"type":"FeatureCollection","features":[{"type":"Feature","geometry":{"type":"Point","coordinates":[-123.111578,49.285907]},"properties":{"name":"Waterfront Station @ Platform 2","original_ids":"[386, 997, 3369, 3368]","id":0,"layer":"stop"}},{"type":"Feature","geometry":{"type":"Point","coordinates":[-123.119515,49.285634]},"properties":{"name":"Burrard Station @ Platform 2","original_ids":"[3511, 1005]","id":1,"layer":"stop"}},{"type":"Feature","geometry":{"type":"Point","coordinates":[-123.115744,49.283136]},"properties":{"name":"Granville Station @ Platform 2","original_ids":"[4885, 1006, 5548, 5547]","id":2,"layer":"stop"}},{"type":"Feature","geometry":{"type":"Point","coordinates":[-123.109213,49.279178]},"properties":{"name":"Stadium-Chinatown Station @ Platform 2","original_ids":"[3513, 1003]","id":3,"layer":"stop"}},{"type":"Feature","geometry":{"type":"Point","coordinates":[-123.100399,49.273099]},"properties":{"name":"Main Street-Science World Station @ Platform 2","original_ids":"[4887, 1004]","id":4,"layer":"stop"}},{"type":"Feature","geometry":{"type":"Point","coordinates":[-123.069179,49.262317]},"properties":{"name":"Commercial-Broadway Station @ Platform 4","original_ids":"[4888, 1001, 4444, 8393]","id":5,"layer":"stop"}},{"type":"Feature","geometry":{"type":"Point","coordinates":[-123.055904,49.248283]},"properties":{"name":"Nanaimo Station @ Platform 2","original_ids":"[3516, 1002]","id":6,"layer":"stop"}},{"type":"Feature","geometry":{"type":"Point","coordinates":[-123.046136,49.244236]},"properties":{"name":"29th Avenue Station @ Platform 2","original_ids":"[2210, 999]","id":7,"layer":"stop"}},{"type":"Feature","geometry":{"type":"Point","coordinates":[-123.031827,49.238353]},"properties":{"name":"Joyce-Collingwood Station @ Platform 2","original_ids":"[4891, 1000]","id":8,"layer":"stop"}},{"type":"Feature","geometry":{"type":"Point","coordinates":[-123.012678,49.229712]},"properties":{"name":"Patterson Station @ Platform 2","original_ids":"[4892, 5375]","id":9,"layer":"stop"}},{"type":"Feature","geometry":{"type":"Point","coordinates":[-123.00394,49.225781]},"properties":{"name":"Metrotown Station @ Platform 2","original_ids":"[4893, 5200]","id":10,"layer":"stop"}},{"type":"Feature","geometry":{"type":"Point","coordinates":[-122.988475,49.220013]},"properties":{"name":"Royal Oak Station @ Platform 2","original_ids":"[700, 5203]","id":11,"layer":"stop"}},{"type":"Feature","geometry":{"type":"Point","coordinates":[-122.959156,49.211909]},"properties":{"name":"Edmonds Station @ Platform 2","original_ids":"[699, 5202]","id":12,"layer":"stop"}},{"type":"Feature","geometry":{"type":"Point","coordinates":[-122.94894,49.200021]},"properties":{"name":"22nd Street Station @ Platform 2","original_ids":"[698, 5205]","id":13,"layer":"stop"}},{"type":"Feature","geometry":{"type":"Point","coordinates":[-122.912573,49.201406]},"properties":{"name":"New Westminster Station @ Platform 2","original_ids":"[697, 5204]","id":14,"layer":"stop"}},{"type":"Feature","geometry":{"type":"Point","coordinates":[-122.906118,49.204778]},"properties":{"name":"Columbia Station @ Platform 2","original_ids":"[704, 5376]","id":15,"layer":"stop"}},{"type":"Feature","geometry":{"type":"Point","coordinates":[-122.874171,49.204383]},"properties":{"name":"Scott Road Station @ Platform 2","original_ids":"[703, 5206]","id":16,"layer":"stop"}},{"type":"Feature","geometry":{"type":"Point","coordinates":[-122.850673,49.198946]},"properties":{"name":"Gateway Station @ Platform 2","original_ids":"[702, 5209]","id":17,"layer":"stop"}},{"type":"Feature","geometry":{"type":"Point","coordinates":[-122.847914,49.189549]},"properties":{"name":"Surrey Central Station @ Platform 2","original_ids":"[701, 5208]","id":18,"layer":"stop"}},{"type":"Feature","geometry":{"type":"Point","coordinates":[-122.844744,49.182755]},"properties":{"name":"King George Station @ Platform 2","original_ids":"[708, 707]","id":19,"layer":"stop"}},{"type":"Feature","geometry":{"type":"Point","coordinates":[-122.889311,49.224621]},"properties":{"name":"Sapperton Station @ Platform 2","original_ids":"[1956, 3986]","id":20,"layer":"stop"}},{"type":"Feature","geometry":{"type":"Point","coordinates":[-122.882718,49.233236]},"properties":{"name":"Braid Station @ Platform 2","original_ids":"[3985, 3983]","id":21,"layer":"stop"}},{"type":"Feature","geometry":{"type":"Point","coordinates":[-122.896879,49.248549]},"properties":{"name":"Lougheed Town Centre Station @ Platform 2","original_ids":"[4106, 8394, 200]","id":22,"layer":"stop"}},{"type":"Feature","geometry":{"type":"Point","coordinates":[-122.918191,49.253465]},"properties":{"name":"Production Way-University Station @ Platform 1","original_ids":"[4105, 8395]","id":23,"layer":"stop"}},{"type":"Feature","geometry":{"type":"Point","coordinates":[-123.079054,49.265799]},"properties":{"name":"VCC-Clark Station @ Platform 2","original_ids":"[491, 492]","id":24,"layer":"stop"}},{"type":"Feature","geometry":{"type":"Point","coordinates":[-123.045348,49.258877]},"properties":{"name":"Renfrew Station @ Platform 2","original_ids":"[4445, 8400]","id":25,"layer":"stop"}},{"type":"Feature","geometry":{"type":"Point","coordinates":[-123.032821,49.260733]},"properties":{"name":"Rupert Station @ Platform 2","original_ids":"[4442, 8399]","id":26,"layer":"stop"}},{"type":"Feature","geometry":{"type":"Point","coordinates":[-123.013498,49.264931]},"properties":{"name":"Gilmore Station @ Platform 2","original_ids":"[4443, 8398]","id":27,"layer":"stop"}},{"type":"Feature","geometry":{"type":"Point","coordinates":[-123.001813,49.266352]},"properties":{"name":"Brentwood Town Centre Station @ Platform 2","original_ids":"[6541, 8397]","id":28,"layer":"stop"}},{"type":"Feature","geometry":{"type":"Point","coordinates":[-122.982158,49.264705]},"properties":{"name":"Holdom Station @ Platform 2","original_ids":"[8389, 4103]","id":29,"layer":"stop"}},{"type":"Feature","geometry":{"type":"Point","coordinates":[-122.963991,49.259154]},"properties":{"name":"Sperling-Burnaby Lake Station @ Platform 2","original_ids":"[8396, 4104]","id":30,"layer":"stop"}},{"type":"Feature","geometry":{"type":"Point","coordinates":[-122.939183,49.254609]},"properties":{"name":"Lake City Way Station @ Platform 2","original_ids":"[4843, 4844]","id":31,"layer":"stop"}},{"type":"Feature","geometry":{"type":"Point","coordinates":[-122.889784,49.261375]},"properties":{"name":"Burquitlam Station @ Platform 2","original_ids":"[208, 207]","id":32,"layer":"stop"}},{"type":"Feature","geometry":{"type":"Point","coordinates":[-122.845608,49.277941]},"properties":{"name":"Moody Centre Station @ Platform 2","original_ids":"[424, 4380]","id":33,"layer":"stop"}},{"type":"Feature","geometry":{"type":"Point","coordinates":[-122.828183,49.277118]},"properties":{"name":"Inlet Centre Station @ Platform 2","original_ids":"[431, 432]","id":34,"layer":"stop"}},{"type":"Feature","geometry":{"type":"Point","coordinates":[-122.800643,49.274738]},"properties":{"name":"Coquitlam Central Station @ Platform 2","original_ids":"[408, 411]","id":35,"layer":"stop"}},{"type":"Feature","geometry":{"type":"Point","coordinates":[-122.793805,49.28041]},"properties":{"name":"Lincoln Station @ Platform 2","original_ids":"[417, 420]","id":36,"layer":"stop"}},{"type":"Feature","geometry":{"type":"Point","coordinates":[-122.791435,49.285693]},"properties":{"name":"Lafarge Lake-Douglas Station @ Platform 2","original_ids":"[449, 451]","id":37,"layer":"stop"}},{"type":"Feature","geometry":{"type":"Point","coordinates":[-123.136174,49.168092]},"properties":{"name":"Richmond-Brighouse Station @ Platform 1","original_ids":"[4650, 4649]","id":38,"layer":"stop"}},{"type":"Feature","geometry":{"type":"Point","coordinates":[-123.136322,49.174766]},"properties":{"name":"Landsdowne Station @ Platform 1","original_ids":"[4644, 4643]","id":39,"layer":"stop"}},{"type":"Feature","geometry":{"type":"Point","coordinates":[-123.13622,49.183991]},"properties":{"name":"Aberdeen Station @ Platform 1","original_ids":"[1982, 1981]","id":40,"layer":"stop"}},{"type":"Feature","geometry":{"type":"Point","coordinates":[-123.126006,49.195514]},"properties":{"name":"Bridgeport Station @ Platform 1","original_ids":"[146, 147]","id":41,"layer":"stop"}},{"type":"Feature","geometry":{"type":"Point","coordinates":[-123.116921,49.209663]},"properties":{"name":"Marine Drive Station @ Platform 1","original_ids":"[160, 1063]","id":42,"layer":"stop"}},{"type":"Feature","geometry":{"type":"Point","coordinates":[-123.116289,49.225709]},"properties":{"name":"Langara-49th Avenue Station @ Platform 1","original_ids":"[158, 159]","id":43,"layer":"stop"}},{"type":"Feature","geometry":{"type":"Point","coordinates":[-123.116176,49.233731]},"properties":{"name":"Oakridge-41st Avenue Station @ Platform 1","original_ids":"[156, 157]","id":44,"layer":"stop"}},{"type":"Feature","geometry":{"type":"Point","coordinates":[-123.115228,49.249172]},"properties":{"name":"King Edward Station @ Platform 1","original_ids":"[154, 155]","id":45,"layer":"stop"}},{"type":"Feature","geometry":{"type":"Point","coordinates":[-123.114753,49.262725]},"properties":{"name":"Broadway-City Hall Station @ Platform 1","original_ids":"[5550, 5549]","id":46,"layer":"stop"}},{"type":"Feature","geometry":{"type":"Point","coordinates":[-123.115527,49.266557]},"properties":{"name":"Olympic Village Station @ Platform 1","original_ids":"[5545, 5544]","id":47,"layer":"stop"}},{"type":"Feature","geometry":{"type":"Point","coordinates":[-123.122015,49.274508]},"properties":{"name":"Yaletown-Roundhouse Station @ Platform 1","original_ids":"[5543, 5542]","id":48,"layer":"stop"}},{"type":"Feature","geometry":{"type":"Point","coordinates":[-123.146335,49.196715]},"properties":{"name":"Templeton Station @ Platform 2","original_ids":"[4647, 4648]","id":49,"layer":"stop"}},{"type":"Feature","geometry":{"type":"Point","coordinates":[-123.157851,49.193053]},"properties":{"name":"Sea Island Centre Station @ Platform 2","original_ids":"[4637, 1978]","id":50,"layer":"stop"}},{"type":"Feature","geometry":{"type":"Point","coordinates":[-123.178251,49.194189]},"properties":{"name":"YVR-Airport Station @ Canada Line","original_ids":"[2948, 2949]","id":51,"layer":"stop"}},{"type":"Feature","properties":{"shape_id":"{\"272164\": 1, \"272166\": 123, \"272167\": 182, \"272172\": 3}","direction_id":"{\"0\": 309}","headsign":"{\"EXPO LINE TO KING GEORGE\": 183, \"EXPO LINE TO LOUGHEED TOWN CENTRE\": 3, \"EXPO LINE TO PRODUCTION WAY-UNIVERSITY\": 123}","duration_avg":112.42718446601941,"n_vehicles":309,"d":577,"route_I_counts":"{\"4\": 309}","source":0,"target":1,"layer":"L","from":"Waterfront Station @ Platform 2","to":"Burrard Station @ Platform 2"},"geometry":{"type":"LineString","coordinates":[[-123.111578,49.285907],[-123.119515,49.285634]]}},{"type":"Feature","properties":{"duration_avg":94.73684210526316,"n_vehicles":209,"d":420,"route_I_counts":"{\"51\": 209}","shape_id":"{\"272149\": 106, \"272150\": 103}","direction_id":"{\"1\": 209}","headsign":"{\"CANADA LINE TO RICHMOND-BRIGHOUSE\": 103, \"CANADA LINE TO YVR-AIRPORT\": 106}","source":0,"target":2,"layer":"L","from":"Waterfront Station @ Platform 2","to":"Granville Station @ Platform 2"},"geometry":{"type":"LineString","coordinates":[[-123.111578,49.285907],[-123.115744,49.283136]]}},{"type":"Feature","properties":{"shape_id":"{\"272164\": 1, \"272166\": 122, \"272167\": 182, \"272172\": 3}","direction_id":"{\"0\": 308}","headsign":"{\"EXPO LINE TO KING GEORGE\": 183, \"EXPO LINE TO LOUGHEED TOWN CENTRE\": 3, \"EXPO LINE TO PRODUCTION WAY-UNIVERSITY\": 122}","duration_avg":72.27272727272727,"n_vehicles":308,"d":390,"route_I_counts":"{\"4\": 308}","source":1,"target":2,"layer":"L","from":"Burrard Station @ Platform 2","to":"Granville Station @ Platform 2"},"geometry":{"type":"LineString","coordinates":[[-123.119515,49.285634],[-123.115744,49.283136]]}},{"type":"Feature","properties":{"duration_avg":75.92233009708738,"n_vehicles":309,"d":588,"route_I_counts":"{\"4\": 309}","shape_id":"{\"272174\": 1, \"272175\": 1, \"272176\": 1, \"272180\": 124, \"272181\": 170, \"272182\": 11, \"272187\": 1}","direction_id":"{\"1\": 309}","headsign":"{\"EXPO LINE TO WATERFRONT\": 309}","source":1,"target":0,"layer":"L","from":"Burrard Station @ Platform 2","to":"Waterfront Station @ Platform 2"},"geometry":{"type":"LineString","coordinates":[[-123.119515,49.285634],[-123.111578,49.285907]]}},{"type":"Feature","properties":{"shape_id":"{\"272164\": 1, \"272166\": 123, \"272167\": 182, \"272172\": 3}","direction_id":"{\"0\": 309}","headsign":"{\"EXPO LINE TO KING GEORGE\": 183, \"EXPO LINE TO LOUGHEED TOWN CENTRE\": 3, \"EXPO LINE TO PRODUCTION WAY-UNIVERSITY\": 123}","duration_avg":93.00970873786407,"n_vehicles":309,"d":647,"route_I_counts":"{\"4\": 309}","source":2,"target":3,"layer":"L","from":"Granville Station @ Platform 2","to":"Stadium-Chinatown Station @ Platform 2"},"geometry":{"type":"LineString","coordinates":[[-123.115744,49.283136],[-123.109213,49.279178]]}},{"type":"Feature","properties":{"duration_avg":81.62337662337663,"n_vehicles":308,"d":389,"route_I_counts":"{\"4\": 308}","shape_id":"{\"272174\": 1, \"272175\": 1, \"272176\": 1, \"272180\": 123, \"272181\": 171, \"272182\": 11}","direction_id":"{\"1\": 308}","headsign":"{\"EXPO LINE TO WATERFRONT\": 308}","source":2,"target":1,"layer":"L","from":"Granville Station @ Platform 2","to":"Burrard Station @ Platform 2"},"geometry":{"type":"LineString","coordinates":[[-123.115744,49.283136],[-123.119515,49.285634]]}},{"type":"Feature","properties":{"duration_avg":137.30769230769232,"n_vehicles":208,"d":932,"route_I_counts":"{\"51\": 208}","shape_id":"{\"272149\": 105, \"272150\": 103}","direction_id":"{\"1\": 208}","headsign":"{\"CANADA LINE TO RICHMOND-BRIGHOUSE\": 103, \"CANADA LINE TO YVR-AIRPORT\": 105}","source":2,"target":48,"layer":"L","from":"Granville Station @ Platform 2","to":"Yaletown-Roundhouse Station @ Platform 1"},"geometry":{"type":"LineString","coordinates":[[-123.115744,49.283136],[-123.122015,49.274508]]}},{"type":"Feature","properties":{"duration_avg":93.36585365853658,"n_vehicles":205,"d":421,"route_I_counts":"{\"51\": 205}","shape_id":"{\"272144\": 102, \"272145\": 101, \"272148\": 2}","direction_id":"{\"0\": 205}","headsign":"{\"CANADA LINE TO WATERFRONT\": 205}","source":2,"target":0,"layer":"L","from":"Granville Station @ Platform 2","to":"Waterfront Station @ Platform 2"},"geometry":{"type":"LineString","coordinates":[[-123.115744,49.283136],[-123.111578,49.285907]]}},{"type":"Feature","properties":{"shape_id":"{\"272164\": 1, \"272166\": 123, \"272167\": 181, \"272172\": 3}","direction_id":"{\"0\": 308}","headsign":"{\"EXPO LINE TO KING GEORGE\": 182, \"EXPO LINE TO LOUGHEED TOWN CENTRE\": 3, \"EXPO LINE TO PRODUCTION WAY-UNIVERSITY\": 123}","duration_avg":132.85714285714286,"n_vehicles":308,"d":931,"route_I_counts":"{\"4\": 308}","source":3,"target":4,"layer":"L","from":"Stadium-Chinatown Station @ Platform 2","to":"Main Street-Science World Station @ Platform 2"},"geometry":{"type":"LineString","coordinates":[[-123.109213,49.279178],[-123.100399,49.273099]]}},{"type":"Feature","properties":{"duration_avg":82.08469055374593,"n_vehicles":307,"d":646,"route_I_counts":"{\"4\": 307}","shape_id":"{\"272174\": 1, \"272176\": 1, \"272180\": 123, \"272181\": 171, \"272182\": 11}","direction_id":"{\"1\": 307}","headsign":"{\"EXPO LINE TO WATERFRONT\": 307}","source":3,"target":2,"layer":"L","from":"Stadium-Chinatown Station @ Platform 2","to":"Granville Station @ Platform 2"},"geometry":{"type":"LineString","coordinates":[[-123.109213,49.279178],[-123.115744,49.283136]]}},{"type":"Feature","properties":{"shape_id":"{\"272164\": 1, \"272166\": 122, \"272167\": 181, \"272172\": 3}","direction_id":"{\"0\": 307}","headsign":"{\"EXPO LINE TO KING GEORGE\": 182, \"EXPO LINE TO LOUGHEED TOWN CENTRE\": 3, \"EXPO LINE TO PRODUCTION WAY-UNIVERSITY\": 122}","duration_avg":203.4527687296417,"n_vehicles":307,"d":2565,"route_I_counts":"{\"4\": 307}","source":4,"target":5,"layer":"L","from":"Main Street-Science World Station @ Platform 2","to":"Commercial-Broadway Station @ Platform 4"},"geometry":{"type":"LineString","coordinates":[[-123.100399,49.273099],[-123.069179,49.262317]]}},{"type":"Feature","properties":{"duration_avg":128.59934853420197,"n_vehicles":307,"d":930,"route_I_counts":"{\"4\": 307}","shape_id":"{\"272174\": 1, \"272176\": 1, \"272180\": 123, \"272181\": 171, \"272182\": 11}","direction_id":"{\"1\": 307}","headsign":"{\"EXPO LINE TO WATERFRONT\": 307}","source":4,"target":3,"layer":"L","from":"Main Street-Science World Station @ Platform 2","to":"Stadium-Chinatown Station @ Platform 2"},"geometry":{"type":"LineString","coordinates":[[-123.100399,49.273099],[-123.109213,49.279178]]}},{"type":"Feature","properties":{"shape_id":"{\"272164\": 1, \"272166\": 123, \"272167\": 180, \"272172\": 3}","direction_id":"{\"0\": 307}","headsign":"{\"EXPO LINE TO KING GEORGE\": 181, \"EXPO LINE TO LOUGHEED TOWN CENTRE\": 3, \"EXPO LINE TO PRODUCTION WAY-UNIVERSITY\": 123}","duration_avg":135.04885993485343,"n_vehicles":307,"d":1836,"route_I_counts":"{\"4\": 307}","source":5,"target":6,"layer":"L","from":"Commercial-Broadway Station @ Platform 4","to":"Nanaimo Station @ Platform 2"},"geometry":{"type":"LineString","coordinates":[[-123.069179,49.262317],[-123.055904,49.248283]]}},{"type":"Feature","properties":{"duration_avg":189.185667752443,"n_vehicles":307,"d":2573,"route_I_counts":"{\"4\": 307}","shape_id":"{\"272174\": 1, \"272176\": 1, \"272180\": 123, \"272181\": 171, \"272182\": 11}","direction_id":"{\"1\": 307}","headsign":"{\"EXPO LINE TO WATERFRONT\": 307}","source":5,"target":4,"layer":"L","from":"Commercial-Broadway Station @ Platform 4","to":"Main Street-Science World Station @ Platform 2"},"geometry":{"type":"LineString","coordinates":[[-123.069179,49.262317],[-123.100399,49.273099]]}},{"type":"Feature","properties":{"duration_avg":136.27659574468086,"n_vehicles":188,"d":1740,"route_I_counts":"{\"5\": 188}","shape_id":"{\"272155\": 187, \"272156\": 1}","direction_id":"{\"0\": 188}","headsign":"{\"MILLENNIUM LINE TO LAFARGE LAKE-DOUGLAS\": 187, \"MILLENNIUM LINE TO LOUGHEED TOWN CENTRE\": 1}","source":5,"target":25,"layer":"L","from":"Commercial-Broadway Station @ Platform 4","to":"Renfrew Station @ Platform 2"},"geometry":{"type":"LineString","coordinates":[[-123.069179,49.262317],[-123.045348,49.258877]]}},{"type":"Feature","properties":{"duration_avg":74.60317460317461,"n_vehicles":189,"d":836,"route_I_counts":"{\"5\": 189}","shape_id":"{\"272158\": 1, \"272159\": 9, \"272161\": 179}","direction_id":"{\"1\": 189}","headsign":"{\"MILLENNIUM LINE TO VCC-CLARK\": 189}","source":5,"target":24,"layer":"L","from":"Commercial-Broadway Station @ Platform 4","to":"VCC-Clark Station @ Platform 2"},"geometry":{"type":"LineString","coordinates":[[-123.069179,49.262317],[-123.079054,49.265799]]}},{"type":"Feature","properties":{"shape_id":"{\"272164\": 1, \"272166\": 123, \"272167\": 181, \"272172\": 3}","direction_id":"{\"0\": 308}","headsign":"{\"EXPO LINE TO KING GEORGE\": 182, \"EXPO LINE TO LOUGHEED TOWN CENTRE\": 3, \"EXPO LINE TO PRODUCTION WAY-UNIVERSITY\": 123}","duration_avg":87.66233766233766,"n_vehicles":308,"d":840,"route_I_counts":"{\"4\": 308}","source":6,"target":7,"layer":"L","from":"Nanaimo Station @ Platform 2","to":"29th Avenue Station @ Platform 2"},"geometry":{"type":"LineString","coordinates":[[-123.055904,49.248283],[-123.046136,49.244236]]}},{"type":"Feature","properties":{"duration_avg":162.85714285714286,"n_vehicles":308,"d":1828,"route_I_counts":"{\"4\": 308}","shape_id":"{\"272174\": 1, \"272176\": 1, \"272180\": 123, \"272181\": 172, \"272182\": 11}","direction_id":"{\"1\": 308}","headsign":"{\"EXPO LINE TO WATERFRONT\": 308}","source":6,"target":5,"layer":"L","from":"Nanaimo Station @ Platform 2","to":"Commercial-Broadway Station @ Platform 4"},"geometry":{"type":"LineString","coordinates":[[-123.055904,49.248283],[-123.069179,49.262317]]}},{"type":"Feature","properties":{"shape_id":"{\"272164\": 1, \"272166\": 123, \"272167\": 180, \"272172\": 3}","direction_id":"{\"0\": 307}","headsign":"{\"EXPO LINE TO KING GEORGE\": 181, \"EXPO LINE TO LOUGHEED TOWN CENTRE\": 3, \"EXPO LINE TO PRODUCTION WAY-UNIVERSITY\": 123}","duration_avg":112.57328990228012,"n_vehicles":307,"d":1228,"route_I_counts":"{\"4\": 307}","source":7,"target":8,"layer":"L","from":"29th Avenue Station @ Platform 2","to":"Joyce-Collingwood Station @ Platform 2"},"geometry":{"type":"LineString","coordinates":[[-123.046136,49.244236],[-123.031827,49.238353]]}},{"type":"Feature","properties":{"duration_avg":98.18181818181819,"n_vehicles":308,"d":840,"route_I_counts":"{\"4\": 308}","shape_id":"{\"272174\": 1, \"272176\": 1, \"272180\": 123, \"272181\": 172, \"272182\": 11}","direction_id":"{\"1\": 308}","headsign":"{\"EXPO LINE TO WATERFRONT\": 308}","source":7,"target":6,"layer":"L","from":"29th Avenue Station @ Platform 2","to":"Nanaimo Station @ Platform 2"},"geometry":{"type":"LineString","coordinates":[[-123.046136,49.244236],[-123.055904,49.248283]]}},{"type":"Feature","properties":{"shape_id":"{\"272164\": 1, \"272166\": 123, \"272167\": 180, \"272172\": 3}","direction_id":"{\"0\": 307}","headsign":"{\"EXPO LINE TO KING GEORGE\": 181, \"EXPO LINE TO LOUGHEED TOWN CENTRE\": 3, \"EXPO LINE TO PRODUCTION WAY-UNIVERSITY\": 123}","duration_avg":125.27687296416939,"n_vehicles":307,"d":1691,"route_I_counts":"{\"4\": 307}","source":8,"target":9,"layer":"L","from":"Joyce-Collingwood Station @ Platform 2","to":"Patterson Station @ Platform 2"},"geometry":{"type":"LineString","coordinates":[[-123.031827,49.238353],[-123.012678,49.229712]]}},{"type":"Feature","properties":{"duration_avg":113.7864077669903,"n_vehicles":309,"d":1229,"route_I_counts":"{\"4\": 309}","shape_id":"{\"272174\": 1, \"272176\": 1, \"272180\": 123, \"272181\": 173, \"272182\": 11}","direction_id":"{\"1\": 309}","headsign":"{\"EXPO LINE TO WATERFRONT\": 309}","source":8,"target":7,"layer":"L","from":"Joyce-Collingwood Station @ Platform 2","to":"29th Avenue Station @ Platform 2"},"geometry":{"type":"LineString","coordinates":[[-123.031827,49.238353],[-123.046136,49.244236]]}},{"type":"Feature","properties":{"shape_id":"{\"272164\": 1, \"272166\": 123, \"272167\": 180, \"272172\": 3}","direction_id":"{\"0\": 307}","headsign":"{\"EXPO LINE TO KING GEORGE\": 181, \"EXPO LINE TO LOUGHEED TOWN CENTRE\": 3, \"EXPO LINE TO PRODUCTION WAY-UNIVERSITY\": 123}","duration_avg":93.81107491856677,"n_vehicles":307,"d":771,"route_I_counts":"{\"4\": 307}","source":9,"target":10,"layer":"L","from":"Patterson Station @ Platform 2","to":"Metrotown Station @ Platform 2"},"geometry":{"type":"LineString","coordinates":[[-123.012678,49.229712],[-123.00394,49.225781]]}},{"type":"Feature","properties":{"duration_avg":127.98701298701299,"n_vehicles":308,"d":1691,"route_I_counts":"{\"4\": 308}","shape_id":"{\"272174\": 1, \"272176\": 1, \"272180\": 123, \"272181\": 172, \"272182\": 11}","direction_id":"{\"1\": 308}","headsign":"{\"EXPO LINE TO WATERFRONT\": 308}","source":9,"target":8,"layer":"L","from":"Patterson Station @ Platform 2","to":"Joyce-Collingwood Station @ Platform 2"},"geometry":{"type":"LineString","coordinates":[[-123.012678,49.229712],[-123.031827,49.238353]]}},{"type":"Feature","properties":{"shape_id":"{\"272164\": 1, \"272166\": 123, \"272167\": 180, \"272172\": 3}","direction_id":"{\"0\": 307}","headsign":"{\"EXPO LINE TO KING GEORGE\": 181, \"EXPO LINE TO LOUGHEED TOWN CENTRE\": 3, \"EXPO LINE TO PRODUCTION WAY-UNIVERSITY\": 123}","duration_avg":115.11400651465799,"n_vehicles":307,"d":1294,"route_I_counts":"{\"4\": 307}","source":10,"target":11,"layer":"L","from":"Metrotown Station @ Platform 2","to":"Royal Oak Station @ Platform 2"},"geometry":{"type":"LineString","coordinates":[[-123.00394,49.225781],[-122.988475,49.220013]]}},{"type":"Feature","properties":{"duration_avg":85.4368932038835,"n_vehicles":309,"d":772,"route_I_counts":"{\"4\": 309}","shape_id":"{\"272174\": 1, \"272176\": 1, \"272180\": 123, \"272181\": 173, \"272182\": 11}","direction_id":"{\"1\": 309}","headsign":"{\"EXPO LINE TO WATERFRONT\": 309}","source":10,"target":9,"layer":"L","from":"Metrotown Station @ Platform 2","to":"Patterson Station @ Platform 2"},"geometry":{"type":"LineString","coordinates":[[-123.00394,49.225781],[-123.012678,49.229712]]}},{"type":"Feature","properties":{"shape_id":"{\"272164\": 1, \"272166\": 123, \"272167\": 179, \"272172\": 3}","direction_id":"{\"0\": 306}","headsign":"{\"EXPO LINE TO KING GEORGE\": 180, \"EXPO LINE TO LOUGHEED TOWN CENTRE\": 3, \"EXPO LINE TO PRODUCTION WAY-UNIVERSITY\": 123}","duration_avg":170.3921568627451,"n_vehicles":306,"d":2314,"route_I_counts":"{\"4\": 306}","source":11,"target":12,"layer":"L","from":"Royal Oak Station @ Platform 2","to":"Edmonds Station @ Platform 2"},"geometry":{"type":"LineString","coordinates":[[-122.988475,49.220013],[-122.959156,49.211909]]}},{"type":"Feature","properties":{"duration_avg":123.7012987012987,"n_vehicles":308,"d":1291,"route_I_counts":"{\"4\": 308}","shape_id":"{\"272174\": 1, \"272180\": 123, \"272181\": 173, \"272182\": 11}","direction_id":"{\"1\": 308}","headsign":"{\"EXPO LINE TO WATERFRONT\": 308}","source":11,"target":10,"layer":"L","from":"Royal Oak Station @ Platform 2","to":"Metrotown Station @ Platform 2"},"geometry":{"type":"LineString","coordinates":[[-122.988475,49.220013],[-123.00394,49.225781]]}},{"type":"Feature","properties":{"shape_id":"{\"272164\": 1, \"272166\": 123, \"272167\": 179, \"272168\": 6, \"272169\": 7, \"272172\": 3}","direction_id":"{\"0\": 319}","headsign":"{\"EXPO LINE TO KING GEORGE\": 186, \"EXPO LINE TO LOUGHEED TOWN CENTRE\": 3, \"EXPO LINE TO PRODUCTION WAY-UNIVERSITY\": 130}","duration_avg":155.17241379310346,"n_vehicles":319,"d":1517,"route_I_counts":"{\"4\": 319}","source":12,"target":13,"layer":"L","from":"Edmonds Station @ Platform 2","to":"22nd Street Station @ Platform 2"},"geometry":{"type":"LineString","coordinates":[[-122.959156,49.211909],[-122.94894,49.200021]]}},{"type":"Feature","properties":{"duration_avg":166.94805194805195,"n_vehicles":308,"d":2323,"route_I_counts":"{\"4\": 308}","shape_id":"{\"272174\": 1, \"272180\": 123, \"272181\": 173, \"272182\": 11}","direction_id":"{\"1\": 308}","headsign":"{\"EXPO LINE TO WATERFRONT\": 308}","source":12,"target":11,"layer":"L","from":"Edmonds Station @ Platform 2","to":"Royal Oak Station @ Platform 2"},"geometry":{"type":"LineString","coordinates":[[-122.959156,49.211909],[-122.988475,49.220013]]}},{"type":"Feature","properties":{"shape_id":"{\"272164\": 1, \"272166\": 124, \"272167\": 178, \"272168\": 6, \"272169\": 7, \"272170\": 11, \"272172\": 3}","direction_id":"{\"0\": 330}","headsign":"{\"EXPO LINE TO KING GEORGE\": 196, \"EXPO LINE TO LOUGHEED TOWN CENTRE\": 3, \"EXPO LINE TO PRODUCTION WAY-UNIVERSITY\": 131}","duration_avg":184.54545454545453,"n_vehicles":330,"d":2649,"route_I_counts":"{\"4\": 330}","source":13,"target":14,"layer":"L","from":"22nd Street Station @ Platform 2","to":"New Westminster Station @ Platform 2"},"geometry":{"type":"LineString","coordinates":[[-122.94894,49.200021],[-122.912573,49.201406]]}},{"type":"Feature","properties":{"duration_avg":137.77777777777777,"n_vehicles":297,"d":1509,"route_I_counts":"{\"4\": 297}","shape_id":"{\"272174\": 1, \"272180\": 122, \"272181\": 174}","direction_id":"{\"1\": 297}","headsign":"{\"EXPO LINE TO WATERFRONT\": 297}","source":13,"target":12,"layer":"L","from":"22nd Street Station @ Platform 2","to":"Edmonds Station @ Platform 2"},"geometry":{"type":"LineString","coordinates":[[-122.94894,49.200021],[-122.959156,49.211909]]}},{"type":"Feature","properties":{"shape_id":"{\"272164\": 1, \"272166\": 123, \"272167\": 179, \"272168\": 6, \"272169\": 7, \"272170\": 11, \"272172\": 3}","direction_id":"{\"0\": 330}","headsign":"{\"EXPO LINE TO KING GEORGE\": 197, \"EXPO LINE TO LOUGHEED TOWN CENTRE\": 3, \"EXPO LINE TO PRODUCTION WAY-UNIVERSITY\": 130}","duration_avg":75.0909090909091,"n_vehicles":330,"d":601,"route_I_counts":"{\"4\": 330}","source":14,"target":15,"layer":"L","from":"New Westminster Station @ Platform 2","to":"Columbia Station @ Platform 2"},"geometry":{"type":"LineString","coordinates":[[-122.912573,49.201406],[-122.906118,49.204778]]}},{"type":"Feature","properties":{"duration_avg":179.3939393939394,"n_vehicles":297,"d":2647,"route_I_counts":"{\"4\": 297}","shape_id":"{\"272174\": 1, \"272180\": 123, \"272181\": 173}","direction_id":"{\"1\": 297}","headsign":"{\"EXPO LINE TO WATERFRONT\": 297}","source":14,"target":13,"layer":"L","from":"New Westminster Station @ Platform 2","to":"22nd Street Station @ Platform 2"},"geometry":{"type":"LineString","coordinates":[[-122.912573,49.201406],[-122.94894,49.200021]]}},{"type":"Feature","properties":{"shape_id":"{\"272166\": 123, \"272169\": 7, \"272172\": 3}","direction_id":"{\"0\": 133}","headsign":"{\"EXPO LINE TO LOUGHEED TOWN CENTRE\": 3, \"EXPO LINE TO PRODUCTION WAY-UNIVERSITY\": 130}","duration_avg":203.45864661654136,"n_vehicles":133,"d":2524,"route_I_counts":"{\"4\": 133}","source":15,"target":20,"layer":"L","from":"Columbia Station @ Platform 2","to":"Sapperton Station @ Platform 2"},"geometry":{"type":"LineString","coordinates":[[-122.906118,49.204778],[-122.889311,49.224621]]}},{"type":"Feature","properties":{"shape_id":"{\"272164\": 1, \"272167\": 178, \"272168\": 6, \"272170\": 10}","direction_id":"{\"0\": 195}","headsign":"{\"EXPO LINE TO KING GEORGE\": 195}","duration_avg":173.53846153846155,"n_vehicles":195,"d":2323,"route_I_counts":"{\"4\": 195}","source":15,"target":16,"layer":"L","from":"Columbia Station @ Platform 2","to":"Scott Road Station @ Platform 2"},"geometry":{"type":"LineString","coordinates":[[-122.906118,49.204778],[-122.874171,49.204383]]}},{"type":"Feature","properties":{"duration_avg":105.8252427184466,"n_vehicles":309,"d":602,"route_I_counts":"{\"4\": 309}","shape_id":"{\"272174\": 1, \"272180\": 123, \"272181\": 175, \"272184\": 6, \"272185\": 4}","direction_id":"{\"1\": 309}","headsign":"{\"EXPO LINE TO NEW WESTMINSTER\": 10, \"EXPO LINE TO WATERFRONT\": 299}","source":15,"target":14,"layer":"L","from":"Columbia Station @ Platform 2","to":"New Westminster Station @ Platform 2"},"geometry":{"type":"LineString","coordinates":[[-122.906118,49.204778],[-122.912573,49.201406]]}},{"type":"Feature","properties":{"shape_id":"{\"272164\": 1, \"272167\": 177, \"272168\": 6, \"272170\": 10}","direction_id":"{\"0\": 194}","headsign":"{\"EXPO LINE TO KING GEORGE\": 194}","duration_avg":171.340206185567,"n_vehicles":194,"d":1813,"route_I_counts":"{\"4\": 194}","source":16,"target":17,"layer":"L","from":"Scott Road Station @ Platform 2","to":"Gateway Station @ Platform 2"},"geometry":{"type":"LineString","coordinates":[[-122.874171,49.204383],[-122.850673,49.198946]]}},{"type":"Feature","properties":{"duration_avg":193.33333333333334,"n_vehicles":180,"d":2328,"route_I_counts":"{\"4\": 180}","shape_id":"{\"272174\": 1, \"272181\": 175, \"272185\": 4}","direction_id":"{\"1\": 180}","headsign":"{\"EXPO LINE TO NEW WESTMINSTER\": 4, \"EXPO LINE TO WATERFRONT\": 176}","source":16,"target":15,"layer":"L","from":"Scott Road Station @ Platform 2","to":"Columbia Station @ Platform 2"},"geometry":{"type":"LineString","coordinates":[[-122.874171,49.204383],[-122.906118,49.204778]]}},{"type":"Feature","properties":{"shape_id":"{\"272164\": 1, \"272167\": 178, \"272168\": 6, \"272170\": 10}","direction_id":"{\"0\": 195}","headsign":"{\"EXPO LINE TO KING GEORGE\": 195}","duration_avg":100.0,"n_vehicles":195,"d":1065,"route_I_counts":"{\"4\": 195}","source":17,"target":18,"layer":"L","from":"Gateway Station @ Platform 2","to":"Surrey Central Station @ Platform 2"},"geometry":{"type":"LineString","coordinates":[[-122.850673,49.198946],[-122.847914,49.189549]]}},{"type":"Feature","properties":{"duration_avg":166.33333333333334,"n_vehicles":180,"d":1825,"route_I_counts":"{\"4\": 180}","shape_id":"{\"272174\": 1, \"272181\": 175, \"272185\": 4}","direction_id":"{\"1\": 180}","headsign":"{\"EXPO LINE TO NEW WESTMINSTER\": 4, \"EXPO LINE TO WATERFRONT\": 176}","source":17,"target":16,"layer":"L","from":"Gateway Station @ Platform 2","to":"Scott Road Station @ Platform 2"},"geometry":{"type":"LineString","coordinates":[[-122.850673,49.198946],[-122.874171,49.204383]]}},{"type":"Feature","properties":{"shape_id":"{\"272164\": 1, \"272167\": 177, \"272168\": 6, \"272170\": 10}","direction_id":"{\"0\": 194}","headsign":"{\"EXPO LINE TO KING GEORGE\": 194}","duration_avg":92.16494845360825,"n_vehicles":194,"d":790,"route_I_counts":"{\"4\": 194}","source":18,"target":19,"layer":"L","from":"Surrey Central Station @ Platform 2","to":"King George Station @ Platform 2"},"geometry":{"type":"LineString","coordinates":[[-122.847914,49.189549],[-122.844744,49.182755]]}},{"type":"Feature","properties":{"duration_avg":110.05524861878453,"n_vehicles":181,"d":1064,"route_I_counts":"{\"4\": 181}","shape_id":"{\"272174\": 1, \"272181\": 176, \"272185\": 4}","direction_id":"{\"1\": 181}","headsign":"{\"EXPO LINE TO NEW WESTMINSTER\": 4, \"EXPO LINE TO WATERFRONT\": 177}","source":18,"target":17,"layer":"L","from":"Surrey Central Station @ Platform 2","to":"Gateway Station @ Platform 2"},"geometry":{"type":"LineString","coordinates":[[-122.847914,49.189549],[-122.850673,49.198946]]}},{"type":"Feature","properties":{"duration_avg":93.66666666666667,"n_vehicles":180,"d":784,"route_I_counts":"{\"4\": 180}","shape_id":"{\"272181\": 176, \"272185\": 4}","direction_id":"{\"1\": 180}","headsign":"{\"EXPO LINE TO NEW WESTMINSTER\": 4, \"EXPO LINE TO WATERFRONT\": 176}","source":19,"target":18,"layer":"L","from":"King George Station @ Platform 2","to":"Surrey Central Station @ Platform 2"},"geometry":{"type":"LineString","coordinates":[[-122.844744,49.182755],[-122.847914,49.189549]]}},{"type":"Feature","properties":{"shape_id":"{\"272166\": 124, \"272169\": 7, \"272172\": 3}","direction_id":"{\"0\": 134}","headsign":"{\"EXPO LINE TO LOUGHEED TOWN CENTRE\": 3, \"EXPO LINE TO PRODUCTION WAY-UNIVERSITY\": 131}","duration_avg":110.59701492537313,"n_vehicles":134,"d":1072,"route_I_counts":"{\"4\": 134}","source":20,"target":21,"layer":"L","from":"Sapperton Station @ Platform 2","to":"Braid Station @ Platform 2"},"geometry":{"type":"LineString","coordinates":[[-122.889311,49.224621],[-122.882718,49.233236]]}},{"type":"Feature","properties":{"duration_avg":190.78125,"n_vehicles":128,"d":2522,"route_I_counts":"{\"4\": 128}","shape_id":"{\"272180\": 122, \"272184\": 6}","direction_id":"{\"1\": 128}","headsign":"{\"EXPO LINE TO NEW WESTMINSTER\": 6, \"EXPO LINE TO WATERFRONT\": 122}","source":20,"target":15,"layer":"L","from":"Sapperton Station @ Platform 2","to":"Columbia Station @ Platform 2"},"geometry":{"type":"LineString","coordinates":[[-122.889311,49.224621],[-122.906118,49.204778]]}},{"type":"Feature","properties":{"shape_id":"{\"272166\": 123, \"272169\": 7, \"272172\": 3}","direction_id":"{\"0\": 133}","headsign":"{\"EXPO LINE TO LOUGHEED TOWN CENTRE\": 3, \"EXPO LINE TO PRODUCTION WAY-UNIVERSITY\": 130}","duration_avg":207.06766917293234,"n_vehicles":133,"d":1991,"route_I_counts":"{\"4\": 133}","source":21,"target":22,"layer":"L","from":"Braid Station @ Platform 2","to":"Lougheed Town Centre Station @ Platform 2"},"geometry":{"type":"LineString","coordinates":[[-122.882718,49.233236],[-122.896879,49.248549]]}},{"type":"Feature","properties":{"duration_avg":124.65116279069767,"n_vehicles":129,"d":1064,"route_I_counts":"{\"4\": 129}","shape_id":"{\"272180\": 123, \"272184\": 6}","direction_id":"{\"1\": 129}","headsign":"{\"EXPO LINE TO NEW WESTMINSTER\": 6, \"EXPO LINE TO WATERFRONT\": 123}","source":21,"target":20,"layer":"L","from":"Braid Station @ Platform 2","to":"Sapperton Station @ Platform 2"},"geometry":{"type":"LineString","coordinates":[[-122.882718,49.233236],[-122.889311,49.224621]]}},{"type":"Feature","properties":{"shape_id":"{\"272166\": 124, \"272169\": 7, \"272158\": 1, \"272159\": 9, \"272161\": 181}","direction_id":"{\"0\": 131, \"1\": 191}","headsign":"{\"EXPO LINE TO PRODUCTION WAY-UNIVERSITY\": 131, \"MILLENNIUM LINE TO VCC-CLARK\": 191}","duration_avg":142.09384117341432,"n_vehicles":322,"d":1642,"route_I_counts":"{\"4\": 131, \"5\": 191}","source":22,"target":23,"layer":"L","from":"Lougheed Town Centre Station @ Platform 2","to":"Production Way-University Station @ Platform 1"},"geometry":{"type":"LineString","coordinates":[[-122.896879,49.248549],[-122.918191,49.253465]]}},{"type":"Feature","properties":{"duration_avg":189.10994764397907,"n_vehicles":191,"d":1526,"route_I_counts":"{\"5\": 191}","shape_id":"{\"272153\": 6, \"272155\": 185}","direction_id":"{\"0\": 191}","headsign":"{\"MILLENNIUM LINE TO LAFARGE LAKE-DOUGLAS\": 191}","source":22,"target":32,"layer":"L","from":"Lougheed Town Centre Station @ Platform 2","to":"Burquitlam Station @ Platform 2"},"geometry":{"type":"LineString","coordinates":[[-122.896879,49.248549],[-122.889784,49.261375]]}},{"type":"Feature","properties":{"duration_avg":210.46875,"n_vehicles":128,"d":1983,"route_I_counts":"{\"4\": 128}","shape_id":"{\"272180\": 122, \"272184\": 6}","direction_id":"{\"1\": 128}","headsign":"{\"EXPO LINE TO NEW WESTMINSTER\": 6, \"EXPO LINE TO WATERFRONT\": 122}","source":22,"target":21,"layer":"L","from":"Lougheed Town Centre Station @ Platform 2","to":"Braid Station @ Platform 2"},"geometry":{"type":"LineString","coordinates":[[-122.896879,49.248549],[-122.882718,49.233236]]}},{"type":"Feature","properties":{"duration_avg":146.9158878504673,"n_vehicles":321,"d":1637,"route_I_counts":"{\"4\": 129, \"5\": 192}","shape_id":"{\"272153\": 6, \"272155\": 185, \"272156\": 1, \"272180\": 123, \"272184\": 6}","direction_id":"{\"0\": 192, \"1\": 129}","headsign":"{\"EXPO LINE TO NEW WESTMINSTER\": 6, \"EXPO LINE TO WATERFRONT\": 123, \"MILLENNIUM LINE TO LAFARGE LAKE-DOUGLAS\": 191, \"MILLENNIUM LINE TO LOUGHEED TOWN CENTRE\": 1}","source":23,"target":22,"layer":"L","from":"Production Way-University Station @ Platform 1","to":"Lougheed Town Centre Station @ Platform 2"},"geometry":{"type":"LineString","coordinates":[[-122.918191,49.253465],[-122.896879,49.248549]]}},{"type":"Feature","properties":{"duration_avg":120.0,"n_vehicles":192,"d":1530,"route_I_counts":"{\"5\": 192}","shape_id":"{\"272158\": 1, \"272159\": 9, \"272161\": 182}","direction_id":"{\"1\": 192}","headsign":"{\"MILLENNIUM LINE TO VCC-CLARK\": 192}","source":23,"target":31,"layer":"L","from":"Production Way-University Station @ Platform 1","to":"Lake City Way Station @ Platform 2"},"geometry":{"type":"LineString","coordinates":[[-122.918191,49.253465],[-122.939183,49.254609]]}},{"type":"Feature","properties":{"duration_avg":105.0,"n_vehicles":188,"d":831,"route_I_counts":"{\"5\": 188}","shape_id":"{\"272155\": 187, \"272156\": 1}","direction_id":"{\"0\": 188}","headsign":"{\"MILLENNIUM LINE TO LAFARGE LAKE-DOUGLAS\": 187, \"MILLENNIUM LINE TO LOUGHEED TOWN CENTRE\": 1}","source":24,"target":5,"layer":"L","from":"VCC-Clark Station @ Platform 2","to":"Commercial-Broadway Station @ Platform 4"},"geometry":{"type":"LineString","coordinates":[[-123.079054,49.265799],[-123.069179,49.262317]]}},{"type":"Feature","properties":{"shape_id":"{\"272155\": 187, \"272156\": 1}","direction_id":"{\"0\": 188}","headsign":"{\"MILLENNIUM LINE TO LAFARGE LAKE-DOUGLAS\": 187, \"MILLENNIUM LINE TO LOUGHEED TOWN CENTRE\": 1}","duration_avg":89.36170212765957,"n_vehicles":188,"d":933,"route_I_counts":"{\"5\": 188}","source":25,"target":26,"layer":"L","from":"Renfrew Station @ Platform 2","to":"Rupert Station @ Platform 2"},"geometry":{"type":"LineString","coordinates":[[-123.045348,49.258877],[-123.032821,49.260733]]}},{"type":"Feature","properties":{"duration_avg":147.93650793650792,"n_vehicles":189,"d":1733,"route_I_counts":"{\"5\": 189}","shape_id":"{\"272158\": 1, \"272159\": 9, \"272161\": 179}","direction_id":"{\"1\": 189}","headsign":"{\"MILLENNIUM LINE TO VCC-CLARK\": 189}","source":25,"target":5,"layer":"L","from":"Renfrew Station @ Platform 2","to":"Commercial-Broadway Station @ Platform 4"},"geometry":{"type":"LineString","coordinates":[[-123.045348,49.258877],[-123.069179,49.262317]]}},{"type":"Feature","properties":{"shape_id":"{\"272155\": 186, \"272156\": 1}","direction_id":"{\"0\": 187}","headsign":"{\"MILLENNIUM LINE TO LAFARGE LAKE-DOUGLAS\": 186, \"MILLENNIUM LINE TO LOUGHEED TOWN CENTRE\": 1}","duration_avg":132.8342245989305,"n_vehicles":187,"d":1479,"route_I_counts":"{\"5\": 187}","source":26,"target":27,"layer":"L","from":"Rupert Station @ Platform 2","to":"Gilmore Station @ Platform 2"},"geometry":{"type":"LineString","coordinates":[[-123.032821,49.260733],[-123.013498,49.264931]]}},{"type":"Feature","properties":{"duration_avg":92.21052631578948,"n_vehicles":190,"d":932,"route_I_counts":"{\"5\": 190}","shape_id":"{\"272158\": 1, \"272159\": 9, \"272161\": 180}","direction_id":"{\"1\": 190}","headsign":"{\"MILLENNIUM LINE TO VCC-CLARK\": 190}","source":26,"target":25,"layer":"L","from":"Rupert Station @ Platform 2","to":"Renfrew Station @ Platform 2"},"geometry":{"type":"LineString","coordinates":[[-123.032821,49.260733],[-123.045348,49.258877]]}},{"type":"Feature","properties":{"shape_id":"{\"272155\": 186, \"272156\": 1}","direction_id":"{\"0\": 187}","headsign":"{\"MILLENNIUM LINE TO LAFARGE LAKE-DOUGLAS\": 186, \"MILLENNIUM LINE TO LOUGHEED TOWN CENTRE\": 1}","duration_avg":94.33155080213903,"n_vehicles":187,"d":863,"route_I_counts":"{\"5\": 187}","source":27,"target":28,"layer":"L","from":"Gilmore Station @ Platform 2","to":"Brentwood Town Centre Station @ Platform 2"},"geometry":{"type":"LineString","coordinates":[[-123.013498,49.264931],[-123.001813,49.266352]]}},{"type":"Feature","properties":{"duration_avg":140.31746031746033,"n_vehicles":189,"d":1477,"route_I_counts":"{\"5\": 189}","shape_id":"{\"272158\": 1, \"272159\": 9, \"272161\": 179}","direction_id":"{\"1\": 189}","headsign":"{\"MILLENNIUM LINE TO VCC-CLARK\": 189}","source":27,"target":26,"layer":"L","from":"Gilmore Station @ Platform 2","to":"Rupert Station @ Platform 2"},"geometry":{"type":"LineString","coordinates":[[-123.013498,49.264931],[-123.032821,49.260733]]}},{"type":"Feature","properties":{"shape_id":"{\"272155\": 186, \"272156\": 1}","direction_id":"{\"0\": 187}","headsign":"{\"MILLENNIUM LINE TO LAFARGE LAKE-DOUGLAS\": 186, \"MILLENNIUM LINE TO LOUGHEED TOWN CENTRE\": 1}","duration_avg":132.5133689839572,"n_vehicles":187,"d":1439,"route_I_counts":"{\"5\": 187}","source":28,"target":29,"layer":"L","from":"Brentwood Town Centre Station @ Platform 2","to":"Holdom Station @ Platform 2"},"geometry":{"type":"LineString","coordinates":[[-123.001813,49.266352],[-122.982158,49.264705]]}},{"type":"Feature","properties":{"duration_avg":95.05263157894737,"n_vehicles":190,"d":868,"route_I_counts":"{\"5\": 190}","shape_id":"{\"272158\": 1, \"272159\": 9, \"272161\": 180}","direction_id":"{\"1\": 190}","headsign":"{\"MILLENNIUM LINE TO VCC-CLARK\": 190}","source":28,"target":27,"layer":"L","from":"Brentwood Town Centre Station @ Platform 2","to":"Gilmore Station @ Platform 2"},"geometry":{"type":"LineString","coordinates":[[-123.001813,49.266352],[-123.013498,49.264931]]}},{"type":"Feature","properties":{"shape_id":"{\"272155\": 186, \"272156\": 1}","direction_id":"{\"0\": 187}","headsign":"{\"MILLENNIUM LINE TO LAFARGE LAKE-DOUGLAS\": 186, \"MILLENNIUM LINE TO LOUGHEED TOWN CENTRE\": 1}","duration_avg":127.70053475935829,"n_vehicles":187,"d":1457,"route_I_counts":"{\"5\": 187}","source":29,"target":30,"layer":"L","from":"Holdom Station @ Platform 2","to":"Sperling-Burnaby Lake Station @ Platform 2"},"geometry":{"type":"LineString","coordinates":[[-122.982158,49.264705],[-122.963991,49.259154]]}},{"type":"Feature","properties":{"duration_avg":122.5130890052356,"n_vehicles":191,"d":1440,"route_I_counts":"{\"5\": 191}","shape_id":"{\"272158\": 1, \"272159\": 9, \"272161\": 181}","direction_id":"{\"1\": 191}","headsign":"{\"MILLENNIUM LINE TO VCC-CLARK\": 191}","source":29,"target":28,"layer":"L","from":"Holdom Station @ Platform 2","to":"Brentwood Town Centre Station @ Platform 2"},"geometry":{"type":"LineString","coordinates":[[-122.982158,49.264705],[-123.001813,49.266352]]}},{"type":"Feature","properties":{"shape_id":"{\"272155\": 185, \"272156\": 1}","direction_id":"{\"0\": 186}","headsign":"{\"MILLENNIUM LINE TO LAFARGE LAKE-DOUGLAS\": 185, \"MILLENNIUM LINE TO LOUGHEED TOWN CENTRE\": 1}","duration_avg":130.0,"n_vehicles":186,"d":1872,"route_I_counts":"{\"5\": 186}","source":30,"target":31,"layer":"L","from":"Sperling-Burnaby Lake Station @ Platform 2","to":"Lake City Way Station @ Platform 2"},"geometry":{"type":"LineString","coordinates":[[-122.963991,49.259154],[-122.939183,49.254609]]}},{"type":"Feature","properties":{"duration_avg":125.6842105263158,"n_vehicles":190,"d":1456,"route_I_counts":"{\"5\": 190}","shape_id":"{\"272158\": 1, \"272159\": 9, \"272161\": 180}","direction_id":"{\"1\": 190}","headsign":"{\"MILLENNIUM LINE TO VCC-CLARK\": 190}","source":30,"target":29,"layer":"L","from":"Sperling-Burnaby Lake Station @ Platform 2","to":"Holdom Station @ Platform 2"},"geometry":{"type":"LineString","coordinates":[[-122.963991,49.259154],[-122.982158,49.264705]]}},{"type":"Feature","properties":{"duration_avg":155.16129032258064,"n_vehicles":186,"d":1529,"route_I_counts":"{\"5\": 186}","shape_id":"{\"272155\": 185, \"272156\": 1}","direction_id":"{\"0\": 186}","headsign":"{\"MILLENNIUM LINE TO LAFARGE LAKE-DOUGLAS\": 185, \"MILLENNIUM LINE TO LOUGHEED TOWN CENTRE\": 1}","source":31,"target":23,"layer":"L","from":"Lake City Way Station @ Platform 2","to":"Production Way-University Station @ Platform 1"},"geometry":{"type":"LineString","coordinates":[[-122.939183,49.254609],[-122.918191,49.253465]]}},{"type":"Feature","properties":{"duration_avg":141.9895287958115,"n_vehicles":191,"d":1871,"route_I_counts":"{\"5\": 191}","shape_id":"{\"272158\": 1, \"272159\": 9, \"272161\": 181}","direction_id":"{\"1\": 191}","headsign":"{\"MILLENNIUM LINE TO VCC-CLARK\": 191}","source":31,"target":30,"layer":"L","from":"Lake City Way Station @ Platform 2","to":"Sperling-Burnaby Lake Station @ Platform 2"},"geometry":{"type":"LineString","coordinates":[[-122.939183,49.254609],[-122.963991,49.259154]]}},{"type":"Feature","properties":{"shape_id":"{\"272153\": 6, \"272155\": 183}","direction_id":"{\"0\": 189}","headsign":"{\"MILLENNIUM LINE TO LAFARGE LAKE-DOUGLAS\": 189}","duration_avg":267.3015873015873,"n_vehicles":189,"d":3700,"route_I_counts":"{\"5\": 189}","source":32,"target":33,"layer":"L","from":"Burquitlam Station @ Platform 2","to":"Moody Centre Station @ Platform 2"},"geometry":{"type":"LineString","coordinates":[[-122.889784,49.261375],[-122.845608,49.277941]]}},{"type":"Feature","properties":{"duration_avg":173.53846153846155,"n_vehicles":195,"d":1513,"route_I_counts":"{\"5\": 195}","shape_id":"{\"272159\": 9, \"272160\": 4, \"272161\": 182}","direction_id":"{\"1\": 195}","headsign":"{\"MILLENNIUM LINE TO LOUGHEED TOWN CENTRE\": 4, \"MILLENNIUM LINE TO VCC-CLARK\": 191}","source":32,"target":22,"layer":"L","from":"Burquitlam Station @ Platform 2","to":"Lougheed Town Centre Station @ Platform 2"},"geometry":{"type":"LineString","coordinates":[[-122.889784,49.261375],[-122.896879,49.248549]]}},{"type":"Feature","properties":{"shape_id":"{\"272153\": 6, \"272155\": 184}","direction_id":"{\"0\": 190}","headsign":"{\"MILLENNIUM LINE TO LAFARGE LAKE-DOUGLAS\": 190}","duration_avg":114.63157894736842,"n_vehicles":190,"d":1268,"route_I_counts":"{\"5\": 190}","source":33,"target":34,"layer":"L","from":"Moody Centre Station @ Platform 2","to":"Inlet Centre Station @ Platform 2"},"geometry":{"type":"LineString","coordinates":[[-122.845608,49.277941],[-122.828183,49.277118]]}},{"type":"Feature","properties":{"duration_avg":272.9230769230769,"n_vehicles":195,"d":3704,"route_I_counts":"{\"5\": 195}","shape_id":"{\"272159\": 9, \"272160\": 4, \"272161\": 182}","direction_id":"{\"1\": 195}","headsign":"{\"MILLENNIUM LINE TO LOUGHEED TOWN CENTRE\": 4, \"MILLENNIUM LINE TO VCC-CLARK\": 191}","source":33,"target":32,"layer":"L","from":"Moody Centre Station @ Platform 2","to":"Burquitlam Station @ Platform 2"},"geometry":{"type":"LineString","coordinates":[[-122.845608,49.277941],[-122.889784,49.261375]]}},{"type":"Feature","properties":{"shape_id":"{\"272153\": 6, \"272155\": 183}","direction_id":"{\"0\": 189}","headsign":"{\"MILLENNIUM LINE TO LAFARGE LAKE-DOUGLAS\": 189}","duration_avg":182.85714285714286,"n_vehicles":189,"d":2017,"route_I_counts":"{\"5\": 189}","source":34,"target":35,"layer":"L","from":"Inlet Centre Station @ Platform 2","to":"Coquitlam Central Station @ Platform 2"},"geometry":{"type":"LineString","coordinates":[[-122.828183,49.277118],[-122.800643,49.274738]]}},{"type":"Feature","properties":{"duration_avg":119.6938775510204,"n_vehicles":196,"d":1269,"route_I_counts":"{\"5\": 196}","shape_id":"{\"272159\": 9, \"272160\": 4, \"272161\": 183}","direction_id":"{\"1\": 196}","headsign":"{\"MILLENNIUM LINE TO LOUGHEED TOWN CENTRE\": 4, \"MILLENNIUM LINE TO VCC-CLARK\": 192}","source":34,"target":33,"layer":"L","from":"Inlet Centre Station @ Platform 2","to":"Moody Centre Station @ Platform 2"},"geometry":{"type":"LineString","coordinates":[[-122.828183,49.277118],[-122.845608,49.277941]]}},{"type":"Feature","properties":{"shape_id":"{\"272153\": 6, \"272154\": 15, \"272155\": 183}","direction_id":"{\"0\": 204}","headsign":"{\"MILLENNIUM LINE TO LAFARGE LAKE-DOUGLAS\": 204}","duration_avg":102.6470588235294,"n_vehicles":204,"d":803,"route_I_counts":"{\"5\": 204}","source":35,"target":36,"layer":"L","from":"Coquitlam Central Station @ Platform 2","to":"Lincoln Station @ Platform 2"},"geometry":{"type":"LineString","coordinates":[[-122.800643,49.274738],[-122.793805,49.28041]]}},{"type":"Feature","properties":{"duration_avg":151.12299465240642,"n_vehicles":187,"d":2022,"route_I_counts":"{\"5\": 187}","shape_id":"{\"272160\": 4, \"272161\": 183}","direction_id":"{\"1\": 187}","headsign":"{\"MILLENNIUM LINE TO LOUGHEED TOWN CENTRE\": 4, \"MILLENNIUM LINE TO VCC-CLARK\": 183}","source":35,"target":34,"layer":"L","from":"Coquitlam Central Station @ Platform 2","to":"Inlet Centre Station @ Platform 2"},"geometry":{"type":"LineString","coordinates":[[-122.800643,49.274738],[-122.828183,49.277118]]}},{"type":"Feature","properties":{"shape_id":"{\"272153\": 6, \"272154\": 15, \"272155\": 183}","direction_id":"{\"0\": 204}","headsign":"{\"MILLENNIUM LINE TO LAFARGE LAKE-DOUGLAS\": 204}","duration_avg":60.0,"n_vehicles":204,"d":612,"route_I_counts":"{\"5\": 204}","source":36,"target":37,"layer":"L","from":"Lincoln Station @ Platform 2","to":"Lafarge Lake-Douglas Station @ Platform 2"},"geometry":{"type":"LineString","coordinates":[[-122.793805,49.28041],[-122.791435,49.285693]]}},{"type":"Feature","properties":{"duration_avg":115.85106382978724,"n_vehicles":188,"d":770,"route_I_counts":"{\"5\": 188}","shape_id":"{\"272160\": 4, \"272161\": 184}","direction_id":"{\"1\": 188}","headsign":"{\"MILLENNIUM LINE TO LOUGHEED TOWN CENTRE\": 4, \"MILLENNIUM LINE TO VCC-CLARK\": 184}","source":36,"target":35,"layer":"L","from":"Lincoln Station @ Platform 2","to":"Coquitlam Central Station @ Platform 2"},"geometry":{"type":"LineString","coordinates":[[-122.793805,49.28041],[-122.800643,49.274738]]}},{"type":"Feature","properties":{"duration_avg":82.34042553191489,"n_vehicles":188,"d":619,"route_I_counts":"{\"5\": 188}","shape_id":"{\"272160\": 4, \"272161\": 184}","direction_id":"{\"1\": 188}","headsign":"{\"MILLENNIUM LINE TO LOUGHEED TOWN CENTRE\": 4, \"MILLENNIUM LINE TO VCC-CLARK\": 184}","source":37,"target":36,"layer":"L","from":"Lafarge Lake-Douglas Station @ Platform 2","to":"Lincoln Station @ Platform 2"},"geometry":{"type":"LineString","coordinates":[[-122.791435,49.285693],[-122.793805,49.28041]]}},{"type":"Feature","properties":{"shape_id":"{\"272145\": 102, \"272147\": 2}","direction_id":"{\"0\": 104}","headsign":"{\"CANADA LINE TO BRIDGEPORT\": 2, \"CANADA LINE TO WATERFRONT\": 102}","duration_avg":111.92307692307692,"n_vehicles":104,"d":743,"route_I_counts":"{\"51\": 104}","source":38,"target":39,"layer":"L","from":"Richmond-Brighouse Station @ Platform 1","to":"Landsdowne Station @ Platform 1"},"geometry":{"type":"LineString","coordinates":[[-123.136174,49.168092],[-123.136322,49.174766]]}},{"type":"Feature","properties":{"shape_id":"{\"272145\": 102, \"272147\": 2}","direction_id":"{\"0\": 104}","headsign":"{\"CANADA LINE TO BRIDGEPORT\": 2, \"CANADA LINE TO WATERFRONT\": 102}","duration_avg":120.0,"n_vehicles":104,"d":1026,"route_I_counts":"{\"51\": 104}","source":39,"target":40,"layer":"L","from":"Landsdowne Station @ Platform 1","to":"Aberdeen Station @ Platform 1"},"geometry":{"type":"LineString","coordinates":[[-123.136322,49.174766],[-123.13622,49.183991]]}},{"type":"Feature","properties":{"duration_avg":88.30188679245283,"n_vehicles":106,"d":742,"route_I_counts":"{\"51\": 106}","shape_id":"{\"272150\": 103, \"272152\": 3}","direction_id":"{\"1\": 106}","headsign":"{\"CANADA LINE TO RICHMOND-BRIGHOUSE\": 106}","source":39,"target":38,"layer":"L","from":"Landsdowne Station @ Platform 1","to":"Richmond-Brighouse Station @ Platform 1"},"geometry":{"type":"LineString","coordinates":[[-123.136322,49.174766],[-123.136174,49.168092]]}},{"type":"Feature","properties":{"shape_id":"{\"272145\": 101, \"272147\": 2}","direction_id":"{\"0\": 103}","headsign":"{\"CANADA LINE TO BRIDGEPORT\": 2, \"CANADA LINE TO WATERFRONT\": 101}","duration_avg":158.44660194174756,"n_vehicles":103,"d":1482,"route_I_counts":"{\"51\": 103}","source":40,"target":41,"layer":"L","from":"Aberdeen Station @ Platform 1","to":"Bridgeport Station @ Platform 1"},"geometry":{"type":"LineString","coordinates":[[-123.13622,49.183991],[-123.126006,49.195514]]}},{"type":"Feature","properties":{"duration_avg":120.0,"n_vehicles":106,"d":1028,"route_I_counts":"{\"51\": 106}","shape_id":"{\"272150\": 103, \"272152\": 3}","direction_id":"{\"1\": 106}","headsign":"{\"CANADA LINE TO RICHMOND-BRIGHOUSE\": 106}","source":40,"target":39,"layer":"L","from":"Aberdeen Station @ Platform 1","to":"Landsdowne Station @ Platform 1"},"geometry":{"type":"LineString","coordinates":[[-123.13622,49.183991],[-123.136322,49.174766]]}},{"type":"Feature","properties":{"shape_id":"{\"272144\": 101, \"272145\": 102, \"272148\": 2}","direction_id":"{\"0\": 205}","headsign":"{\"CANADA LINE TO WATERFRONT\": 205}","duration_avg":154.53658536585365,"n_vehicles":205,"d":1708,"route_I_counts":"{\"51\": 205}","source":41,"target":42,"layer":"L","from":"Bridgeport Station @ Platform 1","to":"Marine Drive Station @ Platform 1"},"geometry":{"type":"LineString","coordinates":[[-123.126006,49.195514],[-123.116921,49.209663]]}},{"type":"Feature","properties":{"duration_avg":165.55555555555554,"n_vehicles":108,"d":1479,"route_I_counts":"{\"51\": 108}","shape_id":"{\"272149\": 106, \"272151\": 2}","direction_id":"{\"1\": 108}","headsign":"{\"CANADA LINE TO YVR-AIRPORT\": 108}","source":41,"target":49,"layer":"L","from":"Bridgeport Station @ Platform 1","to":"Templeton Station @ Platform 2"},"geometry":{"type":"LineString","coordinates":[[-123.126006,49.195514],[-123.146335,49.196715]]}},{"type":"Feature","properties":{"duration_avg":163.42857142857142,"n_vehicles":105,"d":1489,"route_I_counts":"{\"51\": 105}","shape_id":"{\"272150\": 102, \"272152\": 3}","direction_id":"{\"1\": 105}","headsign":"{\"CANADA LINE TO RICHMOND-BRIGHOUSE\": 105}","source":41,"target":40,"layer":"L","from":"Bridgeport Station @ Platform 1","to":"Aberdeen Station @ Platform 1"},"geometry":{"type":"LineString","coordinates":[[-123.126006,49.195514],[-123.13622,49.183991]]}},{"type":"Feature","properties":{"shape_id":"{\"272144\": 102, \"272145\": 102, \"272148\": 2}","direction_id":"{\"0\": 206}","headsign":"{\"CANADA LINE TO WATERFRONT\": 206}","duration_avg":153.49514563106797,"n_vehicles":206,"d":1786,"route_I_counts":"{\"51\": 206}","source":42,"target":43,"layer":"L","from":"Marine Drive Station @ Platform 1","to":"Langara-49th Avenue Station @ Platform 1"},"geometry":{"type":"LineString","coordinates":[[-123.116921,49.209663],[-123.116289,49.225709]]}},{"type":"Feature","properties":{"duration_avg":162.20095693779905,"n_vehicles":209,"d":1700,"route_I_counts":"{\"51\": 209}","shape_id":"{\"272149\": 106, \"272150\": 103}","direction_id":"{\"1\": 209}","headsign":"{\"CANADA LINE TO RICHMOND-BRIGHOUSE\": 103, \"CANADA LINE TO YVR-AIRPORT\": 106}","source":42,"target":41,"layer":"L","from":"Marine Drive Station @ Platform 1","to":"Bridgeport Station @ Platform 1"},"geometry":{"type":"LineString","coordinates":[[-123.116921,49.209663],[-123.126006,49.195514]]}},{"type":"Feature","properties":{"shape_id":"{\"272144\": 102, \"272145\": 101, \"272148\": 2}","direction_id":"{\"0\": 205}","headsign":"{\"CANADA LINE TO WATERFRONT\": 205}","duration_avg":80.78048780487805,"n_vehicles":205,"d":893,"route_I_counts":"{\"51\": 205}","source":43,"target":44,"layer":"L","from":"Langara-49th Avenue Station @ Platform 1","to":"Oakridge-41st Avenue Station @ Platform 1"},"geometry":{"type":"LineString","coordinates":[[-123.116289,49.225709],[-123.116176,49.233731]]}},{"type":"Feature","properties":{"duration_avg":155.48076923076923,"n_vehicles":208,"d":1790,"route_I_counts":"{\"51\": 208}","shape_id":"{\"272149\": 105, \"272150\": 103}","direction_id":"{\"1\": 208}","headsign":"{\"CANADA LINE TO RICHMOND-BRIGHOUSE\": 103, \"CANADA LINE TO YVR-AIRPORT\": 105}","source":43,"target":42,"layer":"L","from":"Langara-49th Avenue Station @ Platform 1","to":"Marine Drive Station @ Platform 1"},"geometry":{"type":"LineString","coordinates":[[-123.116289,49.225709],[-123.116921,49.209663]]}},{"type":"Feature","properties":{"shape_id":"{\"272144\": 101, \"272145\": 102, \"272148\": 2}","direction_id":"{\"0\": 205}","headsign":"{\"CANADA LINE TO WATERFRONT\": 205}","duration_avg":194.0487804878049,"n_vehicles":205,"d":1720,"route_I_counts":"{\"51\": 205}","source":44,"target":45,"layer":"L","from":"Oakridge-41st Avenue Station @ Platform 1","to":"King Edward Station @ Platform 1"},"geometry":{"type":"LineString","coordinates":[[-123.116176,49.233731],[-123.115228,49.249172]]}},{"type":"Feature","properties":{"duration_avg":96.0576923076923,"n_vehicles":208,"d":891,"route_I_counts":"{\"51\": 208}","shape_id":"{\"272149\": 106, \"272150\": 102}","direction_id":"{\"1\": 208}","headsign":"{\"CANADA LINE TO RICHMOND-BRIGHOUSE\": 102, \"CANADA LINE TO YVR-AIRPORT\": 106}","source":44,"target":43,"layer":"L","from":"Oakridge-41st Avenue Station @ Platform 1","to":"Langara-49th Avenue Station @ Platform 1"},"geometry":{"type":"LineString","coordinates":[[-123.116176,49.233731],[-123.116289,49.225709]]}},{"type":"Feature","properties":{"shape_id":"{\"272144\": 102, \"272145\": 102, \"272148\": 2}","direction_id":"{\"0\": 206}","headsign":"{\"CANADA LINE TO WATERFRONT\": 206}","duration_avg":153.49514563106797,"n_vehicles":206,"d":1509,"route_I_counts":"{\"51\": 206}","source":45,"target":46,"layer":"L","from":"King Edward Station @ Platform 1","to":"Broadway-City Hall Station @ Platform 1"},"geometry":{"type":"LineString","coordinates":[[-123.115228,49.249172],[-123.114753,49.262725]]}},{"type":"Feature","properties":{"duration_avg":188.07692307692307,"n_vehicles":208,"d":1719,"route_I_counts":"{\"51\": 208}","shape_id":"{\"272149\": 105, \"272150\": 103}","direction_id":"{\"1\": 208}","headsign":"{\"CANADA LINE TO RICHMOND-BRIGHOUSE\": 103, \"CANADA LINE TO YVR-AIRPORT\": 105}","source":45,"target":44,"layer":"L","from":"King Edward Station @ Platform 1","to":"Oakridge-41st Avenue Station @ Platform 1"},"geometry":{"type":"LineString","coordinates":[[-123.115228,49.249172],[-123.116176,49.233731]]}},{"type":"Feature","properties":{"shape_id":"{\"272144\": 102, \"272145\": 101, \"272148\": 2}","direction_id":"{\"0\": 205}","headsign":"{\"CANADA LINE TO WATERFRONT\": 205}","duration_avg":78.14634146341463,"n_vehicles":205,"d":430,"route_I_counts":"{\"51\": 205}","source":46,"target":47,"layer":"L","from":"Broadway-City Hall Station @ Platform 1","to":"Olympic Village Station @ Platform 1"},"geometry":{"type":"LineString","coordinates":[[-123.114753,49.262725],[-123.115527,49.266557]]}},{"type":"Feature","properties":{"duration_avg":123.15789473684211,"n_vehicles":209,"d":1503,"route_I_counts":"{\"51\": 209}","shape_id":"{\"272149\": 106, \"272150\": 103}","direction_id":"{\"1\": 209}","headsign":"{\"CANADA LINE TO RICHMOND-BRIGHOUSE\": 103, \"CANADA LINE TO YVR-AIRPORT\": 106}","source":46,"target":45,"layer":"L","from":"Broadway-City Hall Station @ Platform 1","to":"King Edward Station @ Platform 1"},"geometry":{"type":"LineString","coordinates":[[-123.114753,49.262725],[-123.115228,49.249172]]}},{"type":"Feature","properties":{"shape_id":"{\"272144\": 102, \"272145\": 102, \"272148\": 2}","direction_id":"{\"0\": 206}","headsign":"{\"CANADA LINE TO WATERFRONT\": 206}","duration_avg":120.0,"n_vehicles":206,"d":1002,"route_I_counts":"{\"51\": 206}","source":47,"target":48,"layer":"L","from":"Olympic Village Station @ Platform 1","to":"Yaletown-Roundhouse Station @ Platform 1"},"geometry":{"type":"LineString","coordinates":[[-123.115527,49.266557],[-123.122015,49.274508]]}},{"type":"Feature","properties":{"duration_avg":90.86538461538461,"n_vehicles":208,"d":438,"route_I_counts":"{\"51\": 208}","shape_id":"{\"272149\": 106, \"272150\": 102}","direction_id":"{\"1\": 208}","headsign":"{\"CANADA LINE TO RICHMOND-BRIGHOUSE\": 102, \"CANADA LINE TO YVR-AIRPORT\": 106}","source":47,"target":46,"layer":"L","from":"Olympic Village Station @ Platform 1","to":"Broadway-City Hall Station @ Platform 1"},"geometry":{"type":"LineString","coordinates":[[-123.115527,49.266557],[-123.114753,49.262725]]}},{"type":"Feature","properties":{"duration_avg":88.99521531100478,"n_vehicles":209,"d":1007,"route_I_counts":"{\"51\": 209}","shape_id":"{\"272149\": 106, \"272150\": 103}","direction_id":"{\"1\": 209}","headsign":"{\"CANADA LINE TO RICHMOND-BRIGHOUSE\": 103, \"CANADA LINE TO YVR-AIRPORT\": 106}","source":48,"target":47,"layer":"L","from":"Yaletown-Roundhouse Station @ Platform 1","to":"Olympic Village Station @ Platform 1"},"geometry":{"type":"LineString","coordinates":[[-123.122015,49.274508],[-123.115527,49.266557]]}},{"type":"Feature","properties":{"duration_avg":128.1951219512195,"n_vehicles":205,"d":917,"route_I_counts":"{\"51\": 205}","shape_id":"{\"272144\": 101, \"272145\": 102, \"272148\": 2}","direction_id":"{\"0\": 205}","headsign":"{\"CANADA LINE TO WATERFRONT\": 205}","source":48,"target":2,"layer":"L","from":"Yaletown-Roundhouse Station @ Platform 1","to":"Granville Station @ Platform 2"},"geometry":{"type":"LineString","coordinates":[[-123.122015,49.274508],[-123.115744,49.283136]]}},{"type":"Feature","properties":{"shape_id":"{\"272149\": 105, \"272151\": 2}","direction_id":"{\"1\": 107}","headsign":"{\"CANADA LINE TO YVR-AIRPORT\": 107}","duration_avg":111.02803738317758,"n_vehicles":107,"d":931,"route_I_counts":"{\"51\": 107}","source":49,"target":50,"layer":"L","from":"Templeton Station @ Platform 2","to":"Sea Island Centre Station @ Platform 2"},"geometry":{"type":"LineString","coordinates":[[-123.146335,49.196715],[-123.157851,49.193053]]}},{"type":"Feature","properties":{"duration_avg":166.15384615384616,"n_vehicles":104,"d":1482,"route_I_counts":"{\"51\": 104}","shape_id":"{\"272144\": 102, \"272146\": 2}","direction_id":"{\"0\": 104}","headsign":"{\"CANADA LINE TO BRIDGEPORT\": 2, \"CANADA LINE TO WATERFRONT\": 102}","source":49,"target":41,"layer":"L","from":"Templeton Station @ Platform 2","to":"Bridgeport Station @ Platform 1"},"geometry":{"type":"LineString","coordinates":[[-123.146335,49.196715],[-123.126006,49.195514]]}},{"type":"Feature","properties":{"shape_id":"{\"272149\": 106, \"272151\": 2}","direction_id":"{\"1\": 108}","headsign":"{\"CANADA LINE TO YVR-AIRPORT\": 108}","duration_avg":143.88888888888889,"n_vehicles":108,"d":1489,"route_I_counts":"{\"51\": 108}","source":50,"target":51,"layer":"L","from":"Sea Island Centre Station @ Platform 2","to":"YVR-Airport Station @ Canada Line"},"geometry":{"type":"LineString","coordinates":[[-123.157851,49.193053],[-123.178251,49.194189]]}},{"type":"Feature","properties":{"duration_avg":111.2621359223301,"n_vehicles":103,"d":938,"route_I_counts":"{\"51\": 103}","shape_id":"{\"272144\": 101, \"272146\": 2}","direction_id":"{\"0\": 103}","headsign":"{\"CANADA LINE TO BRIDGEPORT\": 2, \"CANADA LINE TO WATERFRONT\": 101}","source":50,"target":49,"layer":"L","from":"Sea Island Centre Station @ Platform 2","to":"Templeton Station @ Platform 2"},"geometry":{"type":"LineString","coordinates":[[-123.157851,49.193053],[-123.146335,49.196715]]}},{"type":"Feature","properties":{"duration_avg":120.0,"n_vehicles":104,"d":1488,"route_I_counts":"{\"51\": 104}","shape_id":"{\"272144\": 102, \"272146\": 2}","direction_id":"{\"0\": 104}","headsign":"{\"CANADA LINE TO BRIDGEPORT\": 2, \"CANADA LINE TO WATERFRONT\": 102}","source":51,"target":50,"layer":"L","from":"YVR-Airport Station @ Canada Line","to":"Sea Island Centre Station @ Platform 2"},"geometry":{"type":"LineString","coordinates":[[-123.178251,49.194189],[-123.157851,49.193053]]}}]}