{"type":"FeatureCollection","features":[{"type":"Feature","geometry":{"type":"Point","coordinates":[21.065174,52.131983]},"properties":{"name":"Kabaty","original_ids":"[6763]","id":0,"layer":"stop"}},{"type":"Feature","geometry":{"type":"Point","coordinates":[21.05651,52.141008]},"properties":{"name":"Natolin","original_ids":"[6773]","id":1,"layer":"stop"}},{"type":"Feature","geometry":{"type":"Point","coordinates":[21.046366,52.149136]},"properties":{"name":"Imielin","original_ids":"[6783]","id":2,"layer":"stop"}},{"type":"Feature","geometry":{"type":"Point","coordinates":[21.034865,52.155966]},"properties":{"name":"Stokłosy","original_ids":"[6791]","id":3,"layer":"stop"}},{"type":"Feature","geometry":{"type":"Point","coordinates":[21.027693,52.161827]},"properties":{"name":"Ursynów","original_ids":"[6800]","id":4,"layer":"stop"}},{"type":"Feature","geometry":{"type":"Point","coordinates":[21.026298,52.17253]},"properties":{"name":"Służew","original_ids":"[6806]","id":5,"layer":"stop"}},{"type":"Feature","geometry":{"type":"Point","coordinates":[21.022977,52.181869]},"properties":{"name":"Wilanowska","original_ids":"[6814]","id":6,"layer":"stop"}},{"type":"Feature","geometry":{"type":"Point","coordinates":[21.016599,52.189907]},"properties":{"name":"Wierzbno","original_ids":"[6823]","id":7,"layer":"stop"}},{"type":"Feature","geometry":{"type":"Point","coordinates":[21.012211,52.198908]},"properties":{"name":"Racławicka","original_ids":"[6835]","id":8,"layer":"stop"}},{"type":"Feature","geometry":{"type":"Point","coordinates":[21.007807,52.208484]},"properties":{"name":"Pole Mokotowskie","original_ids":"[6845]","id":9,"layer":"stop"}},{"type":"Feature","geometry":{"type":"Point","coordinates":[21.015322,52.218421]},"properties":{"name":"Politechnika","original_ids":"[6859]","id":10,"layer":"stop"}},{"type":"Feature","geometry":{"type":"Point","coordinates":[21.010188,52.231059]},"properties":{"name":"Centrum","original_ids":"[6868]","id":11,"layer":"stop"}},{"type":"Feature","geometry":{"type":"Point","coordinates":[21.007458,52.235836]},"properties":{"name":"Świętokrzyska","original_ids":"[6878, 6879]","id":12,"layer":"stop"}},{"type":"Feature","geometry":{"type":"Point","coordinates":[21.001369,52.244758]},"properties":{"name":"Ratusz Arsenał","original_ids":"[6890]","id":13,"layer":"stop"}},{"type":"Feature","geometry":{"type":"Point","coordinates":[20.994385,52.257832]},"properties":{"name":"Dworzec Gdański","original_ids":"[6900]","id":14,"layer":"stop"}},{"type":"Feature","geometry":{"type":"Point","coordinates":[20.984284,52.269339]},"properties":{"name":"Plac Wilsona","original_ids":"[6912]","id":15,"layer":"stop"}},{"type":"Feature","geometry":{"type":"Point","coordinates":[20.971999,52.271663]},"properties":{"name":"Marymont","original_ids":"[6921]","id":16,"layer":"stop"}},{"type":"Feature","geometry":{"type":"Point","coordinates":[20.960208,52.276787]},"properties":{"name":"Słodowiec","original_ids":"[6932]","id":17,"layer":"stop"}},{"type":"Feature","geometry":{"type":"Point","coordinates":[20.949356,52.281792]},"properties":{"name":"Stare Bielany","original_ids":"[6937]","id":18,"layer":"stop"}},{"type":"Feature","geometry":{"type":"Point","coordinates":[20.939577,52.286318]},"properties":{"name":"Wawrzyszew","original_ids":"[6941]","id":19,"layer":"stop"}},{"type":"Feature","geometry":{"type":"Point","coordinates":[20.929819,52.29079]},"properties":{"name":"Młociny","original_ids":"[6945]","id":20,"layer":"stop"}},{"type":"Feature","geometry":{"type":"Point","coordinates":[20.94411,52.239096]},"properties":{"name":"Księcia Janusza","original_ids":"[6949]","id":21,"layer":"stop"}},{"type":"Feature","geometry":{"type":"Point","coordinates":[20.960475,52.23764]},"properties":{"name":"Młynów","original_ids":"[6960]","id":22,"layer":"stop"}},{"type":"Feature","geometry":{"type":"Point","coordinates":[20.966178,52.2329]},"properties":{"name":"Płocka","original_ids":"[6969]","id":23,"layer":"stop"}},{"type":"Feature","geometry":{"type":"Point","coordinates":[20.982744,52.230014]},"properties":{"name":"Rondo Daszyńskiego","original_ids":"[6979]","id":24,"layer":"stop"}},{"type":"Feature","geometry":{"type":"Point","coordinates":[20.998285,52.233102]},"properties":{"name":"Rondo ONZ","original_ids":"[6988]","id":25,"layer":"stop"}},{"type":"Feature","geometry":{"type":"Point","coordinates":[21.016803,52.236818]},"properties":{"name":"Nowy Świat-Uniwersytet","original_ids":"[7001]","id":26,"layer":"stop"}},{"type":"Feature","geometry":{"type":"Point","coordinates":[21.031448,52.239765]},"properties":{"name":"Centrum Nauki Kopernik","original_ids":"[7008]","id":27,"layer":"stop"}},{"type":"Feature","geometry":{"type":"Point","coordinates":[21.042901,52.246965]},"properties":{"name":"Stadion Narodowy","original_ids":"[7013]","id":28,"layer":"stop"}},{"type":"Feature","geometry":{"type":"Point","coordinates":[21.035401,52.254151]},"properties":{"name":"Dworzec Wileński","original_ids":"[7022]","id":29,"layer":"stop"}},{"type":"Feature","geometry":{"type":"Point","coordinates":[21.045309,52.263458]},"properties":{"name":"Szwedzka","original_ids":"[7037]","id":30,"layer":"stop"}},{"type":"Feature","geometry":{"type":"Point","coordinates":[21.051378,52.269345]},"properties":{"name":"Targówek Mieszkaniowy","original_ids":"[7043]","id":31,"layer":"stop"}},{"type":"Feature","geometry":{"type":"Point","coordinates":[21.055298,52.275266]},"properties":{"name":"Trocka","original_ids":"[7048]","id":32,"layer":"stop"}},{"type":"Feature","properties":{"shape_id":"{\"M1/TP-MLO\": 337}","direction_id":"{\"0\": 337}","headsign":"{\"Młociny\": 337}","duration_avg":120.0,"n_vehicles":337,"d":1166,"route_I_counts":"{\"339\": 337}","source":0,"target":1,"layer":"L","from":"Kabaty","to":"Natolin"},"geometry":{"type":"LineString","coordinates":[[21.065174,52.131983],[21.05651,52.141008]]}},{"type":"Feature","properties":{"shape_id":"{\"M1/TP-MLO\": 337}","direction_id":"{\"0\": 337}","headsign":"{\"Młociny\": 337}","duration_avg":120.0,"n_vehicles":337,"d":1139,"route_I_counts":"{\"339\": 337}","source":1,"target":2,"layer":"L","from":"Natolin","to":"Imielin"},"geometry":{"type":"LineString","coordinates":[[21.05651,52.141008],[21.046366,52.149136]]}},{"type":"Feature","properties":{"shape_id":"{\"M1/TP-KAB\": 339}","direction_id":"{\"1\": 339}","headsign":"{\"Kabaty\": 339}","duration_avg":120.0,"n_vehicles":339,"d":1166,"route_I_counts":"{\"339\": 339}","source":1,"target":0,"layer":"L","from":"Natolin","to":"Kabaty"},"geometry":{"type":"LineString","coordinates":[[21.05651,52.141008],[21.065174,52.131983]]}},{"type":"Feature","properties":{"shape_id":"{\"M1/TP-MLO\": 337}","direction_id":"{\"0\": 337}","headsign":"{\"Młociny\": 337}","duration_avg":120.0,"n_vehicles":337,"d":1093,"route_I_counts":"{\"339\": 337}","source":2,"target":3,"layer":"L","from":"Imielin","to":"Stokłosy"},"geometry":{"type":"LineString","coordinates":[[21.046366,52.149136],[21.034865,52.155966]]}},{"type":"Feature","properties":{"shape_id":"{\"M1/TP-KAB\": 340}","direction_id":"{\"1\": 340}","headsign":"{\"Kabaty\": 340}","duration_avg":120.0,"n_vehicles":340,"d":1139,"route_I_counts":"{\"339\": 340}","source":2,"target":1,"layer":"L","from":"Imielin","to":"Natolin"},"geometry":{"type":"LineString","coordinates":[[21.046366,52.149136],[21.05651,52.141008]]}},{"type":"Feature","properties":{"shape_id":"{\"M1/TP-MLO\": 337}","direction_id":"{\"0\": 337}","headsign":"{\"Młociny\": 337}","duration_avg":120.0,"n_vehicles":337,"d":815,"route_I_counts":"{\"339\": 337}","source":3,"target":4,"layer":"L","from":"Stokłosy","to":"Ursynów"},"geometry":{"type":"LineString","coordinates":[[21.034865,52.155966],[21.027693,52.161827]]}},{"type":"Feature","properties":{"shape_id":"{\"M1/TP-KAB\": 340}","direction_id":"{\"1\": 340}","headsign":"{\"Kabaty\": 340}","duration_avg":120.0,"n_vehicles":340,"d":1093,"route_I_counts":"{\"339\": 340}","source":3,"target":2,"layer":"L","from":"Stokłosy","to":"Imielin"},"geometry":{"type":"LineString","coordinates":[[21.034865,52.155966],[21.046366,52.149136]]}},{"type":"Feature","properties":{"shape_id":"{\"M1/TP-MLO\": 336}","direction_id":"{\"0\": 336}","headsign":"{\"Młociny\": 336}","duration_avg":120.0,"n_vehicles":336,"d":1195,"route_I_counts":"{\"339\": 336}","source":4,"target":5,"layer":"L","from":"Ursynów","to":"Służew"},"geometry":{"type":"LineString","coordinates":[[21.027693,52.161827],[21.026298,52.17253]]}},{"type":"Feature","properties":{"shape_id":"{\"M1/TP-KAB\": 340}","direction_id":"{\"1\": 340}","headsign":"{\"Kabaty\": 340}","duration_avg":120.0,"n_vehicles":340,"d":815,"route_I_counts":"{\"339\": 340}","source":4,"target":3,"layer":"L","from":"Ursynów","to":"Stokłosy"},"geometry":{"type":"LineString","coordinates":[[21.027693,52.161827],[21.034865,52.155966]]}},{"type":"Feature","properties":{"shape_id":"{\"M1/TP-MLO\": 336}","direction_id":"{\"0\": 336}","headsign":"{\"Młociny\": 336}","duration_avg":120.0,"n_vehicles":336,"d":1064,"route_I_counts":"{\"339\": 336}","source":5,"target":6,"layer":"L","from":"Służew","to":"Wilanowska"},"geometry":{"type":"LineString","coordinates":[[21.026298,52.17253],[21.022977,52.181869]]}},{"type":"Feature","properties":{"shape_id":"{\"M1/TP-KAB\": 341}","direction_id":"{\"1\": 341}","headsign":"{\"Kabaty\": 341}","duration_avg":120.0,"n_vehicles":341,"d":1195,"route_I_counts":"{\"339\": 341}","source":5,"target":4,"layer":"L","from":"Służew","to":"Ursynów"},"geometry":{"type":"LineString","coordinates":[[21.026298,52.17253],[21.027693,52.161827]]}},{"type":"Feature","properties":{"shape_id":"{\"M1/TP-MLO\": 336}","direction_id":"{\"0\": 336}","headsign":"{\"Młociny\": 336}","duration_avg":60.0,"n_vehicles":336,"d":995,"route_I_counts":"{\"339\": 336}","source":6,"target":7,"layer":"L","from":"Wilanowska","to":"Wierzbno"},"geometry":{"type":"LineString","coordinates":[[21.022977,52.181869],[21.016599,52.189907]]}},{"type":"Feature","properties":{"shape_id":"{\"M1/TP-KAB\": 341}","direction_id":"{\"1\": 341}","headsign":"{\"Kabaty\": 341}","duration_avg":120.0,"n_vehicles":341,"d":1064,"route_I_counts":"{\"339\": 341}","source":6,"target":5,"layer":"L","from":"Wilanowska","to":"Służew"},"geometry":{"type":"LineString","coordinates":[[21.022977,52.181869],[21.026298,52.17253]]}},{"type":"Feature","properties":{"shape_id":"{\"M1/TP-MLO\": 336}","direction_id":"{\"0\": 336}","headsign":"{\"Młociny\": 336}","duration_avg":120.0,"n_vehicles":336,"d":1045,"route_I_counts":"{\"339\": 336}","source":7,"target":8,"layer":"L","from":"Wierzbno","to":"Racławicka"},"geometry":{"type":"LineString","coordinates":[[21.016599,52.189907],[21.012211,52.198908]]}},{"type":"Feature","properties":{"shape_id":"{\"M1/TP-KAB\": 341}","direction_id":"{\"1\": 341}","headsign":"{\"Kabaty\": 341}","duration_avg":60.0,"n_vehicles":341,"d":995,"route_I_counts":"{\"339\": 341}","source":7,"target":6,"layer":"L","from":"Wierzbno","to":"Wilanowska"},"geometry":{"type":"LineString","coordinates":[[21.016599,52.189907],[21.022977,52.181869]]}},{"type":"Feature","properties":{"shape_id":"{\"M1/TP-MLO\": 335}","direction_id":"{\"0\": 335}","headsign":"{\"Młociny\": 335}","duration_avg":120.0,"n_vehicles":335,"d":1107,"route_I_counts":"{\"339\": 335}","source":8,"target":9,"layer":"L","from":"Racławicka","to":"Pole Mokotowskie"},"geometry":{"type":"LineString","coordinates":[[21.012211,52.198908],[21.007807,52.208484]]}},{"type":"Feature","properties":{"shape_id":"{\"M1/TP-KAB\": 341}","direction_id":"{\"1\": 341}","headsign":"{\"Kabaty\": 341}","duration_avg":120.0,"n_vehicles":341,"d":1045,"route_I_counts":"{\"339\": 341}","source":8,"target":7,"layer":"L","from":"Racławicka","to":"Wierzbno"},"geometry":{"type":"LineString","coordinates":[[21.012211,52.198908],[21.016599,52.189907]]}},{"type":"Feature","properties":{"shape_id":"{\"M1/TP-MLO\": 335}","direction_id":"{\"0\": 335}","headsign":"{\"Młociny\": 335}","duration_avg":60.0,"n_vehicles":335,"d":1219,"route_I_counts":"{\"339\": 335}","source":9,"target":10,"layer":"L","from":"Pole Mokotowskie","to":"Politechnika"},"geometry":{"type":"LineString","coordinates":[[21.007807,52.208484],[21.015322,52.218421]]}},{"type":"Feature","properties":{"shape_id":"{\"M1/TP-KAB\": 342}","direction_id":"{\"1\": 342}","headsign":"{\"Kabaty\": 342}","duration_avg":120.0,"n_vehicles":342,"d":1107,"route_I_counts":"{\"339\": 342}","source":9,"target":8,"layer":"L","from":"Pole Mokotowskie","to":"Racławicka"},"geometry":{"type":"LineString","coordinates":[[21.007807,52.208484],[21.012211,52.198908]]}},{"type":"Feature","properties":{"shape_id":"{\"M1/TP-MLO\": 335}","direction_id":"{\"0\": 335}","headsign":"{\"Młociny\": 335}","duration_avg":180.0,"n_vehicles":335,"d":1449,"route_I_counts":"{\"339\": 335}","source":10,"target":11,"layer":"L","from":"Politechnika","to":"Centrum"},"geometry":{"type":"LineString","coordinates":[[21.015322,52.218421],[21.010188,52.231059]]}},{"type":"Feature","properties":{"shape_id":"{\"M1/TP-KAB\": 342}","direction_id":"{\"1\": 342}","headsign":"{\"Kabaty\": 342}","duration_avg":60.0,"n_vehicles":342,"d":1219,"route_I_counts":"{\"339\": 342}","source":10,"target":9,"layer":"L","from":"Politechnika","to":"Pole Mokotowskie"},"geometry":{"type":"LineString","coordinates":[[21.015322,52.218421],[21.007807,52.208484]]}},{"type":"Feature","properties":{"shape_id":"{\"M1/TP-MLO\": 335}","direction_id":"{\"0\": 335}","headsign":"{\"Młociny\": 335}","duration_avg":60.0,"n_vehicles":335,"d":563,"route_I_counts":"{\"339\": 335}","source":11,"target":12,"layer":"L","from":"Centrum","to":"Świętokrzyska"},"geometry":{"type":"LineString","coordinates":[[21.010188,52.231059],[21.007458,52.235836]]}},{"type":"Feature","properties":{"shape_id":"{\"M1/TP-KAB\": 342}","direction_id":"{\"1\": 342}","headsign":"{\"Kabaty\": 342}","duration_avg":180.0,"n_vehicles":342,"d":1449,"route_I_counts":"{\"339\": 342}","source":11,"target":10,"layer":"L","from":"Centrum","to":"Politechnika"},"geometry":{"type":"LineString","coordinates":[[21.010188,52.231059],[21.015322,52.218421]]}},{"type":"Feature","properties":{"shape_id":"{\"M1/TP-MLO\": 334}","direction_id":"{\"0\": 334}","headsign":"{\"Młociny\": 334}","duration_avg":120.0,"n_vehicles":334,"d":1076,"route_I_counts":"{\"339\": 334}","source":12,"target":13,"layer":"L","from":"Świętokrzyska","to":"Ratusz Arsenał"},"geometry":{"type":"LineString","coordinates":[[21.007458,52.235836],[21.001369,52.244758]]}},{"type":"Feature","properties":{"shape_id":"{\"M1/TP-KAB\": 343}","direction_id":"{\"1\": 343}","headsign":"{\"Kabaty\": 343}","duration_avg":60.0,"n_vehicles":343,"d":563,"route_I_counts":"{\"339\": 343}","source":12,"target":11,"layer":"L","from":"Świętokrzyska","to":"Centrum"},"geometry":{"type":"LineString","coordinates":[[21.007458,52.235836],[21.010188,52.231059]]}},{"type":"Feature","properties":{"duration_avg":120.0,"n_vehicles":244,"d":551,"route_I_counts":"{\"340\": 244}","shape_id":"{\"M2/TP-TRO\": 244}","direction_id":"{\"0\": 244}","headsign":"{\"Trocka\": 244}","source":12,"target":26,"layer":"L","from":"Świętokrzyska","to":"Nowy Świat-Uniwersytet"},"geometry":{"type":"LineString","coordinates":[[21.007458,52.235836],[21.016803,52.236818]]}},{"type":"Feature","properties":{"duration_avg":120.0,"n_vehicles":252,"d":777,"route_I_counts":"{\"340\": 252}","shape_id":"{\"M2/TP-KSJ\": 252}","direction_id":"{\"1\": 252}","headsign":"{\"Księcia Janusza\": 252}","source":12,"target":25,"layer":"L","from":"Świętokrzyska","to":"Rondo ONZ"},"geometry":{"type":"LineString","coordinates":[[21.007458,52.235836],[20.998285,52.233102]]}},{"type":"Feature","properties":{"shape_id":"{\"M1/TP-MLO\": 334}","direction_id":"{\"0\": 334}","headsign":"{\"Młociny\": 334}","duration_avg":180.0,"n_vehicles":334,"d":1531,"route_I_counts":"{\"339\": 334}","source":13,"target":14,"layer":"L","from":"Ratusz Arsenał","to":"Dworzec Gdański"},"geometry":{"type":"LineString","coordinates":[[21.001369,52.244758],[20.994385,52.257832]]}},{"type":"Feature","properties":{"shape_id":"{\"M1/TP-KAB\": 343}","direction_id":"{\"1\": 343}","headsign":"{\"Kabaty\": 343}","duration_avg":120.0,"n_vehicles":343,"d":1076,"route_I_counts":"{\"339\": 343}","source":13,"target":12,"layer":"L","from":"Ratusz Arsenał","to":"Świętokrzyska"},"geometry":{"type":"LineString","coordinates":[[21.001369,52.244758],[21.007458,52.235836]]}},{"type":"Feature","properties":{"shape_id":"{\"M1/TP-MLO\": 334}","direction_id":"{\"0\": 334}","headsign":"{\"Młociny\": 334}","duration_avg":180.0,"n_vehicles":334,"d":1454,"route_I_counts":"{\"339\": 334}","source":14,"target":15,"layer":"L","from":"Dworzec Gdański","to":"Plac Wilsona"},"geometry":{"type":"LineString","coordinates":[[20.994385,52.257832],[20.984284,52.269339]]}},{"type":"Feature","properties":{"shape_id":"{\"M1/TP-KAB\": 343}","direction_id":"{\"1\": 343}","headsign":"{\"Kabaty\": 343}","duration_avg":180.0,"n_vehicles":343,"d":1531,"route_I_counts":"{\"339\": 343}","source":14,"target":13,"layer":"L","from":"Dworzec Gdański","to":"Ratusz Arsenał"},"geometry":{"type":"LineString","coordinates":[[20.994385,52.257832],[21.001369,52.244758]]}},{"type":"Feature","properties":{"shape_id":"{\"M1/TP-MLO\": 333}","direction_id":"{\"0\": 333}","headsign":"{\"Młociny\": 333}","duration_avg":120.0,"n_vehicles":333,"d":875,"route_I_counts":"{\"339\": 333}","source":15,"target":16,"layer":"L","from":"Plac Wilsona","to":"Marymont"},"geometry":{"type":"LineString","coordinates":[[20.984284,52.269339],[20.971999,52.271663]]}},{"type":"Feature","properties":{"shape_id":"{\"M1/TP-KAB\": 344}","direction_id":"{\"1\": 344}","headsign":"{\"Kabaty\": 344}","duration_avg":180.0,"n_vehicles":344,"d":1454,"route_I_counts":"{\"339\": 344}","source":15,"target":14,"layer":"L","from":"Plac Wilsona","to":"Dworzec Gdański"},"geometry":{"type":"LineString","coordinates":[[20.984284,52.269339],[20.994385,52.257832]]}},{"type":"Feature","properties":{"shape_id":"{\"M1/TP-MLO\": 333}","direction_id":"{\"0\": 333}","headsign":"{\"Młociny\": 333}","duration_avg":60.0,"n_vehicles":333,"d":985,"route_I_counts":"{\"339\": 333}","source":16,"target":17,"layer":"L","from":"Marymont","to":"Słodowiec"},"geometry":{"type":"LineString","coordinates":[[20.971999,52.271663],[20.960208,52.276787]]}},{"type":"Feature","properties":{"shape_id":"{\"M1/TP-KAB\": 344}","direction_id":"{\"1\": 344}","headsign":"{\"Kabaty\": 344}","duration_avg":120.0,"n_vehicles":344,"d":875,"route_I_counts":"{\"339\": 344}","source":16,"target":15,"layer":"L","from":"Marymont","to":"Plac Wilsona"},"geometry":{"type":"LineString","coordinates":[[20.971999,52.271663],[20.984284,52.269339]]}},{"type":"Feature","properties":{"shape_id":"{\"M1/TP-MLO\": 333}","direction_id":"{\"0\": 333}","headsign":"{\"Młociny\": 333}","duration_avg":120.0,"n_vehicles":333,"d":925,"route_I_counts":"{\"339\": 333}","source":17,"target":18,"layer":"L","from":"Słodowiec","to":"Stare Bielany"},"geometry":{"type":"LineString","coordinates":[[20.960208,52.276787],[20.949356,52.281792]]}},{"type":"Feature","properties":{"shape_id":"{\"M1/TP-KAB\": 344}","direction_id":"{\"1\": 344}","headsign":"{\"Kabaty\": 344}","duration_avg":60.0,"n_vehicles":344,"d":985,"route_I_counts":"{\"339\": 344}","source":17,"target":16,"layer":"L","from":"Słodowiec","to":"Marymont"},"geometry":{"type":"LineString","coordinates":[[20.960208,52.276787],[20.971999,52.271663]]}},{"type":"Feature","properties":{"shape_id":"{\"M1/TP-MLO\": 333}","direction_id":"{\"0\": 333}","headsign":"{\"Młociny\": 333}","duration_avg":120.0,"n_vehicles":333,"d":835,"route_I_counts":"{\"339\": 333}","source":18,"target":19,"layer":"L","from":"Stare Bielany","to":"Wawrzyszew"},"geometry":{"type":"LineString","coordinates":[[20.949356,52.281792],[20.939577,52.286318]]}},{"type":"Feature","properties":{"shape_id":"{\"M1/TP-KAB\": 345}","direction_id":"{\"1\": 345}","headsign":"{\"Kabaty\": 345}","duration_avg":120.0,"n_vehicles":345,"d":925,"route_I_counts":"{\"339\": 345}","source":18,"target":17,"layer":"L","from":"Stare Bielany","to":"Słodowiec"},"geometry":{"type":"LineString","coordinates":[[20.949356,52.281792],[20.960208,52.276787]]}},{"type":"Feature","properties":{"shape_id":"{\"M1/TP-MLO\": 332}","direction_id":"{\"0\": 332}","headsign":"{\"Młociny\": 332}","duration_avg":120.0,"n_vehicles":332,"d":830,"route_I_counts":"{\"339\": 332}","source":19,"target":20,"layer":"L","from":"Wawrzyszew","to":"Młociny"},"geometry":{"type":"LineString","coordinates":[[20.939577,52.286318],[20.929819,52.29079]]}},{"type":"Feature","properties":{"shape_id":"{\"M1/TP-KAB\": 345}","direction_id":"{\"1\": 345}","headsign":"{\"Kabaty\": 345}","duration_avg":120.0,"n_vehicles":345,"d":835,"route_I_counts":"{\"339\": 345}","source":19,"target":18,"layer":"L","from":"Wawrzyszew","to":"Stare Bielany"},"geometry":{"type":"LineString","coordinates":[[20.939577,52.286318],[20.949356,52.281792]]}},{"type":"Feature","properties":{"shape_id":"{\"M1/TP-KAB\": 345}","direction_id":"{\"1\": 345}","headsign":"{\"Kabaty\": 345}","duration_avg":120.0,"n_vehicles":345,"d":830,"route_I_counts":"{\"339\": 345}","source":20,"target":19,"layer":"L","from":"Młociny","to":"Wawrzyszew"},"geometry":{"type":"LineString","coordinates":[[20.929819,52.29079],[20.939577,52.286318]]}},{"type":"Feature","properties":{"shape_id":"{\"M2/TP-TRO\": 247}","direction_id":"{\"0\": 247}","headsign":"{\"Trocka\": 247}","duration_avg":120.0,"n_vehicles":247,"d":1127,"route_I_counts":"{\"340\": 247}","source":21,"target":22,"layer":"L","from":"Księcia Janusza","to":"Młynów"},"geometry":{"type":"LineString","coordinates":[[20.94411,52.239096],[20.960475,52.23764]]}},{"type":"Feature","properties":{"shape_id":"{\"M2/TP-TRO\": 245}","direction_id":"{\"0\": 245}","headsign":"{\"Trocka\": 245}","duration_avg":120.0,"n_vehicles":245,"d":655,"route_I_counts":"{\"340\": 245}","source":22,"target":23,"layer":"L","from":"Młynów","to":"Płocka"},"geometry":{"type":"LineString","coordinates":[[20.960475,52.23764],[20.966178,52.2329]]}},{"type":"Feature","properties":{"shape_id":"{\"M2/TP-KSJ\": 251}","direction_id":"{\"1\": 251}","headsign":"{\"Księcia Janusza\": 251}","duration_avg":120.0,"n_vehicles":251,"d":1127,"route_I_counts":"{\"340\": 251}","source":22,"target":21,"layer":"L","from":"Młynów","to":"Księcia Janusza"},"geometry":{"type":"LineString","coordinates":[[20.960475,52.23764],[20.94411,52.239096]]}},{"type":"Feature","properties":{"shape_id":"{\"M2/TP-TRO\": 245}","direction_id":"{\"0\": 245}","headsign":"{\"Trocka\": 245}","duration_avg":60.0,"n_vehicles":245,"d":1174,"route_I_counts":"{\"340\": 245}","source":23,"target":24,"layer":"L","from":"Płocka","to":"Rondo Daszyńskiego"},"geometry":{"type":"LineString","coordinates":[[20.966178,52.2329],[20.982744,52.230014]]}},{"type":"Feature","properties":{"shape_id":"{\"M2/TP-KSJ\": 251}","direction_id":"{\"1\": 251}","headsign":"{\"Księcia Janusza\": 251}","duration_avg":120.0,"n_vehicles":251,"d":655,"route_I_counts":"{\"340\": 251}","source":23,"target":22,"layer":"L","from":"Płocka","to":"Młynów"},"geometry":{"type":"LineString","coordinates":[[20.966178,52.2329],[20.960475,52.23764]]}},{"type":"Feature","properties":{"shape_id":"{\"M2/TP-TRO\": 245}","direction_id":"{\"0\": 245}","headsign":"{\"Trocka\": 245}","duration_avg":120.0,"n_vehicles":245,"d":1113,"route_I_counts":"{\"340\": 245}","source":24,"target":25,"layer":"L","from":"Rondo Daszyńskiego","to":"Rondo ONZ"},"geometry":{"type":"LineString","coordinates":[[20.982744,52.230014],[20.998285,52.233102]]}},{"type":"Feature","properties":{"shape_id":"{\"M2/TP-KSJ\": 251}","direction_id":"{\"1\": 251}","headsign":"{\"Księcia Janusza\": 251}","duration_avg":60.0,"n_vehicles":251,"d":1174,"route_I_counts":"{\"340\": 251}","source":24,"target":23,"layer":"L","from":"Rondo Daszyńskiego","to":"Płocka"},"geometry":{"type":"LineString","coordinates":[[20.982744,52.230014],[20.966178,52.2329]]}},{"type":"Feature","properties":{"shape_id":"{\"M2/TP-KSJ\": 251}","direction_id":"{\"1\": 251}","headsign":"{\"Księcia Janusza\": 251}","duration_avg":120.0,"n_vehicles":251,"d":1113,"route_I_counts":"{\"340\": 251}","source":25,"target":24,"layer":"L","from":"Rondo ONZ","to":"Rondo Daszyńskiego"},"geometry":{"type":"LineString","coordinates":[[20.998285,52.233102],[20.982744,52.230014]]}},{"type":"Feature","properties":{"duration_avg":120.0,"n_vehicles":245,"d":777,"route_I_counts":"{\"340\": 245}","shape_id":"{\"M2/TP-TRO\": 245}","direction_id":"{\"0\": 245}","headsign":"{\"Trocka\": 245}","source":25,"target":12,"layer":"L","from":"Rondo ONZ","to":"Świętokrzyska"},"geometry":{"type":"LineString","coordinates":[[20.998285,52.233102],[21.007458,52.235836]]}},{"type":"Feature","properties":{"shape_id":"{\"M2/TP-TRO\": 244}","direction_id":"{\"0\": 244}","headsign":"{\"Trocka\": 244}","duration_avg":120.0,"n_vehicles":244,"d":1050,"route_I_counts":"{\"340\": 244}","source":26,"target":27,"layer":"L","from":"Nowy Świat-Uniwersytet","to":"Centrum Nauki Kopernik"},"geometry":{"type":"LineString","coordinates":[[21.016803,52.236818],[21.031448,52.239765]]}},{"type":"Feature","properties":{"duration_avg":120.0,"n_vehicles":252,"d":551,"route_I_counts":"{\"340\": 252}","shape_id":"{\"M2/TP-KSJ\": 252}","direction_id":"{\"1\": 252}","headsign":"{\"Księcia Janusza\": 252}","source":26,"target":12,"layer":"L","from":"Nowy Świat-Uniwersytet","to":"Świętokrzyska"},"geometry":{"type":"LineString","coordinates":[[21.016803,52.236818],[21.007458,52.235836]]}},{"type":"Feature","properties":{"shape_id":"{\"M2/TP-TRO\": 244}","direction_id":"{\"0\": 244}","headsign":"{\"Trocka\": 244}","duration_avg":120.0,"n_vehicles":244,"d":1118,"route_I_counts":"{\"340\": 244}","source":27,"target":28,"layer":"L","from":"Centrum Nauki Kopernik","to":"Stadion Narodowy"},"geometry":{"type":"LineString","coordinates":[[21.031448,52.239765],[21.042901,52.246965]]}},{"type":"Feature","properties":{"shape_id":"{\"M2/TP-KSJ\": 252}","direction_id":"{\"1\": 252}","headsign":"{\"Księcia Janusza\": 252}","duration_avg":120.0,"n_vehicles":252,"d":1050,"route_I_counts":"{\"340\": 252}","source":27,"target":26,"layer":"L","from":"Centrum Nauki Kopernik","to":"Nowy Świat-Uniwersytet"},"geometry":{"type":"LineString","coordinates":[[21.031448,52.239765],[21.016803,52.236818]]}},{"type":"Feature","properties":{"shape_id":"{\"M2/TP-TRO\": 244}","direction_id":"{\"0\": 244}","headsign":"{\"Trocka\": 244}","duration_avg":120.0,"n_vehicles":244,"d":949,"route_I_counts":"{\"340\": 244}","source":28,"target":29,"layer":"L","from":"Stadion Narodowy","to":"Dworzec Wileński"},"geometry":{"type":"LineString","coordinates":[[21.042901,52.246965],[21.035401,52.254151]]}},{"type":"Feature","properties":{"shape_id":"{\"M2/TP-KSJ\": 253}","direction_id":"{\"1\": 253}","headsign":"{\"Księcia Janusza\": 253}","duration_avg":120.0,"n_vehicles":253,"d":1118,"route_I_counts":"{\"340\": 253}","source":28,"target":27,"layer":"L","from":"Stadion Narodowy","to":"Centrum Nauki Kopernik"},"geometry":{"type":"LineString","coordinates":[[21.042901,52.246965],[21.031448,52.239765]]}},{"type":"Feature","properties":{"shape_id":"{\"M2/TP-TRO\": 243}","direction_id":"{\"0\": 243}","headsign":"{\"Trocka\": 243}","duration_avg":120.0,"n_vehicles":243,"d":1236,"route_I_counts":"{\"340\": 243}","source":29,"target":30,"layer":"L","from":"Dworzec Wileński","to":"Szwedzka"},"geometry":{"type":"LineString","coordinates":[[21.035401,52.254151],[21.045309,52.263458]]}},{"type":"Feature","properties":{"shape_id":"{\"M2/TP-KSJ\": 253}","direction_id":"{\"1\": 253}","headsign":"{\"Księcia Janusza\": 253}","duration_avg":120.0,"n_vehicles":253,"d":949,"route_I_counts":"{\"340\": 253}","source":29,"target":28,"layer":"L","from":"Dworzec Wileński","to":"Stadion Narodowy"},"geometry":{"type":"LineString","coordinates":[[21.035401,52.254151],[21.042901,52.246965]]}},{"type":"Feature","properties":{"shape_id":"{\"M2/TP-TRO\": 243}","direction_id":"{\"0\": 243}","headsign":"{\"Trocka\": 243}","duration_avg":120.0,"n_vehicles":243,"d":774,"route_I_counts":"{\"340\": 243}","source":30,"target":31,"layer":"L","from":"Szwedzka","to":"Targówek Mieszkaniowy"},"geometry":{"type":"LineString","coordinates":[[21.045309,52.263458],[21.051378,52.269345]]}},{"type":"Feature","properties":{"shape_id":"{\"M2/TP-KSJ\": 253}","direction_id":"{\"1\": 253}","headsign":"{\"Księcia Janusza\": 253}","duration_avg":120.0,"n_vehicles":253,"d":1236,"route_I_counts":"{\"340\": 253}","source":30,"target":29,"layer":"L","from":"Szwedzka","to":"Dworzec Wileński"},"geometry":{"type":"LineString","coordinates":[[21.045309,52.263458],[21.035401,52.254151]]}},{"type":"Feature","properties":{"shape_id":"{\"M2/TP-TRO\": 243}","direction_id":"{\"0\": 243}","headsign":"{\"Trocka\": 243}","duration_avg":120.0,"n_vehicles":243,"d":711,"route_I_counts":"{\"340\": 243}","source":31,"target":32,"layer":"L","from":"Targówek Mieszkaniowy","to":"Trocka"},"geometry":{"type":"LineString","coordinates":[[21.051378,52.269345],[21.055298,52.275266]]}},{"type":"Feature","properties":{"shape_id":"{\"M2/TP-KSJ\": 253}","direction_id":"{\"1\": 253}","headsign":"{\"Księcia Janusza\": 253}","duration_avg":120.0,"n_vehicles":253,"d":774,"route_I_counts":"{\"340\": 253}","source":31,"target":30,"layer":"L","from":"Targówek Mieszkaniowy","to":"Szwedzka"},"geometry":{"type":"LineString","coordinates":[[21.051378,52.269345],[21.045309,52.263458]]}},{"type":"Feature","properties":{"shape_id":"{\"M2/TP-KSJ\": 254}","direction_id":"{\"1\": 254}","headsign":"{\"Księcia Janusza\": 254}","duration_avg":120.0,"n_vehicles":254,"d":711,"route_I_counts":"{\"340\": 254}","source":32,"target":31,"layer":"L","from":"Trocka","to":"Targówek Mieszkaniowy"},"geometry":{"type":"LineString","coordinates":[[21.055298,52.275266],[21.051378,52.269345]]}}]}