{"type":"FeatureCollection","features":[{"type":"Feature","geometry":{"type":"Point","coordinates":[125.317693,43.94547]},"properties":{"name":"长春北环城路(地铁站)","original_ids":"[1]","id":0,"layer":"stop"}},{"type":"Feature","geometry":{"type":"Point","coordinates":[125.317661,43.934776]},"properties":{"name":"长春庆丰路(地铁站)","original_ids":"[2]","id":1,"layer":"stop"}},{"type":"Feature","geometry":{"type":"Point","coordinates":[125.317685,43.922911]},"properties":{"name":"长春一匡街(地铁站)","original_ids":"[3]","id":2,"layer":"stop"}},{"type":"Feature","geometry":{"type":"Point","coordinates":[125.316893,43.911706]},"properties":{"name":"长春长春站北(地铁站)","original_ids":"[4]","id":3,"layer":"stop"}},{"type":"Feature","geometry":{"type":"Point","coordinates":[125.31674,43.906884]},"properties":{"name":"长春长春站(地铁站)","original_ids":"[5]","id":4,"layer":"stop"}},{"type":"Feature","geometry":{"type":"Point","coordinates":[125.317811,43.897572]},"properties":{"name":"长春胜利公园(地铁站)","original_ids":"[6]","id":5,"layer":"stop"}},{"type":"Feature","geometry":{"type":"Point","coordinates":[125.318132,43.88623]},"properties":{"name":"长春人民广场(地铁站)","original_ids":"[7]","id":6,"layer":"stop"}},{"type":"Feature","geometry":{"type":"Point","coordinates":[125.318362,43.875819]},"properties":{"name":"长春解放大路(地铁站)","original_ids":"[8]","id":7,"layer":"stop"}},{"type":"Feature","geometry":{"type":"Point","coordinates":[125.318668,43.861623]},"properties":{"name":"长春东北师大(地铁站)","original_ids":"[9]","id":8,"layer":"stop"}},{"type":"Feature","geometry":{"type":"Point","coordinates":[125.318945,43.848398]},"properties":{"name":"长春工农广场(地铁站)","original_ids":"[10]","id":9,"layer":"stop"}},{"type":"Feature","geometry":{"type":"Point","coordinates":[125.319191,43.838626]},"properties":{"name":"长春繁荣路(地铁站)","original_ids":"[11]","id":10,"layer":"stop"}},{"type":"Feature","geometry":{"type":"Point","coordinates":[125.319312,43.830244]},"properties":{"name":"长春卫星广场(地铁站)","original_ids":"[12]","id":11,"layer":"stop"}},{"type":"Feature","geometry":{"type":"Point","coordinates":[125.31944,43.816335]},"properties":{"name":"长春市政府(地铁站)","original_ids":"[13]","id":12,"layer":"stop"}},{"type":"Feature","geometry":{"type":"Point","coordinates":[125.320525,43.797658]},"properties":{"name":"长春华庆路(地铁站)","original_ids":"[14]","id":13,"layer":"stop"}},{"type":"Feature","geometry":{"type":"Point","coordinates":[125.320928,43.788002]},"properties":{"name":"长春红嘴子(地铁站)","original_ids":"[15]","id":14,"layer":"stop"}},{"type":"Feature","geometry":{"type":"Point","coordinates":[125.330499,43.909988]},"properties":{"name":"长春北亚泰大街(地铁站)","original_ids":"[16]","id":15,"layer":"stop"}},{"type":"Feature","geometry":{"type":"Point","coordinates":[125.345853,43.904158]},"properties":{"name":"长春伪满皇宫(地铁站)","original_ids":"[17]","id":16,"layer":"stop"}},{"type":"Feature","geometry":{"type":"Point","coordinates":[125.350657,43.897592]},"properties":{"name":"长春东大桥(地铁站)","original_ids":"[18]","id":17,"layer":"stop"}},{"type":"Feature","geometry":{"type":"Point","coordinates":[125.359445,43.889794]},"properties":{"name":"长春东新路(地铁站)","original_ids":"[19]","id":18,"layer":"stop"}},{"type":"Feature","geometry":{"type":"Point","coordinates":[125.357671,43.878836]},"properties":{"name":"长春吉林大路(地铁站)","original_ids":"[20]","id":19,"layer":"stop"}},{"type":"Feature","geometry":{"type":"Point","coordinates":[125.357849,43.869565]},"properties":{"name":"长春公平路(地铁站)","original_ids":"[21]","id":20,"layer":"stop"}},{"type":"Feature","geometry":{"type":"Point","coordinates":[125.358051,43.861331]},"properties":{"name":"长春海口路(地铁站)","original_ids":"[22]","id":21,"layer":"stop"}},{"type":"Feature","geometry":{"type":"Point","coordinates":[125.358201,43.854555]},"properties":{"name":"长春浦东路(地铁站)","original_ids":"[23]","id":22,"layer":"stop"}},{"type":"Feature","geometry":{"type":"Point","coordinates":[125.358325,43.848206]},"properties":{"name":"长春威海路(地铁站)","original_ids":"[24]","id":23,"layer":"stop"}},{"type":"Feature","geometry":{"type":"Point","coordinates":[125.358403,43.839488]},"properties":{"name":"长春北海路(地铁站)","original_ids":"[25]","id":24,"layer":"stop"}},{"type":"Feature","geometry":{"type":"Point","coordinates":[125.358689,43.830004]},"properties":{"name":"长春职业学院(地铁站)","original_ids":"[26]","id":25,"layer":"stop"}},{"type":"Feature","geometry":{"type":"Point","coordinates":[125.358831,43.82276]},"properties":{"name":"长春世荣路(地铁站)","original_ids":"[27]","id":26,"layer":"stop"}},{"type":"Feature","geometry":{"type":"Point","coordinates":[125.358991,43.814945]},"properties":{"name":"长春南环城路(地铁站)","original_ids":"[28]","id":27,"layer":"stop"}},{"type":"Feature","geometry":{"type":"Point","coordinates":[125.359172,43.804737]},"properties":{"name":"长春宜盛街(地铁站)","original_ids":"[29]","id":28,"layer":"stop"}},{"type":"Feature","geometry":{"type":"Point","coordinates":[125.359754,43.793192]},"properties":{"name":"长春天工路(地铁站)","original_ids":"[30]","id":29,"layer":"stop"}},{"type":"Feature","geometry":{"type":"Point","coordinates":[125.359516,43.783717]},"properties":{"name":"长春福祉大路(地铁站)","original_ids":"[31]","id":30,"layer":"stop"}},{"type":"Feature","geometry":{"type":"Point","coordinates":[125.359441,43.775925]},"properties":{"name":"长春天青路(地铁站)","original_ids":"[32]","id":31,"layer":"stop"}},{"type":"Feature","geometry":{"type":"Point","coordinates":[125.359589,43.76884]},"properties":{"name":"长春天普路(地铁站)","original_ids":"[33]","id":32,"layer":"stop"}},{"type":"Feature","geometry":{"type":"Point","coordinates":[125.359742,43.760879]},"properties":{"name":"长春前十里堡(地铁站)","original_ids":"[34]","id":33,"layer":"stop"}},{"type":"Feature","geometry":{"type":"Point","coordinates":[125.359906,43.75269]},"properties":{"name":"长春天新路(地铁站)","original_ids":"[35]","id":34,"layer":"stop"}},{"type":"Feature","geometry":{"type":"Point","coordinates":[125.440435,43.767381]},"properties":{"name":"长春长影世纪城(地铁站)","original_ids":"[36]","id":35,"layer":"stop"}},{"type":"Feature","geometry":{"type":"Point","coordinates":[125.424332,43.76704]},"properties":{"name":"长春省博物院(地铁站)","original_ids":"[37]","id":36,"layer":"stop"}},{"type":"Feature","geometry":{"type":"Point","coordinates":[125.415972,43.767167]},"properties":{"name":"长春聚业大街(地铁站)","original_ids":"[38]","id":37,"layer":"stop"}},{"type":"Feature","geometry":{"type":"Point","coordinates":[125.402289,43.768597]},"properties":{"name":"长春樱花街(地铁站)","original_ids":"[39]","id":38,"layer":"stop"}},{"type":"Feature","geometry":{"type":"Point","coordinates":[125.388618,43.770111]},"properties":{"name":"长春亚泰足球基地(地铁站)","original_ids":"[40]","id":39,"layer":"stop"}},{"type":"Feature","geometry":{"type":"Point","coordinates":[125.371907,43.775405]},"properties":{"name":"长春吴家店(地铁站)","original_ids":"[41]","id":40,"layer":"stop"}},{"type":"Feature","geometry":{"type":"Point","coordinates":[125.34869,43.798323]},"properties":{"name":"长春南溪湿地公园(地铁站)","original_ids":"[42]","id":41,"layer":"stop"}},{"type":"Feature","geometry":{"type":"Point","coordinates":[125.306293,43.797655]},"properties":{"name":"长春新明街(地铁站)","original_ids":"[43]","id":42,"layer":"stop"}},{"type":"Feature","geometry":{"type":"Point","coordinates":[125.299052,43.797689]},"properties":{"name":"长春轨道集团(地铁站)","original_ids":"[44]","id":43,"layer":"stop"}},{"type":"Feature","geometry":{"type":"Point","coordinates":[125.289769,43.797663]},"properties":{"name":"长春兰桡湖公园(地铁站)","original_ids":"[45]","id":44,"layer":"stop"}},{"type":"Feature","geometry":{"type":"Point","coordinates":[125.269986,43.803205]},"properties":{"name":"长春市法院(地铁站)","original_ids":"[46]","id":45,"layer":"stop"}},{"type":"Feature","geometry":{"type":"Point","coordinates":[125.269298,43.810911]},"properties":{"name":"长春百花园(地铁站)","original_ids":"[47]","id":46,"layer":"stop"}},{"type":"Feature","geometry":{"type":"Point","coordinates":[125.255079,43.823033]},"properties":{"name":"长春硅谷广场(地铁站)","original_ids":"[48]","id":47,"layer":"stop"}},{"type":"Feature","geometry":{"type":"Point","coordinates":[125.243943,43.830124]},"properties":{"name":"长春光谷大街(地铁站)","original_ids":"[49]","id":48,"layer":"stop"}},{"type":"Feature","geometry":{"type":"Point","coordinates":[125.234692,43.835991]},"properties":{"name":"长春欧亚卖场(地铁站)","original_ids":"[50]","id":49,"layer":"stop"}},{"type":"Feature","geometry":{"type":"Point","coordinates":[125.22408,43.847193]},"properties":{"name":"长春飞跃广场(地铁站)","original_ids":"[51]","id":50,"layer":"stop"}},{"type":"Feature","geometry":{"type":"Point","coordinates":[125.216418,43.857328]},"properties":{"name":"长春支农大街(地铁站)","original_ids":"[52]","id":51,"layer":"stop"}},{"type":"Feature","geometry":{"type":"Point","coordinates":[125.208811,43.868729]},"properties":{"name":"长春腾跃街(地铁站)","original_ids":"[53]","id":52,"layer":"stop"}},{"type":"Feature","geometry":{"type":"Point","coordinates":[125.194708,43.874199]},"properties":{"name":"长春长春西站(地铁站)","original_ids":"[54]","id":53,"layer":"stop"}},{"type":"Feature","geometry":{"type":"Point","coordinates":[125.179142,43.865018]},"properties":{"name":"长春双丰(地铁站)","original_ids":"[55]","id":54,"layer":"stop"}},{"type":"Feature","geometry":{"type":"Point","coordinates":[125.323646,43.953213]},"properties":{"name":"长春一二三中学(地铁站)","original_ids":"[56]","id":55,"layer":"stop"}},{"type":"Feature","geometry":{"type":"Point","coordinates":[125.323442,43.962762]},"properties":{"name":"长春小南(地铁站)","original_ids":"[57]","id":56,"layer":"stop"}},{"type":"Feature","geometry":{"type":"Point","coordinates":[125.324754,43.968631]},"properties":{"name":"长春小城子街(地铁站)","original_ids":"[58]","id":57,"layer":"stop"}},{"type":"Feature","geometry":{"type":"Point","coordinates":[125.349448,43.973933]},"properties":{"name":"长春北湖大桥(地铁站)","original_ids":"[59]","id":58,"layer":"stop"}},{"type":"Feature","geometry":{"type":"Point","coordinates":[125.361176,43.973985]},"properties":{"name":"长春北湖公园(地铁站)","original_ids":"[60]","id":59,"layer":"stop"}},{"type":"Feature","geometry":{"type":"Point","coordinates":[125.3708,43.973859]},"properties":{"name":"长春和安街(地铁站)","original_ids":"[61]","id":60,"layer":"stop"}},{"type":"Feature","geometry":{"type":"Point","coordinates":[125.377937,43.983257]},"properties":{"name":"长春光机路(地铁站)","original_ids":"[62]","id":61,"layer":"stop"}},{"type":"Feature","geometry":{"type":"Point","coordinates":[125.377953,43.992375]},"properties":{"name":"长春大学城路(地铁站)","original_ids":"[63]","id":62,"layer":"stop"}},{"type":"Feature","geometry":{"type":"Point","coordinates":[125.391112,43.995503]},"properties":{"name":"长春地理所(地铁站)","original_ids":"[64]","id":63,"layer":"stop"}},{"type":"Feature","geometry":{"type":"Point","coordinates":[125.402991,43.997822]},"properties":{"name":"长春奥林匹克公园(地铁站)","original_ids":"[65]","id":64,"layer":"stop"}},{"type":"Feature","geometry":{"type":"Point","coordinates":[125.411089,44.006449]},"properties":{"name":"长春广通路(地铁站)","original_ids":"[66]","id":65,"layer":"stop"}},{"type":"Feature","geometry":{"type":"Point","coordinates":[125.33267,43.90656]},"properties":{"name":"长春东广场(地铁站)","original_ids":"[67]","id":66,"layer":"stop"}},{"type":"Feature","geometry":{"type":"Point","coordinates":[125.3019,43.90268]},"properties":{"name":"长春芙蓉桥(地铁站)","original_ids":"[68]","id":67,"layer":"stop"}},{"type":"Feature","geometry":{"type":"Point","coordinates":[125.29388,43.89256]},"properties":{"name":"长春西安桥(地铁站)","original_ids":"[69]","id":68,"layer":"stop"}},{"type":"Feature","geometry":{"type":"Point","coordinates":[125.29045,43.88777]},"properties":{"name":"长春南昌路(地铁站)","original_ids":"[70]","id":69,"layer":"stop"}},{"type":"Feature","geometry":{"type":"Point","coordinates":[125.28667,43.88256]},"properties":{"name":"长春朝阳桥(地铁站)","original_ids":"[71]","id":70,"layer":"stop"}},{"type":"Feature","geometry":{"type":"Point","coordinates":[125.28185,43.87579]},"properties":{"name":"长春解放桥(地铁站)","original_ids":"[72]","id":71,"layer":"stop"}},{"type":"Feature","geometry":{"type":"Point","coordinates":[125.27586,43.86706]},"properties":{"name":"长春湖西桥(地铁站)","original_ids":"[73]","id":72,"layer":"stop"}},{"type":"Feature","geometry":{"type":"Point","coordinates":[125.26762,43.86039]},"properties":{"name":"长春宽平桥(地铁站)","original_ids":"[74]","id":73,"layer":"stop"}},{"type":"Feature","geometry":{"type":"Point","coordinates":[125.26178,43.85569]},"properties":{"name":"长春抚松路(地铁站)","original_ids":"[75]","id":74,"layer":"stop"}},{"type":"Feature","geometry":{"type":"Point","coordinates":[125.2558,43.8488]},"properties":{"name":"长春孟家屯(地铁站)","original_ids":"[76]","id":75,"layer":"stop"}},{"type":"Feature","geometry":{"type":"Point","coordinates":[125.26042,43.84193]},"properties":{"name":"长春湖光路(地铁站)","original_ids":"[77]","id":76,"layer":"stop"}},{"type":"Feature","geometry":{"type":"Point","coordinates":[125.27208,43.83078]},"properties":{"name":"长春电台街(地铁站)","original_ids":"[78]","id":77,"layer":"stop"}},{"type":"Feature","geometry":{"type":"Point","coordinates":[125.28013,43.82981]},"properties":{"name":"长春前进西(地铁站)","original_ids":"[79]","id":78,"layer":"stop"}},{"type":"Feature","geometry":{"type":"Point","coordinates":[125.28683,43.82998]},"properties":{"name":"长春前进大街(地铁站)","original_ids":"[80]","id":79,"layer":"stop"}},{"type":"Feature","geometry":{"type":"Point","coordinates":[125.29623,43.82998]},"properties":{"name":"长春卫明街(地铁站)","original_ids":"[81]","id":80,"layer":"stop"}},{"type":"Feature","geometry":{"type":"Point","coordinates":[125.30903,43.83007]},"properties":{"name":"长春卫光街(地铁站)","original_ids":"[82]","id":81,"layer":"stop"}},{"type":"Feature","geometry":{"type":"Point","coordinates":[125.33267,43.83009]},"properties":{"name":"长春亚泰立交桥(地铁站)","original_ids":"[83]","id":82,"layer":"stop"}},{"type":"Feature","geometry":{"type":"Point","coordinates":[125.3433,43.83032]},"properties":{"name":"长春伊通河(地铁站)","original_ids":"[84]","id":83,"layer":"stop"}},{"type":"Feature","geometry":{"type":"Point","coordinates":[125.3729,43.83068]},"properties":{"name":"长春吉林广电(地铁站)","original_ids":"[85]","id":84,"layer":"stop"}},{"type":"Feature","geometry":{"type":"Point","coordinates":[125.38428,43.83078]},"properties":{"name":"长春会展中心(地铁站)","original_ids":"[86]","id":85,"layer":"stop"}},{"type":"Feature","geometry":{"type":"Point","coordinates":[125.39607,43.83408]},"properties":{"name":"长春世纪广场(地铁站)","original_ids":"[87]","id":86,"layer":"stop"}},{"type":"Feature","geometry":{"type":"Point","coordinates":[125.41438,43.8319]},"properties":{"name":"长春金鑫街(地铁站)","original_ids":"[88]","id":87,"layer":"stop"}},{"type":"Feature","geometry":{"type":"Point","coordinates":[125.42275,43.82726]},"properties":{"name":"长春博硕路(地铁站)","original_ids":"[89]","id":88,"layer":"stop"}},{"type":"Feature","geometry":{"type":"Point","coordinates":[125.43267,43.81923]},"properties":{"name":"长春金河街(地铁站)","original_ids":"[90]","id":89,"layer":"stop"}},{"type":"Feature","geometry":{"type":"Point","coordinates":[125.43849,43.81186]},"properties":{"name":"长春农博园(地铁站)","original_ids":"[91]","id":90,"layer":"stop"}},{"type":"Feature","geometry":{"type":"Point","coordinates":[125.4443,43.8011]},"properties":{"name":"长春净月潭公园(地铁站)","original_ids":"[92]","id":91,"layer":"stop"}},{"type":"Feature","geometry":{"type":"Point","coordinates":[125.4337,43.79019]},"properties":{"name":"长春紫杉路(地铁站)","original_ids":"[93]","id":92,"layer":"stop"}},{"type":"Feature","geometry":{"type":"Point","coordinates":[125.43354,43.78258]},"properties":{"name":"长春宝相街(地铁站)","original_ids":"[94]","id":93,"layer":"stop"}},{"type":"Feature","geometry":{"type":"Point","coordinates":[125.44288,43.77404]},"properties":{"name":"长春滑雪场(地铁站)","original_ids":"[95]","id":94,"layer":"stop"}},{"type":"Feature","geometry":{"type":"Point","coordinates":[125.1725,43.8334]},"properties":{"name":"长春汽车公园(地铁站)","original_ids":"[96]","id":95,"layer":"stop"}},{"type":"Feature","geometry":{"type":"Point","coordinates":[125.1677,43.8471]},"properties":{"name":"长春捷达大路(地铁站)","original_ids":"[97]","id":96,"layer":"stop"}},{"type":"Feature","geometry":{"type":"Point","coordinates":[125.1681,43.8552]},"properties":{"name":"长春西湖(地铁站)","original_ids":"[98]","id":97,"layer":"stop"}},{"type":"Feature","geometry":{"type":"Point","coordinates":[125.21695,43.88158]},"properties":{"name":"长春兴隆堡(地铁站)","original_ids":"[99]","id":98,"layer":"stop"}},{"type":"Feature","geometry":{"type":"Point","coordinates":[125.2336,43.88159]},"properties":{"name":"长春西环城路(地铁站)","original_ids":"[100]","id":99,"layer":"stop"}},{"type":"Feature","geometry":{"type":"Point","coordinates":[125.2483,43.88177]},"properties":{"name":"长春和平大街(地铁站)","original_ids":"[101]","id":100,"layer":"stop"}},{"type":"Feature","geometry":{"type":"Point","coordinates":[125.2596,43.8819]},"properties":{"name":"长春万福街(地铁站)","original_ids":"[102]","id":101,"layer":"stop"}},{"type":"Feature","geometry":{"type":"Point","coordinates":[125.26967,43.88027]},"properties":{"name":"长春景阳广场(地铁站)","original_ids":"[103]","id":102,"layer":"stop"}},{"type":"Feature","geometry":{"type":"Point","coordinates":[125.26967,43.88027]},"properties":{"name":"长春建设广场(地铁站)","original_ids":"[104]","id":103,"layer":"stop"}},{"type":"Feature","geometry":{"type":"Point","coordinates":[125.3077,43.8783]},"properties":{"name":"长春文化广场(地铁站)","original_ids":"[105]","id":104,"layer":"stop"}},{"type":"Feature","geometry":{"type":"Point","coordinates":[125.3342,43.8784]},"properties":{"name":"长春平阳街(地铁站)","original_ids":"[106]","id":105,"layer":"stop"}},{"type":"Feature","geometry":{"type":"Point","coordinates":[125.3451,43.8807]},"properties":{"name":"长春南关(地铁站)","original_ids":"[107]","id":106,"layer":"stop"}},{"type":"Feature","geometry":{"type":"Point","coordinates":[125.37012,43.87968]},"properties":{"name":"长春东盛大街(地铁站)","original_ids":"[108]","id":107,"layer":"stop"}},{"type":"Feature","geometry":{"type":"Point","coordinates":[125.3881,43.87989]},"properties":{"name":"长春东环城路(地铁站)","original_ids":"[109]","id":108,"layer":"stop"}},{"type":"Feature","geometry":{"type":"Point","coordinates":[125.40329,43.87982]},"properties":{"name":"长春长青(地铁站)","original_ids":"[110]","id":109,"layer":"stop"}},{"type":"Feature","geometry":{"type":"Point","coordinates":[125.41952,43.87928]},"properties":{"name":"长春东方广场(地铁站)","original_ids":"[111]","id":110,"layer":"stop"}},{"type":"Feature","properties":{"shape_id":"{}","direction_id":"{\"0\": 50}","headsign":"{}","duration_avg":120,"n_vehicles":50,"d":1200,"route_I_counts":"{\"1\": 50}","source":0,"target":1,"layer":"L","from":"长春北环城路(地铁站)","to":"长春庆丰路(地铁站)"},"geometry":{"type":"LineString","coordinates":[[125.317693,43.94547],[125.317661,43.934776]]}},{"type":"Feature","properties":{"shape_id":"{}","direction_id":"{\"1\": 50}","headsign":"{}","duration_avg":120,"n_vehicles":50,"d":1200,"route_I_counts":"{\"1\": 50}","source":1,"target":0,"layer":"L","from":"长春庆丰路(地铁站)","to":"长春北环城路(地铁站)"},"geometry":{"type":"LineString","coordinates":[[125.317661,43.934776],[125.317693,43.94547]]}},{"type":"Feature","properties":{"shape_id":"{}","direction_id":"{\"0\": 50}","headsign":"{}","duration_avg":120,"n_vehicles":50,"d":1200,"route_I_counts":"{\"1\": 50}","source":1,"target":2,"layer":"L","from":"长春庆丰路(地铁站)","to":"长春一匡街(地铁站)"},"geometry":{"type":"LineString","coordinates":[[125.317661,43.934776],[125.317685,43.922911]]}},{"type":"Feature","properties":{"shape_id":"{}","direction_id":"{\"1\": 50}","headsign":"{}","duration_avg":120,"n_vehicles":50,"d":1200,"route_I_counts":"{\"1\": 50}","source":2,"target":1,"layer":"L","from":"长春一匡街(地铁站)","to":"长春庆丰路(地铁站)"},"geometry":{"type":"LineString","coordinates":[[125.317685,43.922911],[125.317661,43.934776]]}},{"type":"Feature","properties":{"shape_id":"{}","direction_id":"{\"0\": 50}","headsign":"{}","duration_avg":120,"n_vehicles":50,"d":1200,"route_I_counts":"{\"1\": 50}","source":2,"target":3,"layer":"L","from":"长春一匡街(地铁站)","to":"长春长春站北(地铁站)"},"geometry":{"type":"LineString","coordinates":[[125.317685,43.922911],[125.316893,43.911706]]}},{"type":"Feature","properties":{"shape_id":"{}","direction_id":"{\"1\": 50}","headsign":"{}","duration_avg":120,"n_vehicles":50,"d":1200,"route_I_counts":"{\"1\": 50}","source":3,"target":2,"layer":"L","from":"长春长春站北(地铁站)","to":"长春一匡街(地铁站)"},"geometry":{"type":"LineString","coordinates":[[125.316893,43.911706],[125.317685,43.922911]]}},{"type":"Feature","properties":{"shape_id":"{}","direction_id":"{\"0\": 50}","headsign":"{}","duration_avg":120,"n_vehicles":50,"d":1200,"route_I_counts":"{\"1\": 50}","source":3,"target":4,"layer":"L","from":"长春长春站北(地铁站)","to":"长春长春站(地铁站)"},"geometry":{"type":"LineString","coordinates":[[125.316893,43.911706],[125.31674,43.906884]]}},{"type":"Feature","properties":{"shape_id":"{}","direction_id":"{\"1\": 50}","headsign":"{}","duration_avg":120,"n_vehicles":50,"d":1200,"route_I_counts":"{\"1\": 50}","source":4,"target":3,"layer":"L","from":"长春长春站(地铁站)","to":"长春长春站北(地铁站)"},"geometry":{"type":"LineString","coordinates":[[125.31674,43.906884],[125.316893,43.911706]]}},{"type":"Feature","properties":{"shape_id":"{}","direction_id":"{\"0\": 50}","headsign":"{}","duration_avg":120,"n_vehicles":50,"d":1200,"route_I_counts":"{\"1\": 50}","source":4,"target":5,"layer":"L","from":"长春长春站(地铁站)","to":"长春胜利公园(地铁站)"},"geometry":{"type":"LineString","coordinates":[[125.31674,43.906884],[125.317811,43.897572]]}},{"type":"Feature","properties":{"shape_id":"{}","direction_id":"{\"1\": 50}","headsign":"{}","duration_avg":120,"n_vehicles":50,"d":1200,"route_I_counts":"{\"1\": 50}","source":5,"target":4,"layer":"L","from":"长春胜利公园(地铁站)","to":"长春长春站(地铁站)"},"geometry":{"type":"LineString","coordinates":[[125.317811,43.897572],[125.31674,43.906884]]}},{"type":"Feature","properties":{"shape_id":"{}","direction_id":"{\"0\": 50}","headsign":"{}","duration_avg":180,"n_vehicles":50,"d":1800,"route_I_counts":"{\"1\": 50}","source":5,"target":6,"layer":"L","from":"长春胜利公园(地铁站)","to":"长春人民广场(地铁站)"},"geometry":{"type":"LineString","coordinates":[[125.317811,43.897572],[125.318132,43.88623]]}},{"type":"Feature","properties":{"shape_id":"{}","direction_id":"{\"1\": 50}","headsign":"{}","duration_avg":180,"n_vehicles":50,"d":1800,"route_I_counts":"{\"1\": 50}","source":6,"target":5,"layer":"L","from":"长春人民广场(地铁站)","to":"长春胜利公园(地铁站)"},"geometry":{"type":"LineString","coordinates":[[125.318132,43.88623],[125.317811,43.897572]]}},{"type":"Feature","properties":{"shape_id":"{}","direction_id":"{\"0\": 50}","headsign":"{}","duration_avg":120,"n_vehicles":50,"d":1200,"route_I_counts":"{\"1\": 50}","source":6,"target":7,"layer":"L","from":"长春人民广场(地铁站)","to":"长春解放大路(地铁站)"},"geometry":{"type":"LineString","coordinates":[[125.318132,43.88623],[125.318362,43.875819]]}},{"type":"Feature","properties":{"shape_id":"{}","direction_id":"{\"1\": 50}","headsign":"{}","duration_avg":120,"n_vehicles":50,"d":1200,"route_I_counts":"{\"1\": 50}","source":7,"target":6,"layer":"L","from":"长春解放大路(地铁站)","to":"长春人民广场(地铁站)"},"geometry":{"type":"LineString","coordinates":[[125.318362,43.875819],[125.318132,43.88623]]}},{"type":"Feature","properties":{"shape_id":"{}","direction_id":"{\"0\": 50}","headsign":"{}","duration_avg":180,"n_vehicles":50,"d":1800,"route_I_counts":"{\"1\": 50}","source":7,"target":8,"layer":"L","from":"长春解放大路(地铁站)","to":"长春东北师大(地铁站)"},"geometry":{"type":"LineString","coordinates":[[125.318362,43.875819],[125.318668,43.861623]]}},{"type":"Feature","properties":{"shape_id":"{}","direction_id":"{\"1\": 50}","headsign":"{}","duration_avg":180,"n_vehicles":50,"d":1800,"route_I_counts":"{\"1\": 50}","source":8,"target":7,"layer":"L","from":"长春东北师大(地铁站)","to":"长春解放大路(地铁站)"},"geometry":{"type":"LineString","coordinates":[[125.318668,43.861623],[125.318362,43.875819]]}},{"type":"Feature","properties":{"shape_id":"{}","direction_id":"{\"0\": 50}","headsign":"{}","duration_avg":120,"n_vehicles":50,"d":1200,"route_I_counts":"{\"1\": 50}","source":8,"target":9,"layer":"L","from":"长春东北师大(地铁站)","to":"长春工农广场(地铁站)"},"geometry":{"type":"LineString","coordinates":[[125.318668,43.861623],[125.318945,43.848398]]}},{"type":"Feature","properties":{"shape_id":"{}","direction_id":"{\"1\": 50}","headsign":"{}","duration_avg":120,"n_vehicles":50,"d":1200,"route_I_counts":"{\"1\": 50}","source":9,"target":8,"layer":"L","from":"长春工农广场(地铁站)","to":"长春东北师大(地铁站)"},"geometry":{"type":"LineString","coordinates":[[125.318945,43.848398],[125.318668,43.861623]]}},{"type":"Feature","properties":{"shape_id":"{}","direction_id":"{\"0\": 50}","headsign":"{}","duration_avg":120,"n_vehicles":50,"d":1200,"route_I_counts":"{\"1\": 50}","source":9,"target":10,"layer":"L","from":"长春工农广场(地铁站)","to":"长春繁荣路(地铁站)"},"geometry":{"type":"LineString","coordinates":[[125.318945,43.848398],[125.319191,43.838626]]}},{"type":"Feature","properties":{"shape_id":"{}","direction_id":"{\"1\": 50}","headsign":"{}","duration_avg":120,"n_vehicles":50,"d":1200,"route_I_counts":"{\"1\": 50}","source":10,"target":9,"layer":"L","from":"长春繁荣路(地铁站)","to":"长春工农广场(地铁站)"},"geometry":{"type":"LineString","coordinates":[[125.319191,43.838626],[125.318945,43.848398]]}},{"type":"Feature","properties":{"shape_id":"{}","direction_id":"{\"0\": 50}","headsign":"{}","duration_avg":180,"n_vehicles":50,"d":1800,"route_I_counts":"{\"1\": 50}","source":10,"target":11,"layer":"L","from":"长春繁荣路(地铁站)","to":"长春卫星广场(地铁站)"},"geometry":{"type":"LineString","coordinates":[[125.319191,43.838626],[125.319312,43.830244]]}},{"type":"Feature","properties":{"shape_id":"{}","direction_id":"{\"1\": 50}","headsign":"{}","duration_avg":180,"n_vehicles":50,"d":1800,"route_I_counts":"{\"1\": 50}","source":11,"target":10,"layer":"L","from":"长春卫星广场(地铁站)","to":"长春繁荣路(地铁站)"},"geometry":{"type":"LineString","coordinates":[[125.319312,43.830244],[125.319191,43.838626]]}},{"type":"Feature","properties":{"shape_id":"{}","direction_id":"{\"0\": 50}","headsign":"{}","duration_avg":120,"n_vehicles":50,"d":1200,"route_I_counts":"{\"1\": 50}","source":11,"target":12,"layer":"L","from":"长春卫星广场(地铁站)","to":"长春市政府(地铁站)"},"geometry":{"type":"LineString","coordinates":[[125.319312,43.830244],[125.31944,43.816335]]}},{"type":"Feature","properties":{"shape_id":"{}","direction_id":"{\"1\": 50}","headsign":"{}","duration_avg":120,"n_vehicles":50,"d":1200,"route_I_counts":"{\"1\": 50}","source":12,"target":11,"layer":"L","from":"长春市政府(地铁站)","to":"长春卫星广场(地铁站)"},"geometry":{"type":"LineString","coordinates":[[125.31944,43.816335],[125.319312,43.830244]]}},{"type":"Feature","properties":{"shape_id":"{}","direction_id":"{\"0\": 50}","headsign":"{}","duration_avg":180,"n_vehicles":50,"d":1800,"route_I_counts":"{\"1\": 50}","source":12,"target":13,"layer":"L","from":"长春市政府(地铁站)","to":"长春华庆路(地铁站)"},"geometry":{"type":"LineString","coordinates":[[125.31944,43.816335],[125.320525,43.797658]]}},{"type":"Feature","properties":{"shape_id":"{}","direction_id":"{\"1\": 50}","headsign":"{}","duration_avg":180,"n_vehicles":50,"d":1800,"route_I_counts":"{\"1\": 50}","source":13,"target":12,"layer":"L","from":"长春华庆路(地铁站)","to":"长春市政府(地铁站)"},"geometry":{"type":"LineString","coordinates":[[125.320525,43.797658],[125.31944,43.816335]]}},{"type":"Feature","properties":{"shape_id":"{}","direction_id":"{\"0\": 50}","headsign":"{}","duration_avg":60,"n_vehicles":50,"d":600,"route_I_counts":"{\"1\": 50}","source":13,"target":14,"layer":"L","from":"长春华庆路(地铁站)","to":"长春红嘴子(地铁站)"},"geometry":{"type":"LineString","coordinates":[[125.320525,43.797658],[125.320928,43.788002]]}},{"type":"Feature","properties":{"shape_id":"{}","direction_id":"{\"1\": 50}","headsign":"{}","duration_avg":60,"n_vehicles":50,"d":600,"route_I_counts":"{\"1\": 50}","source":14,"target":13,"layer":"L","from":"长春红嘴子(地铁站)","to":"长春华庆路(地铁站)"},"geometry":{"type":"LineString","coordinates":[[125.320928,43.788002],[125.320525,43.797658]]}},{"type":"Feature","properties":{"shape_id":"{}","direction_id":"{\"0\": 50}","headsign":"{}","duration_avg":180,"n_vehicles":50,"d":1800,"route_I_counts":"{\"2\": 50}","source":3,"target":15,"layer":"L","from":"长春长春站北(地铁站)","to":"长春北亚泰大街(地铁站)"},"geometry":{"type":"LineString","coordinates":[[125.316893,43.911706],[125.330499,43.909988]]}},{"type":"Feature","properties":{"shape_id":"{}","direction_id":"{\"1\": 50}","headsign":"{}","duration_avg":180,"n_vehicles":50,"d":1800,"route_I_counts":"{\"2\": 50}","source":15,"target":3,"layer":"L","from":"长春北亚泰大街(地铁站)","to":"长春长春站北(地铁站)"},"geometry":{"type":"LineString","coordinates":[[125.330499,43.909988],[125.316893,43.911706]]}},{"type":"Feature","properties":{"shape_id":"{}","direction_id":"{\"0\": 50}","headsign":"{}","duration_avg":120,"n_vehicles":50,"d":1200,"route_I_counts":"{\"2\": 50}","source":15,"target":16,"layer":"L","from":"长春北亚泰大街(地铁站)","to":"长春伪满皇宫(地铁站)"},"geometry":{"type":"LineString","coordinates":[[125.330499,43.909988],[125.345853,43.904158]]}},{"type":"Feature","properties":{"shape_id":"{}","direction_id":"{\"1\": 50}","headsign":"{}","duration_avg":120,"n_vehicles":50,"d":1200,"route_I_counts":"{\"2\": 50}","source":16,"target":15,"layer":"L","from":"长春伪满皇宫(地铁站)","to":"长春北亚泰大街(地铁站)"},"geometry":{"type":"LineString","coordinates":[[125.345853,43.904158],[125.330499,43.909988]]}},{"type":"Feature","properties":{"shape_id":"{}","direction_id":"{\"0\": 50}","headsign":"{}","duration_avg":120,"n_vehicles":50,"d":1200,"route_I_counts":"{\"2\": 50}","source":16,"target":17,"layer":"L","from":"长春伪满皇宫(地铁站)","to":"长春东大桥(地铁站)"},"geometry":{"type":"LineString","coordinates":[[125.345853,43.904158],[125.350657,43.897592]]}},{"type":"Feature","properties":{"shape_id":"{}","direction_id":"{\"1\": 50}","headsign":"{}","duration_avg":120,"n_vehicles":50,"d":1200,"route_I_counts":"{\"2\": 50}","source":17,"target":16,"layer":"L","from":"长春东大桥(地铁站)","to":"长春伪满皇宫(地铁站)"},"geometry":{"type":"LineString","coordinates":[[125.350657,43.897592],[125.345853,43.904158]]}},{"type":"Feature","properties":{"shape_id":"{}","direction_id":"{\"0\": 50}","headsign":"{}","duration_avg":180,"n_vehicles":50,"d":1800,"route_I_counts":"{\"2\": 50}","source":17,"target":18,"layer":"L","from":"长春东大桥(地铁站)","to":"长春东新路(地铁站)"},"geometry":{"type":"LineString","coordinates":[[125.350657,43.897592],[125.359445,43.889794]]}},{"type":"Feature","properties":{"shape_id":"{}","direction_id":"{\"1\": 50}","headsign":"{}","duration_avg":180,"n_vehicles":50,"d":1800,"route_I_counts":"{\"2\": 50}","source":18,"target":17,"layer":"L","from":"长春东新路(地铁站)","to":"长春东大桥(地铁站)"},"geometry":{"type":"LineString","coordinates":[[125.359445,43.889794],[125.350657,43.897592]]}},{"type":"Feature","properties":{"shape_id":"{}","direction_id":"{\"0\": 50}","headsign":"{}","duration_avg":120,"n_vehicles":50,"d":1200,"route_I_counts":"{\"2\": 50}","source":18,"target":19,"layer":"L","from":"长春东新路(地铁站)","to":"长春吉林大路(地铁站)"},"geometry":{"type":"LineString","coordinates":[[125.359445,43.889794],[125.357671,43.878836]]}},{"type":"Feature","properties":{"shape_id":"{}","direction_id":"{\"1\": 50}","headsign":"{}","duration_avg":120,"n_vehicles":50,"d":1200,"route_I_counts":"{\"2\": 50}","source":19,"target":18,"layer":"L","from":"长春吉林大路(地铁站)","to":"长春东新路(地铁站)"},"geometry":{"type":"LineString","coordinates":[[125.357671,43.878836],[125.359445,43.889794]]}},{"type":"Feature","properties":{"shape_id":"{}","direction_id":"{\"0\": 50}","headsign":"{}","duration_avg":120,"n_vehicles":50,"d":1200,"route_I_counts":"{\"2\": 50}","source":19,"target":20,"layer":"L","from":"长春吉林大路(地铁站)","to":"长春公平路(地铁站)"},"geometry":{"type":"LineString","coordinates":[[125.357671,43.878836],[125.357849,43.869565]]}},{"type":"Feature","properties":{"shape_id":"{}","direction_id":"{\"1\": 50}","headsign":"{}","duration_avg":120,"n_vehicles":50,"d":1200,"route_I_counts":"{\"2\": 50}","source":20,"target":19,"layer":"L","from":"长春公平路(地铁站)","to":"长春吉林大路(地铁站)"},"geometry":{"type":"LineString","coordinates":[[125.357849,43.869565],[125.357671,43.878836]]}},{"type":"Feature","properties":{"shape_id":"{}","direction_id":"{\"0\": 50}","headsign":"{}","duration_avg":120,"n_vehicles":50,"d":1200,"route_I_counts":"{\"2\": 50}","source":20,"target":21,"layer":"L","from":"长春公平路(地铁站)","to":"长春海口路(地铁站)"},"geometry":{"type":"LineString","coordinates":[[125.357849,43.869565],[125.358051,43.861331]]}},{"type":"Feature","properties":{"shape_id":"{}","direction_id":"{\"1\": 50}","headsign":"{}","duration_avg":120,"n_vehicles":50,"d":1200,"route_I_counts":"{\"2\": 50}","source":21,"target":20,"layer":"L","from":"长春海口路(地铁站)","to":"长春公平路(地铁站)"},"geometry":{"type":"LineString","coordinates":[[125.358051,43.861331],[125.357849,43.869565]]}},{"type":"Feature","properties":{"shape_id":"{}","direction_id":"{\"0\": 50}","headsign":"{}","duration_avg":120,"n_vehicles":50,"d":1200,"route_I_counts":"{\"2\": 50}","source":21,"target":22,"layer":"L","from":"长春海口路(地铁站)","to":"长春浦东路(地铁站)"},"geometry":{"type":"LineString","coordinates":[[125.358051,43.861331],[125.358201,43.854555]]}},{"type":"Feature","properties":{"shape_id":"{}","direction_id":"{\"1\": 50}","headsign":"{}","duration_avg":120,"n_vehicles":50,"d":1200,"route_I_counts":"{\"2\": 50}","source":22,"target":21,"layer":"L","from":"长春浦东路(地铁站)","to":"长春海口路(地铁站)"},"geometry":{"type":"LineString","coordinates":[[125.358201,43.854555],[125.358051,43.861331]]}},{"type":"Feature","properties":{"shape_id":"{}","direction_id":"{\"0\": 50}","headsign":"{}","duration_avg":120,"n_vehicles":50,"d":1200,"route_I_counts":"{\"2\": 50}","source":22,"target":23,"layer":"L","from":"长春浦东路(地铁站)","to":"长春威海路(地铁站)"},"geometry":{"type":"LineString","coordinates":[[125.358201,43.854555],[125.358325,43.848206]]}},{"type":"Feature","properties":{"shape_id":"{}","direction_id":"{\"1\": 50}","headsign":"{}","duration_avg":120,"n_vehicles":50,"d":1200,"route_I_counts":"{\"2\": 50}","source":23,"target":22,"layer":"L","from":"长春威海路(地铁站)","to":"长春浦东路(地铁站)"},"geometry":{"type":"LineString","coordinates":[[125.358325,43.848206],[125.358201,43.854555]]}},{"type":"Feature","properties":{"shape_id":"{}","direction_id":"{\"0\": 50}","headsign":"{}","duration_avg":60,"n_vehicles":50,"d":600,"route_I_counts":"{\"2\": 50}","source":23,"target":24,"layer":"L","from":"长春威海路(地铁站)","to":"长春北海路(地铁站)"},"geometry":{"type":"LineString","coordinates":[[125.358325,43.848206],[125.358403,43.839488]]}},{"type":"Feature","properties":{"shape_id":"{}","direction_id":"{\"1\": 50}","headsign":"{}","duration_avg":60,"n_vehicles":50,"d":600,"route_I_counts":"{\"2\": 50}","source":24,"target":23,"layer":"L","from":"长春北海路(地铁站)","to":"长春威海路(地铁站)"},"geometry":{"type":"LineString","coordinates":[[125.358403,43.839488],[125.358325,43.848206]]}},{"type":"Feature","properties":{"shape_id":"{}","direction_id":"{\"0\": 50}","headsign":"{}","duration_avg":180,"n_vehicles":50,"d":1800,"route_I_counts":"{\"2\": 50}","source":24,"target":25,"layer":"L","from":"长春北海路(地铁站)","to":"长春职业学院(地铁站)"},"geometry":{"type":"LineString","coordinates":[[125.358403,43.839488],[125.358689,43.830004]]}},{"type":"Feature","properties":{"shape_id":"{}","direction_id":"{\"1\": 50}","headsign":"{}","duration_avg":180,"n_vehicles":50,"d":1800,"route_I_counts":"{\"2\": 50}","source":25,"target":24,"layer":"L","from":"长春职业学院(地铁站)","to":"长春北海路(地铁站)"},"geometry":{"type":"LineString","coordinates":[[125.358689,43.830004],[125.358403,43.839488]]}},{"type":"Feature","properties":{"shape_id":"{}","direction_id":"{\"0\": 50}","headsign":"{}","duration_avg":120,"n_vehicles":50,"d":1200,"route_I_counts":"{\"2\": 50}","source":25,"target":26,"layer":"L","from":"长春职业学院(地铁站)","to":"长春世荣路(地铁站)"},"geometry":{"type":"LineString","coordinates":[[125.358689,43.830004],[125.358831,43.82276]]}},{"type":"Feature","properties":{"shape_id":"{}","direction_id":"{\"1\": 50}","headsign":"{}","duration_avg":120,"n_vehicles":50,"d":1200,"route_I_counts":"{\"2\": 50}","source":26,"target":25,"layer":"L","from":"长春世荣路(地铁站)","to":"长春职业学院(地铁站)"},"geometry":{"type":"LineString","coordinates":[[125.358831,43.82276],[125.358689,43.830004]]}},{"type":"Feature","properties":{"shape_id":"{}","direction_id":"{\"0\": 50}","headsign":"{}","duration_avg":120,"n_vehicles":50,"d":1200,"route_I_counts":"{\"2\": 50}","source":26,"target":27,"layer":"L","from":"长春世荣路(地铁站)","to":"长春南环城路(地铁站)"},"geometry":{"type":"LineString","coordinates":[[125.358831,43.82276],[125.358991,43.814945]]}},{"type":"Feature","properties":{"shape_id":"{}","direction_id":"{\"1\": 50}","headsign":"{}","duration_avg":120,"n_vehicles":50,"d":1200,"route_I_counts":"{\"2\": 50}","source":27,"target":26,"layer":"L","from":"长春南环城路(地铁站)","to":"长春世荣路(地铁站)"},"geometry":{"type":"LineString","coordinates":[[125.358991,43.814945],[125.358831,43.82276]]}},{"type":"Feature","properties":{"shape_id":"{}","direction_id":"{\"0\": 50}","headsign":"{}","duration_avg":120,"n_vehicles":50,"d":1200,"route_I_counts":"{\"2\": 50}","source":27,"target":28,"layer":"L","from":"长春南环城路(地铁站)","to":"长春宜盛街(地铁站)"},"geometry":{"type":"LineString","coordinates":[[125.358991,43.814945],[125.359172,43.804737]]}},{"type":"Feature","properties":{"shape_id":"{}","direction_id":"{\"1\": 50}","headsign":"{}","duration_avg":120,"n_vehicles":50,"d":1200,"route_I_counts":"{\"2\": 50}","source":28,"target":27,"layer":"L","from":"长春宜盛街(地铁站)","to":"长春南环城路(地铁站)"},"geometry":{"type":"LineString","coordinates":[[125.359172,43.804737],[125.358991,43.814945]]}},{"type":"Feature","properties":{"shape_id":"{}","direction_id":"{\"0\": 50}","headsign":"{}","duration_avg":120,"n_vehicles":50,"d":1200,"route_I_counts":"{\"2\": 50}","source":28,"target":29,"layer":"L","from":"长春宜盛街(地铁站)","to":"长春天工路(地铁站)"},"geometry":{"type":"LineString","coordinates":[[125.359172,43.804737],[125.359754,43.793192]]}},{"type":"Feature","properties":{"shape_id":"{}","direction_id":"{\"1\": 50}","headsign":"{}","duration_avg":120,"n_vehicles":50,"d":1200,"route_I_counts":"{\"2\": 50}","source":29,"target":28,"layer":"L","from":"长春天工路(地铁站)","to":"长春宜盛街(地铁站)"},"geometry":{"type":"LineString","coordinates":[[125.359754,43.793192],[125.359172,43.804737]]}},{"type":"Feature","properties":{"shape_id":"{}","direction_id":"{\"0\": 50}","headsign":"{}","duration_avg":180,"n_vehicles":50,"d":1800,"route_I_counts":"{\"2\": 50}","source":29,"target":30,"layer":"L","from":"长春天工路(地铁站)","to":"长春福祉大路(地铁站)"},"geometry":{"type":"LineString","coordinates":[[125.359754,43.793192],[125.359516,43.783717]]}},{"type":"Feature","properties":{"shape_id":"{}","direction_id":"{\"1\": 50}","headsign":"{}","duration_avg":180,"n_vehicles":50,"d":1800,"route_I_counts":"{\"2\": 50}","source":30,"target":29,"layer":"L","from":"长春福祉大路(地铁站)","to":"长春天工路(地铁站)"},"geometry":{"type":"LineString","coordinates":[[125.359516,43.783717],[125.359754,43.793192]]}},{"type":"Feature","properties":{"shape_id":"{}","direction_id":"{\"0\": 50}","headsign":"{}","duration_avg":120,"n_vehicles":50,"d":1200,"route_I_counts":"{\"2\": 50}","source":30,"target":31,"layer":"L","from":"长春福祉大路(地铁站)","to":"长春天青路(地铁站)"},"geometry":{"type":"LineString","coordinates":[[125.359516,43.783717],[125.359441,43.775925]]}},{"type":"Feature","properties":{"shape_id":"{}","direction_id":"{\"1\": 50}","headsign":"{}","duration_avg":120,"n_vehicles":50,"d":1200,"route_I_counts":"{\"2\": 50}","source":31,"target":30,"layer":"L","from":"长春天青路(地铁站)","to":"长春福祉大路(地铁站)"},"geometry":{"type":"LineString","coordinates":[[125.359441,43.775925],[125.359516,43.783717]]}},{"type":"Feature","properties":{"shape_id":"{}","direction_id":"{\"0\": 50}","headsign":"{}","duration_avg":60,"n_vehicles":50,"d":600,"route_I_counts":"{\"2\": 50}","source":31,"target":32,"layer":"L","from":"长春天青路(地铁站)","to":"长春天普路(地铁站)"},"geometry":{"type":"LineString","coordinates":[[125.359441,43.775925],[125.359589,43.76884]]}},{"type":"Feature","properties":{"shape_id":"{}","direction_id":"{\"1\": 50}","headsign":"{}","duration_avg":60,"n_vehicles":50,"d":600,"route_I_counts":"{\"2\": 50}","source":32,"target":31,"layer":"L","from":"长春天普路(地铁站)","to":"长春天青路(地铁站)"},"geometry":{"type":"LineString","coordinates":[[125.359589,43.76884],[125.359441,43.775925]]}},{"type":"Feature","properties":{"shape_id":"{}","direction_id":"{\"0\": 50}","headsign":"{}","duration_avg":120,"n_vehicles":50,"d":1200,"route_I_counts":"{\"2\": 50}","source":32,"target":33,"layer":"L","from":"长春天普路(地铁站)","to":"长春前十里堡(地铁站)"},"geometry":{"type":"LineString","coordinates":[[125.359589,43.76884],[125.359742,43.760879]]}},{"type":"Feature","properties":{"shape_id":"{}","direction_id":"{\"1\": 50}","headsign":"{}","duration_avg":120,"n_vehicles":50,"d":1200,"route_I_counts":"{\"2\": 50}","source":33,"target":32,"layer":"L","from":"长春前十里堡(地铁站)","to":"长春天普路(地铁站)"},"geometry":{"type":"LineString","coordinates":[[125.359742,43.760879],[125.359589,43.76884]]}},{"type":"Feature","properties":{"shape_id":"{}","direction_id":"{\"0\": 50}","headsign":"{}","duration_avg":120,"n_vehicles":50,"d":1200,"route_I_counts":"{\"2\": 50}","source":33,"target":34,"layer":"L","from":"长春前十里堡(地铁站)","to":"长春天新路(地铁站)"},"geometry":{"type":"LineString","coordinates":[[125.359742,43.760879],[125.359906,43.75269]]}},{"type":"Feature","properties":{"shape_id":"{}","direction_id":"{\"1\": 50}","headsign":"{}","duration_avg":120,"n_vehicles":50,"d":1200,"route_I_counts":"{\"2\": 50}","source":34,"target":33,"layer":"L","from":"长春天新路(地铁站)","to":"长春前十里堡(地铁站)"},"geometry":{"type":"LineString","coordinates":[[125.359906,43.75269],[125.359742,43.760879]]}},{"type":"Feature","properties":{"shape_id":"{}","direction_id":"{\"0\": 50}","headsign":"{}","duration_avg":120,"n_vehicles":50,"d":1200,"route_I_counts":"{\"3\": 50}","source":35,"target":36,"layer":"L","from":"长春长影世纪城(地铁站)","to":"长春省博物院(地铁站)"},"geometry":{"type":"LineString","coordinates":[[125.440435,43.767381],[125.424332,43.76704]]}},{"type":"Feature","properties":{"shape_id":"{}","direction_id":"{\"1\": 50}","headsign":"{}","duration_avg":120,"n_vehicles":50,"d":1200,"route_I_counts":"{\"3\": 50}","source":36,"target":35,"layer":"L","from":"长春省博物院(地铁站)","to":"长春长影世纪城(地铁站)"},"geometry":{"type":"LineString","coordinates":[[125.424332,43.76704],[125.440435,43.767381]]}},{"type":"Feature","properties":{"shape_id":"{}","direction_id":"{\"0\": 50}","headsign":"{}","duration_avg":120,"n_vehicles":50,"d":1200,"route_I_counts":"{\"3\": 50}","source":36,"target":37,"layer":"L","from":"长春省博物院(地铁站)","to":"长春聚业大街(地铁站)"},"geometry":{"type":"LineString","coordinates":[[125.424332,43.76704],[125.415972,43.767167]]}},{"type":"Feature","properties":{"shape_id":"{}","direction_id":"{\"1\": 50}","headsign":"{}","duration_avg":120,"n_vehicles":50,"d":1200,"route_I_counts":"{\"3\": 50}","source":37,"target":36,"layer":"L","from":"长春聚业大街(地铁站)","to":"长春省博物院(地铁站)"},"geometry":{"type":"LineString","coordinates":[[125.415972,43.767167],[125.424332,43.76704]]}},{"type":"Feature","properties":{"shape_id":"{}","direction_id":"{\"0\": 50}","headsign":"{}","duration_avg":120,"n_vehicles":50,"d":1200,"route_I_counts":"{\"3\": 50}","source":37,"target":38,"layer":"L","from":"长春聚业大街(地铁站)","to":"长春樱花街(地铁站)"},"geometry":{"type":"LineString","coordinates":[[125.415972,43.767167],[125.402289,43.768597]]}},{"type":"Feature","properties":{"shape_id":"{}","direction_id":"{\"1\": 50}","headsign":"{}","duration_avg":120,"n_vehicles":50,"d":1200,"route_I_counts":"{\"3\": 50}","source":38,"target":37,"layer":"L","from":"长春樱花街(地铁站)","to":"长春聚业大街(地铁站)"},"geometry":{"type":"LineString","coordinates":[[125.402289,43.768597],[125.415972,43.767167]]}},{"type":"Feature","properties":{"shape_id":"{}","direction_id":"{\"0\": 50}","headsign":"{}","duration_avg":120,"n_vehicles":50,"d":1200,"route_I_counts":"{\"3\": 50}","source":38,"target":39,"layer":"L","from":"长春樱花街(地铁站)","to":"长春亚泰足球基地(地铁站)"},"geometry":{"type":"LineString","coordinates":[[125.402289,43.768597],[125.388618,43.770111]]}},{"type":"Feature","properties":{"shape_id":"{}","direction_id":"{\"1\": 50}","headsign":"{}","duration_avg":120,"n_vehicles":50,"d":1200,"route_I_counts":"{\"3\": 50}","source":39,"target":38,"layer":"L","from":"长春亚泰足球基地(地铁站)","to":"长春樱花街(地铁站)"},"geometry":{"type":"LineString","coordinates":[[125.388618,43.770111],[125.402289,43.768597]]}},{"type":"Feature","properties":{"shape_id":"{}","direction_id":"{\"0\": 50}","headsign":"{}","duration_avg":120,"n_vehicles":50,"d":1200,"route_I_counts":"{\"3\": 50}","source":39,"target":40,"layer":"L","from":"长春亚泰足球基地(地铁站)","to":"长春吴家店(地铁站)"},"geometry":{"type":"LineString","coordinates":[[125.388618,43.770111],[125.371907,43.775405]]}},{"type":"Feature","properties":{"shape_id":"{}","direction_id":"{\"1\": 50}","headsign":"{}","duration_avg":120,"n_vehicles":50,"d":1200,"route_I_counts":"{\"3\": 50}","source":40,"target":39,"layer":"L","from":"长春吴家店(地铁站)","to":"长春亚泰足球基地(地铁站)"},"geometry":{"type":"LineString","coordinates":[[125.371907,43.775405],[125.388618,43.770111]]}},{"type":"Feature","properties":{"shape_id":"{}","direction_id":"{\"0\": 50}","headsign":"{}","duration_avg":120,"n_vehicles":50,"d":1200,"route_I_counts":"{\"3\": 50}","source":40,"target":30,"layer":"L","from":"长春吴家店(地铁站)","to":"长春福祉大路(地铁站)"},"geometry":{"type":"LineString","coordinates":[[125.371907,43.775405],[125.359516,43.783717]]}},{"type":"Feature","properties":{"shape_id":"{}","direction_id":"{\"1\": 50}","headsign":"{}","duration_avg":120,"n_vehicles":50,"d":1200,"route_I_counts":"{\"3\": 50}","source":30,"target":40,"layer":"L","from":"长春福祉大路(地铁站)","to":"长春吴家店(地铁站)"},"geometry":{"type":"LineString","coordinates":[[125.359516,43.783717],[125.371907,43.775405]]}},{"type":"Feature","properties":{"shape_id":"{}","direction_id":"{\"0\": 50}","headsign":"{}","duration_avg":180,"n_vehicles":50,"d":1800,"route_I_counts":"{\"3\": 50}","source":30,"target":41,"layer":"L","from":"长春福祉大路(地铁站)","to":"长春南溪湿地公园(地铁站)"},"geometry":{"type":"LineString","coordinates":[[125.359516,43.783717],[125.34869,43.798323]]}},{"type":"Feature","properties":{"shape_id":"{}","direction_id":"{\"1\": 50}","headsign":"{}","duration_avg":180,"n_vehicles":50,"d":1800,"route_I_counts":"{\"3\": 50}","source":41,"target":30,"layer":"L","from":"长春南溪湿地公园(地铁站)","to":"长春福祉大路(地铁站)"},"geometry":{"type":"LineString","coordinates":[[125.34869,43.798323],[125.359516,43.783717]]}},{"type":"Feature","properties":{"shape_id":"{}","direction_id":"{\"0\": 50}","headsign":"{}","duration_avg":180,"n_vehicles":50,"d":1800,"route_I_counts":"{\"3\": 50}","source":41,"target":13,"layer":"L","from":"长春南溪湿地公园(地铁站)","to":"长春华庆路(地铁站)"},"geometry":{"type":"LineString","coordinates":[[125.34869,43.798323],[125.320525,43.797658]]}},{"type":"Feature","properties":{"shape_id":"{}","direction_id":"{\"1\": 50}","headsign":"{}","duration_avg":180,"n_vehicles":50,"d":1800,"route_I_counts":"{\"3\": 50}","source":13,"target":41,"layer":"L","from":"长春华庆路(地铁站)","to":"长春南溪湿地公园(地铁站)"},"geometry":{"type":"LineString","coordinates":[[125.320525,43.797658],[125.34869,43.798323]]}},{"type":"Feature","properties":{"shape_id":"{}","direction_id":"{\"0\": 50}","headsign":"{}","duration_avg":120,"n_vehicles":50,"d":1200,"route_I_counts":"{\"3\": 50}","source":13,"target":42,"layer":"L","from":"长春华庆路(地铁站)","to":"长春新明街(地铁站)"},"geometry":{"type":"LineString","coordinates":[[125.320525,43.797658],[125.306293,43.797655]]}},{"type":"Feature","properties":{"shape_id":"{}","direction_id":"{\"1\": 50}","headsign":"{}","duration_avg":120,"n_vehicles":50,"d":1200,"route_I_counts":"{\"3\": 50}","source":42,"target":13,"layer":"L","from":"长春新明街(地铁站)","to":"长春华庆路(地铁站)"},"geometry":{"type":"LineString","coordinates":[[125.306293,43.797655],[125.320525,43.797658]]}},{"type":"Feature","properties":{"shape_id":"{}","direction_id":"{\"0\": 50}","headsign":"{}","duration_avg":120,"n_vehicles":50,"d":1200,"route_I_counts":"{\"3\": 50}","source":42,"target":43,"layer":"L","from":"长春新明街(地铁站)","to":"长春轨道集团(地铁站)"},"geometry":{"type":"LineString","coordinates":[[125.306293,43.797655],[125.299052,43.797689]]}},{"type":"Feature","properties":{"shape_id":"{}","direction_id":"{\"1\": 50}","headsign":"{}","duration_avg":120,"n_vehicles":50,"d":1200,"route_I_counts":"{\"3\": 50}","source":43,"target":42,"layer":"L","from":"长春轨道集团(地铁站)","to":"长春新明街(地铁站)"},"geometry":{"type":"LineString","coordinates":[[125.299052,43.797689],[125.306293,43.797655]]}},{"type":"Feature","properties":{"shape_id":"{}","direction_id":"{\"0\": 50}","headsign":"{}","duration_avg":60,"n_vehicles":50,"d":600,"route_I_counts":"{\"3\": 50}","source":43,"target":44,"layer":"L","from":"长春轨道集团(地铁站)","to":"长春兰桡湖公园(地铁站)"},"geometry":{"type":"LineString","coordinates":[[125.299052,43.797689],[125.289769,43.797663]]}},{"type":"Feature","properties":{"shape_id":"{}","direction_id":"{\"1\": 50}","headsign":"{}","duration_avg":60,"n_vehicles":50,"d":600,"route_I_counts":"{\"3\": 50}","source":44,"target":43,"layer":"L","from":"长春兰桡湖公园(地铁站)","to":"长春轨道集团(地铁站)"},"geometry":{"type":"LineString","coordinates":[[125.289769,43.797663],[125.299052,43.797689]]}},{"type":"Feature","properties":{"shape_id":"{}","direction_id":"{\"0\": 50}","headsign":"{}","duration_avg":180,"n_vehicles":50,"d":1800,"route_I_counts":"{\"3\": 50}","source":44,"target":45,"layer":"L","from":"长春兰桡湖公园(地铁站)","to":"长春市法院(地铁站)"},"geometry":{"type":"LineString","coordinates":[[125.289769,43.797663],[125.269986,43.803205]]}},{"type":"Feature","properties":{"shape_id":"{}","direction_id":"{\"1\": 50}","headsign":"{}","duration_avg":180,"n_vehicles":50,"d":1800,"route_I_counts":"{\"3\": 50}","source":45,"target":44,"layer":"L","from":"长春市法院(地铁站)","to":"长春兰桡湖公园(地铁站)"},"geometry":{"type":"LineString","coordinates":[[125.269986,43.803205],[125.289769,43.797663]]}},{"type":"Feature","properties":{"shape_id":"{}","direction_id":"{\"0\": 50}","headsign":"{}","duration_avg":120,"n_vehicles":50,"d":1200,"route_I_counts":"{\"3\": 50}","source":45,"target":46,"layer":"L","from":"长春市法院(地铁站)","to":"长春百花园(地铁站)"},"geometry":{"type":"LineString","coordinates":[[125.269986,43.803205],[125.269298,43.810911]]}},{"type":"Feature","properties":{"shape_id":"{}","direction_id":"{\"1\": 50}","headsign":"{}","duration_avg":120,"n_vehicles":50,"d":1200,"route_I_counts":"{\"3\": 50}","source":46,"target":45,"layer":"L","from":"长春百花园(地铁站)","to":"长春市法院(地铁站)"},"geometry":{"type":"LineString","coordinates":[[125.269298,43.810911],[125.269986,43.803205]]}},{"type":"Feature","properties":{"shape_id":"{}","direction_id":"{\"0\": 50}","headsign":"{}","duration_avg":120,"n_vehicles":50,"d":1200,"route_I_counts":"{\"3\": 50}","source":46,"target":47,"layer":"L","from":"长春百花园(地铁站)","to":"长春硅谷广场(地铁站)"},"geometry":{"type":"LineString","coordinates":[[125.269298,43.810911],[125.255079,43.823033]]}},{"type":"Feature","properties":{"shape_id":"{}","direction_id":"{\"1\": 50}","headsign":"{}","duration_avg":120,"n_vehicles":50,"d":1200,"route_I_counts":"{\"3\": 50}","source":47,"target":46,"layer":"L","from":"长春硅谷广场(地铁站)","to":"长春百花园(地铁站)"},"geometry":{"type":"LineString","coordinates":[[125.255079,43.823033],[125.269298,43.810911]]}},{"type":"Feature","properties":{"shape_id":"{}","direction_id":"{\"0\": 50}","headsign":"{}","duration_avg":120,"n_vehicles":50,"d":1200,"route_I_counts":"{\"3\": 50}","source":47,"target":48,"layer":"L","from":"长春硅谷广场(地铁站)","to":"长春光谷大街(地铁站)"},"geometry":{"type":"LineString","coordinates":[[125.255079,43.823033],[125.243943,43.830124]]}},{"type":"Feature","properties":{"shape_id":"{}","direction_id":"{\"1\": 50}","headsign":"{}","duration_avg":120,"n_vehicles":50,"d":1200,"route_I_counts":"{\"3\": 50}","source":48,"target":47,"layer":"L","from":"长春光谷大街(地铁站)","to":"长春硅谷广场(地铁站)"},"geometry":{"type":"LineString","coordinates":[[125.243943,43.830124],[125.255079,43.823033]]}},{"type":"Feature","properties":{"shape_id":"{}","direction_id":"{\"0\": 50}","headsign":"{}","duration_avg":120,"n_vehicles":50,"d":1200,"route_I_counts":"{\"3\": 50}","source":48,"target":49,"layer":"L","from":"长春光谷大街(地铁站)","to":"长春欧亚卖场(地铁站)"},"geometry":{"type":"LineString","coordinates":[[125.243943,43.830124],[125.234692,43.835991]]}},{"type":"Feature","properties":{"shape_id":"{}","direction_id":"{\"1\": 50}","headsign":"{}","duration_avg":120,"n_vehicles":50,"d":1200,"route_I_counts":"{\"3\": 50}","source":49,"target":48,"layer":"L","from":"长春欧亚卖场(地铁站)","to":"长春光谷大街(地铁站)"},"geometry":{"type":"LineString","coordinates":[[125.234692,43.835991],[125.243943,43.830124]]}},{"type":"Feature","properties":{"shape_id":"{}","direction_id":"{\"0\": 50}","headsign":"{}","duration_avg":180,"n_vehicles":50,"d":1800,"route_I_counts":"{\"3\": 50}","source":49,"target":50,"layer":"L","from":"长春欧亚卖场(地铁站)","to":"长春飞跃广场(地铁站)"},"geometry":{"type":"LineString","coordinates":[[125.234692,43.835991],[125.22408,43.847193]]}},{"type":"Feature","properties":{"shape_id":"{}","direction_id":"{\"1\": 50}","headsign":"{}","duration_avg":180,"n_vehicles":50,"d":1800,"route_I_counts":"{\"3\": 50}","source":50,"target":49,"layer":"L","from":"长春飞跃广场(地铁站)","to":"长春欧亚卖场(地铁站)"},"geometry":{"type":"LineString","coordinates":[[125.22408,43.847193],[125.234692,43.835991]]}},{"type":"Feature","properties":{"shape_id":"{}","direction_id":"{\"0\": 50}","headsign":"{}","duration_avg":120,"n_vehicles":50,"d":1200,"route_I_counts":"{\"3\": 50}","source":50,"target":51,"layer":"L","from":"长春飞跃广场(地铁站)","to":"长春支农大街(地铁站)"},"geometry":{"type":"LineString","coordinates":[[125.22408,43.847193],[125.216418,43.857328]]}},{"type":"Feature","properties":{"shape_id":"{}","direction_id":"{\"1\": 50}","headsign":"{}","duration_avg":120,"n_vehicles":50,"d":1200,"route_I_counts":"{\"3\": 50}","source":51,"target":50,"layer":"L","from":"长春支农大街(地铁站)","to":"长春飞跃广场(地铁站)"},"geometry":{"type":"LineString","coordinates":[[125.216418,43.857328],[125.22408,43.847193]]}},{"type":"Feature","properties":{"shape_id":"{}","direction_id":"{\"0\": 50}","headsign":"{}","duration_avg":120,"n_vehicles":50,"d":1200,"route_I_counts":"{\"3\": 50}","source":51,"target":52,"layer":"L","from":"长春支农大街(地铁站)","to":"长春腾跃街(地铁站)"},"geometry":{"type":"LineString","coordinates":[[125.216418,43.857328],[125.208811,43.868729]]}},{"type":"Feature","properties":{"shape_id":"{}","direction_id":"{\"1\": 50}","headsign":"{}","duration_avg":120,"n_vehicles":50,"d":1200,"route_I_counts":"{\"3\": 50}","source":52,"target":51,"layer":"L","from":"长春腾跃街(地铁站)","to":"长春支农大街(地铁站)"},"geometry":{"type":"LineString","coordinates":[[125.208811,43.868729],[125.216418,43.857328]]}},{"type":"Feature","properties":{"shape_id":"{}","direction_id":"{\"0\": 50}","headsign":"{}","duration_avg":180,"n_vehicles":50,"d":1800,"route_I_counts":"{\"3\": 50}","source":52,"target":53,"layer":"L","from":"长春腾跃街(地铁站)","to":"长春长春西站(地铁站)"},"geometry":{"type":"LineString","coordinates":[[125.208811,43.868729],[125.194708,43.874199]]}},{"type":"Feature","properties":{"shape_id":"{}","direction_id":"{\"1\": 50}","headsign":"{}","duration_avg":180,"n_vehicles":50,"d":1800,"route_I_counts":"{\"3\": 50}","source":53,"target":52,"layer":"L","from":"长春长春西站(地铁站)","to":"长春腾跃街(地铁站)"},"geometry":{"type":"LineString","coordinates":[[125.194708,43.874199],[125.208811,43.868729]]}},{"type":"Feature","properties":{"shape_id":"{}","direction_id":"{\"0\": 50}","headsign":"{}","duration_avg":60,"n_vehicles":50,"d":600,"route_I_counts":"{\"3\": 50, \"6\": 50}","source":53,"target":54,"layer":"L","from":"长春长春西站(地铁站)","to":"长春双丰(地铁站)"},"geometry":{"type":"LineString","coordinates":[[125.194708,43.874199],[125.179142,43.865018]]}},{"type":"Feature","properties":{"shape_id":"{}","direction_id":"{\"1\": 50}","headsign":"{}","duration_avg":60,"n_vehicles":50,"d":600,"route_I_counts":"{\"3\": 50, \"6\": 50}","source":54,"target":53,"layer":"L","from":"长春双丰(地铁站)","to":"长春长春西站(地铁站)"},"geometry":{"type":"LineString","coordinates":[[125.179142,43.865018],[125.194708,43.874199]]}},{"type":"Feature","properties":{"shape_id":"{}","direction_id":"{\"0\": 50}","headsign":"{}","duration_avg":120,"n_vehicles":50,"d":1200,"route_I_counts":"{\"4\": 50}","source":0,"target":55,"layer":"L","from":"长春北环城路(地铁站)","to":"长春一二三中学(地铁站)"},"geometry":{"type":"LineString","coordinates":[[125.317693,43.94547],[125.323646,43.953213]]}},{"type":"Feature","properties":{"shape_id":"{}","direction_id":"{\"1\": 50}","headsign":"{}","duration_avg":120,"n_vehicles":50,"d":1200,"route_I_counts":"{\"4\": 50}","source":55,"target":0,"layer":"L","from":"长春一二三中学(地铁站)","to":"长春北环城路(地铁站)"},"geometry":{"type":"LineString","coordinates":[[125.323646,43.953213],[125.317693,43.94547]]}},{"type":"Feature","properties":{"shape_id":"{}","direction_id":"{\"0\": 50}","headsign":"{}","duration_avg":120,"n_vehicles":50,"d":1200,"route_I_counts":"{\"4\": 50}","source":55,"target":56,"layer":"L","from":"长春一二三中学(地铁站)","to":"长春小南(地铁站)"},"geometry":{"type":"LineString","coordinates":[[125.323646,43.953213],[125.323442,43.962762]]}},{"type":"Feature","properties":{"shape_id":"{}","direction_id":"{\"1\": 50}","headsign":"{}","duration_avg":120,"n_vehicles":50,"d":1200,"route_I_counts":"{\"4\": 50}","source":56,"target":55,"layer":"L","from":"长春小南(地铁站)","to":"长春一二三中学(地铁站)"},"geometry":{"type":"LineString","coordinates":[[125.323442,43.962762],[125.323646,43.953213]]}},{"type":"Feature","properties":{"shape_id":"{}","direction_id":"{\"0\": 50}","headsign":"{}","duration_avg":120,"n_vehicles":50,"d":1200,"route_I_counts":"{\"4\": 50}","source":56,"target":57,"layer":"L","from":"长春小南(地铁站)","to":"长春小城子街(地铁站)"},"geometry":{"type":"LineString","coordinates":[[125.323442,43.962762],[125.324754,43.968631]]}},{"type":"Feature","properties":{"shape_id":"{}","direction_id":"{\"1\": 50}","headsign":"{}","duration_avg":120,"n_vehicles":50,"d":1200,"route_I_counts":"{\"4\": 50}","source":57,"target":56,"layer":"L","from":"长春小城子街(地铁站)","to":"长春小南(地铁站)"},"geometry":{"type":"LineString","coordinates":[[125.324754,43.968631],[125.323442,43.962762]]}},{"type":"Feature","properties":{"shape_id":"{}","direction_id":"{\"0\": 50}","headsign":"{}","duration_avg":180,"n_vehicles":50,"d":1800,"route_I_counts":"{\"4\": 50}","source":57,"target":58,"layer":"L","from":"长春小城子街(地铁站)","to":"长春北湖大桥(地铁站)"},"geometry":{"type":"LineString","coordinates":[[125.324754,43.968631],[125.349448,43.973933]]}},{"type":"Feature","properties":{"shape_id":"{}","direction_id":"{\"1\": 50}","headsign":"{}","duration_avg":180,"n_vehicles":50,"d":1800,"route_I_counts":"{\"4\": 50}","source":58,"target":57,"layer":"L","from":"长春北湖大桥(地铁站)","to":"长春小城子街(地铁站)"},"geometry":{"type":"LineString","coordinates":[[125.349448,43.973933],[125.324754,43.968631]]}},{"type":"Feature","properties":{"shape_id":"{}","direction_id":"{\"0\": 50}","headsign":"{}","duration_avg":120,"n_vehicles":50,"d":1200,"route_I_counts":"{\"4\": 50}","source":58,"target":59,"layer":"L","from":"长春北湖大桥(地铁站)","to":"长春北湖公园(地铁站)"},"geometry":{"type":"LineString","coordinates":[[125.349448,43.973933],[125.361176,43.973985]]}},{"type":"Feature","properties":{"shape_id":"{}","direction_id":"{\"1\": 50}","headsign":"{}","duration_avg":120,"n_vehicles":50,"d":1200,"route_I_counts":"{\"4\": 50}","source":59,"target":58,"layer":"L","from":"长春北湖公园(地铁站)","to":"长春北湖大桥(地铁站)"},"geometry":{"type":"LineString","coordinates":[[125.361176,43.973985],[125.349448,43.973933]]}},{"type":"Feature","properties":{"shape_id":"{}","direction_id":"{\"0\": 50}","headsign":"{}","duration_avg":120,"n_vehicles":50,"d":1200,"route_I_counts":"{\"4\": 50}","source":59,"target":60,"layer":"L","from":"长春北湖公园(地铁站)","to":"长春和安街(地铁站)"},"geometry":{"type":"LineString","coordinates":[[125.361176,43.973985],[125.3708,43.973859]]}},{"type":"Feature","properties":{"shape_id":"{}","direction_id":"{\"1\": 50}","headsign":"{}","duration_avg":120,"n_vehicles":50,"d":1200,"route_I_counts":"{\"4\": 50}","source":60,"target":59,"layer":"L","from":"长春和安街(地铁站)","to":"长春北湖公园(地铁站)"},"geometry":{"type":"LineString","coordinates":[[125.3708,43.973859],[125.361176,43.973985]]}},{"type":"Feature","properties":{"shape_id":"{}","direction_id":"{\"0\": 50}","headsign":"{}","duration_avg":120,"n_vehicles":50,"d":1200,"route_I_counts":"{\"4\": 50}","source":60,"target":61,"layer":"L","from":"长春和安街(地铁站)","to":"长春光机路(地铁站)"},"geometry":{"type":"LineString","coordinates":[[125.3708,43.973859],[125.377937,43.983257]]}},{"type":"Feature","properties":{"shape_id":"{}","direction_id":"{\"1\": 50}","headsign":"{}","duration_avg":120,"n_vehicles":50,"d":1200,"route_I_counts":"{\"4\": 50}","source":61,"target":60,"layer":"L","from":"长春光机路(地铁站)","to":"长春和安街(地铁站)"},"geometry":{"type":"LineString","coordinates":[[125.377937,43.983257],[125.3708,43.973859]]}},{"type":"Feature","properties":{"shape_id":"{}","direction_id":"{\"0\": 50}","headsign":"{}","duration_avg":120,"n_vehicles":50,"d":1200,"route_I_counts":"{\"4\": 50}","source":61,"target":62,"layer":"L","from":"长春光机路(地铁站)","to":"长春大学城路(地铁站)"},"geometry":{"type":"LineString","coordinates":[[125.377937,43.983257],[125.377953,43.992375]]}},{"type":"Feature","properties":{"shape_id":"{}","direction_id":"{\"1\": 50}","headsign":"{}","duration_avg":120,"n_vehicles":50,"d":1200,"route_I_counts":"{\"4\": 50}","source":62,"target":61,"layer":"L","from":"长春大学城路(地铁站)","to":"长春光机路(地铁站)"},"geometry":{"type":"LineString","coordinates":[[125.377953,43.992375],[125.377937,43.983257]]}},{"type":"Feature","properties":{"shape_id":"{}","direction_id":"{\"0\": 50}","headsign":"{}","duration_avg":180,"n_vehicles":50,"d":1800,"route_I_counts":"{\"4\": 50}","source":62,"target":63,"layer":"L","from":"长春大学城路(地铁站)","to":"长春地理所(地铁站)"},"geometry":{"type":"LineString","coordinates":[[125.377953,43.992375],[125.391112,43.995503]]}},{"type":"Feature","properties":{"shape_id":"{}","direction_id":"{\"1\": 50}","headsign":"{}","duration_avg":180,"n_vehicles":50,"d":1800,"route_I_counts":"{\"4\": 50}","source":63,"target":62,"layer":"L","from":"长春地理所(地铁站)","to":"长春大学城路(地铁站)"},"geometry":{"type":"LineString","coordinates":[[125.391112,43.995503],[125.377953,43.992375]]}},{"type":"Feature","properties":{"shape_id":"{}","direction_id":"{\"0\": 50}","headsign":"{}","duration_avg":120,"n_vehicles":50,"d":1200,"route_I_counts":"{\"4\": 50}","source":63,"target":64,"layer":"L","from":"长春地理所(地铁站)","to":"长春奥林匹克公园(地铁站)"},"geometry":{"type":"LineString","coordinates":[[125.391112,43.995503],[125.402991,43.997822]]}},{"type":"Feature","properties":{"shape_id":"{}","direction_id":"{\"1\": 50}","headsign":"{}","duration_avg":120,"n_vehicles":50,"d":1200,"route_I_counts":"{\"4\": 50}","source":64,"target":63,"layer":"L","from":"长春奥林匹克公园(地铁站)","to":"长春地理所(地铁站)"},"geometry":{"type":"LineString","coordinates":[[125.402991,43.997822],[125.391112,43.995503]]}},{"type":"Feature","properties":{"shape_id":"{}","direction_id":"{\"0\": 50}","headsign":"{}","duration_avg":180,"n_vehicles":50,"d":1800,"route_I_counts":"{\"4\": 50}","source":64,"target":65,"layer":"L","from":"长春奥林匹克公园(地铁站)","to":"长春广通路(地铁站)"},"geometry":{"type":"LineString","coordinates":[[125.402991,43.997822],[125.411089,44.006449]]}},{"type":"Feature","properties":{"shape_id":"{}","direction_id":"{\"1\": 50}","headsign":"{}","duration_avg":180,"n_vehicles":50,"d":1800,"route_I_counts":"{\"4\": 50}","source":65,"target":64,"layer":"L","from":"长春广通路(地铁站)","to":"长春奥林匹克公园(地铁站)"},"geometry":{"type":"LineString","coordinates":[[125.411089,44.006449],[125.402991,43.997822]]}},{"type":"Feature","properties":{"shape_id":"{}","direction_id":"{\"0\": 50}","headsign":"{}","duration_avg":120,"n_vehicles":50,"d":1200,"route_I_counts":"{\"5\": 50}","source":16,"target":66,"layer":"L","from":"长春伪满皇宫(地铁站)","to":"长春东广场(地铁站)"},"geometry":{"type":"LineString","coordinates":[[125.345853,43.904158],[125.33267,43.90656]]}},{"type":"Feature","properties":{"shape_id":"{}","direction_id":"{\"1\": 50}","headsign":"{}","duration_avg":120,"n_vehicles":50,"d":1200,"route_I_counts":"{\"5\": 50}","source":66,"target":16,"layer":"L","from":"长春东广场(地铁站)","to":"长春伪满皇宫(地铁站)"},"geometry":{"type":"LineString","coordinates":[[125.33267,43.90656],[125.345853,43.904158]]}},{"type":"Feature","properties":{"shape_id":"{}","direction_id":"{\"0\": 50}","headsign":"{}","duration_avg":120,"n_vehicles":50,"d":1200,"route_I_counts":"{\"5\": 50}","source":66,"target":4,"layer":"L","from":"长春东广场(地铁站)","to":"长春长春站(地铁站)"},"geometry":{"type":"LineString","coordinates":[[125.33267,43.90656],[125.31674,43.906884]]}},{"type":"Feature","properties":{"shape_id":"{}","direction_id":"{\"1\": 50}","headsign":"{}","duration_avg":120,"n_vehicles":50,"d":1200,"route_I_counts":"{\"5\": 50}","source":4,"target":66,"layer":"L","from":"长春长春站(地铁站)","to":"长春东广场(地铁站)"},"geometry":{"type":"LineString","coordinates":[[125.31674,43.906884],[125.33267,43.90656]]}},{"type":"Feature","properties":{"shape_id":"{}","direction_id":"{\"0\": 50}","headsign":"{}","duration_avg":180,"n_vehicles":50,"d":1800,"route_I_counts":"{\"5\": 50}","source":4,"target":67,"layer":"L","from":"长春长春站(地铁站)","to":"长春芙蓉桥(地铁站)"},"geometry":{"type":"LineString","coordinates":[[125.31674,43.906884],[125.3019,43.90268]]}},{"type":"Feature","properties":{"shape_id":"{}","direction_id":"{\"1\": 50}","headsign":"{}","duration_avg":180,"n_vehicles":50,"d":1800,"route_I_counts":"{\"5\": 50}","source":67,"target":4,"layer":"L","from":"长春芙蓉桥(地铁站)","to":"长春长春站(地铁站)"},"geometry":{"type":"LineString","coordinates":[[125.3019,43.90268],[125.31674,43.906884]]}},{"type":"Feature","properties":{"shape_id":"{}","direction_id":"{\"0\": 50}","headsign":"{}","duration_avg":180,"n_vehicles":50,"d":1800,"route_I_counts":"{\"5\": 50}","source":67,"target":68,"layer":"L","from":"长春芙蓉桥(地铁站)","to":"长春西安桥(地铁站)"},"geometry":{"type":"LineString","coordinates":[[125.3019,43.90268],[125.29388,43.89256]]}},{"type":"Feature","properties":{"shape_id":"{}","direction_id":"{\"1\": 50}","headsign":"{}","duration_avg":180,"n_vehicles":50,"d":1800,"route_I_counts":"{\"5\": 50}","source":68,"target":67,"layer":"L","from":"长春西安桥(地铁站)","to":"长春芙蓉桥(地铁站)"},"geometry":{"type":"LineString","coordinates":[[125.29388,43.89256],[125.3019,43.90268]]}},{"type":"Feature","properties":{"shape_id":"{}","direction_id":"{\"0\": 50}","headsign":"{}","duration_avg":60,"n_vehicles":50,"d":600,"route_I_counts":"{\"5\": 50}","source":68,"target":69,"layer":"L","from":"长春西安桥(地铁站)","to":"长春南昌路(地铁站)"},"geometry":{"type":"LineString","coordinates":[[125.29388,43.89256],[125.29045,43.88777]]}},{"type":"Feature","properties":{"shape_id":"{}","direction_id":"{\"1\": 50}","headsign":"{}","duration_avg":60,"n_vehicles":50,"d":600,"route_I_counts":"{\"5\": 50}","source":69,"target":68,"layer":"L","from":"长春南昌路(地铁站)","to":"长春西安桥(地铁站)"},"geometry":{"type":"LineString","coordinates":[[125.29045,43.88777],[125.29388,43.89256]]}},{"type":"Feature","properties":{"shape_id":"{}","direction_id":"{\"0\": 50}","headsign":"{}","duration_avg":120,"n_vehicles":50,"d":1200,"route_I_counts":"{\"5\": 50}","source":69,"target":70,"layer":"L","from":"长春南昌路(地铁站)","to":"长春朝阳桥(地铁站)"},"geometry":{"type":"LineString","coordinates":[[125.29045,43.88777],[125.28667,43.88256]]}},{"type":"Feature","properties":{"shape_id":"{}","direction_id":"{\"1\": 50}","headsign":"{}","duration_avg":120,"n_vehicles":50,"d":1200,"route_I_counts":"{\"5\": 50}","source":70,"target":69,"layer":"L","from":"长春朝阳桥(地铁站)","to":"长春南昌路(地铁站)"},"geometry":{"type":"LineString","coordinates":[[125.28667,43.88256],[125.29045,43.88777]]}},{"type":"Feature","properties":{"shape_id":"{}","direction_id":"{\"0\": 50}","headsign":"{}","duration_avg":120,"n_vehicles":50,"d":1200,"route_I_counts":"{\"5\": 50}","source":70,"target":71,"layer":"L","from":"长春朝阳桥(地铁站)","to":"长春解放桥(地铁站)"},"geometry":{"type":"LineString","coordinates":[[125.28667,43.88256],[125.28185,43.87579]]}},{"type":"Feature","properties":{"shape_id":"{}","direction_id":"{\"1\": 50}","headsign":"{}","duration_avg":120,"n_vehicles":50,"d":1200,"route_I_counts":"{\"5\": 50}","source":71,"target":70,"layer":"L","from":"长春解放桥(地铁站)","to":"长春朝阳桥(地铁站)"},"geometry":{"type":"LineString","coordinates":[[125.28185,43.87579],[125.28667,43.88256]]}},{"type":"Feature","properties":{"shape_id":"{}","direction_id":"{\"0\": 50}","headsign":"{}","duration_avg":120,"n_vehicles":50,"d":1200,"route_I_counts":"{\"5\": 50}","source":71,"target":72,"layer":"L","from":"长春解放桥(地铁站)","to":"长春湖西桥(地铁站)"},"geometry":{"type":"LineString","coordinates":[[125.28185,43.87579],[125.27586,43.86706]]}},{"type":"Feature","properties":{"shape_id":"{}","direction_id":"{\"1\": 50}","headsign":"{}","duration_avg":120,"n_vehicles":50,"d":1200,"route_I_counts":"{\"5\": 50}","source":72,"target":71,"layer":"L","from":"长春湖西桥(地铁站)","to":"长春解放桥(地铁站)"},"geometry":{"type":"LineString","coordinates":[[125.27586,43.86706],[125.28185,43.87579]]}},{"type":"Feature","properties":{"shape_id":"{}","direction_id":"{\"0\": 50}","headsign":"{}","duration_avg":120,"n_vehicles":50,"d":1200,"route_I_counts":"{\"5\": 50}","source":72,"target":73,"layer":"L","from":"长春湖西桥(地铁站)","to":"长春宽平桥(地铁站)"},"geometry":{"type":"LineString","coordinates":[[125.27586,43.86706],[125.26762,43.86039]]}},{"type":"Feature","properties":{"shape_id":"{}","direction_id":"{\"1\": 50}","headsign":"{}","duration_avg":120,"n_vehicles":50,"d":1200,"route_I_counts":"{\"5\": 50}","source":73,"target":72,"layer":"L","from":"长春宽平桥(地铁站)","to":"长春湖西桥(地铁站)"},"geometry":{"type":"LineString","coordinates":[[125.26762,43.86039],[125.27586,43.86706]]}},{"type":"Feature","properties":{"shape_id":"{}","direction_id":"{\"0\": 50}","headsign":"{}","duration_avg":120,"n_vehicles":50,"d":1200,"route_I_counts":"{\"5\": 50}","source":73,"target":74,"layer":"L","from":"长春宽平桥(地铁站)","to":"长春抚松路(地铁站)"},"geometry":{"type":"LineString","coordinates":[[125.26762,43.86039],[125.26178,43.85569]]}},{"type":"Feature","properties":{"shape_id":"{}","direction_id":"{\"1\": 50}","headsign":"{}","duration_avg":120,"n_vehicles":50,"d":1200,"route_I_counts":"{\"5\": 50}","source":74,"target":73,"layer":"L","from":"长春抚松路(地铁站)","to":"长春宽平桥(地铁站)"},"geometry":{"type":"LineString","coordinates":[[125.26178,43.85569],[125.26762,43.86039]]}},{"type":"Feature","properties":{"shape_id":"{}","direction_id":"{\"0\": 50}","headsign":"{}","duration_avg":120,"n_vehicles":50,"d":1200,"route_I_counts":"{\"5\": 50}","source":74,"target":75,"layer":"L","from":"长春抚松路(地铁站)","to":"长春孟家屯(地铁站)"},"geometry":{"type":"LineString","coordinates":[[125.26178,43.85569],[125.2558,43.8488]]}},{"type":"Feature","properties":{"shape_id":"{}","direction_id":"{\"1\": 50}","headsign":"{}","duration_avg":120,"n_vehicles":50,"d":1200,"route_I_counts":"{\"5\": 50}","source":75,"target":74,"layer":"L","from":"长春孟家屯(地铁站)","to":"长春抚松路(地铁站)"},"geometry":{"type":"LineString","coordinates":[[125.2558,43.8488],[125.26178,43.85569]]}},{"type":"Feature","properties":{"shape_id":"{}","direction_id":"{\"0\": 50}","headsign":"{}","duration_avg":120,"n_vehicles":50,"d":1200,"route_I_counts":"{\"5\": 50}","source":75,"target":76,"layer":"L","from":"长春孟家屯(地铁站)","to":"长春湖光路(地铁站)"},"geometry":{"type":"LineString","coordinates":[[125.2558,43.8488],[125.26042,43.84193]]}},{"type":"Feature","properties":{"shape_id":"{}","direction_id":"{\"1\": 50}","headsign":"{}","duration_avg":120,"n_vehicles":50,"d":1200,"route_I_counts":"{\"5\": 50}","source":76,"target":75,"layer":"L","from":"长春湖光路(地铁站)","to":"长春孟家屯(地铁站)"},"geometry":{"type":"LineString","coordinates":[[125.26042,43.84193],[125.2558,43.8488]]}},{"type":"Feature","properties":{"shape_id":"{}","direction_id":"{\"0\": 50}","headsign":"{}","duration_avg":120,"n_vehicles":50,"d":1200,"route_I_counts":"{\"5\": 50}","source":76,"target":77,"layer":"L","from":"长春湖光路(地铁站)","to":"长春电台街(地铁站)"},"geometry":{"type":"LineString","coordinates":[[125.26042,43.84193],[125.27208,43.83078]]}},{"type":"Feature","properties":{"shape_id":"{}","direction_id":"{\"1\": 50}","headsign":"{}","duration_avg":120,"n_vehicles":50,"d":1200,"route_I_counts":"{\"5\": 50}","source":77,"target":76,"layer":"L","from":"长春电台街(地铁站)","to":"长春湖光路(地铁站)"},"geometry":{"type":"LineString","coordinates":[[125.27208,43.83078],[125.26042,43.84193]]}},{"type":"Feature","properties":{"shape_id":"{}","direction_id":"{\"0\": 50}","headsign":"{}","duration_avg":120,"n_vehicles":50,"d":1200,"route_I_counts":"{\"5\": 50}","source":77,"target":78,"layer":"L","from":"长春电台街(地铁站)","to":"长春前进西(地铁站)"},"geometry":{"type":"LineString","coordinates":[[125.27208,43.83078],[125.28013,43.82981]]}},{"type":"Feature","properties":{"shape_id":"{}","direction_id":"{\"1\": 50}","headsign":"{}","duration_avg":120,"n_vehicles":50,"d":1200,"route_I_counts":"{\"5\": 50}","source":78,"target":77,"layer":"L","from":"长春前进西(地铁站)","to":"长春电台街(地铁站)"},"geometry":{"type":"LineString","coordinates":[[125.28013,43.82981],[125.27208,43.83078]]}},{"type":"Feature","properties":{"shape_id":"{}","direction_id":"{\"0\": 50}","headsign":"{}","duration_avg":120,"n_vehicles":50,"d":1200,"route_I_counts":"{\"5\": 50}","source":78,"target":79,"layer":"L","from":"长春前进西(地铁站)","to":"长春前进大街(地铁站)"},"geometry":{"type":"LineString","coordinates":[[125.28013,43.82981],[125.28683,43.82998]]}},{"type":"Feature","properties":{"shape_id":"{}","direction_id":"{\"1\": 50}","headsign":"{}","duration_avg":120,"n_vehicles":50,"d":1200,"route_I_counts":"{\"5\": 50}","source":79,"target":78,"layer":"L","from":"长春前进大街(地铁站)","to":"长春前进西(地铁站)"},"geometry":{"type":"LineString","coordinates":[[125.28683,43.82998],[125.28013,43.82981]]}},{"type":"Feature","properties":{"shape_id":"{}","direction_id":"{\"0\": 50}","headsign":"{}","duration_avg":60,"n_vehicles":50,"d":600,"route_I_counts":"{\"5\": 50}","source":79,"target":80,"layer":"L","from":"长春前进大街(地铁站)","to":"长春卫明街(地铁站)"},"geometry":{"type":"LineString","coordinates":[[125.28683,43.82998],[125.29623,43.82998]]}},{"type":"Feature","properties":{"shape_id":"{}","direction_id":"{\"1\": 50}","headsign":"{}","duration_avg":60,"n_vehicles":50,"d":600,"route_I_counts":"{\"5\": 50}","source":80,"target":79,"layer":"L","from":"长春卫明街(地铁站)","to":"长春前进大街(地铁站)"},"geometry":{"type":"LineString","coordinates":[[125.29623,43.82998],[125.28683,43.82998]]}},{"type":"Feature","properties":{"shape_id":"{}","direction_id":"{\"0\": 50}","headsign":"{}","duration_avg":120,"n_vehicles":50,"d":1200,"route_I_counts":"{\"5\": 50}","source":80,"target":81,"layer":"L","from":"长春卫明街(地铁站)","to":"长春卫光街(地铁站)"},"geometry":{"type":"LineString","coordinates":[[125.29623,43.82998],[125.30903,43.83007]]}},{"type":"Feature","properties":{"shape_id":"{}","direction_id":"{\"1\": 50}","headsign":"{}","duration_avg":120,"n_vehicles":50,"d":1200,"route_I_counts":"{\"5\": 50}","source":81,"target":80,"layer":"L","from":"长春卫光街(地铁站)","to":"长春卫明街(地铁站)"},"geometry":{"type":"LineString","coordinates":[[125.30903,43.83007],[125.29623,43.82998]]}},{"type":"Feature","properties":{"shape_id":"{}","direction_id":"{\"0\": 50}","headsign":"{}","duration_avg":120,"n_vehicles":50,"d":1200,"route_I_counts":"{\"5\": 50}","source":81,"target":11,"layer":"L","from":"长春卫光街(地铁站)","to":"长春卫星广场(地铁站)"},"geometry":{"type":"LineString","coordinates":[[125.30903,43.83007],[125.319312,43.830244]]}},{"type":"Feature","properties":{"shape_id":"{}","direction_id":"{\"1\": 50}","headsign":"{}","duration_avg":120,"n_vehicles":50,"d":1200,"route_I_counts":"{\"5\": 50}","source":11,"target":81,"layer":"L","from":"长春卫星广场(地铁站)","to":"长春卫光街(地铁站)"},"geometry":{"type":"LineString","coordinates":[[125.319312,43.830244],[125.30903,43.83007]]}},{"type":"Feature","properties":{"shape_id":"{}","direction_id":"{\"0\": 50}","headsign":"{}","duration_avg":180,"n_vehicles":50,"d":1800,"route_I_counts":"{\"5\": 50}","source":11,"target":82,"layer":"L","from":"长春卫星广场(地铁站)","to":"长春亚泰立交桥(地铁站)"},"geometry":{"type":"LineString","coordinates":[[125.319312,43.830244],[125.33267,43.83009]]}},{"type":"Feature","properties":{"shape_id":"{}","direction_id":"{\"1\": 50}","headsign":"{}","duration_avg":180,"n_vehicles":50,"d":1800,"route_I_counts":"{\"5\": 50}","source":82,"target":11,"layer":"L","from":"长春亚泰立交桥(地铁站)","to":"长春卫星广场(地铁站)"},"geometry":{"type":"LineString","coordinates":[[125.33267,43.83009],[125.319312,43.830244]]}},{"type":"Feature","properties":{"shape_id":"{}","direction_id":"{\"0\": 50}","headsign":"{}","duration_avg":60,"n_vehicles":50,"d":600,"route_I_counts":"{\"5\": 50}","source":82,"target":83,"layer":"L","from":"长春亚泰立交桥(地铁站)","to":"长春伊通河(地铁站)"},"geometry":{"type":"LineString","coordinates":[[125.33267,43.83009],[125.3433,43.83032]]}},{"type":"Feature","properties":{"shape_id":"{}","direction_id":"{\"1\": 50}","headsign":"{}","duration_avg":60,"n_vehicles":50,"d":600,"route_I_counts":"{\"5\": 50}","source":83,"target":82,"layer":"L","from":"长春伊通河(地铁站)","to":"长春亚泰立交桥(地铁站)"},"geometry":{"type":"LineString","coordinates":[[125.3433,43.83032],[125.33267,43.83009]]}},{"type":"Feature","properties":{"shape_id":"{}","direction_id":"{\"0\": 50}","headsign":"{}","duration_avg":180,"n_vehicles":50,"d":1800,"route_I_counts":"{\"5\": 50}","source":83,"target":25,"layer":"L","from":"长春伊通河(地铁站)","to":"长春职业学院(地铁站)"},"geometry":{"type":"LineString","coordinates":[[125.3433,43.83032],[125.358689,43.830004]]}},{"type":"Feature","properties":{"shape_id":"{}","direction_id":"{\"1\": 50}","headsign":"{}","duration_avg":180,"n_vehicles":50,"d":1800,"route_I_counts":"{\"5\": 50}","source":25,"target":83,"layer":"L","from":"长春职业学院(地铁站)","to":"长春伊通河(地铁站)"},"geometry":{"type":"LineString","coordinates":[[125.358689,43.830004],[125.3433,43.83032]]}},{"type":"Feature","properties":{"shape_id":"{}","direction_id":"{\"0\": 50}","headsign":"{}","duration_avg":120,"n_vehicles":50,"d":1200,"route_I_counts":"{\"5\": 50}","source":25,"target":84,"layer":"L","from":"长春职业学院(地铁站)","to":"长春吉林广电(地铁站)"},"geometry":{"type":"LineString","coordinates":[[125.358689,43.830004],[125.3729,43.83068]]}},{"type":"Feature","properties":{"shape_id":"{}","direction_id":"{\"1\": 50}","headsign":"{}","duration_avg":120,"n_vehicles":50,"d":1200,"route_I_counts":"{\"5\": 50}","source":84,"target":25,"layer":"L","from":"长春吉林广电(地铁站)","to":"长春职业学院(地铁站)"},"geometry":{"type":"LineString","coordinates":[[125.3729,43.83068],[125.358689,43.830004]]}},{"type":"Feature","properties":{"shape_id":"{}","direction_id":"{\"0\": 50}","headsign":"{}","duration_avg":120,"n_vehicles":50,"d":1200,"route_I_counts":"{\"5\": 50}","source":84,"target":85,"layer":"L","from":"长春吉林广电(地铁站)","to":"长春会展中心(地铁站)"},"geometry":{"type":"LineString","coordinates":[[125.3729,43.83068],[125.38428,43.83078]]}},{"type":"Feature","properties":{"shape_id":"{}","direction_id":"{\"1\": 50}","headsign":"{}","duration_avg":120,"n_vehicles":50,"d":1200,"route_I_counts":"{\"5\": 50}","source":85,"target":84,"layer":"L","from":"长春会展中心(地铁站)","to":"长春吉林广电(地铁站)"},"geometry":{"type":"LineString","coordinates":[[125.38428,43.83078],[125.3729,43.83068]]}},{"type":"Feature","properties":{"shape_id":"{}","direction_id":"{\"0\": 50}","headsign":"{}","duration_avg":120,"n_vehicles":50,"d":1200,"route_I_counts":"{\"5\": 50}","source":85,"target":86,"layer":"L","from":"长春会展中心(地铁站)","to":"长春世纪广场(地铁站)"},"geometry":{"type":"LineString","coordinates":[[125.38428,43.83078],[125.39607,43.83408]]}},{"type":"Feature","properties":{"shape_id":"{}","direction_id":"{\"1\": 50}","headsign":"{}","duration_avg":120,"n_vehicles":50,"d":1200,"route_I_counts":"{\"5\": 50}","source":86,"target":85,"layer":"L","from":"长春世纪广场(地铁站)","to":"长春会展中心(地铁站)"},"geometry":{"type":"LineString","coordinates":[[125.39607,43.83408],[125.38428,43.83078]]}},{"type":"Feature","properties":{"shape_id":"{}","direction_id":"{\"0\": 50}","headsign":"{}","duration_avg":120,"n_vehicles":50,"d":1200,"route_I_counts":"{\"5\": 50}","source":86,"target":87,"layer":"L","from":"长春世纪广场(地铁站)","to":"长春金鑫街(地铁站)"},"geometry":{"type":"LineString","coordinates":[[125.39607,43.83408],[125.41438,43.8319]]}},{"type":"Feature","properties":{"shape_id":"{}","direction_id":"{\"1\": 50}","headsign":"{}","duration_avg":120,"n_vehicles":50,"d":1200,"route_I_counts":"{\"5\": 50}","source":87,"target":86,"layer":"L","from":"长春金鑫街(地铁站)","to":"长春世纪广场(地铁站)"},"geometry":{"type":"LineString","coordinates":[[125.41438,43.8319],[125.39607,43.83408]]}},{"type":"Feature","properties":{"shape_id":"{}","direction_id":"{\"0\": 50}","headsign":"{}","duration_avg":120,"n_vehicles":50,"d":1200,"route_I_counts":"{\"5\": 50}","source":87,"target":88,"layer":"L","from":"长春金鑫街(地铁站)","to":"长春博硕路(地铁站)"},"geometry":{"type":"LineString","coordinates":[[125.41438,43.8319],[125.42275,43.82726]]}},{"type":"Feature","properties":{"shape_id":"{}","direction_id":"{\"1\": 50}","headsign":"{}","duration_avg":120,"n_vehicles":50,"d":1200,"route_I_counts":"{\"5\": 50}","source":88,"target":87,"layer":"L","from":"长春博硕路(地铁站)","to":"长春金鑫街(地铁站)"},"geometry":{"type":"LineString","coordinates":[[125.42275,43.82726],[125.41438,43.8319]]}},{"type":"Feature","properties":{"shape_id":"{}","direction_id":"{\"0\": 50}","headsign":"{}","duration_avg":120,"n_vehicles":50,"d":1200,"route_I_counts":"{\"5\": 50}","source":88,"target":89,"layer":"L","from":"长春博硕路(地铁站)","to":"长春金河街(地铁站)"},"geometry":{"type":"LineString","coordinates":[[125.42275,43.82726],[125.43267,43.81923]]}},{"type":"Feature","properties":{"shape_id":"{}","direction_id":"{\"1\": 50}","headsign":"{}","duration_avg":120,"n_vehicles":50,"d":1200,"route_I_counts":"{\"5\": 50}","source":89,"target":88,"layer":"L","from":"长春金河街(地铁站)","to":"长春博硕路(地铁站)"},"geometry":{"type":"LineString","coordinates":[[125.43267,43.81923],[125.42275,43.82726]]}},{"type":"Feature","properties":{"shape_id":"{}","direction_id":"{\"0\": 50}","headsign":"{}","duration_avg":120,"n_vehicles":50,"d":1200,"route_I_counts":"{\"5\": 50}","source":89,"target":90,"layer":"L","from":"长春金河街(地铁站)","to":"长春农博园(地铁站)"},"geometry":{"type":"LineString","coordinates":[[125.43267,43.81923],[125.43849,43.81186]]}},{"type":"Feature","properties":{"shape_id":"{}","direction_id":"{\"1\": 50}","headsign":"{}","duration_avg":120,"n_vehicles":50,"d":1200,"route_I_counts":"{\"5\": 50}","source":90,"target":89,"layer":"L","from":"长春农博园(地铁站)","to":"长春金河街(地铁站)"},"geometry":{"type":"LineString","coordinates":[[125.43849,43.81186],[125.43267,43.81923]]}},{"type":"Feature","properties":{"shape_id":"{}","direction_id":"{\"0\": 50}","headsign":"{}","duration_avg":180,"n_vehicles":50,"d":1800,"route_I_counts":"{\"5\": 50}","source":90,"target":91,"layer":"L","from":"长春农博园(地铁站)","to":"长春净月潭公园(地铁站)"},"geometry":{"type":"LineString","coordinates":[[125.43849,43.81186],[125.4443,43.8011]]}},{"type":"Feature","properties":{"shape_id":"{}","direction_id":"{\"1\": 50}","headsign":"{}","duration_avg":180,"n_vehicles":50,"d":1800,"route_I_counts":"{\"5\": 50}","source":91,"target":90,"layer":"L","from":"长春净月潭公园(地铁站)","to":"长春农博园(地铁站)"},"geometry":{"type":"LineString","coordinates":[[125.4443,43.8011],[125.43849,43.81186]]}},{"type":"Feature","properties":{"shape_id":"{}","direction_id":"{\"0\": 50}","headsign":"{}","duration_avg":120,"n_vehicles":50,"d":1200,"route_I_counts":"{\"5\": 50}","source":91,"target":92,"layer":"L","from":"长春净月潭公园(地铁站)","to":"长春紫杉路(地铁站)"},"geometry":{"type":"LineString","coordinates":[[125.4443,43.8011],[125.4337,43.79019]]}},{"type":"Feature","properties":{"shape_id":"{}","direction_id":"{\"1\": 50}","headsign":"{}","duration_avg":120,"n_vehicles":50,"d":1200,"route_I_counts":"{\"5\": 50}","source":92,"target":91,"layer":"L","from":"长春紫杉路(地铁站)","to":"长春净月潭公园(地铁站)"},"geometry":{"type":"LineString","coordinates":[[125.4337,43.79019],[125.4443,43.8011]]}},{"type":"Feature","properties":{"shape_id":"{}","direction_id":"{\"0\": 50}","headsign":"{}","duration_avg":120,"n_vehicles":50,"d":1200,"route_I_counts":"{\"5\": 50}","source":92,"target":93,"layer":"L","from":"长春紫杉路(地铁站)","to":"长春宝相街(地铁站)"},"geometry":{"type":"LineString","coordinates":[[125.4337,43.79019],[125.43354,43.78258]]}},{"type":"Feature","properties":{"shape_id":"{}","direction_id":"{\"1\": 50}","headsign":"{}","duration_avg":120,"n_vehicles":50,"d":1200,"route_I_counts":"{\"5\": 50}","source":93,"target":92,"layer":"L","from":"长春宝相街(地铁站)","to":"长春紫杉路(地铁站)"},"geometry":{"type":"LineString","coordinates":[[125.43354,43.78258],[125.4337,43.79019]]}},{"type":"Feature","properties":{"shape_id":"{}","direction_id":"{\"0\": 50}","headsign":"{}","duration_avg":120,"n_vehicles":50,"d":1200,"route_I_counts":"{\"5\": 50}","source":93,"target":94,"layer":"L","from":"长春宝相街(地铁站)","to":"长春滑雪场(地铁站)"},"geometry":{"type":"LineString","coordinates":[[125.43354,43.78258],[125.44288,43.77404]]}},{"type":"Feature","properties":{"shape_id":"{}","direction_id":"{\"1\": 50}","headsign":"{}","duration_avg":120,"n_vehicles":50,"d":1200,"route_I_counts":"{\"5\": 50}","source":94,"target":93,"layer":"L","from":"长春滑雪场(地铁站)","to":"长春宝相街(地铁站)"},"geometry":{"type":"LineString","coordinates":[[125.44288,43.77404],[125.43354,43.78258]]}},{"type":"Feature","properties":{"shape_id":"{}","direction_id":"{\"0\": 50}","headsign":"{}","duration_avg":60,"n_vehicles":50,"d":600,"route_I_counts":"{\"5\": 50}","source":94,"target":35,"layer":"L","from":"长春滑雪场(地铁站)","to":"长春长影世纪城(地铁站)"},"geometry":{"type":"LineString","coordinates":[[125.44288,43.77404],[125.440435,43.767381]]}},{"type":"Feature","properties":{"shape_id":"{}","direction_id":"{\"1\": 50}","headsign":"{}","duration_avg":60,"n_vehicles":50,"d":600,"route_I_counts":"{\"5\": 50}","source":35,"target":94,"layer":"L","from":"长春长影世纪城(地铁站)","to":"长春滑雪场(地铁站)"},"geometry":{"type":"LineString","coordinates":[[125.440435,43.767381],[125.44288,43.77404]]}},{"type":"Feature","properties":{"shape_id":"{}","direction_id":"{\"0\": 50}","headsign":"{}","duration_avg":120,"n_vehicles":50,"d":1200,"route_I_counts":"{\"6\": 50}","source":95,"target":96,"layer":"L","from":"长春汽车公园(地铁站)","to":"长春捷达大路(地铁站)"},"geometry":{"type":"LineString","coordinates":[[125.1725,43.8334],[125.1677,43.8471]]}},{"type":"Feature","properties":{"shape_id":"{}","direction_id":"{\"1\": 50}","headsign":"{}","duration_avg":120,"n_vehicles":50,"d":1200,"route_I_counts":"{\"6\": 50}","source":96,"target":95,"layer":"L","from":"长春捷达大路(地铁站)","to":"长春汽车公园(地铁站)"},"geometry":{"type":"LineString","coordinates":[[125.1677,43.8471],[125.1725,43.8334]]}},{"type":"Feature","properties":{"shape_id":"{}","direction_id":"{\"0\": 50}","headsign":"{}","duration_avg":60,"n_vehicles":50,"d":600,"route_I_counts":"{\"6\": 50}","source":96,"target":97,"layer":"L","from":"长春捷达大路(地铁站)","to":"长春西湖(地铁站)"},"geometry":{"type":"LineString","coordinates":[[125.1677,43.8471],[125.1681,43.8552]]}},{"type":"Feature","properties":{"shape_id":"{}","direction_id":"{\"1\": 50}","headsign":"{}","duration_avg":60,"n_vehicles":50,"d":600,"route_I_counts":"{\"6\": 50}","source":97,"target":96,"layer":"L","from":"长春西湖(地铁站)","to":"长春捷达大路(地铁站)"},"geometry":{"type":"LineString","coordinates":[[125.1681,43.8552],[125.1677,43.8471]]}},{"type":"Feature","properties":{"shape_id":"{}","direction_id":"{\"0\": 50}","headsign":"{}","duration_avg":180,"n_vehicles":50,"d":1800,"route_I_counts":"{\"6\": 50}","source":97,"target":54,"layer":"L","from":"长春西湖(地铁站)","to":"长春双丰(地铁站)"},"geometry":{"type":"LineString","coordinates":[[125.1681,43.8552],[125.179142,43.865018]]}},{"type":"Feature","properties":{"shape_id":"{}","direction_id":"{\"1\": 50}","headsign":"{}","duration_avg":180,"n_vehicles":50,"d":1800,"route_I_counts":"{\"6\": 50}","source":54,"target":97,"layer":"L","from":"长春双丰(地铁站)","to":"长春西湖(地铁站)"},"geometry":{"type":"LineString","coordinates":[[125.179142,43.865018],[125.1681,43.8552]]}},{"type":"Feature","properties":{"shape_id":"{}","direction_id":"{\"0\": 50}","headsign":"{}","duration_avg":120,"n_vehicles":50,"d":1200,"route_I_counts":"{\"6\": 50}","source":53,"target":98,"layer":"L","from":"长春长春西站(地铁站)","to":"长春兴隆堡(地铁站)"},"geometry":{"type":"LineString","coordinates":[[125.194708,43.874199],[125.21695,43.88158]]}},{"type":"Feature","properties":{"shape_id":"{}","direction_id":"{\"1\": 50}","headsign":"{}","duration_avg":120,"n_vehicles":50,"d":1200,"route_I_counts":"{\"6\": 50}","source":98,"target":53,"layer":"L","from":"长春兴隆堡(地铁站)","to":"长春长春西站(地铁站)"},"geometry":{"type":"LineString","coordinates":[[125.21695,43.88158],[125.194708,43.874199]]}},{"type":"Feature","properties":{"shape_id":"{}","direction_id":"{\"0\": 50}","headsign":"{}","duration_avg":120,"n_vehicles":50,"d":1200,"route_I_counts":"{\"6\": 50}","source":98,"target":99,"layer":"L","from":"长春兴隆堡(地铁站)","to":"长春西环城路(地铁站)"},"geometry":{"type":"LineString","coordinates":[[125.21695,43.88158],[125.2336,43.88159]]}},{"type":"Feature","properties":{"shape_id":"{}","direction_id":"{\"1\": 50}","headsign":"{}","duration_avg":120,"n_vehicles":50,"d":1200,"route_I_counts":"{\"6\": 50}","source":99,"target":98,"layer":"L","from":"长春西环城路(地铁站)","to":"长春兴隆堡(地铁站)"},"geometry":{"type":"LineString","coordinates":[[125.2336,43.88159],[125.21695,43.88158]]}},{"type":"Feature","properties":{"shape_id":"{}","direction_id":"{\"0\": 50}","headsign":"{}","duration_avg":120,"n_vehicles":50,"d":1200,"route_I_counts":"{\"6\": 50}","source":99,"target":100,"layer":"L","from":"长春西环城路(地铁站)","to":"长春和平大街(地铁站)"},"geometry":{"type":"LineString","coordinates":[[125.2336,43.88159],[125.2483,43.88177]]}},{"type":"Feature","properties":{"shape_id":"{}","direction_id":"{\"1\": 50}","headsign":"{}","duration_avg":120,"n_vehicles":50,"d":1200,"route_I_counts":"{\"6\": 50}","source":100,"target":99,"layer":"L","from":"长春和平大街(地铁站)","to":"长春西环城路(地铁站)"},"geometry":{"type":"LineString","coordinates":[[125.2483,43.88177],[125.2336,43.88159]]}},{"type":"Feature","properties":{"shape_id":"{}","direction_id":"{\"0\": 50}","headsign":"{}","duration_avg":120,"n_vehicles":50,"d":1200,"route_I_counts":"{\"6\": 50}","source":100,"target":101,"layer":"L","from":"长春和平大街(地铁站)","to":"长春万福街(地铁站)"},"geometry":{"type":"LineString","coordinates":[[125.2483,43.88177],[125.2596,43.8819]]}},{"type":"Feature","properties":{"shape_id":"{}","direction_id":"{\"1\": 50}","headsign":"{}","duration_avg":120,"n_vehicles":50,"d":1200,"route_I_counts":"{\"6\": 50}","source":101,"target":100,"layer":"L","from":"长春万福街(地铁站)","to":"长春和平大街(地铁站)"},"geometry":{"type":"LineString","coordinates":[[125.2596,43.8819],[125.2483,43.88177]]}},{"type":"Feature","properties":{"shape_id":"{}","direction_id":"{\"0\": 50}","headsign":"{}","duration_avg":60,"n_vehicles":50,"d":600,"route_I_counts":"{\"6\": 50}","source":101,"target":102,"layer":"L","from":"长春万福街(地铁站)","to":"长春景阳广场(地铁站)"},"geometry":{"type":"LineString","coordinates":[[125.2596,43.8819],[125.26967,43.88027]]}},{"type":"Feature","properties":{"shape_id":"{}","direction_id":"{\"1\": 50}","headsign":"{}","duration_avg":60,"n_vehicles":50,"d":600,"route_I_counts":"{\"6\": 50}","source":102,"target":101,"layer":"L","from":"长春景阳广场(地铁站)","to":"长春万福街(地铁站)"},"geometry":{"type":"LineString","coordinates":[[125.26967,43.88027],[125.2596,43.8819]]}},{"type":"Feature","properties":{"shape_id":"{}","direction_id":"{\"0\": 50}","headsign":"{}","duration_avg":120,"n_vehicles":50,"d":1200,"route_I_counts":"{\"6\": 50}","source":102,"target":71,"layer":"L","from":"长春景阳广场(地铁站)","to":"长春解放桥(地铁站)"},"geometry":{"type":"LineString","coordinates":[[125.26967,43.88027],[125.28185,43.87579]]}},{"type":"Feature","properties":{"shape_id":"{}","direction_id":"{\"1\": 50}","headsign":"{}","duration_avg":120,"n_vehicles":50,"d":1200,"route_I_counts":"{\"6\": 50}","source":71,"target":102,"layer":"L","from":"长春解放桥(地铁站)","to":"长春景阳广场(地铁站)"},"geometry":{"type":"LineString","coordinates":[[125.28185,43.87579],[125.26967,43.88027]]}},{"type":"Feature","properties":{"shape_id":"{}","direction_id":"{\"0\": 50}","headsign":"{}","duration_avg":120,"n_vehicles":50,"d":1200,"route_I_counts":"{\"6\": 50}","source":71,"target":103,"layer":"L","from":"长春解放桥(地铁站)","to":"长春建设广场(地铁站)"},"geometry":{"type":"LineString","coordinates":[[125.28185,43.87579],[125.26967,43.88027]]}},{"type":"Feature","properties":{"shape_id":"{}","direction_id":"{\"1\": 50}","headsign":"{}","duration_avg":120,"n_vehicles":50,"d":1200,"route_I_counts":"{\"6\": 50}","source":103,"target":71,"layer":"L","from":"长春建设广场(地铁站)","to":"长春解放桥(地铁站)"},"geometry":{"type":"LineString","coordinates":[[125.26967,43.88027],[125.28185,43.87579]]}},{"type":"Feature","properties":{"shape_id":"{}","direction_id":"{\"0\": 50}","headsign":"{}","duration_avg":120,"n_vehicles":50,"d":1200,"route_I_counts":"{\"6\": 50}","source":103,"target":104,"layer":"L","from":"长春建设广场(地铁站)","to":"长春文化广场(地铁站)"},"geometry":{"type":"LineString","coordinates":[[125.26967,43.88027],[125.3077,43.8783]]}},{"type":"Feature","properties":{"shape_id":"{}","direction_id":"{\"1\": 50}","headsign":"{}","duration_avg":120,"n_vehicles":50,"d":1200,"route_I_counts":"{\"6\": 50}","source":104,"target":103,"layer":"L","from":"长春文化广场(地铁站)","to":"长春建设广场(地铁站)"},"geometry":{"type":"LineString","coordinates":[[125.3077,43.8783],[125.26967,43.88027]]}},{"type":"Feature","properties":{"shape_id":"{}","direction_id":"{\"0\": 50}","headsign":"{}","duration_avg":180,"n_vehicles":50,"d":1800,"route_I_counts":"{\"6\": 50}","source":104,"target":7,"layer":"L","from":"长春文化广场(地铁站)","to":"长春解放大路(地铁站)"},"geometry":{"type":"LineString","coordinates":[[125.3077,43.8783],[125.318362,43.875819]]}},{"type":"Feature","properties":{"shape_id":"{}","direction_id":"{\"1\": 50}","headsign":"{}","duration_avg":180,"n_vehicles":50,"d":1800,"route_I_counts":"{\"6\": 50}","source":7,"target":104,"layer":"L","from":"长春解放大路(地铁站)","to":"长春文化广场(地铁站)"},"geometry":{"type":"LineString","coordinates":[[125.318362,43.875819],[125.3077,43.8783]]}},{"type":"Feature","properties":{"shape_id":"{}","direction_id":"{\"0\": 50}","headsign":"{}","duration_avg":120,"n_vehicles":50,"d":1200,"route_I_counts":"{\"6\": 50}","source":7,"target":105,"layer":"L","from":"长春解放大路(地铁站)","to":"长春平阳街(地铁站)"},"geometry":{"type":"LineString","coordinates":[[125.318362,43.875819],[125.3342,43.8784]]}},{"type":"Feature","properties":{"shape_id":"{}","direction_id":"{\"1\": 50}","headsign":"{}","duration_avg":120,"n_vehicles":50,"d":1200,"route_I_counts":"{\"6\": 50}","source":105,"target":7,"layer":"L","from":"长春平阳街(地铁站)","to":"长春解放大路(地铁站)"},"geometry":{"type":"LineString","coordinates":[[125.3342,43.8784],[125.318362,43.875819]]}},{"type":"Feature","properties":{"shape_id":"{}","direction_id":"{\"0\": 50}","headsign":"{}","duration_avg":120,"n_vehicles":50,"d":1200,"route_I_counts":"{\"6\": 50}","source":105,"target":106,"layer":"L","from":"长春平阳街(地铁站)","to":"长春南关(地铁站)"},"geometry":{"type":"LineString","coordinates":[[125.3342,43.8784],[125.3451,43.8807]]}},{"type":"Feature","properties":{"shape_id":"{}","direction_id":"{\"1\": 50}","headsign":"{}","duration_avg":120,"n_vehicles":50,"d":1200,"route_I_counts":"{\"6\": 50}","source":106,"target":105,"layer":"L","from":"长春南关(地铁站)","to":"长春平阳街(地铁站)"},"geometry":{"type":"LineString","coordinates":[[125.3451,43.8807],[125.3342,43.8784]]}},{"type":"Feature","properties":{"shape_id":"{}","direction_id":"{\"0\": 50}","headsign":"{}","duration_avg":120,"n_vehicles":50,"d":1200,"route_I_counts":"{\"6\": 50}","source":106,"target":19,"layer":"L","from":"长春南关(地铁站)","to":"长春吉林大路(地铁站)"},"geometry":{"type":"LineString","coordinates":[[125.3451,43.8807],[125.357671,43.878836]]}},{"type":"Feature","properties":{"shape_id":"{}","direction_id":"{\"1\": 50}","headsign":"{}","duration_avg":120,"n_vehicles":50,"d":1200,"route_I_counts":"{\"6\": 50}","source":19,"target":106,"layer":"L","from":"长春吉林大路(地铁站)","to":"长春南关(地铁站)"},"geometry":{"type":"LineString","coordinates":[[125.357671,43.878836],[125.3451,43.8807]]}},{"type":"Feature","properties":{"shape_id":"{}","direction_id":"{\"0\": 50}","headsign":"{}","duration_avg":180,"n_vehicles":50,"d":1800,"route_I_counts":"{\"6\": 50}","source":19,"target":107,"layer":"L","from":"长春吉林大路(地铁站)","to":"长春东盛大街(地铁站)"},"geometry":{"type":"LineString","coordinates":[[125.357671,43.878836],[125.37012,43.87968]]}},{"type":"Feature","properties":{"shape_id":"{}","direction_id":"{\"1\": 50}","headsign":"{}","duration_avg":180,"n_vehicles":50,"d":1800,"route_I_counts":"{\"6\": 50}","source":107,"target":19,"layer":"L","from":"长春东盛大街(地铁站)","to":"长春吉林大路(地铁站)"},"geometry":{"type":"LineString","coordinates":[[125.37012,43.87968],[125.357671,43.878836]]}},{"type":"Feature","properties":{"shape_id":"{}","direction_id":"{\"0\": 50}","headsign":"{}","duration_avg":120,"n_vehicles":50,"d":1200,"route_I_counts":"{\"6\": 50}","source":107,"target":108,"layer":"L","from":"长春东盛大街(地铁站)","to":"长春东环城路(地铁站)"},"geometry":{"type":"LineString","coordinates":[[125.37012,43.87968],[125.3881,43.87989]]}},{"type":"Feature","properties":{"shape_id":"{}","direction_id":"{\"1\": 50}","headsign":"{}","duration_avg":120,"n_vehicles":50,"d":1200,"route_I_counts":"{\"6\": 50}","source":108,"target":107,"layer":"L","from":"长春东环城路(地铁站)","to":"长春东盛大街(地铁站)"},"geometry":{"type":"LineString","coordinates":[[125.3881,43.87989],[125.37012,43.87968]]}},{"type":"Feature","properties":{"shape_id":"{}","direction_id":"{\"0\": 50}","headsign":"{}","duration_avg":120,"n_vehicles":50,"d":1200,"route_I_counts":"{\"6\": 50}","source":108,"target":109,"layer":"L","from":"长春东环城路(地铁站)","to":"长春长青(地铁站)"},"geometry":{"type":"LineString","coordinates":[[125.3881,43.87989],[125.40329,43.87982]]}},{"type":"Feature","properties":{"shape_id":"{}","direction_id":"{\"1\": 50}","headsign":"{}","duration_avg":120,"n_vehicles":50,"d":1200,"route_I_counts":"{\"6\": 50}","source":109,"target":108,"layer":"L","from":"长春长青(地铁站)","to":"长春东环城路(地铁站)"},"geometry":{"type":"LineString","coordinates":[[125.40329,43.87982],[125.3881,43.87989]]}},{"type":"Feature","properties":{"shape_id":"{}","direction_id":"{\"0\": 50}","headsign":"{}","duration_avg":180,"n_vehicles":50,"d":1800,"route_I_counts":"{\"6\": 50}","source":109,"target":110,"layer":"L","from":"长春长青(地铁站)","to":"长春东方广场(地铁站)"},"geometry":{"type":"LineString","coordinates":[[125.40329,43.87982],[125.41952,43.87928]]}},{"type":"Feature","properties":{"shape_id":"{}","direction_id":"{\"1\": 50}","headsign":"{}","duration_avg":180,"n_vehicles":50,"d":1800,"route_I_counts":"{\"6\": 50}","source":110,"target":109,"layer":"L","from":"长春东方广场(地铁站)","to":"长春长青(地铁站)"},"geometry":{"type":"LineString","coordinates":[[125.41952,43.87928],[125.40329,43.87982]]}}]}