{"type":"FeatureCollection","features":[{"type":"Feature","geometry":{"type":"Point","coordinates":[119.960424,31.902337]},"properties":{"name":"常州森林公园(地铁站)","original_ids":"[1]","id":0,"layer":"stop"}},{"type":"Feature","geometry":{"type":"Point","coordinates":[119.956459,31.889517]},"properties":{"name":"常州新龙(地铁站)","original_ids":"[2]","id":1,"layer":"stop"}},{"type":"Feature","geometry":{"type":"Point","coordinates":[119.952906,31.876235]},"properties":{"name":"常州旅游学校(地铁站)","original_ids":"[3]","id":2,"layer":"stop"}},{"type":"Feature","geometry":{"type":"Point","coordinates":[119.949747,31.865166]},"properties":{"name":"常州新桥(地铁站)","original_ids":"[4]","id":3,"layer":"stop"}},{"type":"Feature","geometry":{"type":"Point","coordinates":[119.951085,31.857002]},"properties":{"name":"常州常州北站(地铁站)","original_ids":"[5]","id":4,"layer":"stop"}},{"type":"Feature","geometry":{"type":"Point","coordinates":[119.962864,31.856135]},"properties":{"name":"常州北郊中学(地铁站)","original_ids":"[6]","id":5,"layer":"stop"}},{"type":"Feature","geometry":{"type":"Point","coordinates":[119.972269,31.853359]},"properties":{"name":"常州外国语学校(地铁站)","original_ids":"[7]","id":6,"layer":"stop"}},{"type":"Feature","geometry":{"type":"Point","coordinates":[119.975932,31.841497]},"properties":{"name":"常州环球港(地铁站)","original_ids":"[8]","id":7,"layer":"stop"}},{"type":"Feature","geometry":{"type":"Point","coordinates":[119.981903,31.830269]},"properties":{"name":"常州新区公园(地铁站)","original_ids":"[9]","id":8,"layer":"stop"}},{"type":"Feature","geometry":{"type":"Point","coordinates":[119.980763,31.823069]},"properties":{"name":"常州河海(地铁站)","original_ids":"[10]","id":9,"layer":"stop"}},{"type":"Feature","geometry":{"type":"Point","coordinates":[119.97687,31.813158]},"properties":{"name":"常州奥体中心(地铁站)","original_ids":"[11]","id":10,"layer":"stop"}},{"type":"Feature","geometry":{"type":"Point","coordinates":[119.970346,31.80487]},"properties":{"name":"常州市民广场(地铁站)","original_ids":"[12]","id":11,"layer":"stop"}},{"type":"Feature","geometry":{"type":"Point","coordinates":[119.971633,31.795153]},"properties":{"name":"常州翠竹(地铁站)","original_ids":"[13]","id":12,"layer":"stop"}},{"type":"Feature","geometry":{"type":"Point","coordinates":[119.9695,31.788945]},"properties":{"name":"常州常州火车站(地铁站)","original_ids":"[14]","id":13,"layer":"stop"}},{"type":"Feature","geometry":{"type":"Point","coordinates":[119.963607,31.784435]},"properties":{"name":"常州博爱路(地铁站)","original_ids":"[15]","id":14,"layer":"stop"}},{"type":"Feature","geometry":{"type":"Point","coordinates":[119.959428,31.77699]},"properties":{"name":"常州文化宫(地铁站)","original_ids":"[16]","id":15,"layer":"stop"}},{"type":"Feature","geometry":{"type":"Point","coordinates":[119.957056,31.770521]},"properties":{"name":"常州同济桥(地铁站)","original_ids":"[17]","id":16,"layer":"stop"}},{"type":"Feature","geometry":{"type":"Point","coordinates":[119.955428,31.762809]},"properties":{"name":"常州清凉寺(地铁站)","original_ids":"[18]","id":17,"layer":"stop"}},{"type":"Feature","geometry":{"type":"Point","coordinates":[119.952488,31.752064]},"properties":{"name":"常州茶山(地铁站)","original_ids":"[19]","id":18,"layer":"stop"}},{"type":"Feature","geometry":{"type":"Point","coordinates":[119.944263,31.736613]},"properties":{"name":"常州聚湖路(地铁站)","original_ids":"[20]","id":19,"layer":"stop"}},{"type":"Feature","geometry":{"type":"Point","coordinates":[119.94429,31.72448]},"properties":{"name":"常州湖塘(地铁站)","original_ids":"[21]","id":20,"layer":"stop"}},{"type":"Feature","geometry":{"type":"Point","coordinates":[119.944048,31.714465]},"properties":{"name":"常州新天地公园(地铁站)","original_ids":"[22]","id":21,"layer":"stop"}},{"type":"Feature","geometry":{"type":"Point","coordinates":[119.943833,31.707849]},"properties":{"name":"常州长虹路(地铁站)","original_ids":"[23]","id":22,"layer":"stop"}},{"type":"Feature","geometry":{"type":"Point","coordinates":[119.943561,31.699938]},"properties":{"name":"常州延政大道(地铁站)","original_ids":"[24]","id":23,"layer":"stop"}},{"type":"Feature","geometry":{"type":"Point","coordinates":[119.942936,31.690231]},"properties":{"name":"常州科教城北(地铁站)","original_ids":"[25]","id":24,"layer":"stop"}},{"type":"Feature","geometry":{"type":"Point","coordinates":[119.942786,31.676457]},"properties":{"name":"常州科教城南(地铁站)","original_ids":"[26]","id":25,"layer":"stop"}},{"type":"Feature","geometry":{"type":"Point","coordinates":[119.943947,31.661705]},"properties":{"name":"常州武进沿江城际(地铁站)","original_ids":"[27]","id":26,"layer":"stop"}},{"type":"Feature","geometry":{"type":"Point","coordinates":[119.946134,31.6476]},"properties":{"name":"常州阳湖路(地铁站)","original_ids":"[28]","id":27,"layer":"stop"}},{"type":"Feature","geometry":{"type":"Point","coordinates":[119.947373,31.63436]},"properties":{"name":"常州南夏墅(地铁站)","original_ids":"[29]","id":28,"layer":"stop"}},{"type":"Feature","geometry":{"type":"Point","coordinates":[120.058786,31.759784]},"properties":{"name":"常州五一路(地铁站)","original_ids":"[30]","id":29,"layer":"stop"}},{"type":"Feature","geometry":{"type":"Point","coordinates":[120.045197,31.757364]},"properties":{"name":"常州潞城(地铁站)","original_ids":"[31]","id":30,"layer":"stop"}},{"type":"Feature","geometry":{"type":"Point","coordinates":[120.023359,31.755164]},"properties":{"name":"常州丁堰(地铁站)","original_ids":"[32]","id":31,"layer":"stop"}},{"type":"Feature","geometry":{"type":"Point","coordinates":[120.012147,31.761937]},"properties":{"name":"常州青洋路(地铁站)","original_ids":"[33]","id":32,"layer":"stop"}},{"type":"Feature","geometry":{"type":"Point","coordinates":[120.000781,31.771077]},"properties":{"name":"常州紫云(地铁站)","original_ids":"[34]","id":33,"layer":"stop"}},{"type":"Feature","geometry":{"type":"Point","coordinates":[119.987862,31.779439]},"properties":{"name":"常州三角场(地铁站)","original_ids":"[35]","id":34,"layer":"stop"}},{"type":"Feature","geometry":{"type":"Point","coordinates":[119.980743,31.771496]},"properties":{"name":"常州五角场(地铁站)","original_ids":"[36]","id":35,"layer":"stop"}},{"type":"Feature","geometry":{"type":"Point","coordinates":[119.968171,31.772415]},"properties":{"name":"常州红梅公园(地铁站)","original_ids":"[37]","id":36,"layer":"stop"}},{"type":"Feature","geometry":{"type":"Point","coordinates":[119.948472,31.781951]},"properties":{"name":"常州南大街(地铁站)","original_ids":"[38]","id":37,"layer":"stop"}},{"type":"Feature","geometry":{"type":"Point","coordinates":[119.937788,31.782381]},"properties":{"name":"常州怀德(地铁站)","original_ids":"[39]","id":38,"layer":"stop"}},{"type":"Feature","geometry":{"type":"Point","coordinates":[119.923925,31.788459]},"properties":{"name":"常州勤业(地铁站)","original_ids":"[40]","id":39,"layer":"stop"}},{"type":"Feature","geometry":{"type":"Point","coordinates":[119.913396,31.794758]},"properties":{"name":"常州五星(地铁站)","original_ids":"[41]","id":40,"layer":"stop"}},{"type":"Feature","geometry":{"type":"Point","coordinates":[119.903869,31.800354]},"properties":{"name":"常州海棠路(地铁站)","original_ids":"[42]","id":41,"layer":"stop"}},{"type":"Feature","geometry":{"type":"Point","coordinates":[119.894914,31.804447]},"properties":{"name":"常州青枫公园(地铁站)","original_ids":"[43]","id":42,"layer":"stop"}},{"type":"Feature","properties":{"shape_id":"{}","direction_id":"{\"0\": 50}","headsign":"{}","duration_avg":120,"n_vehicles":50,"d":1200,"route_I_counts":"{\"1\": 50}","source":0,"target":1,"layer":"L","from":"常州森林公园(地铁站)","to":"常州新龙(地铁站)"},"geometry":{"type":"LineString","coordinates":[[119.960424,31.902337],[119.956459,31.889517]]}},{"type":"Feature","properties":{"shape_id":"{}","direction_id":"{\"1\": 50}","headsign":"{}","duration_avg":120,"n_vehicles":50,"d":1200,"route_I_counts":"{\"1\": 50}","source":1,"target":0,"layer":"L","from":"常州新龙(地铁站)","to":"常州森林公园(地铁站)"},"geometry":{"type":"LineString","coordinates":[[119.956459,31.889517],[119.960424,31.902337]]}},{"type":"Feature","properties":{"shape_id":"{}","direction_id":"{\"0\": 50}","headsign":"{}","duration_avg":120,"n_vehicles":50,"d":1200,"route_I_counts":"{\"1\": 50}","source":1,"target":2,"layer":"L","from":"常州新龙(地铁站)","to":"常州旅游学校(地铁站)"},"geometry":{"type":"LineString","coordinates":[[119.956459,31.889517],[119.952906,31.876235]]}},{"type":"Feature","properties":{"shape_id":"{}","direction_id":"{\"1\": 50}","headsign":"{}","duration_avg":120,"n_vehicles":50,"d":1200,"route_I_counts":"{\"1\": 50}","source":2,"target":1,"layer":"L","from":"常州旅游学校(地铁站)","to":"常州新龙(地铁站)"},"geometry":{"type":"LineString","coordinates":[[119.952906,31.876235],[119.956459,31.889517]]}},{"type":"Feature","properties":{"shape_id":"{}","direction_id":"{\"0\": 50}","headsign":"{}","duration_avg":120,"n_vehicles":50,"d":1200,"route_I_counts":"{\"1\": 50}","source":2,"target":3,"layer":"L","from":"常州旅游学校(地铁站)","to":"常州新桥(地铁站)"},"geometry":{"type":"LineString","coordinates":[[119.952906,31.876235],[119.949747,31.865166]]}},{"type":"Feature","properties":{"shape_id":"{}","direction_id":"{\"1\": 50}","headsign":"{}","duration_avg":120,"n_vehicles":50,"d":1200,"route_I_counts":"{\"1\": 50}","source":3,"target":2,"layer":"L","from":"常州新桥(地铁站)","to":"常州旅游学校(地铁站)"},"geometry":{"type":"LineString","coordinates":[[119.949747,31.865166],[119.952906,31.876235]]}},{"type":"Feature","properties":{"shape_id":"{}","direction_id":"{\"0\": 50}","headsign":"{}","duration_avg":120,"n_vehicles":50,"d":1200,"route_I_counts":"{\"1\": 50}","source":3,"target":4,"layer":"L","from":"常州新桥(地铁站)","to":"常州常州北站(地铁站)"},"geometry":{"type":"LineString","coordinates":[[119.949747,31.865166],[119.951085,31.857002]]}},{"type":"Feature","properties":{"shape_id":"{}","direction_id":"{\"1\": 50}","headsign":"{}","duration_avg":120,"n_vehicles":50,"d":1200,"route_I_counts":"{\"1\": 50}","source":4,"target":3,"layer":"L","from":"常州常州北站(地铁站)","to":"常州新桥(地铁站)"},"geometry":{"type":"LineString","coordinates":[[119.951085,31.857002],[119.949747,31.865166]]}},{"type":"Feature","properties":{"shape_id":"{}","direction_id":"{\"0\": 50}","headsign":"{}","duration_avg":120,"n_vehicles":50,"d":1200,"route_I_counts":"{\"1\": 50}","source":4,"target":5,"layer":"L","from":"常州常州北站(地铁站)","to":"常州北郊中学(地铁站)"},"geometry":{"type":"LineString","coordinates":[[119.951085,31.857002],[119.962864,31.856135]]}},{"type":"Feature","properties":{"shape_id":"{}","direction_id":"{\"1\": 50}","headsign":"{}","duration_avg":120,"n_vehicles":50,"d":1200,"route_I_counts":"{\"1\": 50}","source":5,"target":4,"layer":"L","from":"常州北郊中学(地铁站)","to":"常州常州北站(地铁站)"},"geometry":{"type":"LineString","coordinates":[[119.962864,31.856135],[119.951085,31.857002]]}},{"type":"Feature","properties":{"shape_id":"{}","direction_id":"{\"0\": 50}","headsign":"{}","duration_avg":120,"n_vehicles":50,"d":1200,"route_I_counts":"{\"1\": 50}","source":5,"target":6,"layer":"L","from":"常州北郊中学(地铁站)","to":"常州外国语学校(地铁站)"},"geometry":{"type":"LineString","coordinates":[[119.962864,31.856135],[119.972269,31.853359]]}},{"type":"Feature","properties":{"shape_id":"{}","direction_id":"{\"1\": 50}","headsign":"{}","duration_avg":120,"n_vehicles":50,"d":1200,"route_I_counts":"{\"1\": 50}","source":6,"target":5,"layer":"L","from":"常州外国语学校(地铁站)","to":"常州北郊中学(地铁站)"},"geometry":{"type":"LineString","coordinates":[[119.972269,31.853359],[119.962864,31.856135]]}},{"type":"Feature","properties":{"shape_id":"{}","direction_id":"{\"0\": 50}","headsign":"{}","duration_avg":180,"n_vehicles":50,"d":1800,"route_I_counts":"{\"1\": 50}","source":6,"target":7,"layer":"L","from":"常州外国语学校(地铁站)","to":"常州环球港(地铁站)"},"geometry":{"type":"LineString","coordinates":[[119.972269,31.853359],[119.975932,31.841497]]}},{"type":"Feature","properties":{"shape_id":"{}","direction_id":"{\"1\": 50}","headsign":"{}","duration_avg":180,"n_vehicles":50,"d":1800,"route_I_counts":"{\"1\": 50}","source":7,"target":6,"layer":"L","from":"常州环球港(地铁站)","to":"常州外国语学校(地铁站)"},"geometry":{"type":"LineString","coordinates":[[119.975932,31.841497],[119.972269,31.853359]]}},{"type":"Feature","properties":{"shape_id":"{}","direction_id":"{\"0\": 50}","headsign":"{}","duration_avg":180,"n_vehicles":50,"d":1800,"route_I_counts":"{\"1\": 50}","source":7,"target":8,"layer":"L","from":"常州环球港(地铁站)","to":"常州新区公园(地铁站)"},"geometry":{"type":"LineString","coordinates":[[119.975932,31.841497],[119.981903,31.830269]]}},{"type":"Feature","properties":{"shape_id":"{}","direction_id":"{\"1\": 50}","headsign":"{}","duration_avg":180,"n_vehicles":50,"d":1800,"route_I_counts":"{\"1\": 50}","source":8,"target":7,"layer":"L","from":"常州新区公园(地铁站)","to":"常州环球港(地铁站)"},"geometry":{"type":"LineString","coordinates":[[119.981903,31.830269],[119.975932,31.841497]]}},{"type":"Feature","properties":{"shape_id":"{}","direction_id":"{\"0\": 50}","headsign":"{}","duration_avg":120,"n_vehicles":50,"d":1200,"route_I_counts":"{\"1\": 50}","source":8,"target":9,"layer":"L","from":"常州新区公园(地铁站)","to":"常州河海(地铁站)"},"geometry":{"type":"LineString","coordinates":[[119.981903,31.830269],[119.980763,31.823069]]}},{"type":"Feature","properties":{"shape_id":"{}","direction_id":"{\"1\": 50}","headsign":"{}","duration_avg":120,"n_vehicles":50,"d":1200,"route_I_counts":"{\"1\": 50}","source":9,"target":8,"layer":"L","from":"常州河海(地铁站)","to":"常州新区公园(地铁站)"},"geometry":{"type":"LineString","coordinates":[[119.980763,31.823069],[119.981903,31.830269]]}},{"type":"Feature","properties":{"shape_id":"{}","direction_id":"{\"0\": 50}","headsign":"{}","duration_avg":120,"n_vehicles":50,"d":1200,"route_I_counts":"{\"1\": 50}","source":9,"target":10,"layer":"L","from":"常州河海(地铁站)","to":"常州奥体中心(地铁站)"},"geometry":{"type":"LineString","coordinates":[[119.980763,31.823069],[119.97687,31.813158]]}},{"type":"Feature","properties":{"shape_id":"{}","direction_id":"{\"1\": 50}","headsign":"{}","duration_avg":120,"n_vehicles":50,"d":1200,"route_I_counts":"{\"1\": 50}","source":10,"target":9,"layer":"L","from":"常州奥体中心(地铁站)","to":"常州河海(地铁站)"},"geometry":{"type":"LineString","coordinates":[[119.97687,31.813158],[119.980763,31.823069]]}},{"type":"Feature","properties":{"shape_id":"{}","direction_id":"{\"0\": 50}","headsign":"{}","duration_avg":120,"n_vehicles":50,"d":1200,"route_I_counts":"{\"1\": 50}","source":10,"target":11,"layer":"L","from":"常州奥体中心(地铁站)","to":"常州市民广场(地铁站)"},"geometry":{"type":"LineString","coordinates":[[119.97687,31.813158],[119.970346,31.80487]]}},{"type":"Feature","properties":{"shape_id":"{}","direction_id":"{\"1\": 50}","headsign":"{}","duration_avg":120,"n_vehicles":50,"d":1200,"route_I_counts":"{\"1\": 50}","source":11,"target":10,"layer":"L","from":"常州市民广场(地铁站)","to":"常州奥体中心(地铁站)"},"geometry":{"type":"LineString","coordinates":[[119.970346,31.80487],[119.97687,31.813158]]}},{"type":"Feature","properties":{"shape_id":"{}","direction_id":"{\"0\": 50}","headsign":"{}","duration_avg":120,"n_vehicles":50,"d":1200,"route_I_counts":"{\"1\": 50}","source":11,"target":12,"layer":"L","from":"常州市民广场(地铁站)","to":"常州翠竹(地铁站)"},"geometry":{"type":"LineString","coordinates":[[119.970346,31.80487],[119.971633,31.795153]]}},{"type":"Feature","properties":{"shape_id":"{}","direction_id":"{\"1\": 50}","headsign":"{}","duration_avg":120,"n_vehicles":50,"d":1200,"route_I_counts":"{\"1\": 50}","source":12,"target":11,"layer":"L","from":"常州翠竹(地铁站)","to":"常州市民广场(地铁站)"},"geometry":{"type":"LineString","coordinates":[[119.971633,31.795153],[119.970346,31.80487]]}},{"type":"Feature","properties":{"shape_id":"{}","direction_id":"{\"0\": 50}","headsign":"{}","duration_avg":120,"n_vehicles":50,"d":1200,"route_I_counts":"{\"1\": 50}","source":12,"target":13,"layer":"L","from":"常州翠竹(地铁站)","to":"常州常州火车站(地铁站)"},"geometry":{"type":"LineString","coordinates":[[119.971633,31.795153],[119.9695,31.788945]]}},{"type":"Feature","properties":{"shape_id":"{}","direction_id":"{\"1\": 50}","headsign":"{}","duration_avg":120,"n_vehicles":50,"d":1200,"route_I_counts":"{\"1\": 50}","source":13,"target":12,"layer":"L","from":"常州常州火车站(地铁站)","to":"常州翠竹(地铁站)"},"geometry":{"type":"LineString","coordinates":[[119.9695,31.788945],[119.971633,31.795153]]}},{"type":"Feature","properties":{"shape_id":"{}","direction_id":"{\"0\": 50}","headsign":"{}","duration_avg":60,"n_vehicles":50,"d":600,"route_I_counts":"{\"1\": 50}","source":13,"target":14,"layer":"L","from":"常州常州火车站(地铁站)","to":"常州博爱路(地铁站)"},"geometry":{"type":"LineString","coordinates":[[119.9695,31.788945],[119.963607,31.784435]]}},{"type":"Feature","properties":{"shape_id":"{}","direction_id":"{\"1\": 50}","headsign":"{}","duration_avg":60,"n_vehicles":50,"d":600,"route_I_counts":"{\"1\": 50}","source":14,"target":13,"layer":"L","from":"常州博爱路(地铁站)","to":"常州常州火车站(地铁站)"},"geometry":{"type":"LineString","coordinates":[[119.963607,31.784435],[119.9695,31.788945]]}},{"type":"Feature","properties":{"shape_id":"{}","direction_id":"{\"0\": 50}","headsign":"{}","duration_avg":120,"n_vehicles":50,"d":1200,"route_I_counts":"{\"1\": 50}","source":14,"target":15,"layer":"L","from":"常州博爱路(地铁站)","to":"常州文化宫(地铁站)"},"geometry":{"type":"LineString","coordinates":[[119.963607,31.784435],[119.959428,31.77699]]}},{"type":"Feature","properties":{"shape_id":"{}","direction_id":"{\"1\": 50}","headsign":"{}","duration_avg":120,"n_vehicles":50,"d":1200,"route_I_counts":"{\"1\": 50}","source":15,"target":14,"layer":"L","from":"常州文化宫(地铁站)","to":"常州博爱路(地铁站)"},"geometry":{"type":"LineString","coordinates":[[119.959428,31.77699],[119.963607,31.784435]]}},{"type":"Feature","properties":{"shape_id":"{}","direction_id":"{\"0\": 50}","headsign":"{}","duration_avg":120,"n_vehicles":50,"d":1200,"route_I_counts":"{\"1\": 50}","source":15,"target":16,"layer":"L","from":"常州文化宫(地铁站)","to":"常州同济桥(地铁站)"},"geometry":{"type":"LineString","coordinates":[[119.959428,31.77699],[119.957056,31.770521]]}},{"type":"Feature","properties":{"shape_id":"{}","direction_id":"{\"1\": 50}","headsign":"{}","duration_avg":120,"n_vehicles":50,"d":1200,"route_I_counts":"{\"1\": 50}","source":16,"target":15,"layer":"L","from":"常州同济桥(地铁站)","to":"常州文化宫(地铁站)"},"geometry":{"type":"LineString","coordinates":[[119.957056,31.770521],[119.959428,31.77699]]}},{"type":"Feature","properties":{"shape_id":"{}","direction_id":"{\"0\": 50}","headsign":"{}","duration_avg":120,"n_vehicles":50,"d":1200,"route_I_counts":"{\"1\": 50}","source":16,"target":17,"layer":"L","from":"常州同济桥(地铁站)","to":"常州清凉寺(地铁站)"},"geometry":{"type":"LineString","coordinates":[[119.957056,31.770521],[119.955428,31.762809]]}},{"type":"Feature","properties":{"shape_id":"{}","direction_id":"{\"1\": 50}","headsign":"{}","duration_avg":120,"n_vehicles":50,"d":1200,"route_I_counts":"{\"1\": 50}","source":17,"target":16,"layer":"L","from":"常州清凉寺(地铁站)","to":"常州同济桥(地铁站)"},"geometry":{"type":"LineString","coordinates":[[119.955428,31.762809],[119.957056,31.770521]]}},{"type":"Feature","properties":{"shape_id":"{}","direction_id":"{\"0\": 50}","headsign":"{}","duration_avg":120,"n_vehicles":50,"d":1200,"route_I_counts":"{\"1\": 50}","source":17,"target":18,"layer":"L","from":"常州清凉寺(地铁站)","to":"常州茶山(地铁站)"},"geometry":{"type":"LineString","coordinates":[[119.955428,31.762809],[119.952488,31.752064]]}},{"type":"Feature","properties":{"shape_id":"{}","direction_id":"{\"1\": 50}","headsign":"{}","duration_avg":120,"n_vehicles":50,"d":1200,"route_I_counts":"{\"1\": 50}","source":18,"target":17,"layer":"L","from":"常州茶山(地铁站)","to":"常州清凉寺(地铁站)"},"geometry":{"type":"LineString","coordinates":[[119.952488,31.752064],[119.955428,31.762809]]}},{"type":"Feature","properties":{"shape_id":"{}","direction_id":"{\"0\": 50}","headsign":"{}","duration_avg":180,"n_vehicles":50,"d":1800,"route_I_counts":"{\"1\": 50}","source":18,"target":19,"layer":"L","from":"常州茶山(地铁站)","to":"常州聚湖路(地铁站)"},"geometry":{"type":"LineString","coordinates":[[119.952488,31.752064],[119.944263,31.736613]]}},{"type":"Feature","properties":{"shape_id":"{}","direction_id":"{\"1\": 50}","headsign":"{}","duration_avg":180,"n_vehicles":50,"d":1800,"route_I_counts":"{\"1\": 50}","source":19,"target":18,"layer":"L","from":"常州聚湖路(地铁站)","to":"常州茶山(地铁站)"},"geometry":{"type":"LineString","coordinates":[[119.944263,31.736613],[119.952488,31.752064]]}},{"type":"Feature","properties":{"shape_id":"{}","direction_id":"{\"0\": 50}","headsign":"{}","duration_avg":120,"n_vehicles":50,"d":1200,"route_I_counts":"{\"1\": 50}","source":19,"target":20,"layer":"L","from":"常州聚湖路(地铁站)","to":"常州湖塘(地铁站)"},"geometry":{"type":"LineString","coordinates":[[119.944263,31.736613],[119.94429,31.72448]]}},{"type":"Feature","properties":{"shape_id":"{}","direction_id":"{\"1\": 50}","headsign":"{}","duration_avg":120,"n_vehicles":50,"d":1200,"route_I_counts":"{\"1\": 50}","source":20,"target":19,"layer":"L","from":"常州湖塘(地铁站)","to":"常州聚湖路(地铁站)"},"geometry":{"type":"LineString","coordinates":[[119.94429,31.72448],[119.944263,31.736613]]}},{"type":"Feature","properties":{"shape_id":"{}","direction_id":"{\"0\": 50}","headsign":"{}","duration_avg":120,"n_vehicles":50,"d":1200,"route_I_counts":"{\"1\": 50}","source":20,"target":21,"layer":"L","from":"常州湖塘(地铁站)","to":"常州新天地公园(地铁站)"},"geometry":{"type":"LineString","coordinates":[[119.94429,31.72448],[119.944048,31.714465]]}},{"type":"Feature","properties":{"shape_id":"{}","direction_id":"{\"1\": 50}","headsign":"{}","duration_avg":120,"n_vehicles":50,"d":1200,"route_I_counts":"{\"1\": 50}","source":21,"target":20,"layer":"L","from":"常州新天地公园(地铁站)","to":"常州湖塘(地铁站)"},"geometry":{"type":"LineString","coordinates":[[119.944048,31.714465],[119.94429,31.72448]]}},{"type":"Feature","properties":{"shape_id":"{}","direction_id":"{\"0\": 50}","headsign":"{}","duration_avg":120,"n_vehicles":50,"d":1200,"route_I_counts":"{\"1\": 50}","source":21,"target":22,"layer":"L","from":"常州新天地公园(地铁站)","to":"常州长虹路(地铁站)"},"geometry":{"type":"LineString","coordinates":[[119.944048,31.714465],[119.943833,31.707849]]}},{"type":"Feature","properties":{"shape_id":"{}","direction_id":"{\"1\": 50}","headsign":"{}","duration_avg":120,"n_vehicles":50,"d":1200,"route_I_counts":"{\"1\": 50}","source":22,"target":21,"layer":"L","from":"常州长虹路(地铁站)","to":"常州新天地公园(地铁站)"},"geometry":{"type":"LineString","coordinates":[[119.943833,31.707849],[119.944048,31.714465]]}},{"type":"Feature","properties":{"shape_id":"{}","direction_id":"{\"0\": 50}","headsign":"{}","duration_avg":60,"n_vehicles":50,"d":600,"route_I_counts":"{\"1\": 50}","source":22,"target":23,"layer":"L","from":"常州长虹路(地铁站)","to":"常州延政大道(地铁站)"},"geometry":{"type":"LineString","coordinates":[[119.943833,31.707849],[119.943561,31.699938]]}},{"type":"Feature","properties":{"shape_id":"{}","direction_id":"{\"1\": 50}","headsign":"{}","duration_avg":60,"n_vehicles":50,"d":600,"route_I_counts":"{\"1\": 50}","source":23,"target":22,"layer":"L","from":"常州延政大道(地铁站)","to":"常州长虹路(地铁站)"},"geometry":{"type":"LineString","coordinates":[[119.943561,31.699938],[119.943833,31.707849]]}},{"type":"Feature","properties":{"shape_id":"{}","direction_id":"{\"0\": 50}","headsign":"{}","duration_avg":120,"n_vehicles":50,"d":1200,"route_I_counts":"{\"1\": 50}","source":23,"target":24,"layer":"L","from":"常州延政大道(地铁站)","to":"常州科教城北(地铁站)"},"geometry":{"type":"LineString","coordinates":[[119.943561,31.699938],[119.942936,31.690231]]}},{"type":"Feature","properties":{"shape_id":"{}","direction_id":"{\"1\": 50}","headsign":"{}","duration_avg":120,"n_vehicles":50,"d":1200,"route_I_counts":"{\"1\": 50}","source":24,"target":23,"layer":"L","from":"常州科教城北(地铁站)","to":"常州延政大道(地铁站)"},"geometry":{"type":"LineString","coordinates":[[119.942936,31.690231],[119.943561,31.699938]]}},{"type":"Feature","properties":{"shape_id":"{}","direction_id":"{\"0\": 50}","headsign":"{}","duration_avg":180,"n_vehicles":50,"d":1800,"route_I_counts":"{\"1\": 50}","source":24,"target":25,"layer":"L","from":"常州科教城北(地铁站)","to":"常州科教城南(地铁站)"},"geometry":{"type":"LineString","coordinates":[[119.942936,31.690231],[119.942786,31.676457]]}},{"type":"Feature","properties":{"shape_id":"{}","direction_id":"{\"1\": 50}","headsign":"{}","duration_avg":180,"n_vehicles":50,"d":1800,"route_I_counts":"{\"1\": 50}","source":25,"target":24,"layer":"L","from":"常州科教城南(地铁站)","to":"常州科教城北(地铁站)"},"geometry":{"type":"LineString","coordinates":[[119.942786,31.676457],[119.942936,31.690231]]}},{"type":"Feature","properties":{"shape_id":"{}","direction_id":"{\"0\": 50}","headsign":"{}","duration_avg":120,"n_vehicles":50,"d":1200,"route_I_counts":"{\"1\": 50}","source":25,"target":26,"layer":"L","from":"常州科教城南(地铁站)","to":"常州武进沿江城际(地铁站)"},"geometry":{"type":"LineString","coordinates":[[119.942786,31.676457],[119.943947,31.661705]]}},{"type":"Feature","properties":{"shape_id":"{}","direction_id":"{\"1\": 50}","headsign":"{}","duration_avg":120,"n_vehicles":50,"d":1200,"route_I_counts":"{\"1\": 50}","source":26,"target":25,"layer":"L","from":"常州武进沿江城际(地铁站)","to":"常州科教城南(地铁站)"},"geometry":{"type":"LineString","coordinates":[[119.943947,31.661705],[119.942786,31.676457]]}},{"type":"Feature","properties":{"shape_id":"{}","direction_id":"{\"0\": 50}","headsign":"{}","duration_avg":180,"n_vehicles":50,"d":1800,"route_I_counts":"{\"1\": 50}","source":26,"target":27,"layer":"L","from":"常州武进沿江城际(地铁站)","to":"常州阳湖路(地铁站)"},"geometry":{"type":"LineString","coordinates":[[119.943947,31.661705],[119.946134,31.6476]]}},{"type":"Feature","properties":{"shape_id":"{}","direction_id":"{\"1\": 50}","headsign":"{}","duration_avg":180,"n_vehicles":50,"d":1800,"route_I_counts":"{\"1\": 50}","source":27,"target":26,"layer":"L","from":"常州阳湖路(地铁站)","to":"常州武进沿江城际(地铁站)"},"geometry":{"type":"LineString","coordinates":[[119.946134,31.6476],[119.943947,31.661705]]}},{"type":"Feature","properties":{"shape_id":"{}","direction_id":"{\"0\": 50}","headsign":"{}","duration_avg":120,"n_vehicles":50,"d":1200,"route_I_counts":"{\"1\": 50}","source":27,"target":28,"layer":"L","from":"常州阳湖路(地铁站)","to":"常州南夏墅(地铁站)"},"geometry":{"type":"LineString","coordinates":[[119.946134,31.6476],[119.947373,31.63436]]}},{"type":"Feature","properties":{"shape_id":"{}","direction_id":"{\"1\": 50}","headsign":"{}","duration_avg":120,"n_vehicles":50,"d":1200,"route_I_counts":"{\"1\": 50}","source":28,"target":27,"layer":"L","from":"常州南夏墅(地铁站)","to":"常州阳湖路(地铁站)"},"geometry":{"type":"LineString","coordinates":[[119.947373,31.63436],[119.946134,31.6476]]}},{"type":"Feature","properties":{"shape_id":"{}","direction_id":"{\"0\": 50}","headsign":"{}","duration_avg":120,"n_vehicles":50,"d":1200,"route_I_counts":"{\"2\": 50}","source":29,"target":30,"layer":"L","from":"常州五一路(地铁站)","to":"常州潞城(地铁站)"},"geometry":{"type":"LineString","coordinates":[[120.058786,31.759784],[120.045197,31.757364]]}},{"type":"Feature","properties":{"shape_id":"{}","direction_id":"{\"1\": 50}","headsign":"{}","duration_avg":120,"n_vehicles":50,"d":1200,"route_I_counts":"{\"2\": 50}","source":30,"target":29,"layer":"L","from":"常州潞城(地铁站)","to":"常州五一路(地铁站)"},"geometry":{"type":"LineString","coordinates":[[120.045197,31.757364],[120.058786,31.759784]]}},{"type":"Feature","properties":{"shape_id":"{}","direction_id":"{\"0\": 50}","headsign":"{}","duration_avg":180,"n_vehicles":50,"d":1800,"route_I_counts":"{\"2\": 50}","source":30,"target":31,"layer":"L","from":"常州潞城(地铁站)","to":"常州丁堰(地铁站)"},"geometry":{"type":"LineString","coordinates":[[120.045197,31.757364],[120.023359,31.755164]]}},{"type":"Feature","properties":{"shape_id":"{}","direction_id":"{\"1\": 50}","headsign":"{}","duration_avg":180,"n_vehicles":50,"d":1800,"route_I_counts":"{\"2\": 50}","source":31,"target":30,"layer":"L","from":"常州丁堰(地铁站)","to":"常州潞城(地铁站)"},"geometry":{"type":"LineString","coordinates":[[120.023359,31.755164],[120.045197,31.757364]]}},{"type":"Feature","properties":{"shape_id":"{}","direction_id":"{\"0\": 50}","headsign":"{}","duration_avg":120,"n_vehicles":50,"d":1200,"route_I_counts":"{\"2\": 50}","source":31,"target":32,"layer":"L","from":"常州丁堰(地铁站)","to":"常州青洋路(地铁站)"},"geometry":{"type":"LineString","coordinates":[[120.023359,31.755164],[120.012147,31.761937]]}},{"type":"Feature","properties":{"shape_id":"{}","direction_id":"{\"1\": 50}","headsign":"{}","duration_avg":120,"n_vehicles":50,"d":1200,"route_I_counts":"{\"2\": 50}","source":32,"target":31,"layer":"L","from":"常州青洋路(地铁站)","to":"常州丁堰(地铁站)"},"geometry":{"type":"LineString","coordinates":[[120.012147,31.761937],[120.023359,31.755164]]}},{"type":"Feature","properties":{"shape_id":"{}","direction_id":"{\"0\": 50}","headsign":"{}","duration_avg":120,"n_vehicles":50,"d":1200,"route_I_counts":"{\"2\": 50}","source":32,"target":33,"layer":"L","from":"常州青洋路(地铁站)","to":"常州紫云(地铁站)"},"geometry":{"type":"LineString","coordinates":[[120.012147,31.761937],[120.000781,31.771077]]}},{"type":"Feature","properties":{"shape_id":"{}","direction_id":"{\"1\": 50}","headsign":"{}","duration_avg":120,"n_vehicles":50,"d":1200,"route_I_counts":"{\"2\": 50}","source":33,"target":32,"layer":"L","from":"常州紫云(地铁站)","to":"常州青洋路(地铁站)"},"geometry":{"type":"LineString","coordinates":[[120.000781,31.771077],[120.012147,31.761937]]}},{"type":"Feature","properties":{"shape_id":"{}","direction_id":"{\"0\": 50}","headsign":"{}","duration_avg":180,"n_vehicles":50,"d":1800,"route_I_counts":"{\"2\": 50}","source":33,"target":34,"layer":"L","from":"常州紫云(地铁站)","to":"常州三角场(地铁站)"},"geometry":{"type":"LineString","coordinates":[[120.000781,31.771077],[119.987862,31.779439]]}},{"type":"Feature","properties":{"shape_id":"{}","direction_id":"{\"1\": 50}","headsign":"{}","duration_avg":180,"n_vehicles":50,"d":1800,"route_I_counts":"{\"2\": 50}","source":34,"target":33,"layer":"L","from":"常州三角场(地铁站)","to":"常州紫云(地铁站)"},"geometry":{"type":"LineString","coordinates":[[119.987862,31.779439],[120.000781,31.771077]]}},{"type":"Feature","properties":{"shape_id":"{}","direction_id":"{\"0\": 50}","headsign":"{}","duration_avg":120,"n_vehicles":50,"d":1200,"route_I_counts":"{\"2\": 50}","source":34,"target":35,"layer":"L","from":"常州三角场(地铁站)","to":"常州五角场(地铁站)"},"geometry":{"type":"LineString","coordinates":[[119.987862,31.779439],[119.980743,31.771496]]}},{"type":"Feature","properties":{"shape_id":"{}","direction_id":"{\"1\": 50}","headsign":"{}","duration_avg":120,"n_vehicles":50,"d":1200,"route_I_counts":"{\"2\": 50}","source":35,"target":34,"layer":"L","from":"常州五角场(地铁站)","to":"常州三角场(地铁站)"},"geometry":{"type":"LineString","coordinates":[[119.980743,31.771496],[119.987862,31.779439]]}},{"type":"Feature","properties":{"shape_id":"{}","direction_id":"{\"0\": 50}","headsign":"{}","duration_avg":180,"n_vehicles":50,"d":1800,"route_I_counts":"{\"2\": 50}","source":35,"target":36,"layer":"L","from":"常州五角场(地铁站)","to":"常州红梅公园(地铁站)"},"geometry":{"type":"LineString","coordinates":[[119.980743,31.771496],[119.968171,31.772415]]}},{"type":"Feature","properties":{"shape_id":"{}","direction_id":"{\"1\": 50}","headsign":"{}","duration_avg":180,"n_vehicles":50,"d":1800,"route_I_counts":"{\"2\": 50}","source":36,"target":35,"layer":"L","from":"常州红梅公园(地铁站)","to":"常州五角场(地铁站)"},"geometry":{"type":"LineString","coordinates":[[119.968171,31.772415],[119.980743,31.771496]]}},{"type":"Feature","properties":{"shape_id":"{}","direction_id":"{\"0\": 50}","headsign":"{}","duration_avg":120,"n_vehicles":50,"d":1200,"route_I_counts":"{\"2\": 50}","source":36,"target":15,"layer":"L","from":"常州红梅公园(地铁站)","to":"常州文化宫(地铁站)"},"geometry":{"type":"LineString","coordinates":[[119.968171,31.772415],[119.959428,31.77699]]}},{"type":"Feature","properties":{"shape_id":"{}","direction_id":"{\"1\": 50}","headsign":"{}","duration_avg":120,"n_vehicles":50,"d":1200,"route_I_counts":"{\"2\": 50}","source":15,"target":36,"layer":"L","from":"常州文化宫(地铁站)","to":"常州红梅公园(地铁站)"},"geometry":{"type":"LineString","coordinates":[[119.959428,31.77699],[119.968171,31.772415]]}},{"type":"Feature","properties":{"shape_id":"{}","direction_id":"{\"0\": 50}","headsign":"{}","duration_avg":120,"n_vehicles":50,"d":1200,"route_I_counts":"{\"2\": 50}","source":15,"target":37,"layer":"L","from":"常州文化宫(地铁站)","to":"常州南大街(地铁站)"},"geometry":{"type":"LineString","coordinates":[[119.959428,31.77699],[119.948472,31.781951]]}},{"type":"Feature","properties":{"shape_id":"{}","direction_id":"{\"1\": 50}","headsign":"{}","duration_avg":120,"n_vehicles":50,"d":1200,"route_I_counts":"{\"2\": 50}","source":37,"target":15,"layer":"L","from":"常州南大街(地铁站)","to":"常州文化宫(地铁站)"},"geometry":{"type":"LineString","coordinates":[[119.948472,31.781951],[119.959428,31.77699]]}},{"type":"Feature","properties":{"shape_id":"{}","direction_id":"{\"0\": 50}","headsign":"{}","duration_avg":120,"n_vehicles":50,"d":1200,"route_I_counts":"{\"2\": 50}","source":37,"target":38,"layer":"L","from":"常州南大街(地铁站)","to":"常州怀德(地铁站)"},"geometry":{"type":"LineString","coordinates":[[119.948472,31.781951],[119.937788,31.782381]]}},{"type":"Feature","properties":{"shape_id":"{}","direction_id":"{\"1\": 50}","headsign":"{}","duration_avg":120,"n_vehicles":50,"d":1200,"route_I_counts":"{\"2\": 50}","source":38,"target":37,"layer":"L","from":"常州怀德(地铁站)","to":"常州南大街(地铁站)"},"geometry":{"type":"LineString","coordinates":[[119.937788,31.782381],[119.948472,31.781951]]}},{"type":"Feature","properties":{"shape_id":"{}","direction_id":"{\"0\": 50}","headsign":"{}","duration_avg":120,"n_vehicles":50,"d":1200,"route_I_counts":"{\"2\": 50}","source":38,"target":39,"layer":"L","from":"常州怀德(地铁站)","to":"常州勤业(地铁站)"},"geometry":{"type":"LineString","coordinates":[[119.937788,31.782381],[119.923925,31.788459]]}},{"type":"Feature","properties":{"shape_id":"{}","direction_id":"{\"1\": 50}","headsign":"{}","duration_avg":120,"n_vehicles":50,"d":1200,"route_I_counts":"{\"2\": 50}","source":39,"target":38,"layer":"L","from":"常州勤业(地铁站)","to":"常州怀德(地铁站)"},"geometry":{"type":"LineString","coordinates":[[119.923925,31.788459],[119.937788,31.782381]]}},{"type":"Feature","properties":{"shape_id":"{}","direction_id":"{\"0\": 50}","headsign":"{}","duration_avg":180,"n_vehicles":50,"d":1800,"route_I_counts":"{\"2\": 50}","source":39,"target":40,"layer":"L","from":"常州勤业(地铁站)","to":"常州五星(地铁站)"},"geometry":{"type":"LineString","coordinates":[[119.923925,31.788459],[119.913396,31.794758]]}},{"type":"Feature","properties":{"shape_id":"{}","direction_id":"{\"1\": 50}","headsign":"{}","duration_avg":180,"n_vehicles":50,"d":1800,"route_I_counts":"{\"2\": 50}","source":40,"target":39,"layer":"L","from":"常州五星(地铁站)","to":"常州勤业(地铁站)"},"geometry":{"type":"LineString","coordinates":[[119.913396,31.794758],[119.923925,31.788459]]}},{"type":"Feature","properties":{"shape_id":"{}","direction_id":"{\"0\": 50}","headsign":"{}","duration_avg":120,"n_vehicles":50,"d":1200,"route_I_counts":"{\"2\": 50}","source":40,"target":41,"layer":"L","from":"常州五星(地铁站)","to":"常州海棠路(地铁站)"},"geometry":{"type":"LineString","coordinates":[[119.913396,31.794758],[119.903869,31.800354]]}},{"type":"Feature","properties":{"shape_id":"{}","direction_id":"{\"1\": 50}","headsign":"{}","duration_avg":120,"n_vehicles":50,"d":1200,"route_I_counts":"{\"2\": 50}","source":41,"target":40,"layer":"L","from":"常州海棠路(地铁站)","to":"常州五星(地铁站)"},"geometry":{"type":"LineString","coordinates":[[119.903869,31.800354],[119.913396,31.794758]]}},{"type":"Feature","properties":{"shape_id":"{}","direction_id":"{\"0\": 50}","headsign":"{}","duration_avg":120,"n_vehicles":50,"d":1200,"route_I_counts":"{\"2\": 50}","source":41,"target":42,"layer":"L","from":"常州海棠路(地铁站)","to":"常州青枫公园(地铁站)"},"geometry":{"type":"LineString","coordinates":[[119.903869,31.800354],[119.894914,31.804447]]}},{"type":"Feature","properties":{"shape_id":"{}","direction_id":"{\"1\": 50}","headsign":"{}","duration_avg":120,"n_vehicles":50,"d":1200,"route_I_counts":"{\"2\": 50}","source":42,"target":41,"layer":"L","from":"常州青枫公园(地铁站)","to":"常州海棠路(地铁站)"},"geometry":{"type":"LineString","coordinates":[[119.894914,31.804447],[119.903869,31.800354]]}}]}