{"type":"FeatureCollection","features":[{"type":"Feature","geometry":{"type":"Point","coordinates":[128.73366,35.87121]},"properties":{"name":"안심","original_ids":"[1]","id":0,"layer":"stop"}},{"type":"Feature","geometry":{"type":"Point","coordinates":[128.48936,35.79872]},"properties":{"name":"설화명곡","original_ids":"[2]","id":1,"layer":"stop"}},{"type":"Feature","geometry":{"type":"Point","coordinates":[128.50064,35.80442]},"properties":{"name":"화원","original_ids":"[3]","id":2,"layer":"stop"}},{"type":"Feature","geometry":{"type":"Point","coordinates":[128.51245,35.80941]},"properties":{"name":"대곡","original_ids":"[4]","id":3,"layer":"stop"}},{"type":"Feature","geometry":{"type":"Point","coordinates":[128.52267,35.81378]},"properties":{"name":"진천","original_ids":"[5]","id":4,"layer":"stop"}},{"type":"Feature","geometry":{"type":"Point","coordinates":[128.5304,35.81615]},"properties":{"name":"월배","original_ids":"[6]","id":5,"layer":"stop"}},{"type":"Feature","geometry":{"type":"Point","coordinates":[128.53783,35.81895]},"properties":{"name":"상인","original_ids":"[7]","id":6,"layer":"stop"}},{"type":"Feature","geometry":{"type":"Point","coordinates":[128.54552,35.82374]},"properties":{"name":"월촌","original_ids":"[8]","id":7,"layer":"stop"}},{"type":"Feature","geometry":{"type":"Point","coordinates":[128.55177,35.83107]},"properties":{"name":"송현","original_ids":"[9]","id":8,"layer":"stop"}},{"type":"Feature","geometry":{"type":"Point","coordinates":[128.55716,35.83712]},"properties":{"name":"서부정류장","original_ids":"[10]","id":9,"layer":"stop"}},{"type":"Feature","geometry":{"type":"Point","coordinates":[128.5654,35.8393]},"properties":{"name":"대명","original_ids":"[11]","id":10,"layer":"stop"}},{"type":"Feature","geometry":{"type":"Point","coordinates":[128.57407,35.83922]},"properties":{"name":"안지랑","original_ids":"[12]","id":11,"layer":"stop"}},{"type":"Feature","geometry":{"type":"Point","coordinates":[128.58092,35.84064]},"properties":{"name":"현충로","original_ids":"[13]","id":12,"layer":"stop"}},{"type":"Feature","geometry":{"type":"Point","coordinates":[128.5886,35.84438]},"properties":{"name":"영대병원","original_ids":"[14]","id":13,"layer":"stop"}},{"type":"Feature","geometry":{"type":"Point","coordinates":[128.5906,35.85072]},"properties":{"name":"교대","original_ids":"[15]","id":14,"layer":"stop"}},{"type":"Feature","geometry":{"type":"Point","coordinates":[128.59103,35.85762]},"properties":{"name":"명덕","original_ids":"[16]","id":15,"layer":"stop"}},{"type":"Feature","geometry":{"type":"Point","coordinates":[128.59335,35.86448]},"properties":{"name":"반월당","original_ids":"[17]","id":16,"layer":"stop"}},{"type":"Feature","geometry":{"type":"Point","coordinates":[128.59404,35.87097]},"properties":{"name":"중앙로","original_ids":"[18]","id":17,"layer":"stop"}},{"type":"Feature","geometry":{"type":"Point","coordinates":[128.59705,35.87632]},"properties":{"name":"대구역","original_ids":"[19]","id":18,"layer":"stop"}},{"type":"Feature","geometry":{"type":"Point","coordinates":[128.60509,35.87609]},"properties":{"name":"칠성시장","original_ids":"[20]","id":19,"layer":"stop"}},{"type":"Feature","geometry":{"type":"Point","coordinates":[128.61761,35.87462]},"properties":{"name":"신천","original_ids":"[21]","id":20,"layer":"stop"}},{"type":"Feature","geometry":{"type":"Point","coordinates":[128.62834,35.87714]},"properties":{"name":"동대구","original_ids":"[22]","id":21,"layer":"stop"}},{"type":"Feature","geometry":{"type":"Point","coordinates":[128.63219,35.88433]},"properties":{"name":"동구청","original_ids":"[23]","id":22,"layer":"stop"}},{"type":"Feature","geometry":{"type":"Point","coordinates":[128.63994,35.88719]},"properties":{"name":"아양교","original_ids":"[24]","id":23,"layer":"stop"}},{"type":"Feature","geometry":{"type":"Point","coordinates":[128.65034,35.88604]},"properties":{"name":"동촌","original_ids":"[25]","id":24,"layer":"stop"}},{"type":"Feature","geometry":{"type":"Point","coordinates":[128.65933,35.88358]},"properties":{"name":"해안","original_ids":"[26]","id":25,"layer":"stop"}},{"type":"Feature","geometry":{"type":"Point","coordinates":[128.67001,35.87966]},"properties":{"name":"방촌","original_ids":"[27]","id":26,"layer":"stop"}},{"type":"Feature","geometry":{"type":"Point","coordinates":[128.68199,35.87612]},"properties":{"name":"용계","original_ids":"[28]","id":27,"layer":"stop"}},{"type":"Feature","geometry":{"type":"Point","coordinates":[128.6927,35.8698]},"properties":{"name":"율하","original_ids":"[29]","id":28,"layer":"stop"}},{"type":"Feature","geometry":{"type":"Point","coordinates":[128.70247,35.86659]},"properties":{"name":"신기","original_ids":"[30]","id":29,"layer":"stop"}},{"type":"Feature","geometry":{"type":"Point","coordinates":[128.71352,35.86604]},"properties":{"name":"반야월","original_ids":"[31]","id":30,"layer":"stop"}},{"type":"Feature","geometry":{"type":"Point","coordinates":[128.72446,35.86804]},"properties":{"name":"각산","original_ids":"[32]","id":31,"layer":"stop"}},{"type":"Feature","geometry":{"type":"Point","coordinates":[128.75083,35.87167]},"properties":{"name":"대구한의대병원","original_ids":"[33]","id":32,"layer":"stop"}},{"type":"Feature","geometry":{"type":"Point","coordinates":[128.80306,35.90028]},"properties":{"name":"부호","original_ids":"[34]","id":33,"layer":"stop"}},{"type":"Feature","geometry":{"type":"Point","coordinates":[128.81835,35.90911]},"properties":{"name":"하양","original_ids":"[35]","id":34,"layer":"stop"}},{"type":"Feature","geometry":{"type":"Point","coordinates":[128.43726,35.86398]},"properties":{"name":"문양","original_ids":"[36]","id":35,"layer":"stop"}},{"type":"Feature","geometry":{"type":"Point","coordinates":[128.45828,35.86495]},"properties":{"name":"다사","original_ids":"[37]","id":36,"layer":"stop"}},{"type":"Feature","geometry":{"type":"Point","coordinates":[128.46559,35.85733]},"properties":{"name":"대실","original_ids":"[38]","id":37,"layer":"stop"}},{"type":"Feature","geometry":{"type":"Point","coordinates":[128.47853,35.85307]},"properties":{"name":"강창","original_ids":"[39]","id":38,"layer":"stop"}},{"type":"Feature","geometry":{"type":"Point","coordinates":[128.49202,35.85149]},"properties":{"name":"계명대","original_ids":"[40]","id":39,"layer":"stop"}},{"type":"Feature","geometry":{"type":"Point","coordinates":[128.50706,35.85173]},"properties":{"name":"성서산업단지","original_ids":"[41]","id":40,"layer":"stop"}},{"type":"Feature","geometry":{"type":"Point","coordinates":[128.5158,35.85062]},"properties":{"name":"이곡","original_ids":"[42]","id":41,"layer":"stop"}},{"type":"Feature","geometry":{"type":"Point","coordinates":[128.52872,35.84901]},"properties":{"name":"용산","original_ids":"[43]","id":42,"layer":"stop"}},{"type":"Feature","geometry":{"type":"Point","coordinates":[128.5388,35.85071]},"properties":{"name":"죽전","original_ids":"[44]","id":43,"layer":"stop"}},{"type":"Feature","geometry":{"type":"Point","coordinates":[128.5481,35.85428]},"properties":{"name":"감삼","original_ids":"[45]","id":44,"layer":"stop"}},{"type":"Feature","geometry":{"type":"Point","coordinates":[128.55562,35.85723]},"properties":{"name":"두류","original_ids":"[46]","id":45,"layer":"stop"}},{"type":"Feature","geometry":{"type":"Point","coordinates":[128.56464,35.86011]},"properties":{"name":"내당","original_ids":"[47]","id":46,"layer":"stop"}},{"type":"Feature","geometry":{"type":"Point","coordinates":[128.57272,35.86224]},"properties":{"name":"반고개","original_ids":"[48]","id":47,"layer":"stop"}},{"type":"Feature","geometry":{"type":"Point","coordinates":[128.58237,35.86482]},"properties":{"name":"청라언덕","original_ids":"[49]","id":48,"layer":"stop"}},{"type":"Feature","geometry":{"type":"Point","coordinates":[128.6027,35.8632]},"properties":{"name":"경대병원","original_ids":"[50]","id":49,"layer":"stop"}},{"type":"Feature","geometry":{"type":"Point","coordinates":[128.61412,35.85974]},"properties":{"name":"대구은행","original_ids":"[51]","id":50,"layer":"stop"}},{"type":"Feature","geometry":{"type":"Point","coordinates":[128.6262,35.85906]},"properties":{"name":"범어","original_ids":"[52]","id":51,"layer":"stop"}},{"type":"Feature","geometry":{"type":"Point","coordinates":[128.63559,35.8588]},"properties":{"name":"수성구청","original_ids":"[53]","id":52,"layer":"stop"}},{"type":"Feature","geometry":{"type":"Point","coordinates":[128.64491,35.85884]},"properties":{"name":"만촌","original_ids":"[54]","id":53,"layer":"stop"}},{"type":"Feature","geometry":{"type":"Point","coordinates":[128.65396,35.8548]},"properties":{"name":"담티","original_ids":"[55]","id":54,"layer":"stop"}},{"type":"Feature","geometry":{"type":"Point","coordinates":[128.6717,35.84655]},"properties":{"name":"연호","original_ids":"[56]","id":55,"layer":"stop"}},{"type":"Feature","geometry":{"type":"Point","coordinates":[128.67986,35.84261]},"properties":{"name":"대공원","original_ids":"[57]","id":56,"layer":"stop"}},{"type":"Feature","geometry":{"type":"Point","coordinates":[128.69327,35.84292]},"properties":{"name":"고산","original_ids":"[58]","id":57,"layer":"stop"}},{"type":"Feature","geometry":{"type":"Point","coordinates":[128.70497,35.84081]},"properties":{"name":"신매","original_ids":"[59]","id":58,"layer":"stop"}},{"type":"Feature","geometry":{"type":"Point","coordinates":[128.71544,35.83695]},"properties":{"name":"사월","original_ids":"[60]","id":59,"layer":"stop"}},{"type":"Feature","geometry":{"type":"Point","coordinates":[128.72855,35.83405]},"properties":{"name":"정평","original_ids":"[61]","id":60,"layer":"stop"}},{"type":"Feature","geometry":{"type":"Point","coordinates":[128.74103,35.83406]},"properties":{"name":"임당","original_ids":"[62]","id":61,"layer":"stop"}},{"type":"Feature","geometry":{"type":"Point","coordinates":[128.75313,35.83635]},"properties":{"name":"영남대","original_ids":"[63]","id":62,"layer":"stop"}},{"type":"Feature","geometry":{"type":"Point","coordinates":[128.55989,35.95828]},"properties":{"name":"칠곡경대병원","original_ids":"[64]","id":63,"layer":"stop"}},{"type":"Feature","geometry":{"type":"Point","coordinates":[128.5592,35.95156]},"properties":{"name":"학정","original_ids":"[65]","id":64,"layer":"stop"}},{"type":"Feature","geometry":{"type":"Point","coordinates":[128.55833,35.94404]},"properties":{"name":"팔거","original_ids":"[66]","id":65,"layer":"stop"}},{"type":"Feature","geometry":{"type":"Point","coordinates":[128.55653,35.93743]},"properties":{"name":"동천","original_ids":"[67]","id":66,"layer":"stop"}},{"type":"Feature","geometry":{"type":"Point","coordinates":[128.55467,35.93169]},"properties":{"name":"칠곡운암","original_ids":"[68]","id":67,"layer":"stop"}},{"type":"Feature","geometry":{"type":"Point","coordinates":[128.55017,35.92545]},"properties":{"name":"구암","original_ids":"[69]","id":68,"layer":"stop"}},{"type":"Feature","geometry":{"type":"Point","coordinates":[128.5474,35.91926]},"properties":{"name":"태전","original_ids":"[70]","id":69,"layer":"stop"}},{"type":"Feature","geometry":{"type":"Point","coordinates":[128.54345,35.9127]},"properties":{"name":"매천","original_ids":"[71]","id":70,"layer":"stop"}},{"type":"Feature","geometry":{"type":"Point","coordinates":[128.54561,35.90398]},"properties":{"name":"매천시장","original_ids":"[72]","id":71,"layer":"stop"}},{"type":"Feature","geometry":{"type":"Point","coordinates":[128.54675,35.89783]},"properties":{"name":"팔달","original_ids":"[73]","id":72,"layer":"stop"}},{"type":"Feature","geometry":{"type":"Point","coordinates":[128.5536,35.89198]},"properties":{"name":"공단","original_ids":"[74]","id":73,"layer":"stop"}},{"type":"Feature","geometry":{"type":"Point","coordinates":[128.56139,35.88977]},"properties":{"name":"만평","original_ids":"[75]","id":74,"layer":"stop"}},{"type":"Feature","geometry":{"type":"Point","coordinates":[128.56789,35.88885]},"properties":{"name":"팔달시장","original_ids":"[76]","id":75,"layer":"stop"}},{"type":"Feature","geometry":{"type":"Point","coordinates":[128.57436,35.88784]},"properties":{"name":"원대","original_ids":"[77]","id":76,"layer":"stop"}},{"type":"Feature","geometry":{"type":"Point","coordinates":[128.58145,35.88382]},"properties":{"name":"북구청","original_ids":"[78]","id":77,"layer":"stop"}},{"type":"Feature","geometry":{"type":"Point","coordinates":[128.58209,35.87568]},"properties":{"name":"달성공원","original_ids":"[79]","id":78,"layer":"stop"}},{"type":"Feature","geometry":{"type":"Point","coordinates":[128.58224,35.86965]},"properties":{"name":"서문시장","original_ids":"[80]","id":79,"layer":"stop"}},{"type":"Feature","geometry":{"type":"Point","coordinates":[128.58345,35.85669]},"properties":{"name":"남산","original_ids":"[81]","id":80,"layer":"stop"}},{"type":"Feature","geometry":{"type":"Point","coordinates":[128.5996,35.85537]},"properties":{"name":"건들바위","original_ids":"[82]","id":81,"layer":"stop"}},{"type":"Feature","geometry":{"type":"Point","coordinates":[128.60603,35.85499]},"properties":{"name":"대봉교","original_ids":"[83]","id":82,"layer":"stop"}},{"type":"Feature","geometry":{"type":"Point","coordinates":[128.61626,35.85429]},"properties":{"name":"수성시장","original_ids":"[84]","id":83,"layer":"stop"}},{"type":"Feature","geometry":{"type":"Point","coordinates":[128.62521,35.85238]},"properties":{"name":"수성구민운동장","original_ids":"[85]","id":84,"layer":"stop"}},{"type":"Feature","geometry":{"type":"Point","coordinates":[128.62447,35.84517]},"properties":{"name":"어린이회관","original_ids":"[86]","id":85,"layer":"stop"}},{"type":"Feature","geometry":{"type":"Point","coordinates":[128.62413,35.83963]},"properties":{"name":"황금","original_ids":"[87]","id":86,"layer":"stop"}},{"type":"Feature","geometry":{"type":"Point","coordinates":[128.62323,35.83173]},"properties":{"name":"수성못","original_ids":"[88]","id":87,"layer":"stop"}},{"type":"Feature","geometry":{"type":"Point","coordinates":[128.63194,35.82515]},"properties":{"name":"지산","original_ids":"[89]","id":88,"layer":"stop"}},{"type":"Feature","geometry":{"type":"Point","coordinates":[128.6401,35.82084]},"properties":{"name":"범물","original_ids":"[90]","id":89,"layer":"stop"}},{"type":"Feature","geometry":{"type":"Point","coordinates":[128.6467,35.81825]},"properties":{"name":"용지","original_ids":"[91]","id":90,"layer":"stop"}},{"type":"Feature","properties":{"shape_id":"{}","direction_id":"{\"0\": 50}","headsign":"{}","duration_avg":110,"n_vehicles":50,"d":1100,"route_I_counts":"{\"1\": 50}","source":1,"target":2,"layer":"L","from":"설화명곡","to":"화원"},"geometry":{"type":"LineString","coordinates":[[128.48936,35.79872],[128.50064,35.80442]]}},{"type":"Feature","properties":{"shape_id":"{}","direction_id":"{\"1\": 50}","headsign":"{}","duration_avg":110,"n_vehicles":50,"d":1100,"route_I_counts":"{\"1\": 50}","source":2,"target":1,"layer":"L","from":"화원","to":"설화명곡"},"geometry":{"type":"LineString","coordinates":[[128.50064,35.80442],[128.48936,35.79872]]}},{"type":"Feature","properties":{"shape_id":"{}","direction_id":"{\"0\": 50}","headsign":"{}","duration_avg":110,"n_vehicles":50,"d":1100,"route_I_counts":"{\"1\": 50}","source":2,"target":3,"layer":"L","from":"화원","to":"대곡"},"geometry":{"type":"LineString","coordinates":[[128.50064,35.80442],[128.51245,35.80941]]}},{"type":"Feature","properties":{"shape_id":"{}","direction_id":"{\"1\": 50}","headsign":"{}","duration_avg":100,"n_vehicles":50,"d":1100,"route_I_counts":"{\"1\": 50}","source":3,"target":2,"layer":"L","from":"대곡","to":"화원"},"geometry":{"type":"LineString","coordinates":[[128.51245,35.80941],[128.50064,35.80442]]}},{"type":"Feature","properties":{"shape_id":"{}","direction_id":"{\"0\": 50}","headsign":"{}","duration_avg":100,"n_vehicles":50,"d":1000,"route_I_counts":"{\"1\": 50}","source":3,"target":4,"layer":"L","from":"대곡","to":"진천"},"geometry":{"type":"LineString","coordinates":[[128.51245,35.80941],[128.52267,35.81378]]}},{"type":"Feature","properties":{"shape_id":"{}","direction_id":"{\"1\": 50}","headsign":"{}","duration_avg":70,"n_vehicles":50,"d":1000,"route_I_counts":"{\"1\": 50}","source":4,"target":3,"layer":"L","from":"진천","to":"대곡"},"geometry":{"type":"LineString","coordinates":[[128.52267,35.81378],[128.51245,35.80941]]}},{"type":"Feature","properties":{"shape_id":"{}","direction_id":"{\"0\": 50}","headsign":"{}","duration_avg":70,"n_vehicles":50,"d":700,"route_I_counts":"{\"1\": 50}","source":4,"target":5,"layer":"L","from":"진천","to":"월배"},"geometry":{"type":"LineString","coordinates":[[128.52267,35.81378],[128.5304,35.81615]]}},{"type":"Feature","properties":{"shape_id":"{}","direction_id":"{\"1\": 50}","headsign":"{}","duration_avg":70,"n_vehicles":50,"d":700,"route_I_counts":"{\"1\": 50}","source":5,"target":4,"layer":"L","from":"월배","to":"진천"},"geometry":{"type":"LineString","coordinates":[[128.5304,35.81615],[128.52267,35.81378]]}},{"type":"Feature","properties":{"shape_id":"{}","direction_id":"{\"0\": 50}","headsign":"{}","duration_avg":70,"n_vehicles":50,"d":700,"route_I_counts":"{\"1\": 50}","source":5,"target":6,"layer":"L","from":"월배","to":"상인"},"geometry":{"type":"LineString","coordinates":[[128.5304,35.81615],[128.53783,35.81895]]}},{"type":"Feature","properties":{"shape_id":"{}","direction_id":"{\"1\": 50}","headsign":"{}","duration_avg":80,"n_vehicles":50,"d":700,"route_I_counts":"{\"1\": 50}","source":6,"target":5,"layer":"L","from":"상인","to":"월배"},"geometry":{"type":"LineString","coordinates":[[128.53783,35.81895],[128.5304,35.81615]]}},{"type":"Feature","properties":{"shape_id":"{}","direction_id":"{\"0\": 50}","headsign":"{}","duration_avg":80,"n_vehicles":50,"d":800,"route_I_counts":"{\"1\": 50}","source":6,"target":7,"layer":"L","from":"상인","to":"월촌"},"geometry":{"type":"LineString","coordinates":[[128.53783,35.81895],[128.54552,35.82374]]}},{"type":"Feature","properties":{"shape_id":"{}","direction_id":"{\"1\": 50}","headsign":"{}","duration_avg":80,"n_vehicles":50,"d":800,"route_I_counts":"{\"1\": 50}","source":7,"target":6,"layer":"L","from":"월촌","to":"상인"},"geometry":{"type":"LineString","coordinates":[[128.54552,35.82374],[128.53783,35.81895]]}},{"type":"Feature","properties":{"shape_id":"{}","direction_id":"{\"0\": 50}","headsign":"{}","duration_avg":80,"n_vehicles":50,"d":800,"route_I_counts":"{\"1\": 50}","source":7,"target":8,"layer":"L","from":"월촌","to":"송현"},"geometry":{"type":"LineString","coordinates":[[128.54552,35.82374],[128.55177,35.83107]]}},{"type":"Feature","properties":{"shape_id":"{}","direction_id":"{\"1\": 50}","headsign":"{}","duration_avg":75,"n_vehicles":50,"d":800,"route_I_counts":"{\"1\": 50}","source":8,"target":7,"layer":"L","from":"송현","to":"월촌"},"geometry":{"type":"LineString","coordinates":[[128.55177,35.83107],[128.54552,35.82374]]}},{"type":"Feature","properties":{"shape_id":"{}","direction_id":"{\"0\": 50}","headsign":"{}","duration_avg":75,"n_vehicles":50,"d":750,"route_I_counts":"{\"1\": 50}","source":8,"target":9,"layer":"L","from":"송현","to":"서부정류장"},"geometry":{"type":"LineString","coordinates":[[128.55177,35.83107],[128.55716,35.83712]]}},{"type":"Feature","properties":{"shape_id":"{}","direction_id":"{\"1\": 50}","headsign":"{}","duration_avg":75,"n_vehicles":50,"d":750,"route_I_counts":"{\"1\": 50}","source":9,"target":8,"layer":"L","from":"서부정류장","to":"송현"},"geometry":{"type":"LineString","coordinates":[[128.55716,35.83712],[128.55177,35.83107]]}},{"type":"Feature","properties":{"shape_id":"{}","direction_id":"{\"0\": 50}","headsign":"{}","duration_avg":75,"n_vehicles":50,"d":750,"route_I_counts":"{\"1\": 50}","source":9,"target":10,"layer":"L","from":"서부정류장","to":"대명"},"geometry":{"type":"LineString","coordinates":[[128.55716,35.83712],[128.5654,35.8393]]}},{"type":"Feature","properties":{"shape_id":"{}","direction_id":"{\"1\": 50}","headsign":"{}","duration_avg":70,"n_vehicles":50,"d":750,"route_I_counts":"{\"1\": 50}","source":10,"target":9,"layer":"L","from":"대명","to":"서부정류장"},"geometry":{"type":"LineString","coordinates":[[128.5654,35.8393],[128.55716,35.83712]]}},{"type":"Feature","properties":{"shape_id":"{}","direction_id":"{\"0\": 50}","headsign":"{}","duration_avg":70,"n_vehicles":50,"d":700,"route_I_counts":"{\"1\": 50}","source":10,"target":11,"layer":"L","from":"대명","to":"안지랑"},"geometry":{"type":"LineString","coordinates":[[128.5654,35.8393],[128.57407,35.83922]]}},{"type":"Feature","properties":{"shape_id":"{}","direction_id":"{\"1\": 50}","headsign":"{}","duration_avg":80,"n_vehicles":50,"d":700,"route_I_counts":"{\"1\": 50}","source":11,"target":10,"layer":"L","from":"안지랑","to":"대명"},"geometry":{"type":"LineString","coordinates":[[128.57407,35.83922],[128.5654,35.8393]]}},{"type":"Feature","properties":{"shape_id":"{}","direction_id":"{\"0\": 50}","headsign":"{}","duration_avg":80,"n_vehicles":50,"d":800,"route_I_counts":"{\"1\": 50}","source":11,"target":12,"layer":"L","from":"안지랑","to":"현충로"},"geometry":{"type":"LineString","coordinates":[[128.57407,35.83922],[128.58092,35.84064]]}},{"type":"Feature","properties":{"shape_id":"{}","direction_id":"{\"1\": 50}","headsign":"{}","duration_avg":70,"n_vehicles":50,"d":800,"route_I_counts":"{\"1\": 50}","source":12,"target":11,"layer":"L","from":"현충로","to":"안지랑"},"geometry":{"type":"LineString","coordinates":[[128.58092,35.84064],[128.57407,35.83922]]}},{"type":"Feature","properties":{"shape_id":"{}","direction_id":"{\"0\": 50}","headsign":"{}","duration_avg":70,"n_vehicles":50,"d":700,"route_I_counts":"{\"1\": 50}","source":12,"target":13,"layer":"L","from":"현충로","to":"영대병원"},"geometry":{"type":"LineString","coordinates":[[128.58092,35.84064],[128.5886,35.84438]]}},{"type":"Feature","properties":{"shape_id":"{}","direction_id":"{\"1\": 50}","headsign":"{}","duration_avg":85,"n_vehicles":50,"d":700,"route_I_counts":"{\"1\": 50}","source":13,"target":12,"layer":"L","from":"영대병원","to":"현충로"},"geometry":{"type":"LineString","coordinates":[[128.5886,35.84438],[128.58092,35.84064]]}},{"type":"Feature","properties":{"shape_id":"{}","direction_id":"{\"0\": 50}","headsign":"{}","duration_avg":85,"n_vehicles":50,"d":850,"route_I_counts":"{\"1\": 50}","source":13,"target":14,"layer":"L","from":"영대병원","to":"교대"},"geometry":{"type":"LineString","coordinates":[[128.5886,35.84438],[128.5906,35.85072]]}},{"type":"Feature","properties":{"shape_id":"{}","direction_id":"{\"1\": 50}","headsign":"{}","duration_avg":70,"n_vehicles":50,"d":850,"route_I_counts":"{\"1\": 50}","source":14,"target":13,"layer":"L","from":"교대","to":"영대병원"},"geometry":{"type":"LineString","coordinates":[[128.5906,35.85072],[128.5886,35.84438]]}},{"type":"Feature","properties":{"shape_id":"{}","direction_id":"{\"0\": 50}","headsign":"{}","duration_avg":70,"n_vehicles":50,"d":700,"route_I_counts":"{\"1\": 50}","source":14,"target":15,"layer":"L","from":"교대","to":"명덕"},"geometry":{"type":"LineString","coordinates":[[128.5906,35.85072],[128.59103,35.85762]]}},{"type":"Feature","properties":{"shape_id":"{}","direction_id":"{\"1\": 50}","headsign":"{}","duration_avg":70,"n_vehicles":50,"d":700,"route_I_counts":"{\"1\": 50}","source":15,"target":14,"layer":"L","from":"명덕","to":"교대"},"geometry":{"type":"LineString","coordinates":[[128.59103,35.85762],[128.5906,35.85072]]}},{"type":"Feature","properties":{"shape_id":"{}","direction_id":"{\"0\": 50}","headsign":"{}","duration_avg":70,"n_vehicles":50,"d":700,"route_I_counts":"{\"1\": 50}","source":15,"target":16,"layer":"L","from":"명덕","to":"반월당"},"geometry":{"type":"LineString","coordinates":[[128.59103,35.85762],[128.59335,35.86448]]}},{"type":"Feature","properties":{"shape_id":"{}","direction_id":"{\"1\": 50}","headsign":"{}","duration_avg":70,"n_vehicles":50,"d":700,"route_I_counts":"{\"1\": 50}","source":16,"target":15,"layer":"L","from":"반월당","to":"명덕"},"geometry":{"type":"LineString","coordinates":[[128.59335,35.86448],[128.59103,35.85762]]}},{"type":"Feature","properties":{"shape_id":"{}","direction_id":"{\"0\": 50}","headsign":"{}","duration_avg":70,"n_vehicles":50,"d":700,"route_I_counts":"{\"1\": 50}","source":16,"target":17,"layer":"L","from":"반월당","to":"중앙로"},"geometry":{"type":"LineString","coordinates":[[128.59335,35.86448],[128.59404,35.87097]]}},{"type":"Feature","properties":{"shape_id":"{}","direction_id":"{\"1\": 50}","headsign":"{}","duration_avg":80,"n_vehicles":50,"d":700,"route_I_counts":"{\"1\": 50}","source":17,"target":16,"layer":"L","from":"중앙로","to":"반월당"},"geometry":{"type":"LineString","coordinates":[[128.59404,35.87097],[128.59335,35.86448]]}},{"type":"Feature","properties":{"shape_id":"{}","direction_id":"{\"0\": 50}","headsign":"{}","duration_avg":80,"n_vehicles":50,"d":800,"route_I_counts":"{\"1\": 50}","source":17,"target":18,"layer":"L","from":"중앙로","to":"대구역"},"geometry":{"type":"LineString","coordinates":[[128.59404,35.87097],[128.59705,35.87632]]}},{"type":"Feature","properties":{"shape_id":"{}","direction_id":"{\"1\": 50}","headsign":"{}","duration_avg":75,"n_vehicles":50,"d":800,"route_I_counts":"{\"1\": 50}","source":18,"target":17,"layer":"L","from":"대구역","to":"중앙로"},"geometry":{"type":"LineString","coordinates":[[128.59705,35.87632],[128.59404,35.87097]]}},{"type":"Feature","properties":{"shape_id":"{}","direction_id":"{\"0\": 50}","headsign":"{}","duration_avg":75,"n_vehicles":50,"d":750,"route_I_counts":"{\"1\": 50}","source":18,"target":19,"layer":"L","from":"대구역","to":"칠성시장"},"geometry":{"type":"LineString","coordinates":[[128.59705,35.87632],[128.60509,35.87609]]}},{"type":"Feature","properties":{"shape_id":"{}","direction_id":"{\"1\": 50}","headsign":"{}","duration_avg":95,"n_vehicles":50,"d":750,"route_I_counts":"{\"1\": 50}","source":19,"target":18,"layer":"L","from":"칠성시장","to":"대구역"},"geometry":{"type":"LineString","coordinates":[[128.60509,35.87609],[128.59705,35.87632]]}},{"type":"Feature","properties":{"shape_id":"{}","direction_id":"{\"0\": 50}","headsign":"{}","duration_avg":95,"n_vehicles":50,"d":950,"route_I_counts":"{\"1\": 50}","source":19,"target":20,"layer":"L","from":"칠성시장","to":"신천"},"geometry":{"type":"LineString","coordinates":[[128.60509,35.87609],[128.61761,35.87462]]}},{"type":"Feature","properties":{"shape_id":"{}","direction_id":"{\"1\": 50}","headsign":"{}","duration_avg":80,"n_vehicles":50,"d":950,"route_I_counts":"{\"1\": 50}","source":20,"target":19,"layer":"L","from":"신천","to":"칠성시장"},"geometry":{"type":"LineString","coordinates":[[128.61761,35.87462],[128.60509,35.87609]]}},{"type":"Feature","properties":{"shape_id":"{}","direction_id":"{\"0\": 50}","headsign":"{}","duration_avg":80,"n_vehicles":50,"d":800,"route_I_counts":"{\"1\": 50}","source":20,"target":21,"layer":"L","from":"신천","to":"동대구"},"geometry":{"type":"LineString","coordinates":[[128.61761,35.87462],[128.62834,35.87714]]}},{"type":"Feature","properties":{"shape_id":"{}","direction_id":"{\"1\": 50}","headsign":"{}","duration_avg":70,"n_vehicles":50,"d":800,"route_I_counts":"{\"1\": 50}","source":21,"target":20,"layer":"L","from":"동대구","to":"신천"},"geometry":{"type":"LineString","coordinates":[[128.62834,35.87714],[128.61761,35.87462]]}},{"type":"Feature","properties":{"shape_id":"{}","direction_id":"{\"0\": 50}","headsign":"{}","duration_avg":70,"n_vehicles":50,"d":700,"route_I_counts":"{\"1\": 50}","source":21,"target":22,"layer":"L","from":"동대구","to":"동구청"},"geometry":{"type":"LineString","coordinates":[[128.62834,35.87714],[128.63219,35.88433]]}},{"type":"Feature","properties":{"shape_id":"{}","direction_id":"{\"1\": 50}","headsign":"{}","duration_avg":75,"n_vehicles":50,"d":700,"route_I_counts":"{\"1\": 50}","source":22,"target":21,"layer":"L","from":"동구청","to":"동대구"},"geometry":{"type":"LineString","coordinates":[[128.63219,35.88433],[128.62834,35.87714]]}},{"type":"Feature","properties":{"shape_id":"{}","direction_id":"{\"0\": 50}","headsign":"{}","duration_avg":75,"n_vehicles":50,"d":750,"route_I_counts":"{\"1\": 50}","source":22,"target":23,"layer":"L","from":"동구청","to":"아양교"},"geometry":{"type":"LineString","coordinates":[[128.63219,35.88433],[128.63994,35.88719]]}},{"type":"Feature","properties":{"shape_id":"{}","direction_id":"{\"1\": 50}","headsign":"{}","duration_avg":100,"n_vehicles":50,"d":750,"route_I_counts":"{\"1\": 50}","source":23,"target":22,"layer":"L","from":"아양교","to":"동구청"},"geometry":{"type":"LineString","coordinates":[[128.63994,35.88719],[128.63219,35.88433]]}},{"type":"Feature","properties":{"shape_id":"{}","direction_id":"{\"0\": 50}","headsign":"{}","duration_avg":100,"n_vehicles":50,"d":1000,"route_I_counts":"{\"1\": 50}","source":23,"target":24,"layer":"L","from":"아양교","to":"동촌"},"geometry":{"type":"LineString","coordinates":[[128.63994,35.88719],[128.65034,35.88604]]}},{"type":"Feature","properties":{"shape_id":"{}","direction_id":"{\"1\": 50}","headsign":"{}","duration_avg":80,"n_vehicles":50,"d":1000,"route_I_counts":"{\"1\": 50}","source":24,"target":23,"layer":"L","from":"동촌","to":"아양교"},"geometry":{"type":"LineString","coordinates":[[128.65034,35.88604],[128.63994,35.88719]]}},{"type":"Feature","properties":{"shape_id":"{}","direction_id":"{\"0\": 50}","headsign":"{}","duration_avg":80,"n_vehicles":50,"d":800,"route_I_counts":"{\"1\": 50}","source":24,"target":25,"layer":"L","from":"동촌","to":"해안"},"geometry":{"type":"LineString","coordinates":[[128.65034,35.88604],[128.65933,35.88358]]}},{"type":"Feature","properties":{"shape_id":"{}","direction_id":"{\"1\": 50}","headsign":"{}","duration_avg":90,"n_vehicles":50,"d":800,"route_I_counts":"{\"1\": 50}","source":25,"target":24,"layer":"L","from":"해안","to":"동촌"},"geometry":{"type":"LineString","coordinates":[[128.65933,35.88358],[128.65034,35.88604]]}},{"type":"Feature","properties":{"shape_id":"{}","direction_id":"{\"0\": 50}","headsign":"{}","duration_avg":90,"n_vehicles":50,"d":900,"route_I_counts":"{\"1\": 50}","source":25,"target":26,"layer":"L","from":"해안","to":"방촌"},"geometry":{"type":"LineString","coordinates":[[128.65933,35.88358],[128.67001,35.87966]]}},{"type":"Feature","properties":{"shape_id":"{}","direction_id":"{\"1\": 50}","headsign":"{}","duration_avg":85,"n_vehicles":50,"d":900,"route_I_counts":"{\"1\": 50}","source":26,"target":25,"layer":"L","from":"방촌","to":"해안"},"geometry":{"type":"LineString","coordinates":[[128.67001,35.87966],[128.65933,35.88358]]}},{"type":"Feature","properties":{"shape_id":"{}","direction_id":"{\"0\": 50}","headsign":"{}","duration_avg":85,"n_vehicles":50,"d":850,"route_I_counts":"{\"1\": 50}","source":26,"target":27,"layer":"L","from":"방촌","to":"용계"},"geometry":{"type":"LineString","coordinates":[[128.67001,35.87966],[128.68199,35.87612]]}},{"type":"Feature","properties":{"shape_id":"{}","direction_id":"{\"1\": 50}","headsign":"{}","duration_avg":100,"n_vehicles":50,"d":850,"route_I_counts":"{\"1\": 50}","source":27,"target":26,"layer":"L","from":"용계","to":"방촌"},"geometry":{"type":"LineString","coordinates":[[128.68199,35.87612],[128.67001,35.87966]]}},{"type":"Feature","properties":{"shape_id":"{}","direction_id":"{\"0\": 50}","headsign":"{}","duration_avg":100,"n_vehicles":50,"d":1000,"route_I_counts":"{\"1\": 50}","source":27,"target":28,"layer":"L","from":"용계","to":"율하"},"geometry":{"type":"LineString","coordinates":[[128.68199,35.87612],[128.6927,35.8698]]}},{"type":"Feature","properties":{"shape_id":"{}","direction_id":"{\"1\": 50}","headsign":"{}","duration_avg":85,"n_vehicles":50,"d":1000,"route_I_counts":"{\"1\": 50}","source":28,"target":27,"layer":"L","from":"율하","to":"용계"},"geometry":{"type":"LineString","coordinates":[[128.6927,35.8698],[128.68199,35.87612]]}},{"type":"Feature","properties":{"shape_id":"{}","direction_id":"{\"0\": 50}","headsign":"{}","duration_avg":85,"n_vehicles":50,"d":850,"route_I_counts":"{\"1\": 50}","source":28,"target":29,"layer":"L","from":"율하","to":"신기"},"geometry":{"type":"LineString","coordinates":[[128.6927,35.8698],[128.70247,35.86659]]}},{"type":"Feature","properties":{"shape_id":"{}","direction_id":"{\"1\": 50}","headsign":"{}","duration_avg":85,"n_vehicles":50,"d":850,"route_I_counts":"{\"1\": 50}","source":29,"target":28,"layer":"L","from":"신기","to":"율하"},"geometry":{"type":"LineString","coordinates":[[128.70247,35.86659],[128.6927,35.8698]]}},{"type":"Feature","properties":{"shape_id":"{}","direction_id":"{\"0\": 50}","headsign":"{}","duration_avg":85,"n_vehicles":50,"d":850,"route_I_counts":"{\"1\": 50}","source":29,"target":30,"layer":"L","from":"신기","to":"반야월"},"geometry":{"type":"LineString","coordinates":[[128.70247,35.86659],[128.71352,35.86604]]}},{"type":"Feature","properties":{"shape_id":"{}","direction_id":"{\"1\": 50}","headsign":"{}","duration_avg":80,"n_vehicles":50,"d":850,"route_I_counts":"{\"1\": 50}","source":30,"target":29,"layer":"L","from":"반야월","to":"신기"},"geometry":{"type":"LineString","coordinates":[[128.71352,35.86604],[128.70247,35.86659]]}},{"type":"Feature","properties":{"shape_id":"{}","direction_id":"{\"0\": 50}","headsign":"{}","duration_avg":80,"n_vehicles":50,"d":800,"route_I_counts":"{\"1\": 50}","source":30,"target":31,"layer":"L","from":"반야월","to":"각산"},"geometry":{"type":"LineString","coordinates":[[128.71352,35.86604],[128.72446,35.86804]]}},{"type":"Feature","properties":{"shape_id":"{}","direction_id":"{\"1\": 50}","headsign":"{}","duration_avg":85,"n_vehicles":50,"d":800,"route_I_counts":"{\"1\": 50}","source":31,"target":30,"layer":"L","from":"각산","to":"반야월"},"geometry":{"type":"LineString","coordinates":[[128.72446,35.86804],[128.71352,35.86604]]}},{"type":"Feature","properties":{"shape_id":"{}","direction_id":"{\"0\": 50}","headsign":"{}","duration_avg":85,"n_vehicles":50,"d":850,"route_I_counts":"{\"1\": 50}","source":31,"target":0,"layer":"L","from":"각산","to":"안심"},"geometry":{"type":"LineString","coordinates":[[128.72446,35.86804],[128.73366,35.87121]]}},{"type":"Feature","properties":{"shape_id":"{}","direction_id":"{\"1\": 50}","headsign":"{}","duration_avg":140,"n_vehicles":50,"d":850,"route_I_counts":"{\"1\": 50}","source":0,"target":31,"layer":"L","from":"안심","to":"각산"},"geometry":{"type":"LineString","coordinates":[[128.73366,35.87121],[128.72446,35.86804]]}},{"type":"Feature","properties":{"shape_id":"{}","direction_id":"{\"0\": 50}","headsign":"{}","duration_avg":180,"n_vehicles":50,"d":1800,"route_I_counts":"{\"1\": 50}","source":0,"target":32,"layer":"L","from":"안심","to":"대구한의대병원"},"geometry":{"type":"LineString","coordinates":[[128.73366,35.87121],[128.75083,35.87167]]}},{"type":"Feature","properties":{"shape_id":"{}","direction_id":"{\"1\": 50}","headsign":"{}","duration_avg":180,"n_vehicles":50,"d":1800,"route_I_counts":"{\"1\": 50}","source":32,"target":0,"layer":"L","from":"대구한의대병원","to":"안심"},"geometry":{"type":"LineString","coordinates":[[128.75083,35.87167],[128.73366,35.87121]]}},{"type":"Feature","properties":{"shape_id":"{}","direction_id":"{\"0\": 50}","headsign":"{}","duration_avg":420,"n_vehicles":50,"d":4200,"route_I_counts":"{\"1\": 50}","source":32,"target":33,"layer":"L","from":"대구한의대병원","to":"부호"},"geometry":{"type":"LineString","coordinates":[[128.75083,35.87167],[128.80306,35.90028]]}},{"type":"Feature","properties":{"shape_id":"{}","direction_id":"{\"1\": 50}","headsign":"{}","duration_avg":420,"n_vehicles":50,"d":4200,"route_I_counts":"{\"1\": 50}","source":33,"target":32,"layer":"L","from":"부호","to":"대구한의대병원"},"geometry":{"type":"LineString","coordinates":[[128.80306,35.90028],[128.75083,35.87167]]}},{"type":"Feature","properties":{"shape_id":"{}","direction_id":"{\"0\": 50}","headsign":"{}","duration_avg":120,"n_vehicles":50,"d":1200,"route_I_counts":"{\"1\": 50}","source":33,"target":34,"layer":"L","from":"부호","to":"하양"},"geometry":{"type":"LineString","coordinates":[[128.80306,35.90028],[128.81835,35.90911]]}},{"type":"Feature","properties":{"shape_id":"{}","direction_id":"{\"1\": 50}","headsign":"{}","duration_avg":120,"n_vehicles":50,"d":1200,"route_I_counts":"{\"1\": 50}","source":34,"target":33,"layer":"L","from":"하양","to":"부호"},"geometry":{"type":"LineString","coordinates":[[128.81835,35.90911],[128.80306,35.90028]]}},{"type":"Feature","properties":{"shape_id":"{}","direction_id":"{\"0\": 50}","headsign":"{}","duration_avg":205,"n_vehicles":50,"d":2050,"route_I_counts":"{\"2\": 50}","source":35,"target":36,"layer":"L","from":"문양","to":"다사"},"geometry":{"type":"LineString","coordinates":[[128.43726,35.86398],[128.45828,35.86495]]}},{"type":"Feature","properties":{"shape_id":"{}","direction_id":"{\"1\": 50}","headsign":"{}","duration_avg":95,"n_vehicles":50,"d":2050,"route_I_counts":"{\"2\": 50}","source":36,"target":35,"layer":"L","from":"다사","to":"문양"},"geometry":{"type":"LineString","coordinates":[[128.45828,35.86495],[128.43726,35.86398]]}},{"type":"Feature","properties":{"shape_id":"{}","direction_id":"{\"0\": 50}","headsign":"{}","duration_avg":95,"n_vehicles":50,"d":950,"route_I_counts":"{\"2\": 50}","source":36,"target":37,"layer":"L","from":"다사","to":"대실"},"geometry":{"type":"LineString","coordinates":[[128.45828,35.86495],[128.46559,35.85733]]}},{"type":"Feature","properties":{"shape_id":"{}","direction_id":"{\"1\": 50}","headsign":"{}","duration_avg":100,"n_vehicles":50,"d":950,"route_I_counts":"{\"2\": 50}","source":37,"target":36,"layer":"L","from":"대실","to":"다사"},"geometry":{"type":"LineString","coordinates":[[128.46559,35.85733],[128.45828,35.86495]]}},{"type":"Feature","properties":{"shape_id":"{}","direction_id":"{\"0\": 50}","headsign":"{}","duration_avg":100,"n_vehicles":50,"d":1000,"route_I_counts":"{\"2\": 50}","source":37,"target":38,"layer":"L","from":"대실","to":"강창"},"geometry":{"type":"LineString","coordinates":[[128.46559,35.85733],[128.47853,35.85307]]}},{"type":"Feature","properties":{"shape_id":"{}","direction_id":"{\"1\": 50}","headsign":"{}","duration_avg":75,"n_vehicles":50,"d":1000,"route_I_counts":"{\"2\": 50}","source":38,"target":37,"layer":"L","from":"강창","to":"대실"},"geometry":{"type":"LineString","coordinates":[[128.47853,35.85307],[128.46559,35.85733]]}},{"type":"Feature","properties":{"shape_id":"{}","direction_id":"{\"0\": 50}","headsign":"{}","duration_avg":95,"n_vehicles":50,"d":950,"route_I_counts":"{\"2\": 50}","source":38,"target":39,"layer":"L","from":"강창","to":"계명대"},"geometry":{"type":"LineString","coordinates":[[128.47853,35.85307],[128.49202,35.85149]]}},{"type":"Feature","properties":{"shape_id":"{}","direction_id":"{\"1\": 50}","headsign":"{}","duration_avg":95,"n_vehicles":50,"d":950,"route_I_counts":"{\"2\": 50}","source":39,"target":38,"layer":"L","from":"계명대","to":"강창"},"geometry":{"type":"LineString","coordinates":[[128.49202,35.85149],[128.47853,35.85307]]}},{"type":"Feature","properties":{"shape_id":"{}","direction_id":"{\"0\": 50}","headsign":"{}","duration_avg":100,"n_vehicles":50,"d":1000,"route_I_counts":"{\"2\": 50}","source":39,"target":40,"layer":"L","from":"계명대","to":"성서산업단지"},"geometry":{"type":"LineString","coordinates":[[128.49202,35.85149],[128.50706,35.85173]]}},{"type":"Feature","properties":{"shape_id":"{}","direction_id":"{\"1\": 50}","headsign":"{}","duration_avg":100,"n_vehicles":50,"d":1000,"route_I_counts":"{\"2\": 50}","source":40,"target":39,"layer":"L","from":"성서산업단지","to":"계명대"},"geometry":{"type":"LineString","coordinates":[[128.50706,35.85173],[128.49202,35.85149]]}},{"type":"Feature","properties":{"shape_id":"{}","direction_id":"{\"0\": 50}","headsign":"{}","duration_avg":75,"n_vehicles":50,"d":750,"route_I_counts":"{\"2\": 50}","source":40,"target":41,"layer":"L","from":"성서산업단지","to":"이곡"},"geometry":{"type":"LineString","coordinates":[[128.50706,35.85173],[128.5158,35.85062]]}},{"type":"Feature","properties":{"shape_id":"{}","direction_id":"{\"1\": 50}","headsign":"{}","duration_avg":75,"n_vehicles":50,"d":750,"route_I_counts":"{\"2\": 50}","source":41,"target":40,"layer":"L","from":"이곡","to":"성서산업단지"},"geometry":{"type":"LineString","coordinates":[[128.5158,35.85062],[128.50706,35.85173]]}},{"type":"Feature","properties":{"shape_id":"{}","direction_id":"{\"0\": 50}","headsign":"{}","duration_avg":110,"n_vehicles":50,"d":1100,"route_I_counts":"{\"2\": 50}","source":41,"target":42,"layer":"L","from":"이곡","to":"용산"},"geometry":{"type":"LineString","coordinates":[[128.5158,35.85062],[128.52872,35.84901]]}},{"type":"Feature","properties":{"shape_id":"{}","direction_id":"{\"1\": 50}","headsign":"{}","duration_avg":110,"n_vehicles":50,"d":1100,"route_I_counts":"{\"2\": 50}","source":42,"target":41,"layer":"L","from":"용산","to":"이곡"},"geometry":{"type":"LineString","coordinates":[[128.52872,35.84901],[128.5158,35.85062]]}},{"type":"Feature","properties":{"shape_id":"{}","direction_id":"{\"0\": 50}","headsign":"{}","duration_avg":80,"n_vehicles":50,"d":800,"route_I_counts":"{\"2\": 50}","source":42,"target":43,"layer":"L","from":"용산","to":"죽전"},"geometry":{"type":"LineString","coordinates":[[128.52872,35.84901],[128.5388,35.85071]]}},{"type":"Feature","properties":{"shape_id":"{}","direction_id":"{\"1\": 50}","headsign":"{}","duration_avg":80,"n_vehicles":50,"d":800,"route_I_counts":"{\"2\": 50}","source":43,"target":42,"layer":"L","from":"죽전","to":"용산"},"geometry":{"type":"LineString","coordinates":[[128.5388,35.85071],[128.52872,35.84901]]}},{"type":"Feature","properties":{"shape_id":"{}","direction_id":"{\"0\": 50}","headsign":"{}","duration_avg":80,"n_vehicles":50,"d":800,"route_I_counts":"{\"2\": 50}","source":43,"target":44,"layer":"L","from":"죽전","to":"감삼"},"geometry":{"type":"LineString","coordinates":[[128.5388,35.85071],[128.5481,35.85428]]}},{"type":"Feature","properties":{"shape_id":"{}","direction_id":"{\"1\": 50}","headsign":"{}","duration_avg":80,"n_vehicles":50,"d":800,"route_I_counts":"{\"2\": 50}","source":44,"target":43,"layer":"L","from":"감삼","to":"죽전"},"geometry":{"type":"LineString","coordinates":[[128.5481,35.85428],[128.5388,35.85071]]}},{"type":"Feature","properties":{"shape_id":"{}","direction_id":"{\"0\": 50}","headsign":"{}","duration_avg":80,"n_vehicles":50,"d":800,"route_I_counts":"{\"2\": 50}","source":44,"target":45,"layer":"L","from":"감삼","to":"두류"},"geometry":{"type":"LineString","coordinates":[[128.5481,35.85428],[128.55562,35.85723]]}},{"type":"Feature","properties":{"shape_id":"{}","direction_id":"{\"1\": 50}","headsign":"{}","duration_avg":80,"n_vehicles":50,"d":800,"route_I_counts":"{\"2\": 50}","source":45,"target":44,"layer":"L","from":"두류","to":"감삼"},"geometry":{"type":"LineString","coordinates":[[128.55562,35.85723],[128.5481,35.85428]]}},{"type":"Feature","properties":{"shape_id":"{}","direction_id":"{\"0\": 50}","headsign":"{}","duration_avg":75,"n_vehicles":50,"d":750,"route_I_counts":"{\"2\": 50}","source":45,"target":46,"layer":"L","from":"두류","to":"내당"},"geometry":{"type":"LineString","coordinates":[[128.55562,35.85723],[128.56464,35.86011]]}},{"type":"Feature","properties":{"shape_id":"{}","direction_id":"{\"1\": 50}","headsign":"{}","duration_avg":75,"n_vehicles":50,"d":750,"route_I_counts":"{\"2\": 50}","source":46,"target":45,"layer":"L","from":"내당","to":"두류"},"geometry":{"type":"LineString","coordinates":[[128.56464,35.86011],[128.55562,35.85723]]}},{"type":"Feature","properties":{"shape_id":"{}","direction_id":"{\"0\": 50}","headsign":"{}","duration_avg":75,"n_vehicles":50,"d":750,"route_I_counts":"{\"2\": 50}","source":46,"target":47,"layer":"L","from":"내당","to":"반고개"},"geometry":{"type":"LineString","coordinates":[[128.56464,35.86011],[128.57272,35.86224]]}},{"type":"Feature","properties":{"shape_id":"{}","direction_id":"{\"1\": 50}","headsign":"{}","duration_avg":75,"n_vehicles":50,"d":750,"route_I_counts":"{\"2\": 50}","source":47,"target":46,"layer":"L","from":"반고개","to":"내당"},"geometry":{"type":"LineString","coordinates":[[128.57272,35.86224],[128.56464,35.86011]]}},{"type":"Feature","properties":{"shape_id":"{}","direction_id":"{\"0\": 50}","headsign":"{}","duration_avg":80,"n_vehicles":50,"d":800,"route_I_counts":"{\"2\": 50}","source":47,"target":48,"layer":"L","from":"반고개","to":"청라언덕"},"geometry":{"type":"LineString","coordinates":[[128.57272,35.86224],[128.58237,35.86482]]}},{"type":"Feature","properties":{"shape_id":"{}","direction_id":"{\"1\": 50}","headsign":"{}","duration_avg":80,"n_vehicles":50,"d":800,"route_I_counts":"{\"2\": 50}","source":48,"target":47,"layer":"L","from":"청라언덕","to":"반고개"},"geometry":{"type":"LineString","coordinates":[[128.58237,35.86482],[128.57272,35.86224]]}},{"type":"Feature","properties":{"shape_id":"{}","direction_id":"{\"0\": 50}","headsign":"{}","duration_avg":90,"n_vehicles":50,"d":900,"route_I_counts":"{\"2\": 50}","source":48,"target":16,"layer":"L","from":"청라언덕","to":"반월당"},"geometry":{"type":"LineString","coordinates":[[128.58237,35.86482],[128.59335,35.86448]]}},{"type":"Feature","properties":{"shape_id":"{}","direction_id":"{\"1\": 50}","headsign":"{}","duration_avg":90,"n_vehicles":50,"d":900,"route_I_counts":"{\"2\": 50}","source":16,"target":48,"layer":"L","from":"반월당","to":"청라언덕"},"geometry":{"type":"LineString","coordinates":[[128.59335,35.86448],[128.58237,35.86482]]}},{"type":"Feature","properties":{"shape_id":"{}","direction_id":"{\"0\": 50}","headsign":"{}","duration_avg":85,"n_vehicles":50,"d":850,"route_I_counts":"{\"2\": 50}","source":16,"target":49,"layer":"L","from":"반월당","to":"경대병원"},"geometry":{"type":"LineString","coordinates":[[128.59335,35.86448],[128.6027,35.8632]]}},{"type":"Feature","properties":{"shape_id":"{}","direction_id":"{\"1\": 50}","headsign":"{}","duration_avg":85,"n_vehicles":50,"d":850,"route_I_counts":"{\"2\": 50}","source":49,"target":16,"layer":"L","from":"경대병원","to":"반월당"},"geometry":{"type":"LineString","coordinates":[[128.6027,35.8632],[128.59335,35.86448]]}},{"type":"Feature","properties":{"shape_id":"{}","direction_id":"{\"0\": 50}","headsign":"{}","duration_avg":100,"n_vehicles":50,"d":1000,"route_I_counts":"{\"2\": 50}","source":49,"target":50,"layer":"L","from":"경대병원","to":"대구은행"},"geometry":{"type":"LineString","coordinates":[[128.6027,35.8632],[128.61412,35.85974]]}},{"type":"Feature","properties":{"shape_id":"{}","direction_id":"{\"1\": 50}","headsign":"{}","duration_avg":100,"n_vehicles":50,"d":1000,"route_I_counts":"{\"2\": 50}","source":50,"target":49,"layer":"L","from":"대구은행","to":"경대병원"},"geometry":{"type":"LineString","coordinates":[[128.61412,35.85974],[128.6027,35.8632]]}},{"type":"Feature","properties":{"shape_id":"{}","direction_id":"{\"0\": 50}","headsign":"{}","duration_avg":85,"n_vehicles":50,"d":850,"route_I_counts":"{\"2\": 50}","source":50,"target":51,"layer":"L","from":"대구은행","to":"범어"},"geometry":{"type":"LineString","coordinates":[[128.61412,35.85974],[128.6262,35.85906]]}},{"type":"Feature","properties":{"shape_id":"{}","direction_id":"{\"1\": 50}","headsign":"{}","duration_avg":85,"n_vehicles":50,"d":850,"route_I_counts":"{\"2\": 50}","source":51,"target":50,"layer":"L","from":"범어","to":"대구은행"},"geometry":{"type":"LineString","coordinates":[[128.6262,35.85906],[128.61412,35.85974]]}},{"type":"Feature","properties":{"shape_id":"{}","direction_id":"{\"0\": 50}","headsign":"{}","duration_avg":80,"n_vehicles":50,"d":800,"route_I_counts":"{\"2\": 50}","source":51,"target":52,"layer":"L","from":"범어","to":"수성구청"},"geometry":{"type":"LineString","coordinates":[[128.6262,35.85906],[128.63559,35.8588]]}},{"type":"Feature","properties":{"shape_id":"{}","direction_id":"{\"1\": 50}","headsign":"{}","duration_avg":80,"n_vehicles":50,"d":800,"route_I_counts":"{\"2\": 50}","source":52,"target":51,"layer":"L","from":"수성구청","to":"범어"},"geometry":{"type":"LineString","coordinates":[[128.63559,35.8588],[128.6262,35.85906]]}},{"type":"Feature","properties":{"shape_id":"{}","direction_id":"{\"0\": 50}","headsign":"{}","duration_avg":80,"n_vehicles":50,"d":800,"route_I_counts":"{\"2\": 50}","source":52,"target":53,"layer":"L","from":"수성구청","to":"만촌"},"geometry":{"type":"LineString","coordinates":[[128.63559,35.8588],[128.64491,35.85884]]}},{"type":"Feature","properties":{"shape_id":"{}","direction_id":"{\"1\": 50}","headsign":"{}","duration_avg":80,"n_vehicles":50,"d":800,"route_I_counts":"{\"2\": 50}","source":53,"target":52,"layer":"L","from":"만촌","to":"수성구청"},"geometry":{"type":"LineString","coordinates":[[128.64491,35.85884],[128.63559,35.8588]]}},{"type":"Feature","properties":{"shape_id":"{}","direction_id":"{\"0\": 50}","headsign":"{}","duration_avg":85,"n_vehicles":50,"d":850,"route_I_counts":"{\"2\": 50}","source":53,"target":54,"layer":"L","from":"만촌","to":"담티"},"geometry":{"type":"LineString","coordinates":[[128.64491,35.85884],[128.65396,35.8548]]}},{"type":"Feature","properties":{"shape_id":"{}","direction_id":"{\"1\": 50}","headsign":"{}","duration_avg":85,"n_vehicles":50,"d":850,"route_I_counts":"{\"2\": 50}","source":54,"target":53,"layer":"L","from":"담티","to":"만촌"},"geometry":{"type":"LineString","coordinates":[[128.65396,35.8548],[128.64491,35.85884]]}},{"type":"Feature","properties":{"shape_id":"{}","direction_id":"{\"0\": 50}","headsign":"{}","duration_avg":125,"n_vehicles":50,"d":1250,"route_I_counts":"{\"2\": 50}","source":54,"target":55,"layer":"L","from":"담티","to":"연호"},"geometry":{"type":"LineString","coordinates":[[128.65396,35.8548],[128.6717,35.84655]]}},{"type":"Feature","properties":{"shape_id":"{}","direction_id":"{\"1\": 50}","headsign":"{}","duration_avg":125,"n_vehicles":50,"d":1250,"route_I_counts":"{\"2\": 50}","source":55,"target":54,"layer":"L","from":"연호","to":"담티"},"geometry":{"type":"LineString","coordinates":[[128.6717,35.84655],[128.65396,35.8548]]}},{"type":"Feature","properties":{"shape_id":"{}","direction_id":"{\"0\": 50}","headsign":"{}","duration_avg":80,"n_vehicles":50,"d":800,"route_I_counts":"{\"2\": 50}","source":55,"target":56,"layer":"L","from":"연호","to":"대공원"},"geometry":{"type":"LineString","coordinates":[[128.6717,35.84655],[128.67986,35.84261]]}},{"type":"Feature","properties":{"shape_id":"{}","direction_id":"{\"1\": 50}","headsign":"{}","duration_avg":80,"n_vehicles":50,"d":800,"route_I_counts":"{\"2\": 50}","source":56,"target":55,"layer":"L","from":"대공원","to":"연호"},"geometry":{"type":"LineString","coordinates":[[128.67986,35.84261],[128.6717,35.84655]]}},{"type":"Feature","properties":{"shape_id":"{}","direction_id":"{\"0\": 50}","headsign":"{}","duration_avg":100,"n_vehicles":50,"d":1000,"route_I_counts":"{\"2\": 50}","source":56,"target":57,"layer":"L","from":"대공원","to":"고산"},"geometry":{"type":"LineString","coordinates":[[128.67986,35.84261],[128.69327,35.84292]]}},{"type":"Feature","properties":{"shape_id":"{}","direction_id":"{\"1\": 50}","headsign":"{}","duration_avg":100,"n_vehicles":50,"d":1000,"route_I_counts":"{\"2\": 50}","source":57,"target":56,"layer":"L","from":"고산","to":"대공원"},"geometry":{"type":"LineString","coordinates":[[128.69327,35.84292],[128.67986,35.84261]]}},{"type":"Feature","properties":{"shape_id":"{}","direction_id":"{\"0\": 50}","headsign":"{}","duration_avg":90,"n_vehicles":50,"d":900,"route_I_counts":"{\"2\": 50}","source":57,"target":58,"layer":"L","from":"고산","to":"신매"},"geometry":{"type":"LineString","coordinates":[[128.69327,35.84292],[128.70497,35.84081]]}},{"type":"Feature","properties":{"shape_id":"{}","direction_id":"{\"1\": 50}","headsign":"{}","duration_avg":90,"n_vehicles":50,"d":900,"route_I_counts":"{\"2\": 50}","source":58,"target":57,"layer":"L","from":"신매","to":"고산"},"geometry":{"type":"LineString","coordinates":[[128.70497,35.84081],[128.69327,35.84292]]}},{"type":"Feature","properties":{"shape_id":"{}","direction_id":"{\"0\": 50}","headsign":"{}","duration_avg":90,"n_vehicles":50,"d":900,"route_I_counts":"{\"2\": 50}","source":58,"target":59,"layer":"L","from":"신매","to":"사월"},"geometry":{"type":"LineString","coordinates":[[128.70497,35.84081],[128.71544,35.83695]]}},{"type":"Feature","properties":{"shape_id":"{}","direction_id":"{\"1\": 50}","headsign":"{}","duration_avg":90,"n_vehicles":50,"d":900,"route_I_counts":"{\"2\": 50}","source":59,"target":58,"layer":"L","from":"사월","to":"신매"},"geometry":{"type":"LineString","coordinates":[[128.71544,35.83695],[128.70497,35.84081]]}},{"type":"Feature","properties":{"shape_id":"{}","direction_id":"{\"0\": 50}","headsign":"{}","duration_avg":95,"n_vehicles":50,"d":950,"route_I_counts":"{\"2\": 50}","source":59,"target":60,"layer":"L","from":"사월","to":"정평"},"geometry":{"type":"LineString","coordinates":[[128.71544,35.83695],[128.72855,35.83405]]}},{"type":"Feature","properties":{"shape_id":"{}","direction_id":"{\"1\": 50}","headsign":"{}","duration_avg":95,"n_vehicles":50,"d":950,"route_I_counts":"{\"2\": 50}","source":60,"target":59,"layer":"L","from":"정평","to":"사월"},"geometry":{"type":"LineString","coordinates":[[128.72855,35.83405],[128.71544,35.83695]]}},{"type":"Feature","properties":{"shape_id":"{}","direction_id":"{\"0\": 50}","headsign":"{}","duration_avg":90,"n_vehicles":50,"d":900,"route_I_counts":"{\"2\": 50}","source":60,"target":61,"layer":"L","from":"정평","to":"임당"},"geometry":{"type":"LineString","coordinates":[[128.72855,35.83405],[128.74103,35.83406]]}},{"type":"Feature","properties":{"shape_id":"{}","direction_id":"{\"1\": 50}","headsign":"{}","duration_avg":90,"n_vehicles":50,"d":900,"route_I_counts":"{\"2\": 50}","source":61,"target":60,"layer":"L","from":"임당","to":"정평"},"geometry":{"type":"LineString","coordinates":[[128.74103,35.83406],[128.72855,35.83405]]}},{"type":"Feature","properties":{"shape_id":"{}","direction_id":"{\"0\": 50}","headsign":"{}","duration_avg":100,"n_vehicles":50,"d":1000,"route_I_counts":"{\"2\": 50}","source":61,"target":62,"layer":"L","from":"임당","to":"영남대"},"geometry":{"type":"LineString","coordinates":[[128.74103,35.83406],[128.75313,35.83635]]}},{"type":"Feature","properties":{"shape_id":"{}","direction_id":"{\"1\": 50}","headsign":"{}","duration_avg":100,"n_vehicles":50,"d":1000,"route_I_counts":"{\"2\": 50}","source":62,"target":61,"layer":"L","from":"영남대","to":"임당"},"geometry":{"type":"LineString","coordinates":[[128.75313,35.83635],[128.74103,35.83406]]}},{"type":"Feature","properties":{"shape_id":"{}","direction_id":"{\"0\": 50}","headsign":"{}","duration_avg":70,"n_vehicles":50,"d":700,"route_I_counts":"{\"3\": 50}","source":63,"target":64,"layer":"L","from":"칠곡경대병원","to":"학정"},"geometry":{"type":"LineString","coordinates":[[128.55989,35.95828],[128.5592,35.95156]]}},{"type":"Feature","properties":{"shape_id":"{}","direction_id":"{\"1\": 50}","headsign":"{}","duration_avg":70,"n_vehicles":50,"d":700,"route_I_counts":"{\"3\": 50}","source":64,"target":63,"layer":"L","from":"학정","to":"칠곡경대병원"},"geometry":{"type":"LineString","coordinates":[[128.5592,35.95156],[128.55989,35.95828]]}},{"type":"Feature","properties":{"shape_id":"{}","direction_id":"{\"0\": 50}","headsign":"{}","duration_avg":70,"n_vehicles":50,"d":700,"route_I_counts":"{\"3\": 50}","source":64,"target":65,"layer":"L","from":"학정","to":"팔거"},"geometry":{"type":"LineString","coordinates":[[128.5592,35.95156],[128.55833,35.94404]]}},{"type":"Feature","properties":{"shape_id":"{}","direction_id":"{\"1\": 50}","headsign":"{}","duration_avg":70,"n_vehicles":50,"d":700,"route_I_counts":"{\"3\": 50}","source":65,"target":64,"layer":"L","from":"팔거","to":"학정"},"geometry":{"type":"LineString","coordinates":[[128.55833,35.94404],[128.5592,35.95156]]}},{"type":"Feature","properties":{"shape_id":"{}","direction_id":"{\"0\": 50}","headsign":"{}","duration_avg":65,"n_vehicles":50,"d":650,"route_I_counts":"{\"3\": 50}","source":65,"target":66,"layer":"L","from":"팔거","to":"동천"},"geometry":{"type":"LineString","coordinates":[[128.55833,35.94404],[128.55653,35.93743]]}},{"type":"Feature","properties":{"shape_id":"{}","direction_id":"{\"1\": 50}","headsign":"{}","duration_avg":65,"n_vehicles":50,"d":650,"route_I_counts":"{\"3\": 50}","source":66,"target":65,"layer":"L","from":"동천","to":"팔거"},"geometry":{"type":"LineString","coordinates":[[128.55653,35.93743],[128.55833,35.94404]]}},{"type":"Feature","properties":{"shape_id":"{}","direction_id":"{\"0\": 50}","headsign":"{}","duration_avg":65,"n_vehicles":50,"d":650,"route_I_counts":"{\"3\": 50}","source":66,"target":67,"layer":"L","from":"동천","to":"칠곡운암"},"geometry":{"type":"LineString","coordinates":[[128.55653,35.93743],[128.55467,35.93169]]}},{"type":"Feature","properties":{"shape_id":"{}","direction_id":"{\"1\": 50}","headsign":"{}","duration_avg":65,"n_vehicles":50,"d":650,"route_I_counts":"{\"3\": 50}","source":67,"target":66,"layer":"L","from":"칠곡운암","to":"동천"},"geometry":{"type":"LineString","coordinates":[[128.55467,35.93169],[128.55653,35.93743]]}},{"type":"Feature","properties":{"shape_id":"{}","direction_id":"{\"0\": 50}","headsign":"{}","duration_avg":65,"n_vehicles":50,"d":650,"route_I_counts":"{\"3\": 50}","source":67,"target":68,"layer":"L","from":"칠곡운암","to":"구암"},"geometry":{"type":"LineString","coordinates":[[128.55467,35.93169],[128.55017,35.92545]]}},{"type":"Feature","properties":{"shape_id":"{}","direction_id":"{\"1\": 50}","headsign":"{}","duration_avg":65,"n_vehicles":50,"d":650,"route_I_counts":"{\"3\": 50}","source":68,"target":67,"layer":"L","from":"구암","to":"칠곡운암"},"geometry":{"type":"LineString","coordinates":[[128.55017,35.92545],[128.55467,35.93169]]}},{"type":"Feature","properties":{"shape_id":"{}","direction_id":"{\"0\": 50}","headsign":"{}","duration_avg":65,"n_vehicles":50,"d":650,"route_I_counts":"{\"3\": 50}","source":68,"target":69,"layer":"L","from":"구암","to":"태전"},"geometry":{"type":"LineString","coordinates":[[128.55017,35.92545],[128.5474,35.91926]]}},{"type":"Feature","properties":{"shape_id":"{}","direction_id":"{\"1\": 50}","headsign":"{}","duration_avg":65,"n_vehicles":50,"d":650,"route_I_counts":"{\"3\": 50}","source":69,"target":68,"layer":"L","from":"태전","to":"구암"},"geometry":{"type":"LineString","coordinates":[[128.5474,35.91926],[128.55017,35.92545]]}},{"type":"Feature","properties":{"shape_id":"{}","direction_id":"{\"0\": 50}","headsign":"{}","duration_avg":85,"n_vehicles":50,"d":850,"route_I_counts":"{\"3\": 50}","source":69,"target":70,"layer":"L","from":"태전","to":"매천"},"geometry":{"type":"LineString","coordinates":[[128.5474,35.91926],[128.54345,35.9127]]}},{"type":"Feature","properties":{"shape_id":"{}","direction_id":"{\"1\": 50}","headsign":"{}","duration_avg":85,"n_vehicles":50,"d":850,"route_I_counts":"{\"3\": 50}","source":70,"target":69,"layer":"L","from":"매천","to":"태전"},"geometry":{"type":"LineString","coordinates":[[128.54345,35.9127],[128.5474,35.91926]]}},{"type":"Feature","properties":{"shape_id":"{}","direction_id":"{\"0\": 50}","headsign":"{}","duration_avg":100,"n_vehicles":50,"d":1000,"route_I_counts":"{\"3\": 50}","source":70,"target":71,"layer":"L","from":"매천","to":"매천시장"},"geometry":{"type":"LineString","coordinates":[[128.54345,35.9127],[128.54561,35.90398]]}},{"type":"Feature","properties":{"shape_id":"{}","direction_id":"{\"1\": 50}","headsign":"{}","duration_avg":100,"n_vehicles":50,"d":1000,"route_I_counts":"{\"3\": 50}","source":71,"target":70,"layer":"L","from":"매천시장","to":"매천"},"geometry":{"type":"LineString","coordinates":[[128.54561,35.90398],[128.54345,35.9127]]}},{"type":"Feature","properties":{"shape_id":"{}","direction_id":"{\"0\": 50}","headsign":"{}","duration_avg":70,"n_vehicles":50,"d":700,"route_I_counts":"{\"3\": 50}","source":71,"target":72,"layer":"L","from":"매천시장","to":"팔달"},"geometry":{"type":"LineString","coordinates":[[128.54561,35.90398],[128.54675,35.89783]]}},{"type":"Feature","properties":{"shape_id":"{}","direction_id":"{\"1\": 50}","headsign":"{}","duration_avg":70,"n_vehicles":50,"d":700,"route_I_counts":"{\"3\": 50}","source":72,"target":71,"layer":"L","from":"팔달","to":"매천시장"},"geometry":{"type":"LineString","coordinates":[[128.54675,35.89783],[128.54561,35.90398]]}},{"type":"Feature","properties":{"shape_id":"{}","direction_id":"{\"0\": 50}","headsign":"{}","duration_avg":80,"n_vehicles":50,"d":800,"route_I_counts":"{\"3\": 50}","source":72,"target":73,"layer":"L","from":"팔달","to":"공단"},"geometry":{"type":"LineString","coordinates":[[128.54675,35.89783],[128.5536,35.89198]]}},{"type":"Feature","properties":{"shape_id":"{}","direction_id":"{\"1\": 50}","headsign":"{}","duration_avg":80,"n_vehicles":50,"d":800,"route_I_counts":"{\"3\": 50}","source":73,"target":72,"layer":"L","from":"공단","to":"팔달"},"geometry":{"type":"LineString","coordinates":[[128.5536,35.89198],[128.54675,35.89783]]}},{"type":"Feature","properties":{"shape_id":"{}","direction_id":"{\"0\": 50}","headsign":"{}","duration_avg":75,"n_vehicles":50,"d":750,"route_I_counts":"{\"3\": 50}","source":73,"target":74,"layer":"L","from":"공단","to":"만평"},"geometry":{"type":"LineString","coordinates":[[128.5536,35.89198],[128.56139,35.88977]]}},{"type":"Feature","properties":{"shape_id":"{}","direction_id":"{\"1\": 50}","headsign":"{}","duration_avg":75,"n_vehicles":50,"d":750,"route_I_counts":"{\"3\": 50}","source":74,"target":73,"layer":"L","from":"만평","to":"공단"},"geometry":{"type":"LineString","coordinates":[[128.56139,35.88977],[128.5536,35.89198]]}},{"type":"Feature","properties":{"shape_id":"{}","direction_id":"{\"0\": 50}","headsign":"{}","duration_avg":70,"n_vehicles":50,"d":700,"route_I_counts":"{\"3\": 50}","source":74,"target":75,"layer":"L","from":"만평","to":"팔달시장"},"geometry":{"type":"LineString","coordinates":[[128.56139,35.88977],[128.56789,35.88885]]}},{"type":"Feature","properties":{"shape_id":"{}","direction_id":"{\"1\": 50}","headsign":"{}","duration_avg":70,"n_vehicles":50,"d":700,"route_I_counts":"{\"3\": 50}","source":75,"target":74,"layer":"L","from":"팔달시장","to":"만평"},"geometry":{"type":"LineString","coordinates":[[128.56789,35.88885],[128.56139,35.88977]]}},{"type":"Feature","properties":{"shape_id":"{}","direction_id":"{\"0\": 50}","headsign":"{}","duration_avg":60,"n_vehicles":50,"d":600,"route_I_counts":"{\"3\": 50}","source":75,"target":76,"layer":"L","from":"팔달시장","to":"원대"},"geometry":{"type":"LineString","coordinates":[[128.56789,35.88885],[128.57436,35.88784]]}},{"type":"Feature","properties":{"shape_id":"{}","direction_id":"{\"1\": 50}","headsign":"{}","duration_avg":60,"n_vehicles":50,"d":600,"route_I_counts":"{\"3\": 50}","source":76,"target":75,"layer":"L","from":"원대","to":"팔달시장"},"geometry":{"type":"LineString","coordinates":[[128.57436,35.88784],[128.56789,35.88885]]}},{"type":"Feature","properties":{"shape_id":"{}","direction_id":"{\"0\": 50}","headsign":"{}","duration_avg":85,"n_vehicles":50,"d":850,"route_I_counts":"{\"3\": 50}","source":76,"target":77,"layer":"L","from":"원대","to":"북구청"},"geometry":{"type":"LineString","coordinates":[[128.57436,35.88784],[128.58145,35.88382]]}},{"type":"Feature","properties":{"shape_id":"{}","direction_id":"{\"1\": 50}","headsign":"{}","duration_avg":85,"n_vehicles":50,"d":850,"route_I_counts":"{\"3\": 50}","source":77,"target":76,"layer":"L","from":"북구청","to":"원대"},"geometry":{"type":"LineString","coordinates":[[128.58145,35.88382],[128.57436,35.88784]]}},{"type":"Feature","properties":{"shape_id":"{}","direction_id":"{\"0\": 50}","headsign":"{}","duration_avg":95,"n_vehicles":50,"d":950,"route_I_counts":"{\"3\": 50}","source":77,"target":78,"layer":"L","from":"북구청","to":"달성공원"},"geometry":{"type":"LineString","coordinates":[[128.58145,35.88382],[128.58209,35.87568]]}},{"type":"Feature","properties":{"shape_id":"{}","direction_id":"{\"1\": 50}","headsign":"{}","duration_avg":95,"n_vehicles":50,"d":950,"route_I_counts":"{\"3\": 50}","source":78,"target":77,"layer":"L","from":"달성공원","to":"북구청"},"geometry":{"type":"LineString","coordinates":[[128.58209,35.87568],[128.58145,35.88382]]}},{"type":"Feature","properties":{"shape_id":"{}","direction_id":"{\"0\": 50}","headsign":"{}","duration_avg":60,"n_vehicles":50,"d":600,"route_I_counts":"{\"3\": 50}","source":78,"target":79,"layer":"L","from":"달성공원","to":"서문시장"},"geometry":{"type":"LineString","coordinates":[[128.58209,35.87568],[128.58224,35.86965]]}},{"type":"Feature","properties":{"shape_id":"{}","direction_id":"{\"1\": 50}","headsign":"{}","duration_avg":60,"n_vehicles":50,"d":600,"route_I_counts":"{\"3\": 50}","source":79,"target":78,"layer":"L","from":"서문시장","to":"달성공원"},"geometry":{"type":"LineString","coordinates":[[128.58224,35.86965],[128.58209,35.87568]]}},{"type":"Feature","properties":{"shape_id":"{}","direction_id":"{\"0\": 50}","headsign":"{}","duration_avg":60,"n_vehicles":50,"d":600,"route_I_counts":"{\"3\": 50}","source":79,"target":48,"layer":"L","from":"서문시장","to":"청라언덕"},"geometry":{"type":"LineString","coordinates":[[128.58224,35.86965],[128.58237,35.86482]]}},{"type":"Feature","properties":{"shape_id":"{}","direction_id":"{\"1\": 50}","headsign":"{}","duration_avg":60,"n_vehicles":50,"d":600,"route_I_counts":"{\"3\": 50}","source":48,"target":79,"layer":"L","from":"청라언덕","to":"서문시장"},"geometry":{"type":"LineString","coordinates":[[128.58237,35.86482],[128.58224,35.86965]]}},{"type":"Feature","properties":{"shape_id":"{}","direction_id":"{\"0\": 50}","headsign":"{}","duration_avg":95,"n_vehicles":50,"d":950,"route_I_counts":"{\"3\": 50}","source":48,"target":80,"layer":"L","from":"청라언덕","to":"남산"},"geometry":{"type":"LineString","coordinates":[[128.58237,35.86482],[128.58345,35.85669]]}},{"type":"Feature","properties":{"shape_id":"{}","direction_id":"{\"1\": 50}","headsign":"{}","duration_avg":95,"n_vehicles":50,"d":950,"route_I_counts":"{\"3\": 50}","source":80,"target":48,"layer":"L","from":"남산","to":"청라언덕"},"geometry":{"type":"LineString","coordinates":[[128.58345,35.85669],[128.58237,35.86482]]}},{"type":"Feature","properties":{"shape_id":"{}","direction_id":"{\"0\": 50}","headsign":"{}","duration_avg":80,"n_vehicles":50,"d":800,"route_I_counts":"{\"3\": 50}","source":80,"target":15,"layer":"L","from":"남산","to":"명덕"},"geometry":{"type":"LineString","coordinates":[[128.58345,35.85669],[128.59103,35.85762]]}},{"type":"Feature","properties":{"shape_id":"{}","direction_id":"{\"1\": 50}","headsign":"{}","duration_avg":80,"n_vehicles":50,"d":800,"route_I_counts":"{\"3\": 50}","source":15,"target":80,"layer":"L","from":"명덕","to":"남산"},"geometry":{"type":"LineString","coordinates":[[128.59103,35.85762],[128.58345,35.85669]]}},{"type":"Feature","properties":{"shape_id":"{}","direction_id":"{\"0\": 50}","headsign":"{}","duration_avg":95,"n_vehicles":50,"d":950,"route_I_counts":"{\"3\": 50}","source":15,"target":81,"layer":"L","from":"명덕","to":"건들바위"},"geometry":{"type":"LineString","coordinates":[[128.59103,35.85762],[128.5996,35.85537]]}},{"type":"Feature","properties":{"shape_id":"{}","direction_id":"{\"1\": 50}","headsign":"{}","duration_avg":95,"n_vehicles":50,"d":950,"route_I_counts":"{\"3\": 50}","source":81,"target":15,"layer":"L","from":"건들바위","to":"명덕"},"geometry":{"type":"LineString","coordinates":[[128.5996,35.85537],[128.59103,35.85762]]}},{"type":"Feature","properties":{"shape_id":"{}","direction_id":"{\"0\": 50}","headsign":"{}","duration_avg":60,"n_vehicles":50,"d":600,"route_I_counts":"{\"3\": 50}","source":81,"target":82,"layer":"L","from":"건들바위","to":"대봉교"},"geometry":{"type":"LineString","coordinates":[[128.5996,35.85537],[128.60603,35.85499]]}},{"type":"Feature","properties":{"shape_id":"{}","direction_id":"{\"1\": 50}","headsign":"{}","duration_avg":60,"n_vehicles":50,"d":600,"route_I_counts":"{\"3\": 50}","source":82,"target":81,"layer":"L","from":"대봉교","to":"건들바위"},"geometry":{"type":"LineString","coordinates":[[128.60603,35.85499],[128.5996,35.85537]]}},{"type":"Feature","properties":{"shape_id":"{}","direction_id":"{\"0\": 50}","headsign":"{}","duration_avg":75,"n_vehicles":50,"d":750,"route_I_counts":"{\"3\": 50}","source":82,"target":83,"layer":"L","from":"대봉교","to":"수성시장"},"geometry":{"type":"LineString","coordinates":[[128.60603,35.85499],[128.61626,35.85429]]}},{"type":"Feature","properties":{"shape_id":"{}","direction_id":"{\"1\": 50}","headsign":"{}","duration_avg":75,"n_vehicles":50,"d":750,"route_I_counts":"{\"3\": 50}","source":83,"target":82,"layer":"L","from":"수성시장","to":"대봉교"},"geometry":{"type":"LineString","coordinates":[[128.61626,35.85429],[128.60603,35.85499]]}},{"type":"Feature","properties":{"shape_id":"{}","direction_id":"{\"0\": 50}","headsign":"{}","duration_avg":95,"n_vehicles":50,"d":950,"route_I_counts":"{\"3\": 50}","source":83,"target":84,"layer":"L","from":"수성시장","to":"수성구민운동장"},"geometry":{"type":"LineString","coordinates":[[128.61626,35.85429],[128.62521,35.85238]]}},{"type":"Feature","properties":{"shape_id":"{}","direction_id":"{\"1\": 50}","headsign":"{}","duration_avg":95,"n_vehicles":50,"d":950,"route_I_counts":"{\"3\": 50}","source":84,"target":83,"layer":"L","from":"수성구민운동장","to":"수성시장"},"geometry":{"type":"LineString","coordinates":[[128.62521,35.85238],[128.61626,35.85429]]}},{"type":"Feature","properties":{"shape_id":"{}","direction_id":"{\"0\": 50}","headsign":"{}","duration_avg":70,"n_vehicles":50,"d":700,"route_I_counts":"{\"3\": 50}","source":84,"target":85,"layer":"L","from":"수성구민운동장","to":"어린이회관"},"geometry":{"type":"LineString","coordinates":[[128.62521,35.85238],[128.62447,35.84517]]}},{"type":"Feature","properties":{"shape_id":"{}","direction_id":"{\"1\": 50}","headsign":"{}","duration_avg":70,"n_vehicles":50,"d":700,"route_I_counts":"{\"3\": 50}","source":85,"target":84,"layer":"L","from":"어린이회관","to":"수성구민운동장"},"geometry":{"type":"LineString","coordinates":[[128.62447,35.84517],[128.62521,35.85238]]}},{"type":"Feature","properties":{"shape_id":"{}","direction_id":"{\"0\": 50}","headsign":"{}","duration_avg":60,"n_vehicles":50,"d":600,"route_I_counts":"{\"3\": 50}","source":85,"target":86,"layer":"L","from":"어린이회관","to":"황금"},"geometry":{"type":"LineString","coordinates":[[128.62447,35.84517],[128.62413,35.83963]]}},{"type":"Feature","properties":{"shape_id":"{}","direction_id":"{\"1\": 50}","headsign":"{}","duration_avg":60,"n_vehicles":50,"d":600,"route_I_counts":"{\"3\": 50}","source":86,"target":85,"layer":"L","from":"황금","to":"어린이회관"},"geometry":{"type":"LineString","coordinates":[[128.62413,35.83963],[128.62447,35.84517]]}},{"type":"Feature","properties":{"shape_id":"{}","direction_id":"{\"0\": 50}","headsign":"{}","duration_avg":75,"n_vehicles":50,"d":750,"route_I_counts":"{\"3\": 50}","source":86,"target":87,"layer":"L","from":"황금","to":"수성못"},"geometry":{"type":"LineString","coordinates":[[128.62413,35.83963],[128.62323,35.83173]]}},{"type":"Feature","properties":{"shape_id":"{}","direction_id":"{\"1\": 50}","headsign":"{}","duration_avg":75,"n_vehicles":50,"d":750,"route_I_counts":"{\"3\": 50}","source":87,"target":86,"layer":"L","from":"수성못","to":"황금"},"geometry":{"type":"LineString","coordinates":[[128.62323,35.83173],[128.62413,35.83963]]}},{"type":"Feature","properties":{"shape_id":"{}","direction_id":"{\"0\": 50}","headsign":"{}","duration_avg":105,"n_vehicles":50,"d":1050,"route_I_counts":"{\"3\": 50}","source":87,"target":88,"layer":"L","from":"수성못","to":"지산"},"geometry":{"type":"LineString","coordinates":[[128.62323,35.83173],[128.63194,35.82515]]}},{"type":"Feature","properties":{"shape_id":"{}","direction_id":"{\"1\": 50}","headsign":"{}","duration_avg":105,"n_vehicles":50,"d":1050,"route_I_counts":"{\"3\": 50}","source":88,"target":87,"layer":"L","from":"지산","to":"수성못"},"geometry":{"type":"LineString","coordinates":[[128.63194,35.82515],[128.62323,35.83173]]}},{"type":"Feature","properties":{"shape_id":"{}","direction_id":"{\"0\": 50}","headsign":"{}","duration_avg":75,"n_vehicles":50,"d":750,"route_I_counts":"{\"3\": 50}","source":88,"target":89,"layer":"L","from":"지산","to":"범물"},"geometry":{"type":"LineString","coordinates":[[128.63194,35.82515],[128.6401,35.82084]]}},{"type":"Feature","properties":{"shape_id":"{}","direction_id":"{\"1\": 50}","headsign":"{}","duration_avg":75,"n_vehicles":50,"d":750,"route_I_counts":"{\"3\": 50}","source":89,"target":88,"layer":"L","from":"범물","to":"지산"},"geometry":{"type":"LineString","coordinates":[[128.6401,35.82084],[128.63194,35.82515]]}},{"type":"Feature","properties":{"shape_id":"{}","direction_id":"{\"0\": 50}","headsign":"{}","duration_avg":85,"n_vehicles":50,"d":850,"route_I_counts":"{\"3\": 50}","source":89,"target":90,"layer":"L","from":"범물","to":"용지"},"geometry":{"type":"LineString","coordinates":[[128.6401,35.82084],[128.6467,35.81825]]}},{"type":"Feature","properties":{"shape_id":"{}","direction_id":"{\"1\": 50}","headsign":"{}","duration_avg":85,"n_vehicles":50,"d":850,"route_I_counts":"{\"3\": 50}","source":90,"target":89,"layer":"L","from":"용지","to":"범물"},"geometry":{"type":"LineString","coordinates":[[128.6467,35.81825],[128.6401,35.82084]]}}]}