{"type":"FeatureCollection","features":[{"type":"Feature","geometry":{"type":"Point","coordinates":[121.61439,39.02249]},"properties":{"name":"大连姚家(地铁站)","original_ids":"[1]","id":0,"layer":"stop"}},{"type":"Feature","geometry":{"type":"Point","coordinates":[121.60285,39.013923]},"properties":{"name":"大连大连北站(地铁站)","original_ids":"[2]","id":1,"layer":"stop"}},{"type":"Feature","geometry":{"type":"Point","coordinates":[121.589053,39.007638]},"properties":{"name":"大连华北路(地铁站)","original_ids":"[3]","id":2,"layer":"stop"}},{"type":"Feature","geometry":{"type":"Point","coordinates":[121.58107,38.999411]},"properties":{"name":"大连华南北(地铁站)","original_ids":"[4]","id":3,"layer":"stop"}},{"type":"Feature","geometry":{"type":"Point","coordinates":[121.581429,38.988775]},"properties":{"name":"大连华南广场(地铁站)","original_ids":"[5]","id":4,"layer":"stop"}},{"type":"Feature","geometry":{"type":"Point","coordinates":[121.576746,38.978314]},"properties":{"name":"大连千山路(地铁站)","original_ids":"[6]","id":5,"layer":"stop"}},{"type":"Feature","geometry":{"type":"Point","coordinates":[121.572973,38.968042]},"properties":{"name":"大连松江路(地铁站)","original_ids":"[7]","id":6,"layer":"stop"}},{"type":"Feature","geometry":{"type":"Point","coordinates":[121.575175,38.955497]},"properties":{"name":"大连东纬路(地铁站)","original_ids":"[8]","id":7,"layer":"stop"}},{"type":"Feature","geometry":{"type":"Point","coordinates":[121.577429,38.935209]},"properties":{"name":"大连春柳(地铁站)","original_ids":"[9]","id":8,"layer":"stop"}},{"type":"Feature","geometry":{"type":"Point","coordinates":[121.58383,38.930328]},"properties":{"name":"大连香工街(地铁站)","original_ids":"[10]","id":9,"layer":"stop"}},{"type":"Feature","geometry":{"type":"Point","coordinates":[121.587064,38.923094]},"properties":{"name":"大连中长街(地铁站)","original_ids":"[11]","id":10,"layer":"stop"}},{"type":"Feature","geometry":{"type":"Point","coordinates":[121.583688,38.916083]},"properties":{"name":"大连兴工街(地铁站)","original_ids":"[12]","id":11,"layer":"stop"}},{"type":"Feature","geometry":{"type":"Point","coordinates":[121.582376,38.908618]},"properties":{"name":"大连西安路(地铁站)","original_ids":"[13]","id":12,"layer":"stop"}},{"type":"Feature","geometry":{"type":"Point","coordinates":[121.579757,38.898025]},"properties":{"name":"大连富国街(地铁站)","original_ids":"[14]","id":13,"layer":"stop"}},{"type":"Feature","geometry":{"type":"Point","coordinates":[121.580649,38.890779]},"properties":{"name":"大连会展中心(地铁站)","original_ids":"[15]","id":14,"layer":"stop"}},{"type":"Feature","geometry":{"type":"Point","coordinates":[121.577522,38.883857]},"properties":{"name":"大连星海广场(地铁站)","original_ids":"[16]","id":15,"layer":"stop"}},{"type":"Feature","geometry":{"type":"Point","coordinates":[121.565548,38.880591]},"properties":{"name":"大连大医二院(地铁站)","original_ids":"[17]","id":16,"layer":"stop"}},{"type":"Feature","geometry":{"type":"Point","coordinates":[121.552539,38.873759]},"properties":{"name":"大连黑石礁(地铁站)","original_ids":"[18]","id":17,"layer":"stop"}},{"type":"Feature","geometry":{"type":"Point","coordinates":[121.540576,38.873963]},"properties":{"name":"大连学苑广场(地铁站)","original_ids":"[19]","id":18,"layer":"stop"}},{"type":"Feature","geometry":{"type":"Point","coordinates":[121.529458,38.865201]},"properties":{"name":"大连海事大学(地铁站)","original_ids":"[20]","id":19,"layer":"stop"}},{"type":"Feature","geometry":{"type":"Point","coordinates":[121.522089,38.856208]},"properties":{"name":"大连七贤岭(地铁站)","original_ids":"[21]","id":20,"layer":"stop"}},{"type":"Feature","geometry":{"type":"Point","coordinates":[121.508443,38.842603]},"properties":{"name":"大连河口(地铁站)","original_ids":"[22]","id":21,"layer":"stop"}},{"type":"Feature","geometry":{"type":"Point","coordinates":[121.583963,39.017169]},"properties":{"name":"大连南关岭(地铁站)","original_ids":"[23]","id":22,"layer":"stop"}},{"type":"Feature","geometry":{"type":"Point","coordinates":[121.566648,39.015154]},"properties":{"name":"大连体育中心(地铁站)","original_ids":"[24]","id":23,"layer":"stop"}},{"type":"Feature","geometry":{"type":"Point","coordinates":[121.552025,39.014194]},"properties":{"name":"大连卫生中心(地铁站)","original_ids":"[25]","id":24,"layer":"stop"}},{"type":"Feature","geometry":{"type":"Point","coordinates":[121.537607,39.014016]},"properties":{"name":"大连后革(地铁站)","original_ids":"[26]","id":25,"layer":"stop"}},{"type":"Feature","geometry":{"type":"Point","coordinates":[121.52487,39.007173]},"properties":{"name":"大连革镇堡(地铁站)","original_ids":"[27]","id":26,"layer":"stop"}},{"type":"Feature","geometry":{"type":"Point","coordinates":[121.517171,38.997876]},"properties":{"name":"大连中革(地铁站)","original_ids":"[28]","id":27,"layer":"stop"}},{"type":"Feature","geometry":{"type":"Point","coordinates":[121.512947,38.982215]},"properties":{"name":"大连前革(地铁站)","original_ids":"[29]","id":28,"layer":"stop"}},{"type":"Feature","geometry":{"type":"Point","coordinates":[121.50957,38.970324]},"properties":{"name":"大连辛寨子(地铁站)","original_ids":"[30]","id":29,"layer":"stop"}},{"type":"Feature","geometry":{"type":"Point","coordinates":[121.535438,38.960872]},"properties":{"name":"大连机场(地铁站)","original_ids":"[31]","id":30,"layer":"stop"}},{"type":"Feature","geometry":{"type":"Point","coordinates":[121.538038,38.954928]},"properties":{"name":"大连虹港路(地铁站)","original_ids":"[32]","id":31,"layer":"stop"}},{"type":"Feature","geometry":{"type":"Point","coordinates":[121.535053,38.946258]},"properties":{"name":"大连虹锦路(地铁站)","original_ids":"[33]","id":32,"layer":"stop"}},{"type":"Feature","geometry":{"type":"Point","coordinates":[121.528392,38.926892]},"properties":{"name":"大连红旗西路(地铁站)","original_ids":"[34]","id":33,"layer":"stop"}},{"type":"Feature","geometry":{"type":"Point","coordinates":[121.536838,38.923703]},"properties":{"name":"大连湾家(地铁站)","original_ids":"[35]","id":34,"layer":"stop"}},{"type":"Feature","geometry":{"type":"Point","coordinates":[121.549621,38.919262]},"properties":{"name":"大连马栏广场(地铁站)","original_ids":"[36]","id":35,"layer":"stop"}},{"type":"Feature","geometry":{"type":"Point","coordinates":[121.559098,38.915223]},"properties":{"name":"大连辽师大(地铁站)","original_ids":"[37]","id":36,"layer":"stop"}},{"type":"Feature","geometry":{"type":"Point","coordinates":[121.566805,38.912106]},"properties":{"name":"大连交通大学(地铁站)","original_ids":"[38]","id":37,"layer":"stop"}},{"type":"Feature","geometry":{"type":"Point","coordinates":[121.591472,38.91328]},"properties":{"name":"大连联合路(地铁站)","original_ids":"[39]","id":38,"layer":"stop"}},{"type":"Feature","geometry":{"type":"Point","coordinates":[121.605398,38.909905]},"properties":{"name":"大连人民广场(地铁站)","original_ids":"[40]","id":39,"layer":"stop"}},{"type":"Feature","geometry":{"type":"Point","coordinates":[121.617658,38.91223]},"properties":{"name":"大连一二九街(地铁站)","original_ids":"[41]","id":40,"layer":"stop"}},{"type":"Feature","geometry":{"type":"Point","coordinates":[121.626125,38.915731]},"properties":{"name":"大连青泥洼桥(地铁站)","original_ids":"[42]","id":41,"layer":"stop"}},{"type":"Feature","geometry":{"type":"Point","coordinates":[121.632663,38.918821]},"properties":{"name":"大连友好广场(地铁站)","original_ids":"[43]","id":42,"layer":"stop"}},{"type":"Feature","geometry":{"type":"Point","coordinates":[121.638913,38.920735]},"properties":{"name":"大连中山广场(地铁站)","original_ids":"[44]","id":43,"layer":"stop"}},{"type":"Feature","geometry":{"type":"Point","coordinates":[121.65516,38.925835]},"properties":{"name":"大连港湾广场(地铁站)","original_ids":"[45]","id":44,"layer":"stop"}},{"type":"Feature","geometry":{"type":"Point","coordinates":[121.670428,38.923601]},"properties":{"name":"大连会议中心(地铁站)","original_ids":"[46]","id":45,"layer":"stop"}},{"type":"Feature","geometry":{"type":"Point","coordinates":[121.684606,38.919248]},"properties":{"name":"大连东港(地铁站)","original_ids":"[47]","id":46,"layer":"stop"}},{"type":"Feature","geometry":{"type":"Point","coordinates":[121.697831,38.914246]},"properties":{"name":"大连东海(地铁站)","original_ids":"[48]","id":47,"layer":"stop"}},{"type":"Feature","geometry":{"type":"Point","coordinates":[121.710369,38.910063]},"properties":{"name":"大连海之韵(地铁站)","original_ids":"[49]","id":48,"layer":"stop"}},{"type":"Feature","geometry":{"type":"Point","coordinates":[121.736998,39.147298]},"properties":{"name":"大连九里(地铁站)","original_ids":"[50]","id":49,"layer":"stop"}},{"type":"Feature","geometry":{"type":"Point","coordinates":[121.725037,39.128456]},"properties":{"name":"大连十九局(地铁站)","original_ids":"[51]","id":50,"layer":"stop"}},{"type":"Feature","geometry":{"type":"Point","coordinates":[121.720185,39.106658]},"properties":{"name":"大连和平路(地铁站)","original_ids":"[52]","id":51,"layer":"stop"}},{"type":"Feature","geometry":{"type":"Point","coordinates":[121.732305,39.091156]},"properties":{"name":"大连东山路(地铁站)","original_ids":"[53]","id":52,"layer":"stop"}},{"type":"Feature","geometry":{"type":"Point","coordinates":[121.746283,39.081065]},"properties":{"name":"大连鸿玮澜山(地铁站)","original_ids":"[54]","id":53,"layer":"stop"}},{"type":"Feature","geometry":{"type":"Point","coordinates":[121.76209,39.066914]},"properties":{"name":"大连通世泰(地铁站)","original_ids":"[55]","id":54,"layer":"stop"}},{"type":"Feature","geometry":{"type":"Point","coordinates":[121.769413,39.052564]},"properties":{"name":"大连开发区(地铁站)","original_ids":"[56]","id":55,"layer":"stop"}},{"type":"Feature","geometry":{"type":"Point","coordinates":[121.625233,38.922405]},"properties":{"name":"大连大连站(地铁站)","original_ids":"[57]","id":56,"layer":"stop"}},{"type":"Feature","geometry":{"type":"Point","coordinates":[121.598582,38.927862]},"properties":{"name":"大连香炉礁(地铁站)","original_ids":"[58]","id":57,"layer":"stop"}},{"type":"Feature","geometry":{"type":"Point","coordinates":[121.596213,38.954662]},"properties":{"name":"大连梭鱼湾(地铁站)","original_ids":"[59]","id":58,"layer":"stop"}},{"type":"Feature","geometry":{"type":"Point","coordinates":[121.596593,38.966998]},"properties":{"name":"大连金家街(地铁站)","original_ids":"[60]","id":59,"layer":"stop"}},{"type":"Feature","geometry":{"type":"Point","coordinates":[121.611863,39.000525]},"properties":{"name":"大连泉水(地铁站)","original_ids":"[61]","id":60,"layer":"stop"}},{"type":"Feature","geometry":{"type":"Point","coordinates":[121.632729,39.020495]},"properties":{"name":"大连后盐(地铁站)","original_ids":"[62]","id":61,"layer":"stop"}},{"type":"Feature","geometry":{"type":"Point","coordinates":[121.70465,39.03447]},"properties":{"name":"大连大连湾(地铁站)","original_ids":"[63]","id":62,"layer":"stop"}},{"type":"Feature","geometry":{"type":"Point","coordinates":[121.738552,39.048112]},"properties":{"name":"大连金马路(地铁站)","original_ids":"[64]","id":63,"layer":"stop"}},{"type":"Feature","geometry":{"type":"Point","coordinates":[121.797302,39.059372]},"properties":{"name":"大连保税区(地铁站)","original_ids":"[65]","id":64,"layer":"stop"}},{"type":"Feature","geometry":{"type":"Point","coordinates":[121.866778,39.062535]},"properties":{"name":"大连双D港(地铁站)","original_ids":"[66]","id":65,"layer":"stop"}},{"type":"Feature","geometry":{"type":"Point","coordinates":[121.894145,39.075777]},"properties":{"name":"大连小窑湾(地铁站)","original_ids":"[67]","id":66,"layer":"stop"}},{"type":"Feature","geometry":{"type":"Point","coordinates":[122.000883,39.085561]},"properties":{"name":"大连金石滩(地铁站)","original_ids":"[68]","id":67,"layer":"stop"}},{"type":"Feature","geometry":{"type":"Point","coordinates":[121.631882,39.051749]},"properties":{"name":"大连后关(地铁站)","original_ids":"[69]","id":68,"layer":"stop"}},{"type":"Feature","geometry":{"type":"Point","coordinates":[121.634356,39.013224]},"properties":{"name":"大连龙华路(地铁站)","original_ids":"[70]","id":69,"layer":"stop"}},{"type":"Feature","geometry":{"type":"Point","coordinates":[121.631009,39.005362]},"properties":{"name":"大连泉水东(地铁站)","original_ids":"[71]","id":70,"layer":"stop"}},{"type":"Feature","geometry":{"type":"Point","coordinates":[121.634655,38.995268]},"properties":{"name":"大连中华东路(地铁站)","original_ids":"[72]","id":71,"layer":"stop"}},{"type":"Feature","geometry":{"type":"Point","coordinates":[121.626627,38.979447]},"properties":{"name":"大连甘北路(地铁站)","original_ids":"[73]","id":72,"layer":"stop"}},{"type":"Feature","geometry":{"type":"Point","coordinates":[121.622063,38.973161]},"properties":{"name":"大连甘井子街(地铁站)","original_ids":"[74]","id":73,"layer":"stop"}},{"type":"Feature","geometry":{"type":"Point","coordinates":[121.614561,38.952926]},"properties":{"name":"大连梭鱼湾南(地铁站)","original_ids":"[75]","id":74,"layer":"stop"}},{"type":"Feature","geometry":{"type":"Point","coordinates":[121.634787,38.909803]},"properties":{"name":"大连劳动公园(地铁站)","original_ids":"[76]","id":75,"layer":"stop"}},{"type":"Feature","geometry":{"type":"Point","coordinates":[121.639861,38.899954]},"properties":{"name":"大连石葵路(地铁站)","original_ids":"[77]","id":76,"layer":"stop"}},{"type":"Feature","geometry":{"type":"Point","coordinates":[121.643814,38.893485]},"properties":{"name":"大连青云街(地铁站)","original_ids":"[78]","id":77,"layer":"stop"}},{"type":"Feature","geometry":{"type":"Point","coordinates":[121.646501,38.886511]},"properties":{"name":"大连桃源(地铁站)","original_ids":"[79]","id":78,"layer":"stop"}},{"type":"Feature","geometry":{"type":"Point","coordinates":[121.654467,38.88263]},"properties":{"name":"大连秀月街(地铁站)","original_ids":"[80]","id":79,"layer":"stop"}},{"type":"Feature","geometry":{"type":"Point","coordinates":[121.668622,38.877265]},"properties":{"name":"大连虎滩公园(地铁站)","original_ids":"[81]","id":80,"layer":"stop"}},{"type":"Feature","geometry":{"type":"Point","coordinates":[121.68092,38.877106]},"properties":{"name":"大连虎滩新区(地铁站)","original_ids":"[82]","id":81,"layer":"stop"}},{"type":"Feature","geometry":{"type":"Point","coordinates":[121.489525,38.850027]},"properties":{"name":"大连蔡大岭(地铁站)","original_ids":"[83]","id":82,"layer":"stop"}},{"type":"Feature","geometry":{"type":"Point","coordinates":[121.443593,38.854761]},"properties":{"name":"大连黄泥川(地铁站)","original_ids":"[84]","id":83,"layer":"stop"}},{"type":"Feature","geometry":{"type":"Point","coordinates":[121.397956,38.834665]},"properties":{"name":"大连龙王塘(地铁站)","original_ids":"[85]","id":84,"layer":"stop"}},{"type":"Feature","geometry":{"type":"Point","coordinates":[121.336199,38.822498]},"properties":{"name":"大连塔河湾(地铁站)","original_ids":"[86]","id":85,"layer":"stop"}},{"type":"Feature","geometry":{"type":"Point","coordinates":[121.247637,38.843001]},"properties":{"name":"大连旅顺(地铁站)","original_ids":"[87]","id":86,"layer":"stop"}},{"type":"Feature","geometry":{"type":"Point","coordinates":[121.172394,38.801026]},"properties":{"name":"大连铁山(地铁站)","original_ids":"[88]","id":87,"layer":"stop"}},{"type":"Feature","geometry":{"type":"Point","coordinates":[121.139654,38.80584]},"properties":{"name":"大连旅顺新港(地铁站)","original_ids":"[89]","id":88,"layer":"stop"}},{"type":"Feature","geometry":{"type":"Point","coordinates":[121.753261,39.171661]},"properties":{"name":"大连十三里(地铁站)","original_ids":"[90]","id":89,"layer":"stop"}},{"type":"Feature","geometry":{"type":"Point","coordinates":[121.751611,39.195589]},"properties":{"name":"大连二十里堡(地铁站)","original_ids":"[91]","id":90,"layer":"stop"}},{"type":"Feature","geometry":{"type":"Point","coordinates":[121.779681,39.264]},"properties":{"name":"大连三十里堡(地铁站)","original_ids":"[92]","id":91,"layer":"stop"}},{"type":"Feature","geometry":{"type":"Point","coordinates":[121.81585,39.326239]},"properties":{"name":"大连石河黄旗(地铁站)","original_ids":"[93]","id":92,"layer":"stop"}},{"type":"Feature","geometry":{"type":"Point","coordinates":[121.83419,39.35696]},"properties":{"name":"大连普湾体育场(地铁站)","original_ids":"[94]","id":93,"layer":"stop"}},{"type":"Feature","geometry":{"type":"Point","coordinates":[121.85726,39.35842]},"properties":{"name":"大连石河北海(地铁站)","original_ids":"[95]","id":94,"layer":"stop"}},{"type":"Feature","geometry":{"type":"Point","coordinates":[121.892161,39.378531]},"properties":{"name":"大连长店堡(地铁站)","original_ids":"[96]","id":95,"layer":"stop"}},{"type":"Feature","geometry":{"type":"Point","coordinates":[121.929139,39.385339]},"properties":{"name":"大连大医三院(地铁站)","original_ids":"[97]","id":96,"layer":"stop"}},{"type":"Feature","geometry":{"type":"Point","coordinates":[121.94172,39.39781]},"properties":{"name":"大连海湾高中(地铁站)","original_ids":"[98]","id":97,"layer":"stop"}},{"type":"Feature","geometry":{"type":"Point","coordinates":[121.944361,39.411189]},"properties":{"name":"大连普兰店开发区(地铁站)","original_ids":"[99]","id":98,"layer":"stop"}},{"type":"Feature","geometry":{"type":"Point","coordinates":[121.919119,39.430969]},"properties":{"name":"大连普兰店振兴街(地铁站)","original_ids":"[100]","id":99,"layer":"stop"}},{"type":"Feature","properties":{"shape_id":"{}","direction_id":"{\"0\": 50}","headsign":"{}","duration_avg":180,"n_vehicles":50,"d":1800,"route_I_counts":"{\"1\": 50}","source":0,"target":1,"layer":"L","from":"大连姚家(地铁站)","to":"大连大连北站(地铁站)"},"geometry":{"type":"LineString","coordinates":[[121.61439,39.02249],[121.60285,39.013923]]}},{"type":"Feature","properties":{"shape_id":"{}","direction_id":"{\"1\": 50}","headsign":"{}","duration_avg":180,"n_vehicles":50,"d":1800,"route_I_counts":"{\"1\": 50}","source":1,"target":0,"layer":"L","from":"大连大连北站(地铁站)","to":"大连姚家(地铁站)"},"geometry":{"type":"LineString","coordinates":[[121.60285,39.013923],[121.61439,39.02249]]}},{"type":"Feature","properties":{"shape_id":"{}","direction_id":"{\"0\": 50}","headsign":"{}","duration_avg":120,"n_vehicles":50,"d":1200,"route_I_counts":"{\"1\": 50}","source":1,"target":2,"layer":"L","from":"大连大连北站(地铁站)","to":"大连华北路(地铁站)"},"geometry":{"type":"LineString","coordinates":[[121.60285,39.013923],[121.589053,39.007638]]}},{"type":"Feature","properties":{"shape_id":"{}","direction_id":"{\"1\": 50}","headsign":"{}","duration_avg":120,"n_vehicles":50,"d":1200,"route_I_counts":"{\"1\": 50}","source":2,"target":1,"layer":"L","from":"大连华北路(地铁站)","to":"大连大连北站(地铁站)"},"geometry":{"type":"LineString","coordinates":[[121.589053,39.007638],[121.60285,39.013923]]}},{"type":"Feature","properties":{"shape_id":"{}","direction_id":"{\"0\": 50}","headsign":"{}","duration_avg":180,"n_vehicles":50,"d":1800,"route_I_counts":"{\"1\": 50}","source":2,"target":3,"layer":"L","from":"大连华北路(地铁站)","to":"大连华南北(地铁站)"},"geometry":{"type":"LineString","coordinates":[[121.589053,39.007638],[121.58107,38.999411]]}},{"type":"Feature","properties":{"shape_id":"{}","direction_id":"{\"1\": 50}","headsign":"{}","duration_avg":180,"n_vehicles":50,"d":1800,"route_I_counts":"{\"1\": 50}","source":3,"target":2,"layer":"L","from":"大连华南北(地铁站)","to":"大连华北路(地铁站)"},"geometry":{"type":"LineString","coordinates":[[121.58107,38.999411],[121.589053,39.007638]]}},{"type":"Feature","properties":{"shape_id":"{}","direction_id":"{\"0\": 50}","headsign":"{}","duration_avg":120,"n_vehicles":50,"d":1200,"route_I_counts":"{\"1\": 50}","source":3,"target":4,"layer":"L","from":"大连华南北(地铁站)","to":"大连华南广场(地铁站)"},"geometry":{"type":"LineString","coordinates":[[121.58107,38.999411],[121.581429,38.988775]]}},{"type":"Feature","properties":{"shape_id":"{}","direction_id":"{\"1\": 50}","headsign":"{}","duration_avg":120,"n_vehicles":50,"d":1200,"route_I_counts":"{\"1\": 50}","source":4,"target":3,"layer":"L","from":"大连华南广场(地铁站)","to":"大连华南北(地铁站)"},"geometry":{"type":"LineString","coordinates":[[121.581429,38.988775],[121.58107,38.999411]]}},{"type":"Feature","properties":{"shape_id":"{}","direction_id":"{\"0\": 50}","headsign":"{}","duration_avg":120,"n_vehicles":50,"d":1200,"route_I_counts":"{\"1\": 50}","source":4,"target":5,"layer":"L","from":"大连华南广场(地铁站)","to":"大连千山路(地铁站)"},"geometry":{"type":"LineString","coordinates":[[121.581429,38.988775],[121.576746,38.978314]]}},{"type":"Feature","properties":{"shape_id":"{}","direction_id":"{\"1\": 50}","headsign":"{}","duration_avg":120,"n_vehicles":50,"d":1200,"route_I_counts":"{\"1\": 50}","source":5,"target":4,"layer":"L","from":"大连千山路(地铁站)","to":"大连华南广场(地铁站)"},"geometry":{"type":"LineString","coordinates":[[121.576746,38.978314],[121.581429,38.988775]]}},{"type":"Feature","properties":{"shape_id":"{}","direction_id":"{\"0\": 50}","headsign":"{}","duration_avg":120,"n_vehicles":50,"d":1200,"route_I_counts":"{\"1\": 50}","source":5,"target":6,"layer":"L","from":"大连千山路(地铁站)","to":"大连松江路(地铁站)"},"geometry":{"type":"LineString","coordinates":[[121.576746,38.978314],[121.572973,38.968042]]}},{"type":"Feature","properties":{"shape_id":"{}","direction_id":"{\"1\": 50}","headsign":"{}","duration_avg":120,"n_vehicles":50,"d":1200,"route_I_counts":"{\"1\": 50}","source":6,"target":5,"layer":"L","from":"大连松江路(地铁站)","to":"大连千山路(地铁站)"},"geometry":{"type":"LineString","coordinates":[[121.572973,38.968042],[121.576746,38.978314]]}},{"type":"Feature","properties":{"shape_id":"{}","direction_id":"{\"0\": 50}","headsign":"{}","duration_avg":180,"n_vehicles":50,"d":1800,"route_I_counts":"{\"1\": 50}","source":6,"target":7,"layer":"L","from":"大连松江路(地铁站)","to":"大连东纬路(地铁站)"},"geometry":{"type":"LineString","coordinates":[[121.572973,38.968042],[121.575175,38.955497]]}},{"type":"Feature","properties":{"shape_id":"{}","direction_id":"{\"1\": 50}","headsign":"{}","duration_avg":180,"n_vehicles":50,"d":1800,"route_I_counts":"{\"1\": 50}","source":7,"target":6,"layer":"L","from":"大连东纬路(地铁站)","to":"大连松江路(地铁站)"},"geometry":{"type":"LineString","coordinates":[[121.575175,38.955497],[121.572973,38.968042]]}},{"type":"Feature","properties":{"shape_id":"{}","direction_id":"{\"0\": 50}","headsign":"{}","duration_avg":240,"n_vehicles":50,"d":2400,"route_I_counts":"{\"1\": 50}","source":7,"target":8,"layer":"L","from":"大连东纬路(地铁站)","to":"大连春柳(地铁站)"},"geometry":{"type":"LineString","coordinates":[[121.575175,38.955497],[121.577429,38.935209]]}},{"type":"Feature","properties":{"shape_id":"{}","direction_id":"{\"1\": 50}","headsign":"{}","duration_avg":240,"n_vehicles":50,"d":2400,"route_I_counts":"{\"1\": 50}","source":8,"target":7,"layer":"L","from":"大连春柳(地铁站)","to":"大连东纬路(地铁站)"},"geometry":{"type":"LineString","coordinates":[[121.577429,38.935209],[121.575175,38.955497]]}},{"type":"Feature","properties":{"shape_id":"{}","direction_id":"{\"0\": 50}","headsign":"{}","duration_avg":120,"n_vehicles":50,"d":1200,"route_I_counts":"{\"1\": 50}","source":8,"target":9,"layer":"L","from":"大连春柳(地铁站)","to":"大连香工街(地铁站)"},"geometry":{"type":"LineString","coordinates":[[121.577429,38.935209],[121.58383,38.930328]]}},{"type":"Feature","properties":{"shape_id":"{}","direction_id":"{\"1\": 50}","headsign":"{}","duration_avg":120,"n_vehicles":50,"d":1200,"route_I_counts":"{\"1\": 50}","source":9,"target":8,"layer":"L","from":"大连香工街(地铁站)","to":"大连春柳(地铁站)"},"geometry":{"type":"LineString","coordinates":[[121.58383,38.930328],[121.577429,38.935209]]}},{"type":"Feature","properties":{"shape_id":"{}","direction_id":"{\"0\": 50}","headsign":"{}","duration_avg":120,"n_vehicles":50,"d":1200,"route_I_counts":"{\"1\": 50}","source":9,"target":10,"layer":"L","from":"大连香工街(地铁站)","to":"大连中长街(地铁站)"},"geometry":{"type":"LineString","coordinates":[[121.58383,38.930328],[121.587064,38.923094]]}},{"type":"Feature","properties":{"shape_id":"{}","direction_id":"{\"1\": 50}","headsign":"{}","duration_avg":120,"n_vehicles":50,"d":1200,"route_I_counts":"{\"1\": 50}","source":10,"target":9,"layer":"L","from":"大连中长街(地铁站)","to":"大连香工街(地铁站)"},"geometry":{"type":"LineString","coordinates":[[121.587064,38.923094],[121.58383,38.930328]]}},{"type":"Feature","properties":{"shape_id":"{}","direction_id":"{\"0\": 50}","headsign":"{}","duration_avg":120,"n_vehicles":50,"d":1200,"route_I_counts":"{\"1\": 50}","source":10,"target":11,"layer":"L","from":"大连中长街(地铁站)","to":"大连兴工街(地铁站)"},"geometry":{"type":"LineString","coordinates":[[121.587064,38.923094],[121.583688,38.916083]]}},{"type":"Feature","properties":{"shape_id":"{}","direction_id":"{\"1\": 50}","headsign":"{}","duration_avg":120,"n_vehicles":50,"d":1200,"route_I_counts":"{\"1\": 50}","source":11,"target":10,"layer":"L","from":"大连兴工街(地铁站)","to":"大连中长街(地铁站)"},"geometry":{"type":"LineString","coordinates":[[121.583688,38.916083],[121.587064,38.923094]]}},{"type":"Feature","properties":{"shape_id":"{}","direction_id":"{\"0\": 50}","headsign":"{}","duration_avg":120,"n_vehicles":50,"d":1200,"route_I_counts":"{\"1\": 50}","source":11,"target":12,"layer":"L","from":"大连兴工街(地铁站)","to":"大连西安路(地铁站)"},"geometry":{"type":"LineString","coordinates":[[121.583688,38.916083],[121.582376,38.908618]]}},{"type":"Feature","properties":{"shape_id":"{}","direction_id":"{\"1\": 50}","headsign":"{}","duration_avg":120,"n_vehicles":50,"d":1200,"route_I_counts":"{\"1\": 50}","source":12,"target":11,"layer":"L","from":"大连西安路(地铁站)","to":"大连兴工街(地铁站)"},"geometry":{"type":"LineString","coordinates":[[121.582376,38.908618],[121.583688,38.916083]]}},{"type":"Feature","properties":{"shape_id":"{}","direction_id":"{\"0\": 50}","headsign":"{}","duration_avg":180,"n_vehicles":50,"d":1800,"route_I_counts":"{\"1\": 50}","source":12,"target":13,"layer":"L","from":"大连西安路(地铁站)","to":"大连富国街(地铁站)"},"geometry":{"type":"LineString","coordinates":[[121.582376,38.908618],[121.579757,38.898025]]}},{"type":"Feature","properties":{"shape_id":"{}","direction_id":"{\"1\": 50}","headsign":"{}","duration_avg":180,"n_vehicles":50,"d":1800,"route_I_counts":"{\"1\": 50}","source":13,"target":12,"layer":"L","from":"大连富国街(地铁站)","to":"大连西安路(地铁站)"},"geometry":{"type":"LineString","coordinates":[[121.579757,38.898025],[121.582376,38.908618]]}},{"type":"Feature","properties":{"shape_id":"{}","direction_id":"{\"0\": 50}","headsign":"{}","duration_avg":120,"n_vehicles":50,"d":1200,"route_I_counts":"{\"1\": 50}","source":13,"target":14,"layer":"L","from":"大连富国街(地铁站)","to":"大连会展中心(地铁站)"},"geometry":{"type":"LineString","coordinates":[[121.579757,38.898025],[121.580649,38.890779]]}},{"type":"Feature","properties":{"shape_id":"{}","direction_id":"{\"1\": 50}","headsign":"{}","duration_avg":120,"n_vehicles":50,"d":1200,"route_I_counts":"{\"1\": 50}","source":14,"target":13,"layer":"L","from":"大连会展中心(地铁站)","to":"大连富国街(地铁站)"},"geometry":{"type":"LineString","coordinates":[[121.580649,38.890779],[121.579757,38.898025]]}},{"type":"Feature","properties":{"shape_id":"{}","direction_id":"{\"0\": 50}","headsign":"{}","duration_avg":120,"n_vehicles":50,"d":1200,"route_I_counts":"{\"1\": 50}","source":14,"target":15,"layer":"L","from":"大连会展中心(地铁站)","to":"大连星海广场(地铁站)"},"geometry":{"type":"LineString","coordinates":[[121.580649,38.890779],[121.577522,38.883857]]}},{"type":"Feature","properties":{"shape_id":"{}","direction_id":"{\"1\": 50}","headsign":"{}","duration_avg":120,"n_vehicles":50,"d":1200,"route_I_counts":"{\"1\": 50}","source":15,"target":14,"layer":"L","from":"大连星海广场(地铁站)","to":"大连会展中心(地铁站)"},"geometry":{"type":"LineString","coordinates":[[121.577522,38.883857],[121.580649,38.890779]]}},{"type":"Feature","properties":{"shape_id":"{}","direction_id":"{\"0\": 50}","headsign":"{}","duration_avg":120,"n_vehicles":50,"d":1200,"route_I_counts":"{\"1\": 50}","source":15,"target":16,"layer":"L","from":"大连星海广场(地铁站)","to":"大连大医二院(地铁站)"},"geometry":{"type":"LineString","coordinates":[[121.577522,38.883857],[121.565548,38.880591]]}},{"type":"Feature","properties":{"shape_id":"{}","direction_id":"{\"1\": 50}","headsign":"{}","duration_avg":120,"n_vehicles":50,"d":1200,"route_I_counts":"{\"1\": 50}","source":16,"target":15,"layer":"L","from":"大连大医二院(地铁站)","to":"大连星海广场(地铁站)"},"geometry":{"type":"LineString","coordinates":[[121.565548,38.880591],[121.577522,38.883857]]}},{"type":"Feature","properties":{"shape_id":"{}","direction_id":"{\"0\": 50}","headsign":"{}","duration_avg":120,"n_vehicles":50,"d":1200,"route_I_counts":"{\"1\": 50}","source":16,"target":17,"layer":"L","from":"大连大医二院(地铁站)","to":"大连黑石礁(地铁站)"},"geometry":{"type":"LineString","coordinates":[[121.565548,38.880591],[121.552539,38.873759]]}},{"type":"Feature","properties":{"shape_id":"{}","direction_id":"{\"1\": 50}","headsign":"{}","duration_avg":120,"n_vehicles":50,"d":1200,"route_I_counts":"{\"1\": 50}","source":17,"target":16,"layer":"L","from":"大连黑石礁(地铁站)","to":"大连大医二院(地铁站)"},"geometry":{"type":"LineString","coordinates":[[121.552539,38.873759],[121.565548,38.880591]]}},{"type":"Feature","properties":{"shape_id":"{}","direction_id":"{\"0\": 50}","headsign":"{}","duration_avg":180,"n_vehicles":50,"d":1800,"route_I_counts":"{\"1\": 50}","source":17,"target":18,"layer":"L","from":"大连黑石礁(地铁站)","to":"大连学苑广场(地铁站)"},"geometry":{"type":"LineString","coordinates":[[121.552539,38.873759],[121.540576,38.873963]]}},{"type":"Feature","properties":{"shape_id":"{}","direction_id":"{\"1\": 50}","headsign":"{}","duration_avg":180,"n_vehicles":50,"d":1800,"route_I_counts":"{\"1\": 50}","source":18,"target":17,"layer":"L","from":"大连学苑广场(地铁站)","to":"大连黑石礁(地铁站)"},"geometry":{"type":"LineString","coordinates":[[121.540576,38.873963],[121.552539,38.873759]]}},{"type":"Feature","properties":{"shape_id":"{}","direction_id":"{\"0\": 50}","headsign":"{}","duration_avg":120,"n_vehicles":50,"d":1200,"route_I_counts":"{\"1\": 50}","source":18,"target":19,"layer":"L","from":"大连学苑广场(地铁站)","to":"大连海事大学(地铁站)"},"geometry":{"type":"LineString","coordinates":[[121.540576,38.873963],[121.529458,38.865201]]}},{"type":"Feature","properties":{"shape_id":"{}","direction_id":"{\"1\": 50}","headsign":"{}","duration_avg":120,"n_vehicles":50,"d":1200,"route_I_counts":"{\"1\": 50}","source":19,"target":18,"layer":"L","from":"大连海事大学(地铁站)","to":"大连学苑广场(地铁站)"},"geometry":{"type":"LineString","coordinates":[[121.529458,38.865201],[121.540576,38.873963]]}},{"type":"Feature","properties":{"shape_id":"{}","direction_id":"{\"0\": 50}","headsign":"{}","duration_avg":120,"n_vehicles":50,"d":1200,"route_I_counts":"{\"1\": 50}","source":19,"target":20,"layer":"L","from":"大连海事大学(地铁站)","to":"大连七贤岭(地铁站)"},"geometry":{"type":"LineString","coordinates":[[121.529458,38.865201],[121.522089,38.856208]]}},{"type":"Feature","properties":{"shape_id":"{}","direction_id":"{\"1\": 50}","headsign":"{}","duration_avg":120,"n_vehicles":50,"d":1200,"route_I_counts":"{\"1\": 50}","source":20,"target":19,"layer":"L","from":"大连七贤岭(地铁站)","to":"大连海事大学(地铁站)"},"geometry":{"type":"LineString","coordinates":[[121.522089,38.856208],[121.529458,38.865201]]}},{"type":"Feature","properties":{"shape_id":"{}","direction_id":"{\"0\": 50}","headsign":"{}","duration_avg":180,"n_vehicles":50,"d":1800,"route_I_counts":"{\"1\": 50}","source":20,"target":21,"layer":"L","from":"大连七贤岭(地铁站)","to":"大连河口(地铁站)"},"geometry":{"type":"LineString","coordinates":[[121.522089,38.856208],[121.508443,38.842603]]}},{"type":"Feature","properties":{"shape_id":"{}","direction_id":"{\"1\": 50}","headsign":"{}","duration_avg":180,"n_vehicles":50,"d":1800,"route_I_counts":"{\"1\": 50}","source":21,"target":20,"layer":"L","from":"大连河口(地铁站)","to":"大连七贤岭(地铁站)"},"geometry":{"type":"LineString","coordinates":[[121.508443,38.842603],[121.522089,38.856208]]}},{"type":"Feature","properties":{"shape_id":"{}","direction_id":"{\"0\": 50}","headsign":"{}","duration_avg":180,"n_vehicles":50,"d":1800,"route_I_counts":"{\"2\": 50}","source":1,"target":22,"layer":"L","from":"大连大连北站(地铁站)","to":"大连南关岭(地铁站)"},"geometry":{"type":"LineString","coordinates":[[121.60285,39.013923],[121.583963,39.017169]]}},{"type":"Feature","properties":{"shape_id":"{}","direction_id":"{\"1\": 50}","headsign":"{}","duration_avg":180,"n_vehicles":50,"d":1800,"route_I_counts":"{\"2\": 50}","source":22,"target":1,"layer":"L","from":"大连南关岭(地铁站)","to":"大连大连北站(地铁站)"},"geometry":{"type":"LineString","coordinates":[[121.583963,39.017169],[121.60285,39.013923]]}},{"type":"Feature","properties":{"shape_id":"{}","direction_id":"{\"0\": 50}","headsign":"{}","duration_avg":120,"n_vehicles":50,"d":1200,"route_I_counts":"{\"2\": 50}","source":22,"target":23,"layer":"L","from":"大连南关岭(地铁站)","to":"大连体育中心(地铁站)"},"geometry":{"type":"LineString","coordinates":[[121.583963,39.017169],[121.566648,39.015154]]}},{"type":"Feature","properties":{"shape_id":"{}","direction_id":"{\"1\": 50}","headsign":"{}","duration_avg":120,"n_vehicles":50,"d":1200,"route_I_counts":"{\"2\": 50}","source":23,"target":22,"layer":"L","from":"大连体育中心(地铁站)","to":"大连南关岭(地铁站)"},"geometry":{"type":"LineString","coordinates":[[121.566648,39.015154],[121.583963,39.017169]]}},{"type":"Feature","properties":{"shape_id":"{}","direction_id":"{\"0\": 50}","headsign":"{}","duration_avg":180,"n_vehicles":50,"d":1800,"route_I_counts":"{\"2\": 50}","source":23,"target":24,"layer":"L","from":"大连体育中心(地铁站)","to":"大连卫生中心(地铁站)"},"geometry":{"type":"LineString","coordinates":[[121.566648,39.015154],[121.552025,39.014194]]}},{"type":"Feature","properties":{"shape_id":"{}","direction_id":"{\"1\": 50}","headsign":"{}","duration_avg":180,"n_vehicles":50,"d":1800,"route_I_counts":"{\"2\": 50}","source":24,"target":23,"layer":"L","from":"大连卫生中心(地铁站)","to":"大连体育中心(地铁站)"},"geometry":{"type":"LineString","coordinates":[[121.552025,39.014194],[121.566648,39.015154]]}},{"type":"Feature","properties":{"shape_id":"{}","direction_id":"{\"0\": 50}","headsign":"{}","duration_avg":120,"n_vehicles":50,"d":1200,"route_I_counts":"{\"2\": 50}","source":24,"target":25,"layer":"L","from":"大连卫生中心(地铁站)","to":"大连后革(地铁站)"},"geometry":{"type":"LineString","coordinates":[[121.552025,39.014194],[121.537607,39.014016]]}},{"type":"Feature","properties":{"shape_id":"{}","direction_id":"{\"1\": 50}","headsign":"{}","duration_avg":120,"n_vehicles":50,"d":1200,"route_I_counts":"{\"2\": 50}","source":25,"target":24,"layer":"L","from":"大连后革(地铁站)","to":"大连卫生中心(地铁站)"},"geometry":{"type":"LineString","coordinates":[[121.537607,39.014016],[121.552025,39.014194]]}},{"type":"Feature","properties":{"shape_id":"{}","direction_id":"{\"0\": 50}","headsign":"{}","duration_avg":120,"n_vehicles":50,"d":1200,"route_I_counts":"{\"2\": 50}","source":25,"target":26,"layer":"L","from":"大连后革(地铁站)","to":"大连革镇堡(地铁站)"},"geometry":{"type":"LineString","coordinates":[[121.537607,39.014016],[121.52487,39.007173]]}},{"type":"Feature","properties":{"shape_id":"{}","direction_id":"{\"1\": 50}","headsign":"{}","duration_avg":120,"n_vehicles":50,"d":1200,"route_I_counts":"{\"2\": 50}","source":26,"target":25,"layer":"L","from":"大连革镇堡(地铁站)","to":"大连后革(地铁站)"},"geometry":{"type":"LineString","coordinates":[[121.52487,39.007173],[121.537607,39.014016]]}},{"type":"Feature","properties":{"shape_id":"{}","direction_id":"{\"0\": 50}","headsign":"{}","duration_avg":180,"n_vehicles":50,"d":1800,"route_I_counts":"{\"2\": 50}","source":26,"target":27,"layer":"L","from":"大连革镇堡(地铁站)","to":"大连中革(地铁站)"},"geometry":{"type":"LineString","coordinates":[[121.52487,39.007173],[121.517171,38.997876]]}},{"type":"Feature","properties":{"shape_id":"{}","direction_id":"{\"1\": 50}","headsign":"{}","duration_avg":180,"n_vehicles":50,"d":1800,"route_I_counts":"{\"2\": 50}","source":27,"target":26,"layer":"L","from":"大连中革(地铁站)","to":"大连革镇堡(地铁站)"},"geometry":{"type":"LineString","coordinates":[[121.517171,38.997876],[121.52487,39.007173]]}},{"type":"Feature","properties":{"shape_id":"{}","direction_id":"{\"0\": 50}","headsign":"{}","duration_avg":180,"n_vehicles":50,"d":1800,"route_I_counts":"{\"2\": 50}","source":27,"target":28,"layer":"L","from":"大连中革(地铁站)","to":"大连前革(地铁站)"},"geometry":{"type":"LineString","coordinates":[[121.517171,38.997876],[121.512947,38.982215]]}},{"type":"Feature","properties":{"shape_id":"{}","direction_id":"{\"1\": 50}","headsign":"{}","duration_avg":180,"n_vehicles":50,"d":1800,"route_I_counts":"{\"2\": 50}","source":28,"target":27,"layer":"L","from":"大连前革(地铁站)","to":"大连中革(地铁站)"},"geometry":{"type":"LineString","coordinates":[[121.512947,38.982215],[121.517171,38.997876]]}},{"type":"Feature","properties":{"shape_id":"{}","direction_id":"{\"0\": 50}","headsign":"{}","duration_avg":120,"n_vehicles":50,"d":1200,"route_I_counts":"{\"2\": 50}","source":28,"target":29,"layer":"L","from":"大连前革(地铁站)","to":"大连辛寨子(地铁站)"},"geometry":{"type":"LineString","coordinates":[[121.512947,38.982215],[121.50957,38.970324]]}},{"type":"Feature","properties":{"shape_id":"{}","direction_id":"{\"1\": 50}","headsign":"{}","duration_avg":120,"n_vehicles":50,"d":1200,"route_I_counts":"{\"2\": 50}","source":29,"target":28,"layer":"L","from":"大连辛寨子(地铁站)","to":"大连前革(地铁站)"},"geometry":{"type":"LineString","coordinates":[[121.50957,38.970324],[121.512947,38.982215]]}},{"type":"Feature","properties":{"shape_id":"{}","direction_id":"{\"0\": 50}","headsign":"{}","duration_avg":240,"n_vehicles":50,"d":2400,"route_I_counts":"{\"2\": 50}","source":29,"target":30,"layer":"L","from":"大连辛寨子(地铁站)","to":"大连机场(地铁站)"},"geometry":{"type":"LineString","coordinates":[[121.50957,38.970324],[121.535438,38.960872]]}},{"type":"Feature","properties":{"shape_id":"{}","direction_id":"{\"1\": 50}","headsign":"{}","duration_avg":240,"n_vehicles":50,"d":2400,"route_I_counts":"{\"2\": 50}","source":30,"target":29,"layer":"L","from":"大连机场(地铁站)","to":"大连辛寨子(地铁站)"},"geometry":{"type":"LineString","coordinates":[[121.535438,38.960872],[121.50957,38.970324]]}},{"type":"Feature","properties":{"shape_id":"{}","direction_id":"{\"0\": 50}","headsign":"{}","duration_avg":120,"n_vehicles":50,"d":1200,"route_I_counts":"{\"2\": 50}","source":30,"target":31,"layer":"L","from":"大连机场(地铁站)","to":"大连虹港路(地铁站)"},"geometry":{"type":"LineString","coordinates":[[121.535438,38.960872],[121.538038,38.954928]]}},{"type":"Feature","properties":{"shape_id":"{}","direction_id":"{\"1\": 50}","headsign":"{}","duration_avg":120,"n_vehicles":50,"d":1200,"route_I_counts":"{\"2\": 50}","source":31,"target":30,"layer":"L","from":"大连虹港路(地铁站)","to":"大连机场(地铁站)"},"geometry":{"type":"LineString","coordinates":[[121.538038,38.954928],[121.535438,38.960872]]}},{"type":"Feature","properties":{"shape_id":"{}","direction_id":"{\"0\": 50}","headsign":"{}","duration_avg":120,"n_vehicles":50,"d":1200,"route_I_counts":"{\"2\": 50}","source":31,"target":32,"layer":"L","from":"大连虹港路(地铁站)","to":"大连虹锦路(地铁站)"},"geometry":{"type":"LineString","coordinates":[[121.538038,38.954928],[121.535053,38.946258]]}},{"type":"Feature","properties":{"shape_id":"{}","direction_id":"{\"1\": 50}","headsign":"{}","duration_avg":120,"n_vehicles":50,"d":1200,"route_I_counts":"{\"2\": 50}","source":32,"target":31,"layer":"L","from":"大连虹锦路(地铁站)","to":"大连虹港路(地铁站)"},"geometry":{"type":"LineString","coordinates":[[121.535053,38.946258],[121.538038,38.954928]]}},{"type":"Feature","properties":{"shape_id":"{}","direction_id":"{\"0\": 50}","headsign":"{}","duration_avg":180,"n_vehicles":50,"d":1800,"route_I_counts":"{\"2\": 50}","source":32,"target":33,"layer":"L","from":"大连虹锦路(地铁站)","to":"大连红旗西路(地铁站)"},"geometry":{"type":"LineString","coordinates":[[121.535053,38.946258],[121.528392,38.926892]]}},{"type":"Feature","properties":{"shape_id":"{}","direction_id":"{\"1\": 50}","headsign":"{}","duration_avg":180,"n_vehicles":50,"d":1800,"route_I_counts":"{\"2\": 50}","source":33,"target":32,"layer":"L","from":"大连红旗西路(地铁站)","to":"大连虹锦路(地铁站)"},"geometry":{"type":"LineString","coordinates":[[121.528392,38.926892],[121.535053,38.946258]]}},{"type":"Feature","properties":{"shape_id":"{}","direction_id":"{\"0\": 50}","headsign":"{}","duration_avg":120,"n_vehicles":50,"d":1200,"route_I_counts":"{\"2\": 50}","source":33,"target":34,"layer":"L","from":"大连红旗西路(地铁站)","to":"大连湾家(地铁站)"},"geometry":{"type":"LineString","coordinates":[[121.528392,38.926892],[121.536838,38.923703]]}},{"type":"Feature","properties":{"shape_id":"{}","direction_id":"{\"1\": 50}","headsign":"{}","duration_avg":120,"n_vehicles":50,"d":1200,"route_I_counts":"{\"2\": 50}","source":34,"target":33,"layer":"L","from":"大连湾家(地铁站)","to":"大连红旗西路(地铁站)"},"geometry":{"type":"LineString","coordinates":[[121.536838,38.923703],[121.528392,38.926892]]}},{"type":"Feature","properties":{"shape_id":"{}","direction_id":"{\"0\": 50}","headsign":"{}","duration_avg":120,"n_vehicles":50,"d":1200,"route_I_counts":"{\"2\": 50}","source":34,"target":35,"layer":"L","from":"大连湾家(地铁站)","to":"大连马栏广场(地铁站)"},"geometry":{"type":"LineString","coordinates":[[121.536838,38.923703],[121.549621,38.919262]]}},{"type":"Feature","properties":{"shape_id":"{}","direction_id":"{\"1\": 50}","headsign":"{}","duration_avg":120,"n_vehicles":50,"d":1200,"route_I_counts":"{\"2\": 50}","source":35,"target":34,"layer":"L","from":"大连马栏广场(地铁站)","to":"大连湾家(地铁站)"},"geometry":{"type":"LineString","coordinates":[[121.549621,38.919262],[121.536838,38.923703]]}},{"type":"Feature","properties":{"shape_id":"{}","direction_id":"{\"0\": 50}","headsign":"{}","duration_avg":120,"n_vehicles":50,"d":1200,"route_I_counts":"{\"2\": 50}","source":35,"target":36,"layer":"L","from":"大连马栏广场(地铁站)","to":"大连辽师大(地铁站)"},"geometry":{"type":"LineString","coordinates":[[121.549621,38.919262],[121.559098,38.915223]]}},{"type":"Feature","properties":{"shape_id":"{}","direction_id":"{\"1\": 50}","headsign":"{}","duration_avg":120,"n_vehicles":50,"d":1200,"route_I_counts":"{\"2\": 50}","source":36,"target":35,"layer":"L","from":"大连辽师大(地铁站)","to":"大连马栏广场(地铁站)"},"geometry":{"type":"LineString","coordinates":[[121.559098,38.915223],[121.549621,38.919262]]}},{"type":"Feature","properties":{"shape_id":"{}","direction_id":"{\"0\": 50}","headsign":"{}","duration_avg":120,"n_vehicles":50,"d":1200,"route_I_counts":"{\"2\": 50}","source":36,"target":37,"layer":"L","from":"大连辽师大(地铁站)","to":"大连交通大学(地铁站)"},"geometry":{"type":"LineString","coordinates":[[121.559098,38.915223],[121.566805,38.912106]]}},{"type":"Feature","properties":{"shape_id":"{}","direction_id":"{\"1\": 50}","headsign":"{}","duration_avg":120,"n_vehicles":50,"d":1200,"route_I_counts":"{\"2\": 50}","source":37,"target":36,"layer":"L","from":"大连交通大学(地铁站)","to":"大连辽师大(地铁站)"},"geometry":{"type":"LineString","coordinates":[[121.566805,38.912106],[121.559098,38.915223]]}},{"type":"Feature","properties":{"shape_id":"{}","direction_id":"{\"0\": 50}","headsign":"{}","duration_avg":180,"n_vehicles":50,"d":1800,"route_I_counts":"{\"2\": 50}","source":37,"target":12,"layer":"L","from":"大连交通大学(地铁站)","to":"大连西安路(地铁站)"},"geometry":{"type":"LineString","coordinates":[[121.566805,38.912106],[121.582376,38.908618]]}},{"type":"Feature","properties":{"shape_id":"{}","direction_id":"{\"1\": 50}","headsign":"{}","duration_avg":180,"n_vehicles":50,"d":1800,"route_I_counts":"{\"2\": 50}","source":12,"target":37,"layer":"L","from":"大连西安路(地铁站)","to":"大连交通大学(地铁站)"},"geometry":{"type":"LineString","coordinates":[[121.582376,38.908618],[121.566805,38.912106]]}},{"type":"Feature","properties":{"shape_id":"{}","direction_id":"{\"0\": 50}","headsign":"{}","duration_avg":180,"n_vehicles":50,"d":1800,"route_I_counts":"{\"2\": 50}","source":12,"target":38,"layer":"L","from":"大连西安路(地铁站)","to":"大连联合路(地铁站)"},"geometry":{"type":"LineString","coordinates":[[121.582376,38.908618],[121.591472,38.91328]]}},{"type":"Feature","properties":{"shape_id":"{}","direction_id":"{\"1\": 50}","headsign":"{}","duration_avg":180,"n_vehicles":50,"d":1800,"route_I_counts":"{\"2\": 50}","source":38,"target":12,"layer":"L","from":"大连联合路(地铁站)","to":"大连西安路(地铁站)"},"geometry":{"type":"LineString","coordinates":[[121.591472,38.91328],[121.582376,38.908618]]}},{"type":"Feature","properties":{"shape_id":"{}","direction_id":"{\"0\": 50}","headsign":"{}","duration_avg":180,"n_vehicles":50,"d":1800,"route_I_counts":"{\"2\": 50}","source":38,"target":39,"layer":"L","from":"大连联合路(地铁站)","to":"大连人民广场(地铁站)"},"geometry":{"type":"LineString","coordinates":[[121.591472,38.91328],[121.605398,38.909905]]}},{"type":"Feature","properties":{"shape_id":"{}","direction_id":"{\"1\": 50}","headsign":"{}","duration_avg":180,"n_vehicles":50,"d":1800,"route_I_counts":"{\"2\": 50}","source":39,"target":38,"layer":"L","from":"大连人民广场(地铁站)","to":"大连联合路(地铁站)"},"geometry":{"type":"LineString","coordinates":[[121.605398,38.909905],[121.591472,38.91328]]}},{"type":"Feature","properties":{"shape_id":"{}","direction_id":"{\"0\": 50}","headsign":"{}","duration_avg":120,"n_vehicles":50,"d":1200,"route_I_counts":"{\"2\": 50}","source":39,"target":40,"layer":"L","from":"大连人民广场(地铁站)","to":"大连一二九街(地铁站)"},"geometry":{"type":"LineString","coordinates":[[121.605398,38.909905],[121.617658,38.91223]]}},{"type":"Feature","properties":{"shape_id":"{}","direction_id":"{\"1\": 50}","headsign":"{}","duration_avg":120,"n_vehicles":50,"d":1200,"route_I_counts":"{\"2\": 50}","source":40,"target":39,"layer":"L","from":"大连一二九街(地铁站)","to":"大连人民广场(地铁站)"},"geometry":{"type":"LineString","coordinates":[[121.617658,38.91223],[121.605398,38.909905]]}},{"type":"Feature","properties":{"shape_id":"{}","direction_id":"{\"0\": 50}","headsign":"{}","duration_avg":120,"n_vehicles":50,"d":1200,"route_I_counts":"{\"2\": 50}","source":40,"target":41,"layer":"L","from":"大连一二九街(地铁站)","to":"大连青泥洼桥(地铁站)"},"geometry":{"type":"LineString","coordinates":[[121.617658,38.91223],[121.626125,38.915731]]}},{"type":"Feature","properties":{"shape_id":"{}","direction_id":"{\"1\": 50}","headsign":"{}","duration_avg":120,"n_vehicles":50,"d":1200,"route_I_counts":"{\"2\": 50}","source":41,"target":40,"layer":"L","from":"大连青泥洼桥(地铁站)","to":"大连一二九街(地铁站)"},"geometry":{"type":"LineString","coordinates":[[121.626125,38.915731],[121.617658,38.91223]]}},{"type":"Feature","properties":{"shape_id":"{}","direction_id":"{\"0\": 50}","headsign":"{}","duration_avg":120,"n_vehicles":50,"d":1200,"route_I_counts":"{\"2\": 50}","source":41,"target":42,"layer":"L","from":"大连青泥洼桥(地铁站)","to":"大连友好广场(地铁站)"},"geometry":{"type":"LineString","coordinates":[[121.626125,38.915731],[121.632663,38.918821]]}},{"type":"Feature","properties":{"shape_id":"{}","direction_id":"{\"1\": 50}","headsign":"{}","duration_avg":120,"n_vehicles":50,"d":1200,"route_I_counts":"{\"2\": 50}","source":42,"target":41,"layer":"L","from":"大连友好广场(地铁站)","to":"大连青泥洼桥(地铁站)"},"geometry":{"type":"LineString","coordinates":[[121.632663,38.918821],[121.626125,38.915731]]}},{"type":"Feature","properties":{"shape_id":"{}","direction_id":"{\"0\": 50}","headsign":"{}","duration_avg":120,"n_vehicles":50,"d":1200,"route_I_counts":"{\"2\": 50}","source":42,"target":43,"layer":"L","from":"大连友好广场(地铁站)","to":"大连中山广场(地铁站)"},"geometry":{"type":"LineString","coordinates":[[121.632663,38.918821],[121.638913,38.920735]]}},{"type":"Feature","properties":{"shape_id":"{}","direction_id":"{\"1\": 50}","headsign":"{}","duration_avg":120,"n_vehicles":50,"d":1200,"route_I_counts":"{\"2\": 50}","source":43,"target":42,"layer":"L","from":"大连中山广场(地铁站)","to":"大连友好广场(地铁站)"},"geometry":{"type":"LineString","coordinates":[[121.638913,38.920735],[121.632663,38.918821]]}},{"type":"Feature","properties":{"shape_id":"{}","direction_id":"{\"0\": 50}","headsign":"{}","duration_avg":120,"n_vehicles":50,"d":1200,"route_I_counts":"{\"2\": 50}","source":43,"target":44,"layer":"L","from":"大连中山广场(地铁站)","to":"大连港湾广场(地铁站)"},"geometry":{"type":"LineString","coordinates":[[121.638913,38.920735],[121.65516,38.925835]]}},{"type":"Feature","properties":{"shape_id":"{}","direction_id":"{\"1\": 50}","headsign":"{}","duration_avg":120,"n_vehicles":50,"d":1200,"route_I_counts":"{\"2\": 50}","source":44,"target":43,"layer":"L","from":"大连港湾广场(地铁站)","to":"大连中山广场(地铁站)"},"geometry":{"type":"LineString","coordinates":[[121.65516,38.925835],[121.638913,38.920735]]}},{"type":"Feature","properties":{"shape_id":"{}","direction_id":"{\"0\": 50}","headsign":"{}","duration_avg":180,"n_vehicles":50,"d":1800,"route_I_counts":"{\"2\": 50}","source":44,"target":45,"layer":"L","from":"大连港湾广场(地铁站)","to":"大连会议中心(地铁站)"},"geometry":{"type":"LineString","coordinates":[[121.65516,38.925835],[121.670428,38.923601]]}},{"type":"Feature","properties":{"shape_id":"{}","direction_id":"{\"1\": 50}","headsign":"{}","duration_avg":180,"n_vehicles":50,"d":1800,"route_I_counts":"{\"2\": 50}","source":45,"target":44,"layer":"L","from":"大连会议中心(地铁站)","to":"大连港湾广场(地铁站)"},"geometry":{"type":"LineString","coordinates":[[121.670428,38.923601],[121.65516,38.925835]]}},{"type":"Feature","properties":{"shape_id":"{}","direction_id":"{\"0\": 50}","headsign":"{}","duration_avg":120,"n_vehicles":50,"d":1200,"route_I_counts":"{\"2\": 50}","source":45,"target":46,"layer":"L","from":"大连会议中心(地铁站)","to":"大连东港(地铁站)"},"geometry":{"type":"LineString","coordinates":[[121.670428,38.923601],[121.684606,38.919248]]}},{"type":"Feature","properties":{"shape_id":"{}","direction_id":"{\"1\": 50}","headsign":"{}","duration_avg":120,"n_vehicles":50,"d":1200,"route_I_counts":"{\"2\": 50}","source":46,"target":45,"layer":"L","from":"大连东港(地铁站)","to":"大连会议中心(地铁站)"},"geometry":{"type":"LineString","coordinates":[[121.684606,38.919248],[121.670428,38.923601]]}},{"type":"Feature","properties":{"shape_id":"{}","direction_id":"{\"0\": 50}","headsign":"{}","duration_avg":120,"n_vehicles":50,"d":1200,"route_I_counts":"{\"2\": 50}","source":46,"target":47,"layer":"L","from":"大连东港(地铁站)","to":"大连东海(地铁站)"},"geometry":{"type":"LineString","coordinates":[[121.684606,38.919248],[121.697831,38.914246]]}},{"type":"Feature","properties":{"shape_id":"{}","direction_id":"{\"1\": 50}","headsign":"{}","duration_avg":120,"n_vehicles":50,"d":1200,"route_I_counts":"{\"2\": 50}","source":47,"target":46,"layer":"L","from":"大连东海(地铁站)","to":"大连东港(地铁站)"},"geometry":{"type":"LineString","coordinates":[[121.697831,38.914246],[121.684606,38.919248]]}},{"type":"Feature","properties":{"shape_id":"{}","direction_id":"{\"0\": 50}","headsign":"{}","duration_avg":120,"n_vehicles":50,"d":1200,"route_I_counts":"{\"2\": 50}","source":47,"target":48,"layer":"L","from":"大连东海(地铁站)","to":"大连海之韵(地铁站)"},"geometry":{"type":"LineString","coordinates":[[121.697831,38.914246],[121.710369,38.910063]]}},{"type":"Feature","properties":{"shape_id":"{}","direction_id":"{\"1\": 50}","headsign":"{}","duration_avg":120,"n_vehicles":50,"d":1200,"route_I_counts":"{\"2\": 50}","source":48,"target":47,"layer":"L","from":"大连海之韵(地铁站)","to":"大连东海(地铁站)"},"geometry":{"type":"LineString","coordinates":[[121.710369,38.910063],[121.697831,38.914246]]}},{"type":"Feature","properties":{"shape_id":"{}","direction_id":"{\"0\": 50}","headsign":"{}","duration_avg":1,"n_vehicles":50,"d":10,"route_I_counts":"{\"3\": 50}","source":49,"target":49,"layer":"L","from":"大连九里(地铁站)","to":"大连九里(地铁站)"},"geometry":{"type":"LineString","coordinates":[[121.736998,39.147298],[121.736998,39.147298]]}},{"type":"Feature","properties":{"shape_id":"{}","direction_id":"{\"0\": 50}","headsign":"{}","duration_avg":240,"n_vehicles":50,"d":2400,"route_I_counts":"{\"3\": 50}","source":49,"target":50,"layer":"L","from":"大连九里(地铁站)","to":"大连十九局(地铁站)"},"geometry":{"type":"LineString","coordinates":[[121.736998,39.147298],[121.725037,39.128456]]}},{"type":"Feature","properties":{"shape_id":"{}","direction_id":"{\"1\": 50}","headsign":"{}","duration_avg":240,"n_vehicles":50,"d":2400,"route_I_counts":"{\"3\": 50}","source":50,"target":49,"layer":"L","from":"大连十九局(地铁站)","to":"大连九里(地铁站)"},"geometry":{"type":"LineString","coordinates":[[121.725037,39.128456],[121.736998,39.147298]]}},{"type":"Feature","properties":{"shape_id":"{}","direction_id":"{\"0\": 50}","headsign":"{}","duration_avg":1,"n_vehicles":50,"d":10,"route_I_counts":"{\"3\": 50}","source":50,"target":50,"layer":"L","from":"大连十九局(地铁站)","to":"大连十九局(地铁站)"},"geometry":{"type":"LineString","coordinates":[[121.725037,39.128456],[121.725037,39.128456]]}},{"type":"Feature","properties":{"shape_id":"{}","direction_id":"{\"0\": 50}","headsign":"{}","duration_avg":240,"n_vehicles":50,"d":2400,"route_I_counts":"{\"3\": 50}","source":50,"target":51,"layer":"L","from":"大连十九局(地铁站)","to":"大连和平路(地铁站)"},"geometry":{"type":"LineString","coordinates":[[121.725037,39.128456],[121.720185,39.106658]]}},{"type":"Feature","properties":{"shape_id":"{}","direction_id":"{\"1\": 50}","headsign":"{}","duration_avg":240,"n_vehicles":50,"d":2400,"route_I_counts":"{\"3\": 50}","source":51,"target":50,"layer":"L","from":"大连和平路(地铁站)","to":"大连十九局(地铁站)"},"geometry":{"type":"LineString","coordinates":[[121.720185,39.106658],[121.725037,39.128456]]}},{"type":"Feature","properties":{"shape_id":"{}","direction_id":"{\"0\": 50}","headsign":"{}","duration_avg":120,"n_vehicles":50,"d":1200,"route_I_counts":"{\"3\": 50}","source":51,"target":51,"layer":"L","from":"大连和平路(地铁站)","to":"大连和平路(地铁站)"},"geometry":{"type":"LineString","coordinates":[[121.720185,39.106658],[121.720185,39.106658]]}},{"type":"Feature","properties":{"shape_id":"{}","direction_id":"{\"0\": 50}","headsign":"{}","duration_avg":120,"n_vehicles":50,"d":1200,"route_I_counts":"{\"3\": 50}","source":51,"target":52,"layer":"L","from":"大连和平路(地铁站)","to":"大连东山路(地铁站)"},"geometry":{"type":"LineString","coordinates":[[121.720185,39.106658],[121.732305,39.091156]]}},{"type":"Feature","properties":{"shape_id":"{}","direction_id":"{\"1\": 50}","headsign":"{}","duration_avg":120,"n_vehicles":50,"d":1200,"route_I_counts":"{\"3\": 50}","source":52,"target":51,"layer":"L","from":"大连东山路(地铁站)","to":"大连和平路(地铁站)"},"geometry":{"type":"LineString","coordinates":[[121.732305,39.091156],[121.720185,39.106658]]}},{"type":"Feature","properties":{"shape_id":"{}","direction_id":"{\"0\": 50}","headsign":"{}","duration_avg":1,"n_vehicles":50,"d":10,"route_I_counts":"{\"3\": 50}","source":52,"target":52,"layer":"L","from":"大连东山路(地铁站)","to":"大连东山路(地铁站)"},"geometry":{"type":"LineString","coordinates":[[121.732305,39.091156],[121.732305,39.091156]]}},{"type":"Feature","properties":{"shape_id":"{}","direction_id":"{\"0\": 50}","headsign":"{}","duration_avg":180,"n_vehicles":50,"d":1800,"route_I_counts":"{\"3\": 50}","source":52,"target":53,"layer":"L","from":"大连东山路(地铁站)","to":"大连鸿玮澜山(地铁站)"},"geometry":{"type":"LineString","coordinates":[[121.732305,39.091156],[121.746283,39.081065]]}},{"type":"Feature","properties":{"shape_id":"{}","direction_id":"{\"1\": 50}","headsign":"{}","duration_avg":180,"n_vehicles":50,"d":1800,"route_I_counts":"{\"3\": 50}","source":53,"target":52,"layer":"L","from":"大连鸿玮澜山(地铁站)","to":"大连东山路(地铁站)"},"geometry":{"type":"LineString","coordinates":[[121.746283,39.081065],[121.732305,39.091156]]}},{"type":"Feature","properties":{"shape_id":"{}","direction_id":"{\"0\": 50}","headsign":"{}","duration_avg":1,"n_vehicles":50,"d":10,"route_I_counts":"{\"3\": 50}","source":53,"target":53,"layer":"L","from":"大连鸿玮澜山(地铁站)","to":"大连鸿玮澜山(地铁站)"},"geometry":{"type":"LineString","coordinates":[[121.746283,39.081065],[121.746283,39.081065]]}},{"type":"Feature","properties":{"shape_id":"{}","direction_id":"{\"0\": 50}","headsign":"{}","duration_avg":180,"n_vehicles":50,"d":1800,"route_I_counts":"{\"3\": 50}","source":53,"target":54,"layer":"L","from":"大连鸿玮澜山(地铁站)","to":"大连通世泰(地铁站)"},"geometry":{"type":"LineString","coordinates":[[121.746283,39.081065],[121.76209,39.066914]]}},{"type":"Feature","properties":{"shape_id":"{}","direction_id":"{\"1\": 50}","headsign":"{}","duration_avg":180,"n_vehicles":50,"d":1800,"route_I_counts":"{\"3\": 50}","source":54,"target":53,"layer":"L","from":"大连通世泰(地铁站)","to":"大连鸿玮澜山(地铁站)"},"geometry":{"type":"LineString","coordinates":[[121.76209,39.066914],[121.746283,39.081065]]}},{"type":"Feature","properties":{"shape_id":"{}","direction_id":"{\"0\": 50}","headsign":"{}","duration_avg":1,"n_vehicles":50,"d":10,"route_I_counts":"{\"3\": 50}","source":54,"target":54,"layer":"L","from":"大连通世泰(地铁站)","to":"大连通世泰(地铁站)"},"geometry":{"type":"LineString","coordinates":[[121.76209,39.066914],[121.76209,39.066914]]}},{"type":"Feature","properties":{"shape_id":"{}","direction_id":"{\"0\": 50}","headsign":"{}","duration_avg":240,"n_vehicles":50,"d":2400,"route_I_counts":"{\"3\": 50}","source":54,"target":55,"layer":"L","from":"大连通世泰(地铁站)","to":"大连开发区(地铁站)"},"geometry":{"type":"LineString","coordinates":[[121.76209,39.066914],[121.769413,39.052564]]}},{"type":"Feature","properties":{"shape_id":"{}","direction_id":"{\"1\": 50}","headsign":"{}","duration_avg":240,"n_vehicles":50,"d":2400,"route_I_counts":"{\"3\": 50}","source":55,"target":54,"layer":"L","from":"大连开发区(地铁站)","to":"大连通世泰(地铁站)"},"geometry":{"type":"LineString","coordinates":[[121.769413,39.052564],[121.76209,39.066914]]}},{"type":"Feature","properties":{"shape_id":"{}","direction_id":"{\"0\": 50}","headsign":"{}","duration_avg":1,"n_vehicles":50,"d":10,"route_I_counts":"{\"3\": 50}","source":55,"target":55,"layer":"L","from":"大连开发区(地铁站)","to":"大连开发区(地铁站)"},"geometry":{"type":"LineString","coordinates":[[121.769413,39.052564],[121.769413,39.052564]]}},{"type":"Feature","properties":{"shape_id":"{}","direction_id":"{\"0\": 50}","headsign":"{}","duration_avg":240,"n_vehicles":50,"d":2400,"route_I_counts":"{\"4\": 50}","source":56,"target":57,"layer":"L","from":"大连大连站(地铁站)","to":"大连香炉礁(地铁站)"},"geometry":{"type":"LineString","coordinates":[[121.625233,38.922405],[121.598582,38.927862]]}},{"type":"Feature","properties":{"shape_id":"{}","direction_id":"{\"1\": 50}","headsign":"{}","duration_avg":240,"n_vehicles":50,"d":2400,"route_I_counts":"{\"4\": 50}","source":57,"target":56,"layer":"L","from":"大连香炉礁(地铁站)","to":"大连大连站(地铁站)"},"geometry":{"type":"LineString","coordinates":[[121.598582,38.927862],[121.625233,38.922405]]}},{"type":"Feature","properties":{"shape_id":"{}","direction_id":"{\"0\": 50}","headsign":"{}","duration_avg":150,"n_vehicles":50,"d":1500,"route_I_counts":"{\"4\": 50}","source":57,"target":58,"layer":"L","from":"大连香炉礁(地铁站)","to":"大连梭鱼湾(地铁站)"},"geometry":{"type":"LineString","coordinates":[[121.598582,38.927862],[121.596213,38.954662]]}},{"type":"Feature","properties":{"shape_id":"{}","direction_id":"{\"1\": 50}","headsign":"{}","duration_avg":150,"n_vehicles":50,"d":1500,"route_I_counts":"{\"4\": 50}","source":58,"target":57,"layer":"L","from":"大连梭鱼湾(地铁站)","to":"大连香炉礁(地铁站)"},"geometry":{"type":"LineString","coordinates":[[121.596213,38.954662],[121.598582,38.927862]]}},{"type":"Feature","properties":{"shape_id":"{}","direction_id":"{\"0\": 50}","headsign":"{}","duration_avg":150,"n_vehicles":50,"d":1500,"route_I_counts":"{\"4\": 50}","source":58,"target":59,"layer":"L","from":"大连梭鱼湾(地铁站)","to":"大连金家街(地铁站)"},"geometry":{"type":"LineString","coordinates":[[121.596213,38.954662],[121.596593,38.966998]]}},{"type":"Feature","properties":{"shape_id":"{}","direction_id":"{\"1\": 50}","headsign":"{}","duration_avg":150,"n_vehicles":50,"d":1500,"route_I_counts":"{\"4\": 50}","source":59,"target":58,"layer":"L","from":"大连金家街(地铁站)","to":"大连梭鱼湾(地铁站)"},"geometry":{"type":"LineString","coordinates":[[121.596593,38.966998],[121.596213,38.954662]]}},{"type":"Feature","properties":{"shape_id":"{}","direction_id":"{\"0\": 50}","headsign":"{}","duration_avg":300,"n_vehicles":50,"d":3000,"route_I_counts":"{\"4\": 50}","source":59,"target":60,"layer":"L","from":"大连金家街(地铁站)","to":"大连泉水(地铁站)"},"geometry":{"type":"LineString","coordinates":[[121.596593,38.966998],[121.611863,39.000525]]}},{"type":"Feature","properties":{"shape_id":"{}","direction_id":"{\"1\": 50}","headsign":"{}","duration_avg":300,"n_vehicles":50,"d":3000,"route_I_counts":"{\"4\": 50}","source":60,"target":59,"layer":"L","from":"大连泉水(地铁站)","to":"大连金家街(地铁站)"},"geometry":{"type":"LineString","coordinates":[[121.611863,39.000525],[121.596593,38.966998]]}},{"type":"Feature","properties":{"shape_id":"{}","direction_id":"{\"0\": 50}","headsign":"{}","duration_avg":240,"n_vehicles":50,"d":2400,"route_I_counts":"{\"4\": 50}","source":60,"target":61,"layer":"L","from":"大连泉水(地铁站)","to":"大连后盐(地铁站)"},"geometry":{"type":"LineString","coordinates":[[121.611863,39.000525],[121.632729,39.020495]]}},{"type":"Feature","properties":{"shape_id":"{}","direction_id":"{\"1\": 50}","headsign":"{}","duration_avg":240,"n_vehicles":50,"d":2400,"route_I_counts":"{\"4\": 50}","source":61,"target":60,"layer":"L","from":"大连后盐(地铁站)","to":"大连泉水(地铁站)"},"geometry":{"type":"LineString","coordinates":[[121.632729,39.020495],[121.611863,39.000525]]}},{"type":"Feature","properties":{"shape_id":"{}","direction_id":"{\"0\": 50}","headsign":"{}","duration_avg":300,"n_vehicles":50,"d":3000,"route_I_counts":"{\"4\": 50}","source":61,"target":62,"layer":"L","from":"大连后盐(地铁站)","to":"大连大连湾(地铁站)"},"geometry":{"type":"LineString","coordinates":[[121.632729,39.020495],[121.70465,39.03447]]}},{"type":"Feature","properties":{"shape_id":"{}","direction_id":"{\"1\": 50}","headsign":"{}","duration_avg":300,"n_vehicles":50,"d":3000,"route_I_counts":"{\"4\": 50}","source":62,"target":61,"layer":"L","from":"大连大连湾(地铁站)","to":"大连后盐(地铁站)"},"geometry":{"type":"LineString","coordinates":[[121.70465,39.03447],[121.632729,39.020495]]}},{"type":"Feature","properties":{"shape_id":"{}","direction_id":"{\"0\": 50}","headsign":"{}","duration_avg":240,"n_vehicles":50,"d":2400,"route_I_counts":"{\"4\": 50}","source":62,"target":63,"layer":"L","from":"大连大连湾(地铁站)","to":"大连金马路(地铁站)"},"geometry":{"type":"LineString","coordinates":[[121.70465,39.03447],[121.738552,39.048112]]}},{"type":"Feature","properties":{"shape_id":"{}","direction_id":"{\"1\": 50}","headsign":"{}","duration_avg":240,"n_vehicles":50,"d":2400,"route_I_counts":"{\"4\": 50}","source":63,"target":62,"layer":"L","from":"大连金马路(地铁站)","to":"大连大连湾(地铁站)"},"geometry":{"type":"LineString","coordinates":[[121.738552,39.048112],[121.70465,39.03447]]}},{"type":"Feature","properties":{"shape_id":"{}","direction_id":"{\"0\": 50}","headsign":"{}","duration_avg":240,"n_vehicles":50,"d":2400,"route_I_counts":"{\"4\": 50}","source":63,"target":55,"layer":"L","from":"大连金马路(地铁站)","to":"大连开发区(地铁站)"},"geometry":{"type":"LineString","coordinates":[[121.738552,39.048112],[121.769413,39.052564]]}},{"type":"Feature","properties":{"shape_id":"{}","direction_id":"{\"1\": 50}","headsign":"{}","duration_avg":240,"n_vehicles":50,"d":2400,"route_I_counts":"{\"4\": 50}","source":55,"target":63,"layer":"L","from":"大连开发区(地铁站)","to":"大连金马路(地铁站)"},"geometry":{"type":"LineString","coordinates":[[121.769413,39.052564],[121.738552,39.048112]]}},{"type":"Feature","properties":{"shape_id":"{}","direction_id":"{\"0\": 50}","headsign":"{}","duration_avg":180,"n_vehicles":50,"d":1800,"route_I_counts":"{\"4\": 50}","source":55,"target":64,"layer":"L","from":"大连开发区(地铁站)","to":"大连保税区(地铁站)"},"geometry":{"type":"LineString","coordinates":[[121.769413,39.052564],[121.797302,39.059372]]}},{"type":"Feature","properties":{"shape_id":"{}","direction_id":"{\"1\": 50}","headsign":"{}","duration_avg":180,"n_vehicles":50,"d":1800,"route_I_counts":"{\"4\": 50}","source":64,"target":55,"layer":"L","from":"大连保税区(地铁站)","to":"大连开发区(地铁站)"},"geometry":{"type":"LineString","coordinates":[[121.797302,39.059372],[121.769413,39.052564]]}},{"type":"Feature","properties":{"shape_id":"{}","direction_id":"{\"0\": 50}","headsign":"{}","duration_avg":360,"n_vehicles":50,"d":3600,"route_I_counts":"{\"4\": 50}","source":64,"target":65,"layer":"L","from":"大连保税区(地铁站)","to":"大连双D港(地铁站)"},"geometry":{"type":"LineString","coordinates":[[121.797302,39.059372],[121.866778,39.062535]]}},{"type":"Feature","properties":{"shape_id":"{}","direction_id":"{\"1\": 50}","headsign":"{}","duration_avg":360,"n_vehicles":50,"d":3600,"route_I_counts":"{\"4\": 50}","source":65,"target":64,"layer":"L","from":"大连双D港(地铁站)","to":"大连保税区(地铁站)"},"geometry":{"type":"LineString","coordinates":[[121.866778,39.062535],[121.797302,39.059372]]}},{"type":"Feature","properties":{"shape_id":"{}","direction_id":"{\"0\": 50}","headsign":"{}","duration_avg":240,"n_vehicles":50,"d":2400,"route_I_counts":"{\"4\": 50}","source":65,"target":66,"layer":"L","from":"大连双D港(地铁站)","to":"大连小窑湾(地铁站)"},"geometry":{"type":"LineString","coordinates":[[121.866778,39.062535],[121.894145,39.075777]]}},{"type":"Feature","properties":{"shape_id":"{}","direction_id":"{\"1\": 50}","headsign":"{}","duration_avg":240,"n_vehicles":50,"d":2400,"route_I_counts":"{\"4\": 50}","source":66,"target":65,"layer":"L","from":"大连小窑湾(地铁站)","to":"大连双D港(地铁站)"},"geometry":{"type":"LineString","coordinates":[[121.894145,39.075777],[121.866778,39.062535]]}},{"type":"Feature","properties":{"shape_id":"{}","direction_id":"{\"0\": 50}","headsign":"{}","duration_avg":540,"n_vehicles":50,"d":5400,"route_I_counts":"{\"4\": 50}","source":66,"target":67,"layer":"L","from":"大连小窑湾(地铁站)","to":"大连金石滩(地铁站)"},"geometry":{"type":"LineString","coordinates":[[121.894145,39.075777],[122.000883,39.085561]]}},{"type":"Feature","properties":{"shape_id":"{}","direction_id":"{\"1\": 50}","headsign":"{}","duration_avg":540,"n_vehicles":50,"d":5400,"route_I_counts":"{\"4\": 50}","source":67,"target":66,"layer":"L","from":"大连金石滩(地铁站)","to":"大连小窑湾(地铁站)"},"geometry":{"type":"LineString","coordinates":[[122.000883,39.085561],[121.894145,39.075777]]}},{"type":"Feature","properties":{"shape_id":"{}","direction_id":"{\"0\": 50}","headsign":"{}","duration_avg":240,"n_vehicles":50,"d":2400,"route_I_counts":"{\"5\": 50}","source":68,"target":61,"layer":"L","from":"大连后关(地铁站)","to":"大连后盐(地铁站)"},"geometry":{"type":"LineString","coordinates":[[121.631882,39.051749],[121.632729,39.020495]]}},{"type":"Feature","properties":{"shape_id":"{}","direction_id":"{\"1\": 50}","headsign":"{}","duration_avg":240,"n_vehicles":50,"d":2400,"route_I_counts":"{\"5\": 50}","source":61,"target":68,"layer":"L","from":"大连后盐(地铁站)","to":"大连后关(地铁站)"},"geometry":{"type":"LineString","coordinates":[[121.632729,39.020495],[121.631882,39.051749]]}},{"type":"Feature","properties":{"shape_id":"{}","direction_id":"{\"0\": 50}","headsign":"{}","duration_avg":120,"n_vehicles":50,"d":1200,"route_I_counts":"{\"5\": 50}","source":61,"target":69,"layer":"L","from":"大连后盐(地铁站)","to":"大连龙华路(地铁站)"},"geometry":{"type":"LineString","coordinates":[[121.632729,39.020495],[121.634356,39.013224]]}},{"type":"Feature","properties":{"shape_id":"{}","direction_id":"{\"1\": 50}","headsign":"{}","duration_avg":120,"n_vehicles":50,"d":1200,"route_I_counts":"{\"5\": 50}","source":69,"target":61,"layer":"L","from":"大连龙华路(地铁站)","to":"大连后盐(地铁站)"},"geometry":{"type":"LineString","coordinates":[[121.634356,39.013224],[121.632729,39.020495]]}},{"type":"Feature","properties":{"shape_id":"{}","direction_id":"{\"0\": 50}","headsign":"{}","duration_avg":120,"n_vehicles":50,"d":1200,"route_I_counts":"{\"5\": 50}","source":69,"target":70,"layer":"L","from":"大连龙华路(地铁站)","to":"大连泉水东(地铁站)"},"geometry":{"type":"LineString","coordinates":[[121.634356,39.013224],[121.631009,39.005362]]}},{"type":"Feature","properties":{"shape_id":"{}","direction_id":"{\"1\": 50}","headsign":"{}","duration_avg":120,"n_vehicles":50,"d":1200,"route_I_counts":"{\"5\": 50}","source":70,"target":69,"layer":"L","from":"大连泉水东(地铁站)","to":"大连龙华路(地铁站)"},"geometry":{"type":"LineString","coordinates":[[121.631009,39.005362],[121.634356,39.013224]]}},{"type":"Feature","properties":{"shape_id":"{}","direction_id":"{\"0\": 50}","headsign":"{}","duration_avg":120,"n_vehicles":50,"d":1200,"route_I_counts":"{\"5\": 50}","source":70,"target":71,"layer":"L","from":"大连泉水东(地铁站)","to":"大连中华东路(地铁站)"},"geometry":{"type":"LineString","coordinates":[[121.631009,39.005362],[121.634655,38.995268]]}},{"type":"Feature","properties":{"shape_id":"{}","direction_id":"{\"1\": 50}","headsign":"{}","duration_avg":120,"n_vehicles":50,"d":1200,"route_I_counts":"{\"5\": 50}","source":71,"target":70,"layer":"L","from":"大连中华东路(地铁站)","to":"大连泉水东(地铁站)"},"geometry":{"type":"LineString","coordinates":[[121.634655,38.995268],[121.631009,39.005362]]}},{"type":"Feature","properties":{"shape_id":"{}","direction_id":"{\"0\": 50}","headsign":"{}","duration_avg":180,"n_vehicles":50,"d":1800,"route_I_counts":"{\"5\": 50}","source":71,"target":72,"layer":"L","from":"大连中华东路(地铁站)","to":"大连甘北路(地铁站)"},"geometry":{"type":"LineString","coordinates":[[121.634655,38.995268],[121.626627,38.979447]]}},{"type":"Feature","properties":{"shape_id":"{}","direction_id":"{\"1\": 50}","headsign":"{}","duration_avg":180,"n_vehicles":50,"d":1800,"route_I_counts":"{\"5\": 50}","source":72,"target":71,"layer":"L","from":"大连甘北路(地铁站)","to":"大连中华东路(地铁站)"},"geometry":{"type":"LineString","coordinates":[[121.626627,38.979447],[121.634655,38.995268]]}},{"type":"Feature","properties":{"shape_id":"{}","direction_id":"{\"0\": 50}","headsign":"{}","duration_avg":60,"n_vehicles":50,"d":600,"route_I_counts":"{\"5\": 50}","source":72,"target":73,"layer":"L","from":"大连甘北路(地铁站)","to":"大连甘井子街(地铁站)"},"geometry":{"type":"LineString","coordinates":[[121.626627,38.979447],[121.622063,38.973161]]}},{"type":"Feature","properties":{"shape_id":"{}","direction_id":"{\"1\": 50}","headsign":"{}","duration_avg":60,"n_vehicles":50,"d":600,"route_I_counts":"{\"5\": 50}","source":73,"target":72,"layer":"L","from":"大连甘井子街(地铁站)","to":"大连甘北路(地铁站)"},"geometry":{"type":"LineString","coordinates":[[121.622063,38.973161],[121.626627,38.979447]]}},{"type":"Feature","properties":{"shape_id":"{}","direction_id":"{\"0\": 50}","headsign":"{}","duration_avg":180,"n_vehicles":50,"d":1800,"route_I_counts":"{\"5\": 50}","source":73,"target":58,"layer":"L","from":"大连甘井子街(地铁站)","to":"大连梭鱼湾(地铁站)"},"geometry":{"type":"LineString","coordinates":[[121.622063,38.973161],[121.596213,38.954662]]}},{"type":"Feature","properties":{"shape_id":"{}","direction_id":"{\"1\": 50}","headsign":"{}","duration_avg":180,"n_vehicles":50,"d":1800,"route_I_counts":"{\"5\": 50}","source":58,"target":73,"layer":"L","from":"大连梭鱼湾(地铁站)","to":"大连甘井子街(地铁站)"},"geometry":{"type":"LineString","coordinates":[[121.596213,38.954662],[121.622063,38.973161]]}},{"type":"Feature","properties":{"shape_id":"{}","direction_id":"{\"0\": 50}","headsign":"{}","duration_avg":120,"n_vehicles":50,"d":1200,"route_I_counts":"{\"5\": 50}","source":58,"target":74,"layer":"L","from":"大连梭鱼湾(地铁站)","to":"大连梭鱼湾南(地铁站)"},"geometry":{"type":"LineString","coordinates":[[121.596213,38.954662],[121.614561,38.952926]]}},{"type":"Feature","properties":{"shape_id":"{}","direction_id":"{\"1\": 50}","headsign":"{}","duration_avg":120,"n_vehicles":50,"d":1200,"route_I_counts":"{\"5\": 50}","source":74,"target":58,"layer":"L","from":"大连梭鱼湾南(地铁站)","to":"大连梭鱼湾(地铁站)"},"geometry":{"type":"LineString","coordinates":[[121.614561,38.952926],[121.596213,38.954662]]}},{"type":"Feature","properties":{"shape_id":"{}","direction_id":"{\"0\": 50}","headsign":"{}","duration_avg":240,"n_vehicles":50,"d":2400,"route_I_counts":"{\"5\": 50}","source":74,"target":56,"layer":"L","from":"大连梭鱼湾南(地铁站)","to":"大连大连站(地铁站)"},"geometry":{"type":"LineString","coordinates":[[121.614561,38.952926],[121.625233,38.922405]]}},{"type":"Feature","properties":{"shape_id":"{}","direction_id":"{\"1\": 50}","headsign":"{}","duration_avg":240,"n_vehicles":50,"d":2400,"route_I_counts":"{\"5\": 50}","source":56,"target":74,"layer":"L","from":"大连大连站(地铁站)","to":"大连梭鱼湾南(地铁站)"},"geometry":{"type":"LineString","coordinates":[[121.625233,38.922405],[121.614561,38.952926]]}},{"type":"Feature","properties":{"shape_id":"{}","direction_id":"{\"0\": 50}","headsign":"{}","duration_avg":120,"n_vehicles":50,"d":1200,"route_I_counts":"{\"5\": 50}","source":56,"target":41,"layer":"L","from":"大连大连站(地铁站)","to":"大连青泥洼桥(地铁站)"},"geometry":{"type":"LineString","coordinates":[[121.625233,38.922405],[121.626125,38.915731]]}},{"type":"Feature","properties":{"shape_id":"{}","direction_id":"{\"1\": 50}","headsign":"{}","duration_avg":120,"n_vehicles":50,"d":1200,"route_I_counts":"{\"5\": 50}","source":41,"target":56,"layer":"L","from":"大连青泥洼桥(地铁站)","to":"大连大连站(地铁站)"},"geometry":{"type":"LineString","coordinates":[[121.626125,38.915731],[121.625233,38.922405]]}},{"type":"Feature","properties":{"shape_id":"{}","direction_id":"{\"0\": 50}","headsign":"{}","duration_avg":60,"n_vehicles":50,"d":600,"route_I_counts":"{\"5\": 50}","source":41,"target":75,"layer":"L","from":"大连青泥洼桥(地铁站)","to":"大连劳动公园(地铁站)"},"geometry":{"type":"LineString","coordinates":[[121.626125,38.915731],[121.634787,38.909803]]}},{"type":"Feature","properties":{"shape_id":"{}","direction_id":"{\"1\": 50}","headsign":"{}","duration_avg":60,"n_vehicles":50,"d":600,"route_I_counts":"{\"5\": 50}","source":75,"target":41,"layer":"L","from":"大连劳动公园(地铁站)","to":"大连青泥洼桥(地铁站)"},"geometry":{"type":"LineString","coordinates":[[121.634787,38.909803],[121.626125,38.915731]]}},{"type":"Feature","properties":{"shape_id":"{}","direction_id":"{\"0\": 50}","headsign":"{}","duration_avg":120,"n_vehicles":50,"d":1200,"route_I_counts":"{\"5\": 50}","source":75,"target":76,"layer":"L","from":"大连劳动公园(地铁站)","to":"大连石葵路(地铁站)"},"geometry":{"type":"LineString","coordinates":[[121.634787,38.909803],[121.639861,38.899954]]}},{"type":"Feature","properties":{"shape_id":"{}","direction_id":"{\"1\": 50}","headsign":"{}","duration_avg":120,"n_vehicles":50,"d":1200,"route_I_counts":"{\"5\": 50}","source":76,"target":75,"layer":"L","from":"大连石葵路(地铁站)","to":"大连劳动公园(地铁站)"},"geometry":{"type":"LineString","coordinates":[[121.639861,38.899954],[121.634787,38.909803]]}},{"type":"Feature","properties":{"shape_id":"{}","direction_id":"{\"0\": 50}","headsign":"{}","duration_avg":120,"n_vehicles":50,"d":1200,"route_I_counts":"{\"5\": 50}","source":76,"target":77,"layer":"L","from":"大连石葵路(地铁站)","to":"大连青云街(地铁站)"},"geometry":{"type":"LineString","coordinates":[[121.639861,38.899954],[121.643814,38.893485]]}},{"type":"Feature","properties":{"shape_id":"{}","direction_id":"{\"1\": 50}","headsign":"{}","duration_avg":120,"n_vehicles":50,"d":1200,"route_I_counts":"{\"5\": 50}","source":77,"target":76,"layer":"L","from":"大连青云街(地铁站)","to":"大连石葵路(地铁站)"},"geometry":{"type":"LineString","coordinates":[[121.643814,38.893485],[121.639861,38.899954]]}},{"type":"Feature","properties":{"shape_id":"{}","direction_id":"{\"0\": 50}","headsign":"{}","duration_avg":120,"n_vehicles":50,"d":1200,"route_I_counts":"{\"5\": 50}","source":77,"target":78,"layer":"L","from":"大连青云街(地铁站)","to":"大连桃源(地铁站)"},"geometry":{"type":"LineString","coordinates":[[121.643814,38.893485],[121.646501,38.886511]]}},{"type":"Feature","properties":{"shape_id":"{}","direction_id":"{\"1\": 50}","headsign":"{}","duration_avg":120,"n_vehicles":50,"d":1200,"route_I_counts":"{\"5\": 50}","source":78,"target":77,"layer":"L","from":"大连桃源(地铁站)","to":"大连青云街(地铁站)"},"geometry":{"type":"LineString","coordinates":[[121.646501,38.886511],[121.643814,38.893485]]}},{"type":"Feature","properties":{"shape_id":"{}","direction_id":"{\"0\": 50}","headsign":"{}","duration_avg":120,"n_vehicles":50,"d":1200,"route_I_counts":"{\"5\": 50}","source":78,"target":79,"layer":"L","from":"大连桃源(地铁站)","to":"大连秀月街(地铁站)"},"geometry":{"type":"LineString","coordinates":[[121.646501,38.886511],[121.654467,38.88263]]}},{"type":"Feature","properties":{"shape_id":"{}","direction_id":"{\"1\": 50}","headsign":"{}","duration_avg":120,"n_vehicles":50,"d":1200,"route_I_counts":"{\"5\": 50}","source":79,"target":78,"layer":"L","from":"大连秀月街(地铁站)","to":"大连桃源(地铁站)"},"geometry":{"type":"LineString","coordinates":[[121.654467,38.88263],[121.646501,38.886511]]}},{"type":"Feature","properties":{"shape_id":"{}","direction_id":"{\"0\": 50}","headsign":"{}","duration_avg":180,"n_vehicles":50,"d":1800,"route_I_counts":"{\"5\": 50}","source":79,"target":80,"layer":"L","from":"大连秀月街(地铁站)","to":"大连虎滩公园(地铁站)"},"geometry":{"type":"LineString","coordinates":[[121.654467,38.88263],[121.668622,38.877265]]}},{"type":"Feature","properties":{"shape_id":"{}","direction_id":"{\"1\": 50}","headsign":"{}","duration_avg":180,"n_vehicles":50,"d":1800,"route_I_counts":"{\"5\": 50}","source":80,"target":79,"layer":"L","from":"大连虎滩公园(地铁站)","to":"大连秀月街(地铁站)"},"geometry":{"type":"LineString","coordinates":[[121.668622,38.877265],[121.654467,38.88263]]}},{"type":"Feature","properties":{"shape_id":"{}","direction_id":"{\"0\": 50}","headsign":"{}","duration_avg":120,"n_vehicles":50,"d":1200,"route_I_counts":"{\"5\": 50}","source":80,"target":81,"layer":"L","from":"大连虎滩公园(地铁站)","to":"大连虎滩新区(地铁站)"},"geometry":{"type":"LineString","coordinates":[[121.668622,38.877265],[121.68092,38.877106]]}},{"type":"Feature","properties":{"shape_id":"{}","direction_id":"{\"1\": 50}","headsign":"{}","duration_avg":120,"n_vehicles":50,"d":1200,"route_I_counts":"{\"5\": 50}","source":81,"target":80,"layer":"L","from":"大连虎滩新区(地铁站)","to":"大连虎滩公园(地铁站)"},"geometry":{"type":"LineString","coordinates":[[121.68092,38.877106],[121.668622,38.877265]]}},{"type":"Feature","properties":{"shape_id":"{}","direction_id":"{\"0\": 50}","headsign":"{}","duration_avg":240,"n_vehicles":50,"d":2400,"route_I_counts":"{\"6\": 50}","source":21,"target":82,"layer":"L","from":"大连河口(地铁站)","to":"大连蔡大岭(地铁站)"},"geometry":{"type":"LineString","coordinates":[[121.508443,38.842603],[121.489525,38.850027]]}},{"type":"Feature","properties":{"shape_id":"{}","direction_id":"{\"1\": 50}","headsign":"{}","duration_avg":240,"n_vehicles":50,"d":2400,"route_I_counts":"{\"6\": 50}","source":82,"target":21,"layer":"L","from":"大连蔡大岭(地铁站)","to":"大连河口(地铁站)"},"geometry":{"type":"LineString","coordinates":[[121.489525,38.850027],[121.508443,38.842603]]}},{"type":"Feature","properties":{"shape_id":"{}","direction_id":"{\"0\": 50}","headsign":"{}","duration_avg":300,"n_vehicles":50,"d":3000,"route_I_counts":"{\"6\": 50}","source":82,"target":83,"layer":"L","from":"大连蔡大岭(地铁站)","to":"大连黄泥川(地铁站)"},"geometry":{"type":"LineString","coordinates":[[121.489525,38.850027],[121.443593,38.854761]]}},{"type":"Feature","properties":{"shape_id":"{}","direction_id":"{\"1\": 50}","headsign":"{}","duration_avg":300,"n_vehicles":50,"d":3000,"route_I_counts":"{\"6\": 50}","source":83,"target":82,"layer":"L","from":"大连黄泥川(地铁站)","to":"大连蔡大岭(地铁站)"},"geometry":{"type":"LineString","coordinates":[[121.443593,38.854761],[121.489525,38.850027]]}},{"type":"Feature","properties":{"shape_id":"{}","direction_id":"{\"0\": 50}","headsign":"{}","duration_avg":360,"n_vehicles":50,"d":3600,"route_I_counts":"{\"6\": 50}","source":83,"target":84,"layer":"L","from":"大连黄泥川(地铁站)","to":"大连龙王塘(地铁站)"},"geometry":{"type":"LineString","coordinates":[[121.443593,38.854761],[121.397956,38.834665]]}},{"type":"Feature","properties":{"shape_id":"{}","direction_id":"{\"1\": 50}","headsign":"{}","duration_avg":360,"n_vehicles":50,"d":3600,"route_I_counts":"{\"6\": 50}","source":84,"target":83,"layer":"L","from":"大连龙王塘(地铁站)","to":"大连黄泥川(地铁站)"},"geometry":{"type":"LineString","coordinates":[[121.397956,38.834665],[121.443593,38.854761]]}},{"type":"Feature","properties":{"shape_id":"{}","direction_id":"{\"0\": 50}","headsign":"{}","duration_avg":480,"n_vehicles":50,"d":4800,"route_I_counts":"{\"6\": 50}","source":84,"target":85,"layer":"L","from":"大连龙王塘(地铁站)","to":"大连塔河湾(地铁站)"},"geometry":{"type":"LineString","coordinates":[[121.397956,38.834665],[121.336199,38.822498]]}},{"type":"Feature","properties":{"shape_id":"{}","direction_id":"{\"1\": 50}","headsign":"{}","duration_avg":480,"n_vehicles":50,"d":4800,"route_I_counts":"{\"6\": 50}","source":85,"target":84,"layer":"L","from":"大连塔河湾(地铁站)","to":"大连龙王塘(地铁站)"},"geometry":{"type":"LineString","coordinates":[[121.336199,38.822498],[121.397956,38.834665]]}},{"type":"Feature","properties":{"shape_id":"{}","direction_id":"{\"0\": 50}","headsign":"{}","duration_avg":540,"n_vehicles":50,"d":5400,"route_I_counts":"{\"6\": 50}","source":85,"target":86,"layer":"L","from":"大连塔河湾(地铁站)","to":"大连旅顺(地铁站)"},"geometry":{"type":"LineString","coordinates":[[121.336199,38.822498],[121.247637,38.843001]]}},{"type":"Feature","properties":{"shape_id":"{}","direction_id":"{\"1\": 50}","headsign":"{}","duration_avg":540,"n_vehicles":50,"d":5400,"route_I_counts":"{\"6\": 50}","source":86,"target":85,"layer":"L","from":"大连旅顺(地铁站)","to":"大连塔河湾(地铁站)"},"geometry":{"type":"LineString","coordinates":[[121.247637,38.843001],[121.336199,38.822498]]}},{"type":"Feature","properties":{"shape_id":"{}","direction_id":"{\"0\": 50}","headsign":"{}","duration_avg":540,"n_vehicles":50,"d":5400,"route_I_counts":"{\"6\": 50}","source":86,"target":87,"layer":"L","from":"大连旅顺(地铁站)","to":"大连铁山(地铁站)"},"geometry":{"type":"LineString","coordinates":[[121.247637,38.843001],[121.172394,38.801026]]}},{"type":"Feature","properties":{"shape_id":"{}","direction_id":"{\"1\": 50}","headsign":"{}","duration_avg":540,"n_vehicles":50,"d":5400,"route_I_counts":"{\"6\": 50}","source":87,"target":86,"layer":"L","from":"大连铁山(地铁站)","to":"大连旅顺(地铁站)"},"geometry":{"type":"LineString","coordinates":[[121.172394,38.801026],[121.247637,38.843001]]}},{"type":"Feature","properties":{"shape_id":"{}","direction_id":"{\"0\": 50}","headsign":"{}","duration_avg":240,"n_vehicles":50,"d":2400,"route_I_counts":"{\"6\": 50}","source":87,"target":88,"layer":"L","from":"大连铁山(地铁站)","to":"大连旅顺新港(地铁站)"},"geometry":{"type":"LineString","coordinates":[[121.172394,38.801026],[121.139654,38.80584]]}},{"type":"Feature","properties":{"shape_id":"{}","direction_id":"{\"1\": 50}","headsign":"{}","duration_avg":240,"n_vehicles":50,"d":2400,"route_I_counts":"{\"6\": 50}","source":88,"target":87,"layer":"L","from":"大连旅顺新港(地铁站)","to":"大连铁山(地铁站)"},"geometry":{"type":"LineString","coordinates":[[121.139654,38.80584],[121.172394,38.801026]]}},{"type":"Feature","properties":{"shape_id":"{}","direction_id":"{\"0\": 50}","headsign":"{}","duration_avg":300,"n_vehicles":50,"d":3000,"route_I_counts":"{\"7\": 50}","source":49,"target":89,"layer":"L","from":"大连九里(地铁站)","to":"大连十三里(地铁站)"},"geometry":{"type":"LineString","coordinates":[[121.736998,39.147298],[121.753261,39.171661]]}},{"type":"Feature","properties":{"shape_id":"{}","direction_id":"{\"1\": 50}","headsign":"{}","duration_avg":300,"n_vehicles":50,"d":3000,"route_I_counts":"{\"7\": 50}","source":89,"target":49,"layer":"L","from":"大连十三里(地铁站)","to":"大连九里(地铁站)"},"geometry":{"type":"LineString","coordinates":[[121.753261,39.171661],[121.736998,39.147298]]}},{"type":"Feature","properties":{"shape_id":"{}","direction_id":"{\"0\": 50}","headsign":"{}","duration_avg":180,"n_vehicles":50,"d":1800,"route_I_counts":"{\"7\": 50}","source":89,"target":90,"layer":"L","from":"大连十三里(地铁站)","to":"大连二十里堡(地铁站)"},"geometry":{"type":"LineString","coordinates":[[121.753261,39.171661],[121.751611,39.195589]]}},{"type":"Feature","properties":{"shape_id":"{}","direction_id":"{\"1\": 50}","headsign":"{}","duration_avg":180,"n_vehicles":50,"d":1800,"route_I_counts":"{\"7\": 50}","source":90,"target":89,"layer":"L","from":"大连二十里堡(地铁站)","to":"大连十三里(地铁站)"},"geometry":{"type":"LineString","coordinates":[[121.751611,39.195589],[121.753261,39.171661]]}},{"type":"Feature","properties":{"shape_id":"{}","direction_id":"{\"0\": 50}","headsign":"{}","duration_avg":180,"n_vehicles":50,"d":1800,"route_I_counts":"{\"7\": 50}","source":90,"target":91,"layer":"L","from":"大连二十里堡(地铁站)","to":"大连三十里堡(地铁站)"},"geometry":{"type":"LineString","coordinates":[[121.751611,39.195589],[121.779681,39.264]]}},{"type":"Feature","properties":{"shape_id":"{}","direction_id":"{\"1\": 50}","headsign":"{}","duration_avg":180,"n_vehicles":50,"d":1800,"route_I_counts":"{\"7\": 50}","source":91,"target":90,"layer":"L","from":"大连三十里堡(地铁站)","to":"大连二十里堡(地铁站)"},"geometry":{"type":"LineString","coordinates":[[121.779681,39.264],[121.751611,39.195589]]}},{"type":"Feature","properties":{"shape_id":"{}","direction_id":"{\"0\": 50}","headsign":"{}","duration_avg":420,"n_vehicles":50,"d":4200,"route_I_counts":"{\"7\": 50}","source":91,"target":92,"layer":"L","from":"大连三十里堡(地铁站)","to":"大连石河黄旗(地铁站)"},"geometry":{"type":"LineString","coordinates":[[121.779681,39.264],[121.81585,39.326239]]}},{"type":"Feature","properties":{"shape_id":"{}","direction_id":"{\"1\": 50}","headsign":"{}","duration_avg":420,"n_vehicles":50,"d":4200,"route_I_counts":"{\"7\": 50}","source":92,"target":91,"layer":"L","from":"大连石河黄旗(地铁站)","to":"大连三十里堡(地铁站)"},"geometry":{"type":"LineString","coordinates":[[121.81585,39.326239],[121.779681,39.264]]}},{"type":"Feature","properties":{"shape_id":"{}","direction_id":"{\"0\": 50}","headsign":"{}","duration_avg":240,"n_vehicles":50,"d":2400,"route_I_counts":"{\"7\": 50}","source":92,"target":93,"layer":"L","from":"大连石河黄旗(地铁站)","to":"大连普湾体育场(地铁站)"},"geometry":{"type":"LineString","coordinates":[[121.81585,39.326239],[121.83419,39.35696]]}},{"type":"Feature","properties":{"shape_id":"{}","direction_id":"{\"1\": 50}","headsign":"{}","duration_avg":240,"n_vehicles":50,"d":2400,"route_I_counts":"{\"7\": 50}","source":93,"target":92,"layer":"L","from":"大连普湾体育场(地铁站)","to":"大连石河黄旗(地铁站)"},"geometry":{"type":"LineString","coordinates":[[121.83419,39.35696],[121.81585,39.326239]]}},{"type":"Feature","properties":{"shape_id":"{}","direction_id":"{\"0\": 50}","headsign":"{}","duration_avg":180,"n_vehicles":50,"d":1800,"route_I_counts":"{\"7\": 50}","source":93,"target":94,"layer":"L","from":"大连普湾体育场(地铁站)","to":"大连石河北海(地铁站)"},"geometry":{"type":"LineString","coordinates":[[121.83419,39.35696],[121.85726,39.35842]]}},{"type":"Feature","properties":{"shape_id":"{}","direction_id":"{\"1\": 50}","headsign":"{}","duration_avg":180,"n_vehicles":50,"d":1800,"route_I_counts":"{\"7\": 50}","source":94,"target":93,"layer":"L","from":"大连石河北海(地铁站)","to":"大连普湾体育场(地铁站)"},"geometry":{"type":"LineString","coordinates":[[121.85726,39.35842],[121.83419,39.35696]]}},{"type":"Feature","properties":{"shape_id":"{}","direction_id":"{\"0\": 50}","headsign":"{}","duration_avg":240,"n_vehicles":50,"d":2400,"route_I_counts":"{\"7\": 50}","source":94,"target":95,"layer":"L","from":"大连石河北海(地铁站)","to":"大连长店堡(地铁站)"},"geometry":{"type":"LineString","coordinates":[[121.85726,39.35842],[121.892161,39.378531]]}},{"type":"Feature","properties":{"shape_id":"{}","direction_id":"{\"1\": 50}","headsign":"{}","duration_avg":240,"n_vehicles":50,"d":2400,"route_I_counts":"{\"7\": 50}","source":95,"target":94,"layer":"L","from":"大连长店堡(地铁站)","to":"大连石河北海(地铁站)"},"geometry":{"type":"LineString","coordinates":[[121.892161,39.378531],[121.85726,39.35842]]}},{"type":"Feature","properties":{"shape_id":"{}","direction_id":"{\"0\": 50}","headsign":"{}","duration_avg":180,"n_vehicles":50,"d":1800,"route_I_counts":"{\"7\": 50}","source":95,"target":96,"layer":"L","from":"大连长店堡(地铁站)","to":"大连大医三院(地铁站)"},"geometry":{"type":"LineString","coordinates":[[121.892161,39.378531],[121.929139,39.385339]]}},{"type":"Feature","properties":{"shape_id":"{}","direction_id":"{\"1\": 50}","headsign":"{}","duration_avg":180,"n_vehicles":50,"d":1800,"route_I_counts":"{\"7\": 50}","source":96,"target":95,"layer":"L","from":"大连大医三院(地铁站)","to":"大连长店堡(地铁站)"},"geometry":{"type":"LineString","coordinates":[[121.929139,39.385339],[121.892161,39.378531]]}},{"type":"Feature","properties":{"shape_id":"{}","direction_id":"{\"0\": 50}","headsign":"{}","duration_avg":180,"n_vehicles":50,"d":1800,"route_I_counts":"{\"7\": 50}","source":96,"target":97,"layer":"L","from":"大连大医三院(地铁站)","to":"大连海湾高中(地铁站)"},"geometry":{"type":"LineString","coordinates":[[121.929139,39.385339],[121.94172,39.39781]]}},{"type":"Feature","properties":{"shape_id":"{}","direction_id":"{\"1\": 50}","headsign":"{}","duration_avg":180,"n_vehicles":50,"d":1800,"route_I_counts":"{\"7\": 50}","source":97,"target":96,"layer":"L","from":"大连海湾高中(地铁站)","to":"大连大医三院(地铁站)"},"geometry":{"type":"LineString","coordinates":[[121.94172,39.39781],[121.929139,39.385339]]}},{"type":"Feature","properties":{"shape_id":"{}","direction_id":"{\"0\": 50}","headsign":"{}","duration_avg":120,"n_vehicles":50,"d":1200,"route_I_counts":"{\"7\": 50}","source":97,"target":98,"layer":"L","from":"大连海湾高中(地铁站)","to":"大连普兰店开发区(地铁站)"},"geometry":{"type":"LineString","coordinates":[[121.94172,39.39781],[121.944361,39.411189]]}},{"type":"Feature","properties":{"shape_id":"{}","direction_id":"{\"1\": 50}","headsign":"{}","duration_avg":120,"n_vehicles":50,"d":1200,"route_I_counts":"{\"7\": 50}","source":98,"target":97,"layer":"L","from":"大连普兰店开发区(地铁站)","to":"大连海湾高中(地铁站)"},"geometry":{"type":"LineString","coordinates":[[121.944361,39.411189],[121.94172,39.39781]]}},{"type":"Feature","properties":{"shape_id":"{}","direction_id":"{\"0\": 50}","headsign":"{}","duration_avg":240,"n_vehicles":50,"d":2400,"route_I_counts":"{\"7\": 50}","source":98,"target":99,"layer":"L","from":"大连普兰店开发区(地铁站)","to":"大连普兰店振兴街(地铁站)"},"geometry":{"type":"LineString","coordinates":[[121.944361,39.411189],[121.919119,39.430969]]}},{"type":"Feature","properties":{"shape_id":"{}","direction_id":"{\"1\": 50}","headsign":"{}","duration_avg":240,"n_vehicles":50,"d":2400,"route_I_counts":"{\"7\": 50}","source":99,"target":98,"layer":"L","from":"大连普兰店振兴街(地铁站)","to":"大连普兰店开发区(地铁站)"},"geometry":{"type":"LineString","coordinates":[[121.919119,39.430969],[121.944361,39.411189]]}}]}