{"type":"FeatureCollection","features":[{"type":"Feature","geometry":{"type":"Point","coordinates":[113.666532,22.862226]},"properties":{"name":"东莞虎门火车站(地铁站)","original_ids":"[1]","id":0,"layer":"stop"}},{"type":"Feature","geometry":{"type":"Point","coordinates":[113.656459,22.905273]},"properties":{"name":"东莞展览中心(地铁站)","original_ids":"[2]","id":1,"layer":"stop"}},{"type":"Feature","geometry":{"type":"Point","coordinates":[113.659103,22.929086]},"properties":{"name":"东莞珊美(地铁站)","original_ids":"[3]","id":2,"layer":"stop"}},{"type":"Feature","geometry":{"type":"Point","coordinates":[113.668479,22.943824]},"properties":{"name":"东莞寮厦(地铁站)","original_ids":"[4]","id":3,"layer":"stop"}},{"type":"Feature","geometry":{"type":"Point","coordinates":[113.685064,22.960509]},"properties":{"name":"东莞陈屋(地铁站)","original_ids":"[5]","id":4,"layer":"stop"}},{"type":"Feature","geometry":{"type":"Point","coordinates":[113.723718,22.980822]},"properties":{"name":"东莞蛤地(地铁站)","original_ids":"[6]","id":5,"layer":"stop"}},{"type":"Feature","geometry":{"type":"Point","coordinates":[113.741701,22.99664]},"properties":{"name":"东莞西平(地铁站)","original_ids":"[7]","id":6,"layer":"stop"}},{"type":"Feature","geometry":{"type":"Point","coordinates":[113.753979,23.013102]},"properties":{"name":"东莞鸿福路(地铁站)","original_ids":"[8]","id":7,"layer":"stop"}},{"type":"Feature","geometry":{"type":"Point","coordinates":[113.762529,23.022681]},"properties":{"name":"东莞旗峰公园(地铁站)","original_ids":"[9]","id":8,"layer":"stop"}},{"type":"Feature","geometry":{"type":"Point","coordinates":[113.77124,23.03539]},"properties":{"name":"东莞东城(地铁站)","original_ids":"[10]","id":9,"layer":"stop"}},{"type":"Feature","geometry":{"type":"Point","coordinates":[113.773516,23.050048]},"properties":{"name":"东莞天宝(地铁站)","original_ids":"[11]","id":10,"layer":"stop"}},{"type":"Feature","geometry":{"type":"Point","coordinates":[113.783159,23.065552]},"properties":{"name":"东莞下桥(地铁站)","original_ids":"[12]","id":11,"layer":"stop"}},{"type":"Feature","geometry":{"type":"Point","coordinates":[113.80915,23.083034]},"properties":{"name":"东莞榴花公园(地铁站)","original_ids":"[13]","id":12,"layer":"stop"}},{"type":"Feature","geometry":{"type":"Point","coordinates":[113.840079,23.082517]},"properties":{"name":"东莞茶山(地铁站)","original_ids":"[14]","id":13,"layer":"stop"}},{"type":"Feature","geometry":{"type":"Point","coordinates":[113.855219,23.091469]},"properties":{"name":"东莞东莞火车站(地铁站)","original_ids":"[15]","id":14,"layer":"stop"}},{"type":"Feature","properties":{"shape_id":"{}","direction_id":"{\"0\": 50}","headsign":"{}","duration_avg":240,"n_vehicles":50,"d":2400,"route_I_counts":"{\"1\": 50}","source":0,"target":1,"layer":"L","from":"东莞虎门火车站(地铁站)","to":"东莞展览中心(地铁站)"},"geometry":{"type":"LineString","coordinates":[[113.666532,22.862226],[113.656459,22.905273]]}},{"type":"Feature","properties":{"shape_id":"{}","direction_id":"{\"1\": 50}","headsign":"{}","duration_avg":240,"n_vehicles":50,"d":2400,"route_I_counts":"{\"1\": 50}","source":1,"target":0,"layer":"L","from":"东莞展览中心(地铁站)","to":"东莞虎门火车站(地铁站)"},"geometry":{"type":"LineString","coordinates":[[113.656459,22.905273],[113.666532,22.862226]]}},{"type":"Feature","properties":{"shape_id":"{}","direction_id":"{\"0\": 50}","headsign":"{}","duration_avg":180,"n_vehicles":50,"d":1800,"route_I_counts":"{\"1\": 50}","source":1,"target":2,"layer":"L","from":"东莞展览中心(地铁站)","to":"东莞珊美(地铁站)"},"geometry":{"type":"LineString","coordinates":[[113.656459,22.905273],[113.659103,22.929086]]}},{"type":"Feature","properties":{"shape_id":"{}","direction_id":"{\"1\": 50}","headsign":"{}","duration_avg":180,"n_vehicles":50,"d":1800,"route_I_counts":"{\"1\": 50}","source":2,"target":1,"layer":"L","from":"东莞珊美(地铁站)","to":"东莞展览中心(地铁站)"},"geometry":{"type":"LineString","coordinates":[[113.659103,22.929086],[113.656459,22.905273]]}},{"type":"Feature","properties":{"shape_id":"{}","direction_id":"{\"0\": 50}","headsign":"{}","duration_avg":180,"n_vehicles":50,"d":1800,"route_I_counts":"{\"1\": 50}","source":2,"target":3,"layer":"L","from":"东莞珊美(地铁站)","to":"东莞寮厦(地铁站)"},"geometry":{"type":"LineString","coordinates":[[113.659103,22.929086],[113.668479,22.943824]]}},{"type":"Feature","properties":{"shape_id":"{}","direction_id":"{\"1\": 50}","headsign":"{}","duration_avg":180,"n_vehicles":50,"d":1800,"route_I_counts":"{\"1\": 50}","source":3,"target":2,"layer":"L","from":"东莞寮厦(地铁站)","to":"东莞珊美(地铁站)"},"geometry":{"type":"LineString","coordinates":[[113.668479,22.943824],[113.659103,22.929086]]}},{"type":"Feature","properties":{"shape_id":"{}","direction_id":"{\"0\": 50}","headsign":"{}","duration_avg":180,"n_vehicles":50,"d":1800,"route_I_counts":"{\"1\": 50}","source":3,"target":4,"layer":"L","from":"东莞寮厦(地铁站)","to":"东莞陈屋(地铁站)"},"geometry":{"type":"LineString","coordinates":[[113.668479,22.943824],[113.685064,22.960509]]}},{"type":"Feature","properties":{"shape_id":"{}","direction_id":"{\"1\": 50}","headsign":"{}","duration_avg":180,"n_vehicles":50,"d":1800,"route_I_counts":"{\"1\": 50}","source":4,"target":3,"layer":"L","from":"东莞陈屋(地铁站)","to":"东莞寮厦(地铁站)"},"geometry":{"type":"LineString","coordinates":[[113.685064,22.960509],[113.668479,22.943824]]}},{"type":"Feature","properties":{"shape_id":"{}","direction_id":"{\"0\": 50}","headsign":"{}","duration_avg":240,"n_vehicles":50,"d":2400,"route_I_counts":"{\"1\": 50}","source":4,"target":5,"layer":"L","from":"东莞陈屋(地铁站)","to":"东莞蛤地(地铁站)"},"geometry":{"type":"LineString","coordinates":[[113.685064,22.960509],[113.723718,22.980822]]}},{"type":"Feature","properties":{"shape_id":"{}","direction_id":"{\"1\": 50}","headsign":"{}","duration_avg":240,"n_vehicles":50,"d":2400,"route_I_counts":"{\"1\": 50}","source":5,"target":4,"layer":"L","from":"东莞蛤地(地铁站)","to":"东莞陈屋(地铁站)"},"geometry":{"type":"LineString","coordinates":[[113.723718,22.980822],[113.685064,22.960509]]}},{"type":"Feature","properties":{"shape_id":"{}","direction_id":"{\"0\": 50}","headsign":"{}","duration_avg":180,"n_vehicles":50,"d":1800,"route_I_counts":"{\"1\": 50}","source":5,"target":6,"layer":"L","from":"东莞蛤地(地铁站)","to":"东莞西平(地铁站)"},"geometry":{"type":"LineString","coordinates":[[113.723718,22.980822],[113.741701,22.99664]]}},{"type":"Feature","properties":{"shape_id":"{}","direction_id":"{\"1\": 50}","headsign":"{}","duration_avg":180,"n_vehicles":50,"d":1800,"route_I_counts":"{\"1\": 50}","source":6,"target":5,"layer":"L","from":"东莞西平(地铁站)","to":"东莞蛤地(地铁站)"},"geometry":{"type":"LineString","coordinates":[[113.741701,22.99664],[113.723718,22.980822]]}},{"type":"Feature","properties":{"shape_id":"{}","direction_id":"{\"0\": 50}","headsign":"{}","duration_avg":180,"n_vehicles":50,"d":1800,"route_I_counts":"{\"1\": 50}","source":6,"target":7,"layer":"L","from":"东莞西平(地铁站)","to":"东莞鸿福路(地铁站)"},"geometry":{"type":"LineString","coordinates":[[113.741701,22.99664],[113.753979,23.013102]]}},{"type":"Feature","properties":{"shape_id":"{}","direction_id":"{\"1\": 50}","headsign":"{}","duration_avg":180,"n_vehicles":50,"d":1800,"route_I_counts":"{\"1\": 50}","source":7,"target":6,"layer":"L","from":"东莞鸿福路(地铁站)","to":"东莞西平(地铁站)"},"geometry":{"type":"LineString","coordinates":[[113.753979,23.013102],[113.741701,22.99664]]}},{"type":"Feature","properties":{"shape_id":"{}","direction_id":"{\"0\": 50}","headsign":"{}","duration_avg":120,"n_vehicles":50,"d":1200,"route_I_counts":"{\"1\": 50}","source":7,"target":8,"layer":"L","from":"东莞鸿福路(地铁站)","to":"东莞旗峰公园(地铁站)"},"geometry":{"type":"LineString","coordinates":[[113.753979,23.013102],[113.762529,23.022681]]}},{"type":"Feature","properties":{"shape_id":"{}","direction_id":"{\"1\": 50}","headsign":"{}","duration_avg":120,"n_vehicles":50,"d":1200,"route_I_counts":"{\"1\": 50}","source":8,"target":7,"layer":"L","from":"东莞旗峰公园(地铁站)","to":"东莞鸿福路(地铁站)"},"geometry":{"type":"LineString","coordinates":[[113.762529,23.022681],[113.753979,23.013102]]}},{"type":"Feature","properties":{"shape_id":"{}","direction_id":"{\"0\": 50}","headsign":"{}","duration_avg":180,"n_vehicles":50,"d":1800,"route_I_counts":"{\"1\": 50}","source":8,"target":9,"layer":"L","from":"东莞旗峰公园(地铁站)","to":"东莞东城(地铁站)"},"geometry":{"type":"LineString","coordinates":[[113.762529,23.022681],[113.77124,23.03539]]}},{"type":"Feature","properties":{"shape_id":"{}","direction_id":"{\"1\": 50}","headsign":"{}","duration_avg":180,"n_vehicles":50,"d":1800,"route_I_counts":"{\"1\": 50}","source":9,"target":8,"layer":"L","from":"东莞东城(地铁站)","to":"东莞旗峰公园(地铁站)"},"geometry":{"type":"LineString","coordinates":[[113.77124,23.03539],[113.762529,23.022681]]}},{"type":"Feature","properties":{"shape_id":"{}","direction_id":"{\"0\": 50}","headsign":"{}","duration_avg":180,"n_vehicles":50,"d":1800,"route_I_counts":"{\"1\": 50}","source":9,"target":10,"layer":"L","from":"东莞东城(地铁站)","to":"东莞天宝(地铁站)"},"geometry":{"type":"LineString","coordinates":[[113.77124,23.03539],[113.773516,23.050048]]}},{"type":"Feature","properties":{"shape_id":"{}","direction_id":"{\"1\": 50}","headsign":"{}","duration_avg":180,"n_vehicles":50,"d":1800,"route_I_counts":"{\"1\": 50}","source":10,"target":9,"layer":"L","from":"东莞天宝(地铁站)","to":"东莞东城(地铁站)"},"geometry":{"type":"LineString","coordinates":[[113.773516,23.050048],[113.77124,23.03539]]}},{"type":"Feature","properties":{"shape_id":"{}","direction_id":"{\"0\": 50}","headsign":"{}","duration_avg":120,"n_vehicles":50,"d":1200,"route_I_counts":"{\"1\": 50}","source":10,"target":11,"layer":"L","from":"东莞天宝(地铁站)","to":"东莞下桥(地铁站)"},"geometry":{"type":"LineString","coordinates":[[113.773516,23.050048],[113.783159,23.065552]]}},{"type":"Feature","properties":{"shape_id":"{}","direction_id":"{\"1\": 50}","headsign":"{}","duration_avg":120,"n_vehicles":50,"d":1200,"route_I_counts":"{\"1\": 50}","source":11,"target":10,"layer":"L","from":"东莞下桥(地铁站)","to":"东莞天宝(地铁站)"},"geometry":{"type":"LineString","coordinates":[[113.783159,23.065552],[113.773516,23.050048]]}},{"type":"Feature","properties":{"shape_id":"{}","direction_id":"{\"0\": 50}","headsign":"{}","duration_avg":240,"n_vehicles":50,"d":2400,"route_I_counts":"{\"1\": 50}","source":11,"target":12,"layer":"L","from":"东莞下桥(地铁站)","to":"东莞榴花公园(地铁站)"},"geometry":{"type":"LineString","coordinates":[[113.783159,23.065552],[113.80915,23.083034]]}},{"type":"Feature","properties":{"shape_id":"{}","direction_id":"{\"1\": 50}","headsign":"{}","duration_avg":240,"n_vehicles":50,"d":2400,"route_I_counts":"{\"1\": 50}","source":12,"target":11,"layer":"L","from":"东莞榴花公园(地铁站)","to":"东莞下桥(地铁站)"},"geometry":{"type":"LineString","coordinates":[[113.80915,23.083034],[113.783159,23.065552]]}},{"type":"Feature","properties":{"shape_id":"{}","direction_id":"{\"0\": 50}","headsign":"{}","duration_avg":180,"n_vehicles":50,"d":1800,"route_I_counts":"{\"1\": 50}","source":12,"target":13,"layer":"L","from":"东莞榴花公园(地铁站)","to":"东莞茶山(地铁站)"},"geometry":{"type":"LineString","coordinates":[[113.80915,23.083034],[113.840079,23.082517]]}},{"type":"Feature","properties":{"shape_id":"{}","direction_id":"{\"1\": 50}","headsign":"{}","duration_avg":180,"n_vehicles":50,"d":1800,"route_I_counts":"{\"1\": 50}","source":13,"target":12,"layer":"L","from":"东莞茶山(地铁站)","to":"东莞榴花公园(地铁站)"},"geometry":{"type":"LineString","coordinates":[[113.840079,23.082517],[113.80915,23.083034]]}},{"type":"Feature","properties":{"shape_id":"{}","direction_id":"{\"0\": 50}","headsign":"{}","duration_avg":120,"n_vehicles":50,"d":1200,"route_I_counts":"{\"1\": 50}","source":13,"target":14,"layer":"L","from":"东莞茶山(地铁站)","to":"东莞东莞火车站(地铁站)"},"geometry":{"type":"LineString","coordinates":[[113.840079,23.082517],[113.855219,23.091469]]}},{"type":"Feature","properties":{"shape_id":"{}","direction_id":"{\"1\": 50}","headsign":"{}","duration_avg":120,"n_vehicles":50,"d":1200,"route_I_counts":"{\"1\": 50}","source":14,"target":13,"layer":"L","from":"东莞东莞火车站(地铁站)","to":"东莞茶山(地铁站)"},"geometry":{"type":"LineString","coordinates":[[113.855219,23.091469],[113.840079,23.082517]]}}]}