{"type":"FeatureCollection","features":[{"type":"Feature","geometry":{"type":"Point","coordinates":[113.001266,22.985676]},"properties":{"name":"佛山南庄(地铁站)","original_ids":"[1]","id":0,"layer":"stop"}},{"type":"Feature","geometry":{"type":"Point","coordinates":[113.006059,23.005866]},"properties":{"name":"佛山湖涌(地铁站)","original_ids":"[2]","id":1,"layer":"stop"}},{"type":"Feature","geometry":{"type":"Point","coordinates":[113.028862,23.004621]},"properties":{"name":"佛山绿岛湖(地铁站)","original_ids":"[3]","id":2,"layer":"stop"}},{"type":"Feature","geometry":{"type":"Point","coordinates":[113.049983,23.01375]},"properties":{"name":"佛山智慧新城(地铁站)","original_ids":"[4]","id":3,"layer":"stop"}},{"type":"Feature","geometry":{"type":"Point","coordinates":[113.062289,23.013604]},"properties":{"name":"佛山张槎(地铁站)","original_ids":"[5]","id":4,"layer":"stop"}},{"type":"Feature","geometry":{"type":"Point","coordinates":[113.077806,23.007852]},"properties":{"name":"佛山石湾(地铁站)","original_ids":"[6]","id":5,"layer":"stop"}},{"type":"Feature","geometry":{"type":"Point","coordinates":[113.08876,22.99907]},"properties":{"name":"佛山沙岗(地铁站)","original_ids":"[7]","id":6,"layer":"stop"}},{"type":"Feature","geometry":{"type":"Point","coordinates":[113.103127,22.996342]},"properties":{"name":"佛山魁奇路(地铁站)","original_ids":"[8]","id":7,"layer":"stop"}},{"type":"Feature","geometry":{"type":"Point","coordinates":[113.113264,22.995253]},"properties":{"name":"佛山石梁(地铁站)","original_ids":"[9]","id":8,"layer":"stop"}},{"type":"Feature","geometry":{"type":"Point","coordinates":[113.126181,22.994446]},"properties":{"name":"佛山湾华(地铁站)","original_ids":"[10]","id":9,"layer":"stop"}},{"type":"Feature","geometry":{"type":"Point","coordinates":[113.143333,22.981901]},"properties":{"name":"佛山登洲(地铁站)","original_ids":"[11]","id":10,"layer":"stop"}},{"type":"Feature","geometry":{"type":"Point","coordinates":[113.155927,22.976021]},"properties":{"name":"佛山花卉世界(地铁站)","original_ids":"[12]","id":11,"layer":"stop"}},{"type":"Feature","geometry":{"type":"Point","coordinates":[113.192895,22.985702]},"properties":{"name":"佛山仙涌(地铁站)","original_ids":"[13]","id":12,"layer":"stop"}},{"type":"Feature","geometry":{"type":"Point","coordinates":[113.210798,22.993312]},"properties":{"name":"佛山石洲(地铁站)","original_ids":"[14]","id":13,"layer":"stop"}},{"type":"Feature","geometry":{"type":"Point","coordinates":[113.231843,22.996479]},"properties":{"name":"佛山林岳西(地铁站)","original_ids":"[15]","id":14,"layer":"stop"}},{"type":"Feature","geometry":{"type":"Point","coordinates":[113.244377,22.996647]},"properties":{"name":"佛山林岳东(2号线)(地铁站)","original_ids":"[16]","id":15,"layer":"stop"}},{"type":"Feature","geometry":{"type":"Point","coordinates":[113.260574,22.990919]},"properties":{"name":"佛山广州南站(地铁站)","original_ids":"[17]","id":16,"layer":"stop"}},{"type":"Feature","geometry":{"type":"Point","coordinates":[113.135201,22.961414]},"properties":{"name":"佛山新城东(地铁站)","original_ids":"[18]","id":17,"layer":"stop"}},{"type":"Feature","geometry":{"type":"Point","coordinates":[113.123719,22.967852]},"properties":{"name":"佛山东平(地铁站)","original_ids":"[19]","id":18,"layer":"stop"}},{"type":"Feature","geometry":{"type":"Point","coordinates":[113.109434,22.967719]},"properties":{"name":"佛山世纪莲(地铁站)","original_ids":"[20]","id":19,"layer":"stop"}},{"type":"Feature","geometry":{"type":"Point","coordinates":[113.10162,22.986545]},"properties":{"name":"佛山澜石(地铁站)","original_ids":"[21]","id":20,"layer":"stop"}},{"type":"Feature","geometry":{"type":"Point","coordinates":[113.103054,23.009707]},"properties":{"name":"佛山季华园(地铁站)","original_ids":"[22]","id":21,"layer":"stop"}},{"type":"Feature","geometry":{"type":"Point","coordinates":[113.103013,23.021768]},"properties":{"name":"佛山同济路(地铁站)","original_ids":"[23]","id":22,"layer":"stop"}},{"type":"Feature","geometry":{"type":"Point","coordinates":[113.10661,23.029617]},"properties":{"name":"佛山祖庙(地铁站)","original_ids":"[24]","id":23,"layer":"stop"}},{"type":"Feature","geometry":{"type":"Point","coordinates":[113.116756,23.030229]},"properties":{"name":"佛山普君北路(地铁站)","original_ids":"[25]","id":24,"layer":"stop"}},{"type":"Feature","geometry":{"type":"Point","coordinates":[113.128067,23.03024]},"properties":{"name":"佛山朝安(地铁站)","original_ids":"[26]","id":25,"layer":"stop"}},{"type":"Feature","geometry":{"type":"Point","coordinates":[113.135972,23.034247]},"properties":{"name":"佛山桂城(地铁站)","original_ids":"[27]","id":26,"layer":"stop"}},{"type":"Feature","geometry":{"type":"Point","coordinates":[113.148698,23.036761]},"properties":{"name":"佛山南桂路(地铁站)","original_ids":"[28]","id":27,"layer":"stop"}},{"type":"Feature","geometry":{"type":"Point","coordinates":[113.149987,23.0452]},"properties":{"name":"佛山礌岗(地铁站)","original_ids":"[29]","id":28,"layer":"stop"}},{"type":"Feature","geometry":{"type":"Point","coordinates":[113.149915,23.057406]},"properties":{"name":"佛山千灯湖(地铁站)","original_ids":"[30]","id":29,"layer":"stop"}},{"type":"Feature","geometry":{"type":"Point","coordinates":[113.153113,23.068402]},"properties":{"name":"佛山金融高新区(地铁站)","original_ids":"[31]","id":30,"layer":"stop"}},{"type":"Feature","geometry":{"type":"Point","coordinates":[113.187019,23.06868]},"properties":{"name":"佛山龙溪(地铁站)","original_ids":"[32]","id":31,"layer":"stop"}},{"type":"Feature","geometry":{"type":"Point","coordinates":[113.20752,23.068549]},"properties":{"name":"佛山菊树(地铁站)","original_ids":"[33]","id":32,"layer":"stop"}},{"type":"Feature","geometry":{"type":"Point","coordinates":[113.227197,23.06949]},"properties":{"name":"佛山西塱(地铁站)","original_ids":"[34]","id":33,"layer":"stop"}},{"type":"Feature","geometry":{"type":"Point","coordinates":[113.234833,23.075198]},"properties":{"name":"佛山鹤洞(地铁站)","original_ids":"[35]","id":34,"layer":"stop"}},{"type":"Feature","geometry":{"type":"Point","coordinates":[113.241434,23.085797]},"properties":{"name":"佛山沙涌(地铁站)","original_ids":"[36]","id":35,"layer":"stop"}},{"type":"Feature","geometry":{"type":"Point","coordinates":[113.255261,23.09131]},"properties":{"name":"佛山沙园(地铁站)","original_ids":"[37]","id":36,"layer":"stop"}},{"type":"Feature","geometry":{"type":"Point","coordinates":[113.266655,23.077836]},"properties":{"name":"佛山燕岗(地铁站)","original_ids":"[38]","id":37,"layer":"stop"}},{"type":"Feature","geometry":{"type":"Point","coordinates":[113.280602,23.07062]},"properties":{"name":"佛山石溪(地铁站)","original_ids":"[39]","id":38,"layer":"stop"}},{"type":"Feature","geometry":{"type":"Point","coordinates":[113.292084,23.0674]},"properties":{"name":"佛山南洲(地铁站)","original_ids":"[40]","id":39,"layer":"stop"}},{"type":"Feature","geometry":{"type":"Point","coordinates":[113.313821,23.057432]},"properties":{"name":"佛山沥滘(地铁站)","original_ids":"[41]","id":40,"layer":"stop"}},{"type":"Feature","geometry":{"type":"Point","coordinates":[113.312889,22.821619]},"properties":{"name":"佛山顺德学院(地铁站)","original_ids":"[42]","id":41,"layer":"stop"}},{"type":"Feature","geometry":{"type":"Point","coordinates":[113.301481,22.821681]},"properties":{"name":"佛山顺德欢乐海岸(地铁站)","original_ids":"[43]","id":42,"layer":"stop"}},{"type":"Feature","geometry":{"type":"Point","coordinates":[113.288739,22.835489]},"properties":{"name":"佛山顺德一中(地铁站)","original_ids":"[44]","id":43,"layer":"stop"}},{"type":"Feature","geometry":{"type":"Point","coordinates":[113.272411,22.837719]},"properties":{"name":"佛山驹荣北路(地铁站)","original_ids":"[45]","id":44,"layer":"stop"}},{"type":"Feature","geometry":{"type":"Point","coordinates":[113.259389,22.837731]},"properties":{"name":"佛山东乐路(地铁站)","original_ids":"[46]","id":45,"layer":"stop"}},{"type":"Feature","geometry":{"type":"Point","coordinates":[113.247761,22.842181]},"properties":{"name":"佛山大良钟楼(地铁站)","original_ids":"[47]","id":46,"layer":"stop"}},{"type":"Feature","geometry":{"type":"Point","coordinates":[113.239031,22.854219]},"properties":{"name":"佛山环市北(地铁站)","original_ids":"[48]","id":47,"layer":"stop"}},{"type":"Feature","geometry":{"type":"Point","coordinates":[113.2369,22.870789]},"properties":{"name":"佛山顺德人民医院(地铁站)","original_ids":"[49]","id":48,"layer":"stop"}},{"type":"Feature","geometry":{"type":"Point","coordinates":[113.2256,22.874931]},"properties":{"name":"佛山荔村(地铁站)","original_ids":"[50]","id":49,"layer":"stop"}},{"type":"Feature","geometry":{"type":"Point","coordinates":[113.184769,22.877081]},"properties":{"name":"佛山伦教(地铁站)","original_ids":"[51]","id":50,"layer":"stop"}},{"type":"Feature","geometry":{"type":"Point","coordinates":[113.167486,22.886442]},"properties":{"name":"佛山广教(地铁站)","original_ids":"[52]","id":51,"layer":"stop"}},{"type":"Feature","geometry":{"type":"Point","coordinates":[113.206319,22.933139]},"properties":{"name":"佛山北滘公园(地铁站)","original_ids":"[53]","id":52,"layer":"stop"}},{"type":"Feature","geometry":{"type":"Point","coordinates":[113.18895,22.947489]},"properties":{"name":"佛山高村(地铁站)","original_ids":"[54]","id":53,"layer":"stop"}},{"type":"Feature","geometry":{"type":"Point","coordinates":[113.172811,22.954761]},"properties":{"name":"佛山北滘西(地铁站)","original_ids":"[55]","id":54,"layer":"stop"}},{"type":"Feature","geometry":{"type":"Point","coordinates":[113.159281,22.951389]},"properties":{"name":"佛山潭洲会展(地铁站)","original_ids":"[56]","id":55,"layer":"stop"}},{"type":"Feature","geometry":{"type":"Point","coordinates":[113.139589,22.945631]},"properties":{"name":"佛山岳步(地铁站)","original_ids":"[57]","id":56,"layer":"stop"}},{"type":"Feature","geometry":{"type":"Point","coordinates":[113.123831,22.956489]},"properties":{"name":"佛山大墩(地铁站)","original_ids":"[58]","id":57,"layer":"stop"}},{"type":"Feature","geometry":{"type":"Point","coordinates":[113.124319,23.004561]},"properties":{"name":"佛山亚艺公园(地铁站)","original_ids":"[59]","id":58,"layer":"stop"}},{"type":"Feature","geometry":{"type":"Point","coordinates":[113.131431,23.014661]},"properties":{"name":"佛山季华六路(地铁站)","original_ids":"[60]","id":59,"layer":"stop"}},{"type":"Feature","geometry":{"type":"Point","coordinates":[113.138911,23.018769]},"properties":{"name":"佛山镇安(地铁站)","original_ids":"[61]","id":60,"layer":"stop"}},{"type":"Feature","geometry":{"type":"Point","coordinates":[113.134731,23.0432]},"properties":{"name":"佛山西约(地铁站)","original_ids":"[62]","id":61,"layer":"stop"}},{"type":"Feature","geometry":{"type":"Point","coordinates":[113.122081,23.050719]},"properties":{"name":"佛山叠滘(地铁站)","original_ids":"[63]","id":62,"layer":"stop"}},{"type":"Feature","geometry":{"type":"Point","coordinates":[113.110739,23.050389]},"properties":{"name":"佛山中山公园(地铁站)","original_ids":"[64]","id":63,"layer":"stop"}},{"type":"Feature","properties":{"shape_id":"{}","direction_id":"{\"0\": 50}","headsign":"{}","duration_avg":180,"n_vehicles":50,"d":1800,"route_I_counts":"{\"1\": 50}","source":0,"target":1,"layer":"L","from":"佛山南庄(地铁站)","to":"佛山湖涌(地铁站)"},"geometry":{"type":"LineString","coordinates":[[113.001266,22.985676],[113.006059,23.005866]]}},{"type":"Feature","properties":{"shape_id":"{}","direction_id":"{\"1\": 50}","headsign":"{}","duration_avg":180,"n_vehicles":50,"d":1800,"route_I_counts":"{\"1\": 50}","source":1,"target":0,"layer":"L","from":"佛山湖涌(地铁站)","to":"佛山南庄(地铁站)"},"geometry":{"type":"LineString","coordinates":[[113.006059,23.005866],[113.001266,22.985676]]}},{"type":"Feature","properties":{"shape_id":"{}","direction_id":"{\"0\": 50}","headsign":"{}","duration_avg":180,"n_vehicles":50,"d":1800,"route_I_counts":"{\"1\": 50}","source":1,"target":2,"layer":"L","from":"佛山湖涌(地铁站)","to":"佛山绿岛湖(地铁站)"},"geometry":{"type":"LineString","coordinates":[[113.006059,23.005866],[113.028862,23.004621]]}},{"type":"Feature","properties":{"shape_id":"{}","direction_id":"{\"1\": 50}","headsign":"{}","duration_avg":180,"n_vehicles":50,"d":1800,"route_I_counts":"{\"1\": 50}","source":2,"target":1,"layer":"L","from":"佛山绿岛湖(地铁站)","to":"佛山湖涌(地铁站)"},"geometry":{"type":"LineString","coordinates":[[113.028862,23.004621],[113.006059,23.005866]]}},{"type":"Feature","properties":{"shape_id":"{}","direction_id":"{\"0\": 50}","headsign":"{}","duration_avg":180,"n_vehicles":50,"d":1800,"route_I_counts":"{\"1\": 50}","source":2,"target":3,"layer":"L","from":"佛山绿岛湖(地铁站)","to":"佛山智慧新城(地铁站)"},"geometry":{"type":"LineString","coordinates":[[113.028862,23.004621],[113.049983,23.01375]]}},{"type":"Feature","properties":{"shape_id":"{}","direction_id":"{\"1\": 50}","headsign":"{}","duration_avg":180,"n_vehicles":50,"d":1800,"route_I_counts":"{\"1\": 50}","source":3,"target":2,"layer":"L","from":"佛山智慧新城(地铁站)","to":"佛山绿岛湖(地铁站)"},"geometry":{"type":"LineString","coordinates":[[113.049983,23.01375],[113.028862,23.004621]]}},{"type":"Feature","properties":{"shape_id":"{}","direction_id":"{\"0\": 50}","headsign":"{}","duration_avg":120,"n_vehicles":50,"d":1200,"route_I_counts":"{\"1\": 50}","source":3,"target":4,"layer":"L","from":"佛山智慧新城(地铁站)","to":"佛山张槎(地铁站)"},"geometry":{"type":"LineString","coordinates":[[113.049983,23.01375],[113.062289,23.013604]]}},{"type":"Feature","properties":{"shape_id":"{}","direction_id":"{\"1\": 50}","headsign":"{}","duration_avg":120,"n_vehicles":50,"d":1200,"route_I_counts":"{\"1\": 50}","source":4,"target":3,"layer":"L","from":"佛山张槎(地铁站)","to":"佛山智慧新城(地铁站)"},"geometry":{"type":"LineString","coordinates":[[113.062289,23.013604],[113.049983,23.01375]]}},{"type":"Feature","properties":{"shape_id":"{}","direction_id":"{\"0\": 50}","headsign":"{}","duration_avg":120,"n_vehicles":50,"d":1200,"route_I_counts":"{\"1\": 50}","source":4,"target":5,"layer":"L","from":"佛山张槎(地铁站)","to":"佛山石湾(地铁站)"},"geometry":{"type":"LineString","coordinates":[[113.062289,23.013604],[113.077806,23.007852]]}},{"type":"Feature","properties":{"shape_id":"{}","direction_id":"{\"1\": 50}","headsign":"{}","duration_avg":120,"n_vehicles":50,"d":1200,"route_I_counts":"{\"1\": 50}","source":5,"target":4,"layer":"L","from":"佛山石湾(地铁站)","to":"佛山张槎(地铁站)"},"geometry":{"type":"LineString","coordinates":[[113.077806,23.007852],[113.062289,23.013604]]}},{"type":"Feature","properties":{"shape_id":"{}","direction_id":"{\"0\": 50}","headsign":"{}","duration_avg":180,"n_vehicles":50,"d":1800,"route_I_counts":"{\"1\": 50}","source":5,"target":6,"layer":"L","from":"佛山石湾(地铁站)","to":"佛山沙岗(地铁站)"},"geometry":{"type":"LineString","coordinates":[[113.077806,23.007852],[113.08876,22.99907]]}},{"type":"Feature","properties":{"shape_id":"{}","direction_id":"{\"1\": 50}","headsign":"{}","duration_avg":180,"n_vehicles":50,"d":1800,"route_I_counts":"{\"1\": 50}","source":6,"target":5,"layer":"L","from":"佛山沙岗(地铁站)","to":"佛山石湾(地铁站)"},"geometry":{"type":"LineString","coordinates":[[113.08876,22.99907],[113.077806,23.007852]]}},{"type":"Feature","properties":{"shape_id":"{}","direction_id":"{\"0\": 50}","headsign":"{}","duration_avg":120,"n_vehicles":50,"d":1200,"route_I_counts":"{\"1\": 50}","source":6,"target":7,"layer":"L","from":"佛山沙岗(地铁站)","to":"佛山魁奇路(地铁站)"},"geometry":{"type":"LineString","coordinates":[[113.08876,22.99907],[113.103127,22.996342]]}},{"type":"Feature","properties":{"shape_id":"{}","direction_id":"{\"1\": 50}","headsign":"{}","duration_avg":120,"n_vehicles":50,"d":1200,"route_I_counts":"{\"1\": 50}","source":7,"target":6,"layer":"L","from":"佛山魁奇路(地铁站)","to":"佛山沙岗(地铁站)"},"geometry":{"type":"LineString","coordinates":[[113.103127,22.996342],[113.08876,22.99907]]}},{"type":"Feature","properties":{"shape_id":"{}","direction_id":"{\"0\": 50}","headsign":"{}","duration_avg":120,"n_vehicles":50,"d":1200,"route_I_counts":"{\"1\": 50}","source":7,"target":8,"layer":"L","from":"佛山魁奇路(地铁站)","to":"佛山石梁(地铁站)"},"geometry":{"type":"LineString","coordinates":[[113.103127,22.996342],[113.113264,22.995253]]}},{"type":"Feature","properties":{"shape_id":"{}","direction_id":"{\"1\": 50}","headsign":"{}","duration_avg":120,"n_vehicles":50,"d":1200,"route_I_counts":"{\"1\": 50}","source":8,"target":7,"layer":"L","from":"佛山石梁(地铁站)","to":"佛山魁奇路(地铁站)"},"geometry":{"type":"LineString","coordinates":[[113.113264,22.995253],[113.103127,22.996342]]}},{"type":"Feature","properties":{"shape_id":"{}","direction_id":"{\"0\": 50}","headsign":"{}","duration_avg":120,"n_vehicles":50,"d":1200,"route_I_counts":"{\"1\": 50}","source":8,"target":9,"layer":"L","from":"佛山石梁(地铁站)","to":"佛山湾华(地铁站)"},"geometry":{"type":"LineString","coordinates":[[113.113264,22.995253],[113.126181,22.994446]]}},{"type":"Feature","properties":{"shape_id":"{}","direction_id":"{\"1\": 50}","headsign":"{}","duration_avg":120,"n_vehicles":50,"d":1200,"route_I_counts":"{\"1\": 50}","source":9,"target":8,"layer":"L","from":"佛山湾华(地铁站)","to":"佛山石梁(地铁站)"},"geometry":{"type":"LineString","coordinates":[[113.126181,22.994446],[113.113264,22.995253]]}},{"type":"Feature","properties":{"shape_id":"{}","direction_id":"{\"0\": 50}","headsign":"{}","duration_avg":180,"n_vehicles":50,"d":1800,"route_I_counts":"{\"1\": 50}","source":9,"target":10,"layer":"L","from":"佛山湾华(地铁站)","to":"佛山登洲(地铁站)"},"geometry":{"type":"LineString","coordinates":[[113.126181,22.994446],[113.143333,22.981901]]}},{"type":"Feature","properties":{"shape_id":"{}","direction_id":"{\"1\": 50}","headsign":"{}","duration_avg":180,"n_vehicles":50,"d":1800,"route_I_counts":"{\"1\": 50}","source":10,"target":9,"layer":"L","from":"佛山登洲(地铁站)","to":"佛山湾华(地铁站)"},"geometry":{"type":"LineString","coordinates":[[113.143333,22.981901],[113.126181,22.994446]]}},{"type":"Feature","properties":{"shape_id":"{}","direction_id":"{\"0\": 50}","headsign":"{}","duration_avg":180,"n_vehicles":50,"d":1800,"route_I_counts":"{\"1\": 50}","source":10,"target":11,"layer":"L","from":"佛山登洲(地铁站)","to":"佛山花卉世界(地铁站)"},"geometry":{"type":"LineString","coordinates":[[113.143333,22.981901],[113.155927,22.976021]]}},{"type":"Feature","properties":{"shape_id":"{}","direction_id":"{\"1\": 50}","headsign":"{}","duration_avg":180,"n_vehicles":50,"d":1800,"route_I_counts":"{\"1\": 50}","source":11,"target":10,"layer":"L","from":"佛山花卉世界(地铁站)","to":"佛山登洲(地铁站)"},"geometry":{"type":"LineString","coordinates":[[113.155927,22.976021],[113.143333,22.981901]]}},{"type":"Feature","properties":{"shape_id":"{}","direction_id":"{\"0\": 50}","headsign":"{}","duration_avg":240,"n_vehicles":50,"d":2400,"route_I_counts":"{\"1\": 50}","source":11,"target":12,"layer":"L","from":"佛山花卉世界(地铁站)","to":"佛山仙涌(地铁站)"},"geometry":{"type":"LineString","coordinates":[[113.155927,22.976021],[113.192895,22.985702]]}},{"type":"Feature","properties":{"shape_id":"{}","direction_id":"{\"1\": 50}","headsign":"{}","duration_avg":240,"n_vehicles":50,"d":2400,"route_I_counts":"{\"1\": 50}","source":12,"target":11,"layer":"L","from":"佛山仙涌(地铁站)","to":"佛山花卉世界(地铁站)"},"geometry":{"type":"LineString","coordinates":[[113.192895,22.985702],[113.155927,22.976021]]}},{"type":"Feature","properties":{"shape_id":"{}","direction_id":"{\"0\": 50}","headsign":"{}","duration_avg":120,"n_vehicles":50,"d":1200,"route_I_counts":"{\"1\": 50}","source":12,"target":13,"layer":"L","from":"佛山仙涌(地铁站)","to":"佛山石洲(地铁站)"},"geometry":{"type":"LineString","coordinates":[[113.192895,22.985702],[113.210798,22.993312]]}},{"type":"Feature","properties":{"shape_id":"{}","direction_id":"{\"1\": 50}","headsign":"{}","duration_avg":120,"n_vehicles":50,"d":1200,"route_I_counts":"{\"1\": 50}","source":13,"target":12,"layer":"L","from":"佛山石洲(地铁站)","to":"佛山仙涌(地铁站)"},"geometry":{"type":"LineString","coordinates":[[113.210798,22.993312],[113.192895,22.985702]]}},{"type":"Feature","properties":{"shape_id":"{}","direction_id":"{\"0\": 50}","headsign":"{}","duration_avg":180,"n_vehicles":50,"d":1800,"route_I_counts":"{\"1\": 50}","source":13,"target":14,"layer":"L","from":"佛山石洲(地铁站)","to":"佛山林岳西(地铁站)"},"geometry":{"type":"LineString","coordinates":[[113.210798,22.993312],[113.231843,22.996479]]}},{"type":"Feature","properties":{"shape_id":"{}","direction_id":"{\"1\": 50}","headsign":"{}","duration_avg":180,"n_vehicles":50,"d":1800,"route_I_counts":"{\"1\": 50}","source":14,"target":13,"layer":"L","from":"佛山林岳西(地铁站)","to":"佛山石洲(地铁站)"},"geometry":{"type":"LineString","coordinates":[[113.231843,22.996479],[113.210798,22.993312]]}},{"type":"Feature","properties":{"shape_id":"{}","direction_id":"{\"0\": 50}","headsign":"{}","duration_avg":120,"n_vehicles":50,"d":1200,"route_I_counts":"{\"1\": 50}","source":14,"target":15,"layer":"L","from":"佛山林岳西(地铁站)","to":"佛山林岳东(2号线)(地铁站)"},"geometry":{"type":"LineString","coordinates":[[113.231843,22.996479],[113.244377,22.996647]]}},{"type":"Feature","properties":{"shape_id":"{}","direction_id":"{\"1\": 50}","headsign":"{}","duration_avg":120,"n_vehicles":50,"d":1200,"route_I_counts":"{\"1\": 50}","source":15,"target":14,"layer":"L","from":"佛山林岳东(2号线)(地铁站)","to":"佛山林岳西(地铁站)"},"geometry":{"type":"LineString","coordinates":[[113.244377,22.996647],[113.231843,22.996479]]}},{"type":"Feature","properties":{"shape_id":"{}","direction_id":"{\"0\": 50}","headsign":"{}","duration_avg":120,"n_vehicles":50,"d":1200,"route_I_counts":"{\"1\": 50}","source":15,"target":16,"layer":"L","from":"佛山林岳东(2号线)(地铁站)","to":"佛山广州南站(地铁站)"},"geometry":{"type":"LineString","coordinates":[[113.244377,22.996647],[113.260574,22.990919]]}},{"type":"Feature","properties":{"shape_id":"{}","direction_id":"{\"1\": 50}","headsign":"{}","duration_avg":120,"n_vehicles":50,"d":1200,"route_I_counts":"{\"1\": 50}","source":16,"target":15,"layer":"L","from":"佛山广州南站(地铁站)","to":"佛山林岳东(2号线)(地铁站)"},"geometry":{"type":"LineString","coordinates":[[113.260574,22.990919],[113.244377,22.996647]]}},{"type":"Feature","properties":{"shape_id":"{}","direction_id":"{\"0\": 50}","headsign":"{}","duration_avg":120,"n_vehicles":50,"d":1200,"route_I_counts":"{\"2\": 50}","source":17,"target":18,"layer":"L","from":"佛山新城东(地铁站)","to":"佛山东平(地铁站)"},"geometry":{"type":"LineString","coordinates":[[113.135201,22.961414],[113.123719,22.967852]]}},{"type":"Feature","properties":{"shape_id":"{}","direction_id":"{\"1\": 50}","headsign":"{}","duration_avg":120,"n_vehicles":50,"d":1200,"route_I_counts":"{\"2\": 50}","source":18,"target":17,"layer":"L","from":"佛山东平(地铁站)","to":"佛山新城东(地铁站)"},"geometry":{"type":"LineString","coordinates":[[113.123719,22.967852],[113.135201,22.961414]]}},{"type":"Feature","properties":{"shape_id":"{}","direction_id":"{\"0\": 50}","headsign":"{}","duration_avg":120,"n_vehicles":50,"d":1200,"route_I_counts":"{\"2\": 50}","source":18,"target":19,"layer":"L","from":"佛山东平(地铁站)","to":"佛山世纪莲(地铁站)"},"geometry":{"type":"LineString","coordinates":[[113.123719,22.967852],[113.109434,22.967719]]}},{"type":"Feature","properties":{"shape_id":"{}","direction_id":"{\"1\": 50}","headsign":"{}","duration_avg":120,"n_vehicles":50,"d":1200,"route_I_counts":"{\"2\": 50}","source":19,"target":18,"layer":"L","from":"佛山世纪莲(地铁站)","to":"佛山东平(地铁站)"},"geometry":{"type":"LineString","coordinates":[[113.109434,22.967719],[113.123719,22.967852]]}},{"type":"Feature","properties":{"shape_id":"{}","direction_id":"{\"0\": 50}","headsign":"{}","duration_avg":240,"n_vehicles":50,"d":2400,"route_I_counts":"{\"2\": 50}","source":19,"target":20,"layer":"L","from":"佛山世纪莲(地铁站)","to":"佛山澜石(地铁站)"},"geometry":{"type":"LineString","coordinates":[[113.109434,22.967719],[113.10162,22.986545]]}},{"type":"Feature","properties":{"shape_id":"{}","direction_id":"{\"1\": 50}","headsign":"{}","duration_avg":240,"n_vehicles":50,"d":2400,"route_I_counts":"{\"2\": 50}","source":20,"target":19,"layer":"L","from":"佛山澜石(地铁站)","to":"佛山世纪莲(地铁站)"},"geometry":{"type":"LineString","coordinates":[[113.10162,22.986545],[113.109434,22.967719]]}},{"type":"Feature","properties":{"shape_id":"{}","direction_id":"{\"0\": 50}","headsign":"{}","duration_avg":120,"n_vehicles":50,"d":1200,"route_I_counts":"{\"2\": 50}","source":20,"target":7,"layer":"L","from":"佛山澜石(地铁站)","to":"佛山魁奇路(地铁站)"},"geometry":{"type":"LineString","coordinates":[[113.10162,22.986545],[113.103127,22.996342]]}},{"type":"Feature","properties":{"shape_id":"{}","direction_id":"{\"1\": 50}","headsign":"{}","duration_avg":120,"n_vehicles":50,"d":1200,"route_I_counts":"{\"2\": 50}","source":7,"target":20,"layer":"L","from":"佛山魁奇路(地铁站)","to":"佛山澜石(地铁站)"},"geometry":{"type":"LineString","coordinates":[[113.103127,22.996342],[113.10162,22.986545]]}},{"type":"Feature","properties":{"shape_id":"{}","direction_id":"{\"0\": 50}","headsign":"{}","duration_avg":60,"n_vehicles":50,"d":600,"route_I_counts":"{\"2\": 50}","source":7,"target":21,"layer":"L","from":"佛山魁奇路(地铁站)","to":"佛山季华园(地铁站)"},"geometry":{"type":"LineString","coordinates":[[113.103127,22.996342],[113.103054,23.009707]]}},{"type":"Feature","properties":{"shape_id":"{}","direction_id":"{\"1\": 50}","headsign":"{}","duration_avg":60,"n_vehicles":50,"d":600,"route_I_counts":"{\"2\": 50}","source":21,"target":7,"layer":"L","from":"佛山季华园(地铁站)","to":"佛山魁奇路(地铁站)"},"geometry":{"type":"LineString","coordinates":[[113.103054,23.009707],[113.103127,22.996342]]}},{"type":"Feature","properties":{"shape_id":"{}","direction_id":"{\"0\": 50}","headsign":"{}","duration_avg":120,"n_vehicles":50,"d":1200,"route_I_counts":"{\"2\": 50}","source":21,"target":22,"layer":"L","from":"佛山季华园(地铁站)","to":"佛山同济路(地铁站)"},"geometry":{"type":"LineString","coordinates":[[113.103054,23.009707],[113.103013,23.021768]]}},{"type":"Feature","properties":{"shape_id":"{}","direction_id":"{\"1\": 50}","headsign":"{}","duration_avg":120,"n_vehicles":50,"d":1200,"route_I_counts":"{\"2\": 50}","source":22,"target":21,"layer":"L","from":"佛山同济路(地铁站)","to":"佛山季华园(地铁站)"},"geometry":{"type":"LineString","coordinates":[[113.103013,23.021768],[113.103054,23.009707]]}},{"type":"Feature","properties":{"shape_id":"{}","direction_id":"{\"0\": 50}","headsign":"{}","duration_avg":180,"n_vehicles":50,"d":1800,"route_I_counts":"{\"2\": 50}","source":22,"target":23,"layer":"L","from":"佛山同济路(地铁站)","to":"佛山祖庙(地铁站)"},"geometry":{"type":"LineString","coordinates":[[113.103013,23.021768],[113.10661,23.029617]]}},{"type":"Feature","properties":{"shape_id":"{}","direction_id":"{\"1\": 50}","headsign":"{}","duration_avg":180,"n_vehicles":50,"d":1800,"route_I_counts":"{\"2\": 50}","source":23,"target":22,"layer":"L","from":"佛山祖庙(地铁站)","to":"佛山同济路(地铁站)"},"geometry":{"type":"LineString","coordinates":[[113.10661,23.029617],[113.103013,23.021768]]}},{"type":"Feature","properties":{"shape_id":"{}","direction_id":"{\"0\": 50}","headsign":"{}","duration_avg":120,"n_vehicles":50,"d":1200,"route_I_counts":"{\"2\": 50}","source":23,"target":24,"layer":"L","from":"佛山祖庙(地铁站)","to":"佛山普君北路(地铁站)"},"geometry":{"type":"LineString","coordinates":[[113.10661,23.029617],[113.116756,23.030229]]}},{"type":"Feature","properties":{"shape_id":"{}","direction_id":"{\"1\": 50}","headsign":"{}","duration_avg":120,"n_vehicles":50,"d":1200,"route_I_counts":"{\"2\": 50}","source":24,"target":23,"layer":"L","from":"佛山普君北路(地铁站)","to":"佛山祖庙(地铁站)"},"geometry":{"type":"LineString","coordinates":[[113.116756,23.030229],[113.10661,23.029617]]}},{"type":"Feature","properties":{"shape_id":"{}","direction_id":"{\"0\": 50}","headsign":"{}","duration_avg":120,"n_vehicles":50,"d":1200,"route_I_counts":"{\"2\": 50}","source":24,"target":25,"layer":"L","from":"佛山普君北路(地铁站)","to":"佛山朝安(地铁站)"},"geometry":{"type":"LineString","coordinates":[[113.116756,23.030229],[113.128067,23.03024]]}},{"type":"Feature","properties":{"shape_id":"{}","direction_id":"{\"1\": 50}","headsign":"{}","duration_avg":120,"n_vehicles":50,"d":1200,"route_I_counts":"{\"2\": 50}","source":25,"target":24,"layer":"L","from":"佛山朝安(地铁站)","to":"佛山普君北路(地铁站)"},"geometry":{"type":"LineString","coordinates":[[113.128067,23.03024],[113.116756,23.030229]]}},{"type":"Feature","properties":{"shape_id":"{}","direction_id":"{\"0\": 50}","headsign":"{}","duration_avg":120,"n_vehicles":50,"d":1200,"route_I_counts":"{\"2\": 50}","source":25,"target":26,"layer":"L","from":"佛山朝安(地铁站)","to":"佛山桂城(地铁站)"},"geometry":{"type":"LineString","coordinates":[[113.128067,23.03024],[113.135972,23.034247]]}},{"type":"Feature","properties":{"shape_id":"{}","direction_id":"{\"1\": 50}","headsign":"{}","duration_avg":120,"n_vehicles":50,"d":1200,"route_I_counts":"{\"2\": 50}","source":26,"target":25,"layer":"L","from":"佛山桂城(地铁站)","to":"佛山朝安(地铁站)"},"geometry":{"type":"LineString","coordinates":[[113.135972,23.034247],[113.128067,23.03024]]}},{"type":"Feature","properties":{"shape_id":"{}","direction_id":"{\"0\": 50}","headsign":"{}","duration_avg":120,"n_vehicles":50,"d":1200,"route_I_counts":"{\"2\": 50}","source":26,"target":27,"layer":"L","from":"佛山桂城(地铁站)","to":"佛山南桂路(地铁站)"},"geometry":{"type":"LineString","coordinates":[[113.135972,23.034247],[113.148698,23.036761]]}},{"type":"Feature","properties":{"shape_id":"{}","direction_id":"{\"1\": 50}","headsign":"{}","duration_avg":120,"n_vehicles":50,"d":1200,"route_I_counts":"{\"2\": 50}","source":27,"target":26,"layer":"L","from":"佛山南桂路(地铁站)","to":"佛山桂城(地铁站)"},"geometry":{"type":"LineString","coordinates":[[113.148698,23.036761],[113.135972,23.034247]]}},{"type":"Feature","properties":{"shape_id":"{}","direction_id":"{\"0\": 50}","headsign":"{}","duration_avg":120,"n_vehicles":50,"d":1200,"route_I_counts":"{\"2\": 50}","source":27,"target":28,"layer":"L","from":"佛山南桂路(地铁站)","to":"佛山礌岗(地铁站)"},"geometry":{"type":"LineString","coordinates":[[113.148698,23.036761],[113.149987,23.0452]]}},{"type":"Feature","properties":{"shape_id":"{}","direction_id":"{\"1\": 50}","headsign":"{}","duration_avg":120,"n_vehicles":50,"d":1200,"route_I_counts":"{\"2\": 50}","source":28,"target":27,"layer":"L","from":"佛山礌岗(地铁站)","to":"佛山南桂路(地铁站)"},"geometry":{"type":"LineString","coordinates":[[113.149987,23.0452],[113.148698,23.036761]]}},{"type":"Feature","properties":{"shape_id":"{}","direction_id":"{\"0\": 50}","headsign":"{}","duration_avg":180,"n_vehicles":50,"d":1800,"route_I_counts":"{\"2\": 50}","source":28,"target":29,"layer":"L","from":"佛山礌岗(地铁站)","to":"佛山千灯湖(地铁站)"},"geometry":{"type":"LineString","coordinates":[[113.149987,23.0452],[113.149915,23.057406]]}},{"type":"Feature","properties":{"shape_id":"{}","direction_id":"{\"1\": 50}","headsign":"{}","duration_avg":180,"n_vehicles":50,"d":1800,"route_I_counts":"{\"2\": 50}","source":29,"target":28,"layer":"L","from":"佛山千灯湖(地铁站)","to":"佛山礌岗(地铁站)"},"geometry":{"type":"LineString","coordinates":[[113.149915,23.057406],[113.149987,23.0452]]}},{"type":"Feature","properties":{"shape_id":"{}","direction_id":"{\"0\": 50}","headsign":"{}","duration_avg":120,"n_vehicles":50,"d":1200,"route_I_counts":"{\"2\": 50}","source":29,"target":30,"layer":"L","from":"佛山千灯湖(地铁站)","to":"佛山金融高新区(地铁站)"},"geometry":{"type":"LineString","coordinates":[[113.149915,23.057406],[113.153113,23.068402]]}},{"type":"Feature","properties":{"shape_id":"{}","direction_id":"{\"1\": 50}","headsign":"{}","duration_avg":120,"n_vehicles":50,"d":1200,"route_I_counts":"{\"2\": 50}","source":30,"target":29,"layer":"L","from":"佛山金融高新区(地铁站)","to":"佛山千灯湖(地铁站)"},"geometry":{"type":"LineString","coordinates":[[113.153113,23.068402],[113.149915,23.057406]]}},{"type":"Feature","properties":{"shape_id":"{}","direction_id":"{\"0\": 50}","headsign":"{}","duration_avg":240,"n_vehicles":50,"d":2400,"route_I_counts":"{\"2\": 50}","source":30,"target":31,"layer":"L","from":"佛山金融高新区(地铁站)","to":"佛山龙溪(地铁站)"},"geometry":{"type":"LineString","coordinates":[[113.153113,23.068402],[113.187019,23.06868]]}},{"type":"Feature","properties":{"shape_id":"{}","direction_id":"{\"1\": 50}","headsign":"{}","duration_avg":240,"n_vehicles":50,"d":2400,"route_I_counts":"{\"2\": 50}","source":31,"target":30,"layer":"L","from":"佛山龙溪(地铁站)","to":"佛山金融高新区(地铁站)"},"geometry":{"type":"LineString","coordinates":[[113.187019,23.06868],[113.153113,23.068402]]}},{"type":"Feature","properties":{"shape_id":"{}","direction_id":"{\"0\": 50}","headsign":"{}","duration_avg":180,"n_vehicles":50,"d":1800,"route_I_counts":"{\"2\": 50}","source":31,"target":32,"layer":"L","from":"佛山龙溪(地铁站)","to":"佛山菊树(地铁站)"},"geometry":{"type":"LineString","coordinates":[[113.187019,23.06868],[113.20752,23.068549]]}},{"type":"Feature","properties":{"shape_id":"{}","direction_id":"{\"1\": 50}","headsign":"{}","duration_avg":180,"n_vehicles":50,"d":1800,"route_I_counts":"{\"2\": 50}","source":32,"target":31,"layer":"L","from":"佛山菊树(地铁站)","to":"佛山龙溪(地铁站)"},"geometry":{"type":"LineString","coordinates":[[113.20752,23.068549],[113.187019,23.06868]]}},{"type":"Feature","properties":{"shape_id":"{}","direction_id":"{\"0\": 50}","headsign":"{}","duration_avg":180,"n_vehicles":50,"d":1800,"route_I_counts":"{\"2\": 50}","source":32,"target":33,"layer":"L","from":"佛山菊树(地铁站)","to":"佛山西塱(地铁站)"},"geometry":{"type":"LineString","coordinates":[[113.20752,23.068549],[113.227197,23.06949]]}},{"type":"Feature","properties":{"shape_id":"{}","direction_id":"{\"1\": 50}","headsign":"{}","duration_avg":180,"n_vehicles":50,"d":1800,"route_I_counts":"{\"2\": 50}","source":33,"target":32,"layer":"L","from":"佛山西塱(地铁站)","to":"佛山菊树(地铁站)"},"geometry":{"type":"LineString","coordinates":[[113.227197,23.06949],[113.20752,23.068549]]}},{"type":"Feature","properties":{"shape_id":"{}","direction_id":"{\"0\": 50}","headsign":"{}","duration_avg":120,"n_vehicles":50,"d":1200,"route_I_counts":"{\"2\": 50}","source":33,"target":34,"layer":"L","from":"佛山西塱(地铁站)","to":"佛山鹤洞(地铁站)"},"geometry":{"type":"LineString","coordinates":[[113.227197,23.06949],[113.234833,23.075198]]}},{"type":"Feature","properties":{"shape_id":"{}","direction_id":"{\"1\": 50}","headsign":"{}","duration_avg":120,"n_vehicles":50,"d":1200,"route_I_counts":"{\"2\": 50}","source":34,"target":33,"layer":"L","from":"佛山鹤洞(地铁站)","to":"佛山西塱(地铁站)"},"geometry":{"type":"LineString","coordinates":[[113.234833,23.075198],[113.227197,23.06949]]}},{"type":"Feature","properties":{"shape_id":"{}","direction_id":"{\"0\": 50}","headsign":"{}","duration_avg":180,"n_vehicles":50,"d":1800,"route_I_counts":"{\"2\": 50}","source":34,"target":35,"layer":"L","from":"佛山鹤洞(地铁站)","to":"佛山沙涌(地铁站)"},"geometry":{"type":"LineString","coordinates":[[113.234833,23.075198],[113.241434,23.085797]]}},{"type":"Feature","properties":{"shape_id":"{}","direction_id":"{\"1\": 50}","headsign":"{}","duration_avg":180,"n_vehicles":50,"d":1800,"route_I_counts":"{\"2\": 50}","source":35,"target":34,"layer":"L","from":"佛山沙涌(地铁站)","to":"佛山鹤洞(地铁站)"},"geometry":{"type":"LineString","coordinates":[[113.241434,23.085797],[113.234833,23.075198]]}},{"type":"Feature","properties":{"shape_id":"{}","direction_id":"{\"0\": 50}","headsign":"{}","duration_avg":180,"n_vehicles":50,"d":1800,"route_I_counts":"{\"2\": 50}","source":35,"target":36,"layer":"L","from":"佛山沙涌(地铁站)","to":"佛山沙园(地铁站)"},"geometry":{"type":"LineString","coordinates":[[113.241434,23.085797],[113.255261,23.09131]]}},{"type":"Feature","properties":{"shape_id":"{}","direction_id":"{\"1\": 50}","headsign":"{}","duration_avg":180,"n_vehicles":50,"d":1800,"route_I_counts":"{\"2\": 50}","source":36,"target":35,"layer":"L","from":"佛山沙园(地铁站)","to":"佛山沙涌(地铁站)"},"geometry":{"type":"LineString","coordinates":[[113.255261,23.09131],[113.241434,23.085797]]}},{"type":"Feature","properties":{"shape_id":"{}","direction_id":"{\"0\": 50}","headsign":"{}","duration_avg":180,"n_vehicles":50,"d":1800,"route_I_counts":"{\"2\": 50}","source":36,"target":37,"layer":"L","from":"佛山沙园(地铁站)","to":"佛山燕岗(地铁站)"},"geometry":{"type":"LineString","coordinates":[[113.255261,23.09131],[113.266655,23.077836]]}},{"type":"Feature","properties":{"shape_id":"{}","direction_id":"{\"1\": 50}","headsign":"{}","duration_avg":180,"n_vehicles":50,"d":1800,"route_I_counts":"{\"2\": 50}","source":37,"target":36,"layer":"L","from":"佛山燕岗(地铁站)","to":"佛山沙园(地铁站)"},"geometry":{"type":"LineString","coordinates":[[113.266655,23.077836],[113.255261,23.09131]]}},{"type":"Feature","properties":{"shape_id":"{}","direction_id":"{\"0\": 50}","headsign":"{}","duration_avg":180,"n_vehicles":50,"d":1800,"route_I_counts":"{\"2\": 50}","source":37,"target":38,"layer":"L","from":"佛山燕岗(地铁站)","to":"佛山石溪(地铁站)"},"geometry":{"type":"LineString","coordinates":[[113.266655,23.077836],[113.280602,23.07062]]}},{"type":"Feature","properties":{"shape_id":"{}","direction_id":"{\"1\": 50}","headsign":"{}","duration_avg":180,"n_vehicles":50,"d":1800,"route_I_counts":"{\"2\": 50}","source":38,"target":37,"layer":"L","from":"佛山石溪(地铁站)","to":"佛山燕岗(地铁站)"},"geometry":{"type":"LineString","coordinates":[[113.280602,23.07062],[113.266655,23.077836]]}},{"type":"Feature","properties":{"shape_id":"{}","direction_id":"{\"0\": 50}","headsign":"{}","duration_avg":120,"n_vehicles":50,"d":1200,"route_I_counts":"{\"2\": 50}","source":38,"target":39,"layer":"L","from":"佛山石溪(地铁站)","to":"佛山南洲(地铁站)"},"geometry":{"type":"LineString","coordinates":[[113.280602,23.07062],[113.292084,23.0674]]}},{"type":"Feature","properties":{"shape_id":"{}","direction_id":"{\"1\": 50}","headsign":"{}","duration_avg":120,"n_vehicles":50,"d":1200,"route_I_counts":"{\"2\": 50}","source":39,"target":38,"layer":"L","from":"佛山南洲(地铁站)","to":"佛山石溪(地铁站)"},"geometry":{"type":"LineString","coordinates":[[113.292084,23.0674],[113.280602,23.07062]]}},{"type":"Feature","properties":{"shape_id":"{}","direction_id":"{\"0\": 50}","headsign":"{}","duration_avg":120,"n_vehicles":50,"d":1200,"route_I_counts":"{\"2\": 50}","source":39,"target":40,"layer":"L","from":"佛山南洲(地铁站)","to":"佛山沥滘(地铁站)"},"geometry":{"type":"LineString","coordinates":[[113.292084,23.0674],[113.313821,23.057432]]}},{"type":"Feature","properties":{"shape_id":"{}","direction_id":"{\"1\": 50}","headsign":"{}","duration_avg":120,"n_vehicles":50,"d":1200,"route_I_counts":"{\"2\": 50}","source":40,"target":39,"layer":"L","from":"佛山沥滘(地铁站)","to":"佛山南洲(地铁站)"},"geometry":{"type":"LineString","coordinates":[[113.313821,23.057432],[113.292084,23.0674]]}},{"type":"Feature","properties":{"shape_id":"{}","direction_id":"{\"0\": 50}","headsign":"{}","duration_avg":60,"n_vehicles":50,"d":600,"route_I_counts":"{\"3\": 50}","source":41,"target":42,"layer":"L","from":"佛山顺德学院(地铁站)","to":"佛山顺德欢乐海岸(地铁站)"},"geometry":{"type":"LineString","coordinates":[[113.312889,22.821619],[113.301481,22.821681]]}},{"type":"Feature","properties":{"shape_id":"{}","direction_id":"{\"1\": 50}","headsign":"{}","duration_avg":60,"n_vehicles":50,"d":600,"route_I_counts":"{\"3\": 50}","source":42,"target":41,"layer":"L","from":"佛山顺德欢乐海岸(地铁站)","to":"佛山顺德学院(地铁站)"},"geometry":{"type":"LineString","coordinates":[[113.301481,22.821681],[113.312889,22.821619]]}},{"type":"Feature","properties":{"shape_id":"{}","direction_id":"{\"0\": 50}","headsign":"{}","duration_avg":180,"n_vehicles":50,"d":1800,"route_I_counts":"{\"3\": 50}","source":42,"target":43,"layer":"L","from":"佛山顺德欢乐海岸(地铁站)","to":"佛山顺德一中(地铁站)"},"geometry":{"type":"LineString","coordinates":[[113.301481,22.821681],[113.288739,22.835489]]}},{"type":"Feature","properties":{"shape_id":"{}","direction_id":"{\"1\": 50}","headsign":"{}","duration_avg":180,"n_vehicles":50,"d":1800,"route_I_counts":"{\"3\": 50}","source":43,"target":42,"layer":"L","from":"佛山顺德一中(地铁站)","to":"佛山顺德欢乐海岸(地铁站)"},"geometry":{"type":"LineString","coordinates":[[113.288739,22.835489],[113.301481,22.821681]]}},{"type":"Feature","properties":{"shape_id":"{}","direction_id":"{\"0\": 50}","headsign":"{}","duration_avg":120,"n_vehicles":50,"d":1200,"route_I_counts":"{\"3\": 50}","source":43,"target":44,"layer":"L","from":"佛山顺德一中(地铁站)","to":"佛山驹荣北路(地铁站)"},"geometry":{"type":"LineString","coordinates":[[113.288739,22.835489],[113.272411,22.837719]]}},{"type":"Feature","properties":{"shape_id":"{}","direction_id":"{\"1\": 50}","headsign":"{}","duration_avg":120,"n_vehicles":50,"d":1200,"route_I_counts":"{\"3\": 50}","source":44,"target":43,"layer":"L","from":"佛山驹荣北路(地铁站)","to":"佛山顺德一中(地铁站)"},"geometry":{"type":"LineString","coordinates":[[113.272411,22.837719],[113.288739,22.835489]]}},{"type":"Feature","properties":{"shape_id":"{}","direction_id":"{\"0\": 50}","headsign":"{}","duration_avg":120,"n_vehicles":50,"d":1200,"route_I_counts":"{\"3\": 50}","source":44,"target":45,"layer":"L","from":"佛山驹荣北路(地铁站)","to":"佛山东乐路(地铁站)"},"geometry":{"type":"LineString","coordinates":[[113.272411,22.837719],[113.259389,22.837731]]}},{"type":"Feature","properties":{"shape_id":"{}","direction_id":"{\"1\": 50}","headsign":"{}","duration_avg":120,"n_vehicles":50,"d":1200,"route_I_counts":"{\"3\": 50}","source":45,"target":44,"layer":"L","from":"佛山东乐路(地铁站)","to":"佛山驹荣北路(地铁站)"},"geometry":{"type":"LineString","coordinates":[[113.259389,22.837731],[113.272411,22.837719]]}},{"type":"Feature","properties":{"shape_id":"{}","direction_id":"{\"0\": 50}","headsign":"{}","duration_avg":180,"n_vehicles":50,"d":1800,"route_I_counts":"{\"3\": 50}","source":45,"target":46,"layer":"L","from":"佛山东乐路(地铁站)","to":"佛山大良钟楼(地铁站)"},"geometry":{"type":"LineString","coordinates":[[113.259389,22.837731],[113.247761,22.842181]]}},{"type":"Feature","properties":{"shape_id":"{}","direction_id":"{\"1\": 50}","headsign":"{}","duration_avg":180,"n_vehicles":50,"d":1800,"route_I_counts":"{\"3\": 50}","source":46,"target":45,"layer":"L","from":"佛山大良钟楼(地铁站)","to":"佛山东乐路(地铁站)"},"geometry":{"type":"LineString","coordinates":[[113.247761,22.842181],[113.259389,22.837731]]}},{"type":"Feature","properties":{"shape_id":"{}","direction_id":"{\"0\": 50}","headsign":"{}","duration_avg":120,"n_vehicles":50,"d":1200,"route_I_counts":"{\"3\": 50}","source":46,"target":47,"layer":"L","from":"佛山大良钟楼(地铁站)","to":"佛山环市北(地铁站)"},"geometry":{"type":"LineString","coordinates":[[113.247761,22.842181],[113.239031,22.854219]]}},{"type":"Feature","properties":{"shape_id":"{}","direction_id":"{\"1\": 50}","headsign":"{}","duration_avg":120,"n_vehicles":50,"d":1200,"route_I_counts":"{\"3\": 50}","source":47,"target":46,"layer":"L","from":"佛山环市北(地铁站)","to":"佛山大良钟楼(地铁站)"},"geometry":{"type":"LineString","coordinates":[[113.239031,22.854219],[113.247761,22.842181]]}},{"type":"Feature","properties":{"shape_id":"{}","direction_id":"{\"0\": 50}","headsign":"{}","duration_avg":120,"n_vehicles":50,"d":1200,"route_I_counts":"{\"3\": 50}","source":47,"target":48,"layer":"L","from":"佛山环市北(地铁站)","to":"佛山顺德人民医院(地铁站)"},"geometry":{"type":"LineString","coordinates":[[113.239031,22.854219],[113.2369,22.870789]]}},{"type":"Feature","properties":{"shape_id":"{}","direction_id":"{\"1\": 50}","headsign":"{}","duration_avg":120,"n_vehicles":50,"d":1200,"route_I_counts":"{\"3\": 50}","source":48,"target":47,"layer":"L","from":"佛山顺德人民医院(地铁站)","to":"佛山环市北(地铁站)"},"geometry":{"type":"LineString","coordinates":[[113.2369,22.870789],[113.239031,22.854219]]}},{"type":"Feature","properties":{"shape_id":"{}","direction_id":"{\"0\": 50}","headsign":"{}","duration_avg":120,"n_vehicles":50,"d":1200,"route_I_counts":"{\"3\": 50}","source":48,"target":49,"layer":"L","from":"佛山顺德人民医院(地铁站)","to":"佛山荔村(地铁站)"},"geometry":{"type":"LineString","coordinates":[[113.2369,22.870789],[113.2256,22.874931]]}},{"type":"Feature","properties":{"shape_id":"{}","direction_id":"{\"1\": 50}","headsign":"{}","duration_avg":120,"n_vehicles":50,"d":1200,"route_I_counts":"{\"3\": 50}","source":49,"target":48,"layer":"L","from":"佛山荔村(地铁站)","to":"佛山顺德人民医院(地铁站)"},"geometry":{"type":"LineString","coordinates":[[113.2256,22.874931],[113.2369,22.870789]]}},{"type":"Feature","properties":{"shape_id":"{}","direction_id":"{\"0\": 50}","headsign":"{}","duration_avg":180,"n_vehicles":50,"d":1800,"route_I_counts":"{\"3\": 50}","source":49,"target":50,"layer":"L","from":"佛山荔村(地铁站)","to":"佛山伦教(地铁站)"},"geometry":{"type":"LineString","coordinates":[[113.2256,22.874931],[113.184769,22.877081]]}},{"type":"Feature","properties":{"shape_id":"{}","direction_id":"{\"1\": 50}","headsign":"{}","duration_avg":180,"n_vehicles":50,"d":1800,"route_I_counts":"{\"3\": 50}","source":50,"target":49,"layer":"L","from":"佛山伦教(地铁站)","to":"佛山荔村(地铁站)"},"geometry":{"type":"LineString","coordinates":[[113.184769,22.877081],[113.2256,22.874931]]}},{"type":"Feature","properties":{"shape_id":"{}","direction_id":"{\"0\": 50}","headsign":"{}","duration_avg":120,"n_vehicles":50,"d":1200,"route_I_counts":"{\"3\": 50}","source":50,"target":51,"layer":"L","from":"佛山伦教(地铁站)","to":"佛山广教(地铁站)"},"geometry":{"type":"LineString","coordinates":[[113.184769,22.877081],[113.167486,22.886442]]}},{"type":"Feature","properties":{"shape_id":"{}","direction_id":"{\"1\": 50}","headsign":"{}","duration_avg":120,"n_vehicles":50,"d":1200,"route_I_counts":"{\"3\": 50}","source":51,"target":50,"layer":"L","from":"佛山广教(地铁站)","to":"佛山伦教(地铁站)"},"geometry":{"type":"LineString","coordinates":[[113.167486,22.886442],[113.184769,22.877081]]}},{"type":"Feature","properties":{"shape_id":"{}","direction_id":"{\"0\": 50}","headsign":"{}","duration_avg":240,"n_vehicles":50,"d":2400,"route_I_counts":"{\"3\": 50}","source":51,"target":52,"layer":"L","from":"佛山广教(地铁站)","to":"佛山北滘公园(地铁站)"},"geometry":{"type":"LineString","coordinates":[[113.167486,22.886442],[113.206319,22.933139]]}},{"type":"Feature","properties":{"shape_id":"{}","direction_id":"{\"1\": 50}","headsign":"{}","duration_avg":240,"n_vehicles":50,"d":2400,"route_I_counts":"{\"3\": 50}","source":52,"target":51,"layer":"L","from":"佛山北滘公园(地铁站)","to":"佛山广教(地铁站)"},"geometry":{"type":"LineString","coordinates":[[113.206319,22.933139],[113.167486,22.886442]]}},{"type":"Feature","properties":{"shape_id":"{}","direction_id":"{\"0\": 50}","headsign":"{}","duration_avg":240,"n_vehicles":50,"d":2400,"route_I_counts":"{\"3\": 50}","source":52,"target":53,"layer":"L","from":"佛山北滘公园(地铁站)","to":"佛山高村(地铁站)"},"geometry":{"type":"LineString","coordinates":[[113.206319,22.933139],[113.18895,22.947489]]}},{"type":"Feature","properties":{"shape_id":"{}","direction_id":"{\"1\": 50}","headsign":"{}","duration_avg":240,"n_vehicles":50,"d":2400,"route_I_counts":"{\"3\": 50}","source":53,"target":52,"layer":"L","from":"佛山高村(地铁站)","to":"佛山北滘公园(地铁站)"},"geometry":{"type":"LineString","coordinates":[[113.18895,22.947489],[113.206319,22.933139]]}},{"type":"Feature","properties":{"shape_id":"{}","direction_id":"{\"0\": 50}","headsign":"{}","duration_avg":180,"n_vehicles":50,"d":1800,"route_I_counts":"{\"3\": 50}","source":53,"target":54,"layer":"L","from":"佛山高村(地铁站)","to":"佛山北滘西(地铁站)"},"geometry":{"type":"LineString","coordinates":[[113.18895,22.947489],[113.172811,22.954761]]}},{"type":"Feature","properties":{"shape_id":"{}","direction_id":"{\"1\": 50}","headsign":"{}","duration_avg":180,"n_vehicles":50,"d":1800,"route_I_counts":"{\"3\": 50}","source":54,"target":53,"layer":"L","from":"佛山北滘西(地铁站)","to":"佛山高村(地铁站)"},"geometry":{"type":"LineString","coordinates":[[113.172811,22.954761],[113.18895,22.947489]]}},{"type":"Feature","properties":{"shape_id":"{}","direction_id":"{\"0\": 50}","headsign":"{}","duration_avg":120,"n_vehicles":50,"d":1200,"route_I_counts":"{\"3\": 50}","source":54,"target":55,"layer":"L","from":"佛山北滘西(地铁站)","to":"佛山潭洲会展(地铁站)"},"geometry":{"type":"LineString","coordinates":[[113.172811,22.954761],[113.159281,22.951389]]}},{"type":"Feature","properties":{"shape_id":"{}","direction_id":"{\"1\": 50}","headsign":"{}","duration_avg":120,"n_vehicles":50,"d":1200,"route_I_counts":"{\"3\": 50}","source":55,"target":54,"layer":"L","from":"佛山潭洲会展(地铁站)","to":"佛山北滘西(地铁站)"},"geometry":{"type":"LineString","coordinates":[[113.159281,22.951389],[113.172811,22.954761]]}},{"type":"Feature","properties":{"shape_id":"{}","direction_id":"{\"0\": 50}","headsign":"{}","duration_avg":180,"n_vehicles":50,"d":1800,"route_I_counts":"{\"3\": 50}","source":55,"target":56,"layer":"L","from":"佛山潭洲会展(地铁站)","to":"佛山岳步(地铁站)"},"geometry":{"type":"LineString","coordinates":[[113.159281,22.951389],[113.139589,22.945631]]}},{"type":"Feature","properties":{"shape_id":"{}","direction_id":"{\"1\": 50}","headsign":"{}","duration_avg":180,"n_vehicles":50,"d":1800,"route_I_counts":"{\"3\": 50}","source":56,"target":55,"layer":"L","from":"佛山岳步(地铁站)","to":"佛山潭洲会展(地铁站)"},"geometry":{"type":"LineString","coordinates":[[113.139589,22.945631],[113.159281,22.951389]]}},{"type":"Feature","properties":{"shape_id":"{}","direction_id":"{\"0\": 50}","headsign":"{}","duration_avg":180,"n_vehicles":50,"d":1800,"route_I_counts":"{\"3\": 50}","source":56,"target":57,"layer":"L","from":"佛山岳步(地铁站)","to":"佛山大墩(地铁站)"},"geometry":{"type":"LineString","coordinates":[[113.139589,22.945631],[113.123831,22.956489]]}},{"type":"Feature","properties":{"shape_id":"{}","direction_id":"{\"1\": 50}","headsign":"{}","duration_avg":180,"n_vehicles":50,"d":1800,"route_I_counts":"{\"3\": 50}","source":57,"target":56,"layer":"L","from":"佛山大墩(地铁站)","to":"佛山岳步(地铁站)"},"geometry":{"type":"LineString","coordinates":[[113.123831,22.956489],[113.139589,22.945631]]}},{"type":"Feature","properties":{"shape_id":"{}","direction_id":"{\"0\": 50}","headsign":"{}","duration_avg":120,"n_vehicles":50,"d":1200,"route_I_counts":"{\"3\": 50}","source":57,"target":18,"layer":"L","from":"佛山大墩(地铁站)","to":"佛山东平(地铁站)"},"geometry":{"type":"LineString","coordinates":[[113.123831,22.956489],[113.123719,22.967852]]}},{"type":"Feature","properties":{"shape_id":"{}","direction_id":"{\"1\": 50}","headsign":"{}","duration_avg":120,"n_vehicles":50,"d":1200,"route_I_counts":"{\"3\": 50}","source":18,"target":57,"layer":"L","from":"佛山东平(地铁站)","to":"佛山大墩(地铁站)"},"geometry":{"type":"LineString","coordinates":[[113.123719,22.967852],[113.123831,22.956489]]}},{"type":"Feature","properties":{"shape_id":"{}","direction_id":"{\"0\": 50}","headsign":"{}","duration_avg":240,"n_vehicles":50,"d":2400,"route_I_counts":"{\"3\": 50}","source":18,"target":9,"layer":"L","from":"佛山东平(地铁站)","to":"佛山湾华(地铁站)"},"geometry":{"type":"LineString","coordinates":[[113.123719,22.967852],[113.126181,22.994446]]}},{"type":"Feature","properties":{"shape_id":"{}","direction_id":"{\"1\": 50}","headsign":"{}","duration_avg":240,"n_vehicles":50,"d":2400,"route_I_counts":"{\"3\": 50}","source":9,"target":18,"layer":"L","from":"佛山湾华(地铁站)","to":"佛山东平(地铁站)"},"geometry":{"type":"LineString","coordinates":[[113.126181,22.994446],[113.123719,22.967852]]}},{"type":"Feature","properties":{"shape_id":"{}","direction_id":"{\"0\": 50}","headsign":"{}","duration_avg":120,"n_vehicles":50,"d":1200,"route_I_counts":"{\"3\": 50}","source":9,"target":58,"layer":"L","from":"佛山湾华(地铁站)","to":"佛山亚艺公园(地铁站)"},"geometry":{"type":"LineString","coordinates":[[113.126181,22.994446],[113.124319,23.004561]]}},{"type":"Feature","properties":{"shape_id":"{}","direction_id":"{\"1\": 50}","headsign":"{}","duration_avg":120,"n_vehicles":50,"d":1200,"route_I_counts":"{\"3\": 50}","source":58,"target":9,"layer":"L","from":"佛山亚艺公园(地铁站)","to":"佛山湾华(地铁站)"},"geometry":{"type":"LineString","coordinates":[[113.124319,23.004561],[113.126181,22.994446]]}},{"type":"Feature","properties":{"shape_id":"{}","direction_id":"{\"0\": 50}","headsign":"{}","duration_avg":180,"n_vehicles":50,"d":1800,"route_I_counts":"{\"3\": 50}","source":58,"target":59,"layer":"L","from":"佛山亚艺公园(地铁站)","to":"佛山季华六路(地铁站)"},"geometry":{"type":"LineString","coordinates":[[113.124319,23.004561],[113.131431,23.014661]]}},{"type":"Feature","properties":{"shape_id":"{}","direction_id":"{\"1\": 50}","headsign":"{}","duration_avg":180,"n_vehicles":50,"d":1800,"route_I_counts":"{\"3\": 50}","source":59,"target":58,"layer":"L","from":"佛山季华六路(地铁站)","to":"佛山亚艺公园(地铁站)"},"geometry":{"type":"LineString","coordinates":[[113.131431,23.014661],[113.124319,23.004561]]}},{"type":"Feature","properties":{"shape_id":"{}","direction_id":"{\"0\": 50}","headsign":"{}","duration_avg":180,"n_vehicles":50,"d":1800,"route_I_counts":"{\"3\": 50}","source":59,"target":60,"layer":"L","from":"佛山季华六路(地铁站)","to":"佛山镇安(地铁站)"},"geometry":{"type":"LineString","coordinates":[[113.131431,23.014661],[113.138911,23.018769]]}},{"type":"Feature","properties":{"shape_id":"{}","direction_id":"{\"1\": 50}","headsign":"{}","duration_avg":180,"n_vehicles":50,"d":1800,"route_I_counts":"{\"3\": 50}","source":60,"target":59,"layer":"L","from":"佛山镇安(地铁站)","to":"佛山季华六路(地铁站)"},"geometry":{"type":"LineString","coordinates":[[113.138911,23.018769],[113.131431,23.014661]]}},{"type":"Feature","properties":{"shape_id":"{}","direction_id":"{\"0\": 50}","headsign":"{}","duration_avg":120,"n_vehicles":50,"d":1200,"route_I_counts":"{\"3\": 50}","source":60,"target":26,"layer":"L","from":"佛山镇安(地铁站)","to":"佛山桂城(地铁站)"},"geometry":{"type":"LineString","coordinates":[[113.138911,23.018769],[113.135972,23.034247]]}},{"type":"Feature","properties":{"shape_id":"{}","direction_id":"{\"1\": 50}","headsign":"{}","duration_avg":120,"n_vehicles":50,"d":1200,"route_I_counts":"{\"3\": 50}","source":26,"target":60,"layer":"L","from":"佛山桂城(地铁站)","to":"佛山镇安(地铁站)"},"geometry":{"type":"LineString","coordinates":[[113.135972,23.034247],[113.138911,23.018769]]}},{"type":"Feature","properties":{"shape_id":"{}","direction_id":"{\"0\": 50}","headsign":"{}","duration_avg":120,"n_vehicles":50,"d":1200,"route_I_counts":"{\"3\": 50}","source":26,"target":61,"layer":"L","from":"佛山桂城(地铁站)","to":"佛山西约(地铁站)"},"geometry":{"type":"LineString","coordinates":[[113.135972,23.034247],[113.134731,23.0432]]}},{"type":"Feature","properties":{"shape_id":"{}","direction_id":"{\"1\": 50}","headsign":"{}","duration_avg":120,"n_vehicles":50,"d":1200,"route_I_counts":"{\"3\": 50}","source":61,"target":26,"layer":"L","from":"佛山西约(地铁站)","to":"佛山桂城(地铁站)"},"geometry":{"type":"LineString","coordinates":[[113.134731,23.0432],[113.135972,23.034247]]}},{"type":"Feature","properties":{"shape_id":"{}","direction_id":"{\"0\": 50}","headsign":"{}","duration_avg":180,"n_vehicles":50,"d":1800,"route_I_counts":"{\"3\": 50}","source":61,"target":62,"layer":"L","from":"佛山西约(地铁站)","to":"佛山叠滘(地铁站)"},"geometry":{"type":"LineString","coordinates":[[113.134731,23.0432],[113.122081,23.050719]]}},{"type":"Feature","properties":{"shape_id":"{}","direction_id":"{\"1\": 50}","headsign":"{}","duration_avg":180,"n_vehicles":50,"d":1800,"route_I_counts":"{\"3\": 50}","source":62,"target":61,"layer":"L","from":"佛山叠滘(地铁站)","to":"佛山西约(地铁站)"},"geometry":{"type":"LineString","coordinates":[[113.122081,23.050719],[113.134731,23.0432]]}},{"type":"Feature","properties":{"shape_id":"{}","direction_id":"{\"0\": 50}","headsign":"{}","duration_avg":120,"n_vehicles":50,"d":1200,"route_I_counts":"{\"3\": 50}","source":62,"target":63,"layer":"L","from":"佛山叠滘(地铁站)","to":"佛山中山公园(地铁站)"},"geometry":{"type":"LineString","coordinates":[[113.122081,23.050719],[113.110739,23.050389]]}},{"type":"Feature","properties":{"shape_id":"{}","direction_id":"{\"1\": 50}","headsign":"{}","duration_avg":120,"n_vehicles":50,"d":1200,"route_I_counts":"{\"3\": 50}","source":63,"target":62,"layer":"L","from":"佛山中山公园(地铁站)","to":"佛山叠滘(地铁站)"},"geometry":{"type":"LineString","coordinates":[[113.110739,23.050389],[113.122081,23.050719]]}}]}