{"type":"FeatureCollection","features":[{"type":"Feature","geometry":{"type":"Point","coordinates":[130.325038,33.583772]},"properties":{"name":"姪浜(駅)","original_ids":"[1]","id":0,"layer":"stop"}},{"type":"Feature","geometry":{"type":"Point","coordinates":[130.340145,33.580947]},"properties":{"name":"室見(駅)","original_ids":"[2]","id":1,"layer":"stop"}},{"type":"Feature","geometry":{"type":"Point","coordinates":[130.348202,33.581376]},"properties":{"name":"藤崎(駅)","original_ids":"[3]","id":2,"layer":"stop"}},{"type":"Feature","geometry":{"type":"Point","coordinates":[130.359714,33.583726]},"properties":{"name":"西新(駅)","original_ids":"[4]","id":3,"layer":"stop"}},{"type":"Feature","geometry":{"type":"Point","coordinates":[130.370443,33.590278]},"properties":{"name":"唐人町(駅)","original_ids":"[5]","id":4,"layer":"stop"}},{"type":"Feature","geometry":{"type":"Point","coordinates":[130.378844,33.590081]},"properties":{"name":"大濠公園(駅)","original_ids":"[6]","id":5,"layer":"stop"}},{"type":"Feature","geometry":{"type":"Point","coordinates":[130.390946,33.589134]},"properties":{"name":"赤坂(駅)","original_ids":"[7]","id":6,"layer":"stop"}},{"type":"Feature","geometry":{"type":"Point","coordinates":[130.399379,33.591493]},"properties":{"name":"天神(駅)","original_ids":"[8]","id":7,"layer":"stop"}},{"type":"Feature","geometry":{"type":"Point","coordinates":[130.405988,33.59438]},"properties":{"name":"中洲川端(駅)","original_ids":"[9]","id":8,"layer":"stop"}},{"type":"Feature","geometry":{"type":"Point","coordinates":[130.414656,33.594156]},"properties":{"name":"祇園(駅)","original_ids":"[10]","id":9,"layer":"stop"}},{"type":"Feature","geometry":{"type":"Point","coordinates":[130.420616,33.59013]},"properties":{"name":"博多(駅)","original_ids":"[11]","id":10,"layer":"stop"}},{"type":"Feature","geometry":{"type":"Point","coordinates":[130.431265,33.589956]},"properties":{"name":"東比恵(駅)","original_ids":"[12]","id":11,"layer":"stop"}},{"type":"Feature","geometry":{"type":"Point","coordinates":[130.448549,33.597052]},"properties":{"name":"福岡空港(駅)","original_ids":"[13]","id":12,"layer":"stop"}},{"type":"Feature","geometry":{"type":"Point","coordinates":[130.409882,33.598294]},"properties":{"name":"呉服町(駅)","original_ids":"[14]","id":13,"layer":"stop"}},{"type":"Feature","geometry":{"type":"Point","coordinates":[130.414324,33.602548]},"properties":{"name":"千代県庁口(駅)","original_ids":"[15]","id":14,"layer":"stop"}},{"type":"Feature","geometry":{"type":"Point","coordinates":[130.419388,33.609357]},"properties":{"name":"馬出九大病院前(駅)","original_ids":"[16]","id":15,"layer":"stop"}},{"type":"Feature","geometry":{"type":"Point","coordinates":[130.419677,33.61579]},"properties":{"name":"箱崎宮前(駅)","original_ids":"[17]","id":16,"layer":"stop"}},{"type":"Feature","geometry":{"type":"Point","coordinates":[130.421019,33.622178]},"properties":{"name":"箱崎九大前(駅)","original_ids":"[18]","id":17,"layer":"stop"}},{"type":"Feature","geometry":{"type":"Point","coordinates":[130.425578,33.632683]},"properties":{"name":"貝塚(駅)","original_ids":"[19]","id":18,"layer":"stop"}},{"type":"Feature","geometry":{"type":"Point","coordinates":[130.321122,33.555156]},"properties":{"name":"橋本(駅)","original_ids":"[20]","id":19,"layer":"stop"}},{"type":"Feature","geometry":{"type":"Point","coordinates":[130.329534,33.552724]},"properties":{"name":"次郎丸(駅)","original_ids":"[21]","id":20,"layer":"stop"}},{"type":"Feature","geometry":{"type":"Point","coordinates":[130.337913,33.550533]},"properties":{"name":"賀茂(駅)","original_ids":"[22]","id":21,"layer":"stop"}},{"type":"Feature","geometry":{"type":"Point","coordinates":[130.346571,33.548334]},"properties":{"name":"野芥(駅)","original_ids":"[23]","id":22,"layer":"stop"}},{"type":"Feature","geometry":{"type":"Point","coordinates":[130.354993,33.545839]},"properties":{"name":"梅林(駅)","original_ids":"[24]","id":23,"layer":"stop"}},{"type":"Feature","geometry":{"type":"Point","coordinates":[130.362225,33.547511]},"properties":{"name":"福大前(駅)","original_ids":"[25]","id":24,"layer":"stop"}},{"type":"Feature","geometry":{"type":"Point","coordinates":[130.361667,33.553207]},"properties":{"name":"七隈(駅)","original_ids":"[26]","id":25,"layer":"stop"}},{"type":"Feature","geometry":{"type":"Point","coordinates":[130.361538,33.559331]},"properties":{"name":"金山(駅)","original_ids":"[27]","id":26,"layer":"stop"}},{"type":"Feature","geometry":{"type":"Point","coordinates":[130.3654,33.566099]},"properties":{"name":"茶山(駅)","original_ids":"[28]","id":27,"layer":"stop"}},{"type":"Feature","geometry":{"type":"Point","coordinates":[130.369638,33.574207]},"properties":{"name":"別府(駅)","original_ids":"[29]","id":28,"layer":"stop"}},{"type":"Feature","geometry":{"type":"Point","coordinates":[130.377331,33.577693]},"properties":{"name":"六本松(駅)","original_ids":"[30]","id":29,"layer":"stop"}},{"type":"Feature","geometry":{"type":"Point","coordinates":[130.386858,33.577326]},"properties":{"name":"桜坂(駅)","original_ids":"[31]","id":30,"layer":"stop"}},{"type":"Feature","geometry":{"type":"Point","coordinates":[130.396203,33.580392]},"properties":{"name":"薬院大通(駅)","original_ids":"[32]","id":31,"layer":"stop"}},{"type":"Feature","geometry":{"type":"Point","coordinates":[130.401825,33.581805]},"properties":{"name":"薬院(駅)","original_ids":"[33]","id":32,"layer":"stop"}},{"type":"Feature","geometry":{"type":"Point","coordinates":[130.404947,33.583968]},"properties":{"name":"渡辺通(駅)","original_ids":"[34]","id":33,"layer":"stop"}},{"type":"Feature","geometry":{"type":"Point","coordinates":[130.401717,33.58824]},"properties":{"name":"天神南(駅)","original_ids":"[35]","id":34,"layer":"stop"}},{"type":"Feature","geometry":{"type":"Point","coordinates":[130.411583,33.591333]},"properties":{"name":"櫛田神社前(駅)","original_ids":"[36]","id":35,"layer":"stop"}},{"type":"Feature","properties":{"shape_id":"{}","direction_id":"{\"0\": 50}","headsign":"{}","duration_avg":117,"n_vehicles":50,"d":1170,"route_I_counts":"{\"1\": 50}","source":0,"target":1,"layer":"L","from":"姪浜(駅)","to":"室見(駅)"},"geometry":{"type":"LineString","coordinates":[[130.325038,33.583772],[130.340145,33.580947]]}},{"type":"Feature","properties":{"shape_id":"{}","direction_id":"{\"1\": 50}","headsign":"{}","duration_avg":117,"n_vehicles":50,"d":1170,"route_I_counts":"{\"1\": 50}","source":1,"target":0,"layer":"L","from":"室見(駅)","to":"姪浜(駅)"},"geometry":{"type":"LineString","coordinates":[[130.340145,33.580947],[130.325038,33.583772]]}},{"type":"Feature","properties":{"shape_id":"{}","direction_id":"{\"0\": 50}","headsign":"{}","duration_avg":97,"n_vehicles":50,"d":970,"route_I_counts":"{\"1\": 50}","source":1,"target":2,"layer":"L","from":"室見(駅)","to":"藤崎(駅)"},"geometry":{"type":"LineString","coordinates":[[130.340145,33.580947],[130.348202,33.581376]]}},{"type":"Feature","properties":{"shape_id":"{}","direction_id":"{\"1\": 50}","headsign":"{}","duration_avg":97,"n_vehicles":50,"d":970,"route_I_counts":"{\"1\": 50}","source":2,"target":1,"layer":"L","from":"藤崎(駅)","to":"室見(駅)"},"geometry":{"type":"LineString","coordinates":[[130.348202,33.581376],[130.340145,33.580947]]}},{"type":"Feature","properties":{"shape_id":"{}","direction_id":"{\"0\": 50}","headsign":"{}","duration_avg":119,"n_vehicles":50,"d":1190,"route_I_counts":"{\"1\": 50}","source":2,"target":3,"layer":"L","from":"藤崎(駅)","to":"西新(駅)"},"geometry":{"type":"LineString","coordinates":[[130.348202,33.581376],[130.359714,33.583726]]}},{"type":"Feature","properties":{"shape_id":"{}","direction_id":"{\"1\": 50}","headsign":"{}","duration_avg":119,"n_vehicles":50,"d":1190,"route_I_counts":"{\"1\": 50}","source":3,"target":2,"layer":"L","from":"西新(駅)","to":"藤崎(駅)"},"geometry":{"type":"LineString","coordinates":[[130.359714,33.583726],[130.348202,33.581376]]}},{"type":"Feature","properties":{"shape_id":"{}","direction_id":"{\"0\": 50}","headsign":"{}","duration_avg":111,"n_vehicles":50,"d":1110,"route_I_counts":"{\"1\": 50}","source":3,"target":4,"layer":"L","from":"西新(駅)","to":"唐人町(駅)"},"geometry":{"type":"LineString","coordinates":[[130.359714,33.583726],[130.370443,33.590278]]}},{"type":"Feature","properties":{"shape_id":"{}","direction_id":"{\"1\": 50}","headsign":"{}","duration_avg":111,"n_vehicles":50,"d":1110,"route_I_counts":"{\"1\": 50}","source":4,"target":3,"layer":"L","from":"唐人町(駅)","to":"西新(駅)"},"geometry":{"type":"LineString","coordinates":[[130.370443,33.590278],[130.359714,33.583726]]}},{"type":"Feature","properties":{"shape_id":"{}","direction_id":"{\"0\": 50}","headsign":"{}","duration_avg":90,"n_vehicles":50,"d":900,"route_I_counts":"{\"1\": 50}","source":4,"target":5,"layer":"L","from":"唐人町(駅)","to":"大濠公園(駅)"},"geometry":{"type":"LineString","coordinates":[[130.370443,33.590278],[130.378844,33.590081]]}},{"type":"Feature","properties":{"shape_id":"{}","direction_id":"{\"1\": 50}","headsign":"{}","duration_avg":90,"n_vehicles":50,"d":900,"route_I_counts":"{\"1\": 50}","source":5,"target":4,"layer":"L","from":"大濠公園(駅)","to":"唐人町(駅)"},"geometry":{"type":"LineString","coordinates":[[130.378844,33.590081],[130.370443,33.590278]]}},{"type":"Feature","properties":{"shape_id":"{}","direction_id":"{\"0\": 50}","headsign":"{}","duration_avg":118,"n_vehicles":50,"d":1180,"route_I_counts":"{\"1\": 50}","source":5,"target":6,"layer":"L","from":"大濠公園(駅)","to":"赤坂(駅)"},"geometry":{"type":"LineString","coordinates":[[130.378844,33.590081],[130.390946,33.589134]]}},{"type":"Feature","properties":{"shape_id":"{}","direction_id":"{\"1\": 50}","headsign":"{}","duration_avg":118,"n_vehicles":50,"d":1180,"route_I_counts":"{\"1\": 50}","source":6,"target":5,"layer":"L","from":"赤坂(駅)","to":"大濠公園(駅)"},"geometry":{"type":"LineString","coordinates":[[130.390946,33.589134],[130.378844,33.590081]]}},{"type":"Feature","properties":{"shape_id":"{}","direction_id":"{\"0\": 50}","headsign":"{}","duration_avg":114,"n_vehicles":50,"d":1140,"route_I_counts":"{\"1\": 50}","source":6,"target":7,"layer":"L","from":"赤坂(駅)","to":"天神(駅)"},"geometry":{"type":"LineString","coordinates":[[130.390946,33.589134],[130.399379,33.591493]]}},{"type":"Feature","properties":{"shape_id":"{}","direction_id":"{\"1\": 50}","headsign":"{}","duration_avg":114,"n_vehicles":50,"d":1140,"route_I_counts":"{\"1\": 50}","source":7,"target":6,"layer":"L","from":"天神(駅)","to":"赤坂(駅)"},"geometry":{"type":"LineString","coordinates":[[130.399379,33.591493],[130.390946,33.589134]]}},{"type":"Feature","properties":{"shape_id":"{}","direction_id":"{\"0\": 50}","headsign":"{}","duration_avg":84,"n_vehicles":50,"d":840,"route_I_counts":"{\"1\": 50}","source":7,"target":8,"layer":"L","from":"天神(駅)","to":"中洲川端(駅)"},"geometry":{"type":"LineString","coordinates":[[130.399379,33.591493],[130.405988,33.59438]]}},{"type":"Feature","properties":{"shape_id":"{}","direction_id":"{\"1\": 50}","headsign":"{}","duration_avg":84,"n_vehicles":50,"d":840,"route_I_counts":"{\"1\": 50}","source":8,"target":7,"layer":"L","from":"中洲川端(駅)","to":"天神(駅)"},"geometry":{"type":"LineString","coordinates":[[130.405988,33.59438],[130.399379,33.591493]]}},{"type":"Feature","properties":{"shape_id":"{}","direction_id":"{\"0\": 50}","headsign":"{}","duration_avg":91,"n_vehicles":50,"d":910,"route_I_counts":"{\"1\": 50}","source":8,"target":9,"layer":"L","from":"中洲川端(駅)","to":"祇園(駅)"},"geometry":{"type":"LineString","coordinates":[[130.405988,33.59438],[130.414656,33.594156]]}},{"type":"Feature","properties":{"shape_id":"{}","direction_id":"{\"1\": 50}","headsign":"{}","duration_avg":91,"n_vehicles":50,"d":910,"route_I_counts":"{\"1\": 50}","source":9,"target":8,"layer":"L","from":"祇園(駅)","to":"中洲川端(駅)"},"geometry":{"type":"LineString","coordinates":[[130.414656,33.594156],[130.405988,33.59438]]}},{"type":"Feature","properties":{"shape_id":"{}","direction_id":"{\"0\": 50}","headsign":"{}","duration_avg":118,"n_vehicles":50,"d":1180,"route_I_counts":"{\"1\": 50}","source":9,"target":10,"layer":"L","from":"祇園(駅)","to":"博多(駅)"},"geometry":{"type":"LineString","coordinates":[[130.414656,33.594156],[130.420616,33.59013]]}},{"type":"Feature","properties":{"shape_id":"{}","direction_id":"{\"1\": 50}","headsign":"{}","duration_avg":118,"n_vehicles":50,"d":1180,"route_I_counts":"{\"1\": 50}","source":10,"target":9,"layer":"L","from":"博多(駅)","to":"祇園(駅)"},"geometry":{"type":"LineString","coordinates":[[130.420616,33.59013],[130.414656,33.594156]]}},{"type":"Feature","properties":{"shape_id":"{}","direction_id":"{\"0\": 50}","headsign":"{}","duration_avg":121,"n_vehicles":50,"d":1210,"route_I_counts":"{\"1\": 50}","source":10,"target":11,"layer":"L","from":"博多(駅)","to":"東比恵(駅)"},"geometry":{"type":"LineString","coordinates":[[130.420616,33.59013],[130.431265,33.589956]]}},{"type":"Feature","properties":{"shape_id":"{}","direction_id":"{\"1\": 50}","headsign":"{}","duration_avg":121,"n_vehicles":50,"d":1210,"route_I_counts":"{\"1\": 50}","source":11,"target":10,"layer":"L","from":"東比恵(駅)","to":"博多(駅)"},"geometry":{"type":"LineString","coordinates":[[130.431265,33.589956],[130.420616,33.59013]]}},{"type":"Feature","properties":{"shape_id":"{}","direction_id":"{\"0\": 50}","headsign":"{}","duration_avg":137,"n_vehicles":50,"d":1370,"route_I_counts":"{\"1\": 50}","source":11,"target":12,"layer":"L","from":"東比恵(駅)","to":"福岡空港(駅)"},"geometry":{"type":"LineString","coordinates":[[130.431265,33.589956],[130.448549,33.597052]]}},{"type":"Feature","properties":{"shape_id":"{}","direction_id":"{\"1\": 50}","headsign":"{}","duration_avg":137,"n_vehicles":50,"d":1370,"route_I_counts":"{\"1\": 50}","source":12,"target":11,"layer":"L","from":"福岡空港(駅)","to":"東比恵(駅)"},"geometry":{"type":"LineString","coordinates":[[130.448549,33.597052],[130.431265,33.589956]]}},{"type":"Feature","properties":{"shape_id":"{}","direction_id":"{\"0\": 50}","headsign":"{}","duration_avg":79,"n_vehicles":50,"d":790,"route_I_counts":"{\"2\": 50}","source":8,"target":13,"layer":"L","from":"中洲川端(駅)","to":"呉服町(駅)"},"geometry":{"type":"LineString","coordinates":[[130.405988,33.59438],[130.409882,33.598294]]}},{"type":"Feature","properties":{"shape_id":"{}","direction_id":"{\"1\": 50}","headsign":"{}","duration_avg":79,"n_vehicles":50,"d":790,"route_I_counts":"{\"2\": 50}","source":13,"target":8,"layer":"L","from":"呉服町(駅)","to":"中洲川端(駅)"},"geometry":{"type":"LineString","coordinates":[[130.409882,33.598294],[130.405988,33.59438]]}},{"type":"Feature","properties":{"shape_id":"{}","direction_id":"{\"0\": 50}","headsign":"{}","duration_avg":90,"n_vehicles":50,"d":900,"route_I_counts":"{\"2\": 50}","source":13,"target":14,"layer":"L","from":"呉服町(駅)","to":"千代県庁口(駅)"},"geometry":{"type":"LineString","coordinates":[[130.409882,33.598294],[130.414324,33.602548]]}},{"type":"Feature","properties":{"shape_id":"{}","direction_id":"{\"1\": 50}","headsign":"{}","duration_avg":90,"n_vehicles":50,"d":900,"route_I_counts":"{\"2\": 50}","source":14,"target":13,"layer":"L","from":"千代県庁口(駅)","to":"呉服町(駅)"},"geometry":{"type":"LineString","coordinates":[[130.414324,33.602548],[130.409882,33.598294]]}},{"type":"Feature","properties":{"shape_id":"{}","direction_id":"{\"0\": 50}","headsign":"{}","duration_avg":105,"n_vehicles":50,"d":1050,"route_I_counts":"{\"2\": 50}","source":14,"target":15,"layer":"L","from":"千代県庁口(駅)","to":"馬出九大病院前(駅)"},"geometry":{"type":"LineString","coordinates":[[130.414324,33.602548],[130.419388,33.609357]]}},{"type":"Feature","properties":{"shape_id":"{}","direction_id":"{\"1\": 50}","headsign":"{}","duration_avg":105,"n_vehicles":50,"d":1050,"route_I_counts":"{\"2\": 50}","source":15,"target":14,"layer":"L","from":"馬出九大病院前(駅)","to":"千代県庁口(駅)"},"geometry":{"type":"LineString","coordinates":[[130.419388,33.609357],[130.414324,33.602548]]}},{"type":"Feature","properties":{"shape_id":"{}","direction_id":"{\"0\": 50}","headsign":"{}","duration_avg":116,"n_vehicles":50,"d":1160,"route_I_counts":"{\"2\": 50}","source":15,"target":16,"layer":"L","from":"馬出九大病院前(駅)","to":"箱崎宮前(駅)"},"geometry":{"type":"LineString","coordinates":[[130.419388,33.609357],[130.419677,33.61579]]}},{"type":"Feature","properties":{"shape_id":"{}","direction_id":"{\"1\": 50}","headsign":"{}","duration_avg":116,"n_vehicles":50,"d":1160,"route_I_counts":"{\"2\": 50}","source":16,"target":15,"layer":"L","from":"箱崎宮前(駅)","to":"馬出九大病院前(駅)"},"geometry":{"type":"LineString","coordinates":[[130.419677,33.61579],[130.419388,33.609357]]}},{"type":"Feature","properties":{"shape_id":"{}","direction_id":"{\"0\": 50}","headsign":"{}","duration_avg":98,"n_vehicles":50,"d":980,"route_I_counts":"{\"2\": 50}","source":16,"target":17,"layer":"L","from":"箱崎宮前(駅)","to":"箱崎九大前(駅)"},"geometry":{"type":"LineString","coordinates":[[130.419677,33.61579],[130.421019,33.622178]]}},{"type":"Feature","properties":{"shape_id":"{}","direction_id":"{\"1\": 50}","headsign":"{}","duration_avg":98,"n_vehicles":50,"d":980,"route_I_counts":"{\"2\": 50}","source":17,"target":16,"layer":"L","from":"箱崎九大前(駅)","to":"箱崎宮前(駅)"},"geometry":{"type":"LineString","coordinates":[[130.421019,33.622178],[130.419677,33.61579]]}},{"type":"Feature","properties":{"shape_id":"{}","direction_id":"{\"0\": 50}","headsign":"{}","duration_avg":117,"n_vehicles":50,"d":1170,"route_I_counts":"{\"2\": 50}","source":17,"target":18,"layer":"L","from":"箱崎九大前(駅)","to":"貝塚(駅)"},"geometry":{"type":"LineString","coordinates":[[130.421019,33.622178],[130.425578,33.632683]]}},{"type":"Feature","properties":{"shape_id":"{}","direction_id":"{\"1\": 50}","headsign":"{}","duration_avg":117,"n_vehicles":50,"d":1170,"route_I_counts":"{\"2\": 50}","source":18,"target":17,"layer":"L","from":"貝塚(駅)","to":"箱崎九大前(駅)"},"geometry":{"type":"LineString","coordinates":[[130.425578,33.632683],[130.421019,33.622178]]}},{"type":"Feature","properties":{"shape_id":"{}","direction_id":"{\"0\": 50}","headsign":"{}","duration_avg":85,"n_vehicles":50,"d":850,"route_I_counts":"{\"3\": 50}","source":19,"target":20,"layer":"L","from":"橋本(駅)","to":"次郎丸(駅)"},"geometry":{"type":"LineString","coordinates":[[130.321122,33.555156],[130.329534,33.552724]]}},{"type":"Feature","properties":{"shape_id":"{}","direction_id":"{\"1\": 50}","headsign":"{}","duration_avg":85,"n_vehicles":50,"d":850,"route_I_counts":"{\"3\": 50}","source":20,"target":19,"layer":"L","from":"次郎丸(駅)","to":"橋本(駅)"},"geometry":{"type":"LineString","coordinates":[[130.329534,33.552724],[130.321122,33.555156]]}},{"type":"Feature","properties":{"shape_id":"{}","direction_id":"{\"0\": 50}","headsign":"{}","duration_avg":95,"n_vehicles":50,"d":950,"route_I_counts":"{\"3\": 50}","source":20,"target":21,"layer":"L","from":"次郎丸(駅)","to":"賀茂(駅)"},"geometry":{"type":"LineString","coordinates":[[130.329534,33.552724],[130.337913,33.550533]]}},{"type":"Feature","properties":{"shape_id":"{}","direction_id":"{\"1\": 50}","headsign":"{}","duration_avg":95,"n_vehicles":50,"d":950,"route_I_counts":"{\"3\": 50}","source":21,"target":20,"layer":"L","from":"賀茂(駅)","to":"次郎丸(駅)"},"geometry":{"type":"LineString","coordinates":[[130.337913,33.550533],[130.329534,33.552724]]}},{"type":"Feature","properties":{"shape_id":"{}","direction_id":"{\"0\": 50}","headsign":"{}","duration_avg":119,"n_vehicles":50,"d":1190,"route_I_counts":"{\"3\": 50}","source":21,"target":22,"layer":"L","from":"賀茂(駅)","to":"野芥(駅)"},"geometry":{"type":"LineString","coordinates":[[130.337913,33.550533],[130.346571,33.548334]]}},{"type":"Feature","properties":{"shape_id":"{}","direction_id":"{\"1\": 50}","headsign":"{}","duration_avg":119,"n_vehicles":50,"d":1190,"route_I_counts":"{\"3\": 50}","source":22,"target":21,"layer":"L","from":"野芥(駅)","to":"賀茂(駅)"},"geometry":{"type":"LineString","coordinates":[[130.346571,33.548334],[130.337913,33.550533]]}},{"type":"Feature","properties":{"shape_id":"{}","direction_id":"{\"0\": 50}","headsign":"{}","duration_avg":83,"n_vehicles":50,"d":830,"route_I_counts":"{\"3\": 50}","source":22,"target":23,"layer":"L","from":"野芥(駅)","to":"梅林(駅)"},"geometry":{"type":"LineString","coordinates":[[130.346571,33.548334],[130.354993,33.545839]]}},{"type":"Feature","properties":{"shape_id":"{}","direction_id":"{\"1\": 50}","headsign":"{}","duration_avg":83,"n_vehicles":50,"d":830,"route_I_counts":"{\"3\": 50}","source":23,"target":22,"layer":"L","from":"梅林(駅)","to":"野芥(駅)"},"geometry":{"type":"LineString","coordinates":[[130.354993,33.545839],[130.346571,33.548334]]}},{"type":"Feature","properties":{"shape_id":"{}","direction_id":"{\"0\": 50}","headsign":"{}","duration_avg":120,"n_vehicles":50,"d":1200,"route_I_counts":"{\"3\": 50}","source":23,"target":24,"layer":"L","from":"梅林(駅)","to":"福大前(駅)"},"geometry":{"type":"LineString","coordinates":[[130.354993,33.545839],[130.362225,33.547511]]}},{"type":"Feature","properties":{"shape_id":"{}","direction_id":"{\"1\": 50}","headsign":"{}","duration_avg":120,"n_vehicles":50,"d":1200,"route_I_counts":"{\"3\": 50}","source":24,"target":23,"layer":"L","from":"福大前(駅)","to":"梅林(駅)"},"geometry":{"type":"LineString","coordinates":[[130.362225,33.547511],[130.354993,33.545839]]}},{"type":"Feature","properties":{"shape_id":"{}","direction_id":"{\"0\": 50}","headsign":"{}","duration_avg":60,"n_vehicles":50,"d":600,"route_I_counts":"{\"3\": 50}","source":24,"target":25,"layer":"L","from":"福大前(駅)","to":"七隈(駅)"},"geometry":{"type":"LineString","coordinates":[[130.362225,33.547511],[130.361667,33.553207]]}},{"type":"Feature","properties":{"shape_id":"{}","direction_id":"{\"1\": 50}","headsign":"{}","duration_avg":60,"n_vehicles":50,"d":600,"route_I_counts":"{\"3\": 50}","source":25,"target":24,"layer":"L","from":"七隈(駅)","to":"福大前(駅)"},"geometry":{"type":"LineString","coordinates":[[130.361667,33.553207],[130.362225,33.547511]]}},{"type":"Feature","properties":{"shape_id":"{}","direction_id":"{\"0\": 50}","headsign":"{}","duration_avg":97,"n_vehicles":50,"d":970,"route_I_counts":"{\"3\": 50}","source":25,"target":26,"layer":"L","from":"七隈(駅)","to":"金山(駅)"},"geometry":{"type":"LineString","coordinates":[[130.361667,33.553207],[130.361538,33.559331]]}},{"type":"Feature","properties":{"shape_id":"{}","direction_id":"{\"1\": 50}","headsign":"{}","duration_avg":97,"n_vehicles":50,"d":970,"route_I_counts":"{\"3\": 50}","source":26,"target":25,"layer":"L","from":"金山(駅)","to":"七隈(駅)"},"geometry":{"type":"LineString","coordinates":[[130.361538,33.559331],[130.361667,33.553207]]}},{"type":"Feature","properties":{"shape_id":"{}","direction_id":"{\"0\": 50}","headsign":"{}","duration_avg":119,"n_vehicles":50,"d":1190,"route_I_counts":"{\"3\": 50}","source":26,"target":27,"layer":"L","from":"金山(駅)","to":"茶山(駅)"},"geometry":{"type":"LineString","coordinates":[[130.361538,33.559331],[130.3654,33.566099]]}},{"type":"Feature","properties":{"shape_id":"{}","direction_id":"{\"1\": 50}","headsign":"{}","duration_avg":119,"n_vehicles":50,"d":1190,"route_I_counts":"{\"3\": 50}","source":27,"target":26,"layer":"L","from":"茶山(駅)","to":"金山(駅)"},"geometry":{"type":"LineString","coordinates":[[130.3654,33.566099],[130.361538,33.559331]]}},{"type":"Feature","properties":{"shape_id":"{}","direction_id":"{\"0\": 50}","headsign":"{}","duration_avg":120,"n_vehicles":50,"d":1200,"route_I_counts":"{\"3\": 50}","source":27,"target":28,"layer":"L","from":"茶山(駅)","to":"別府(駅)"},"geometry":{"type":"LineString","coordinates":[[130.3654,33.566099],[130.369638,33.574207]]}},{"type":"Feature","properties":{"shape_id":"{}","direction_id":"{\"1\": 50}","headsign":"{}","duration_avg":120,"n_vehicles":50,"d":1200,"route_I_counts":"{\"3\": 50}","source":28,"target":27,"layer":"L","from":"別府(駅)","to":"茶山(駅)"},"geometry":{"type":"LineString","coordinates":[[130.369638,33.574207],[130.3654,33.566099]]}},{"type":"Feature","properties":{"shape_id":"{}","direction_id":"{\"0\": 50}","headsign":"{}","duration_avg":83,"n_vehicles":50,"d":830,"route_I_counts":"{\"3\": 50}","source":28,"target":29,"layer":"L","from":"別府(駅)","to":"六本松(駅)"},"geometry":{"type":"LineString","coordinates":[[130.369638,33.574207],[130.377331,33.577693]]}},{"type":"Feature","properties":{"shape_id":"{}","direction_id":"{\"1\": 50}","headsign":"{}","duration_avg":83,"n_vehicles":50,"d":830,"route_I_counts":"{\"3\": 50}","source":29,"target":28,"layer":"L","from":"六本松(駅)","to":"別府(駅)"},"geometry":{"type":"LineString","coordinates":[[130.377331,33.577693],[130.369638,33.574207]]}},{"type":"Feature","properties":{"shape_id":"{}","direction_id":"{\"0\": 50}","headsign":"{}","duration_avg":102,"n_vehicles":50,"d":1020,"route_I_counts":"{\"3\": 50}","source":29,"target":30,"layer":"L","from":"六本松(駅)","to":"桜坂(駅)"},"geometry":{"type":"LineString","coordinates":[[130.377331,33.577693],[130.386858,33.577326]]}},{"type":"Feature","properties":{"shape_id":"{}","direction_id":"{\"1\": 50}","headsign":"{}","duration_avg":102,"n_vehicles":50,"d":1020,"route_I_counts":"{\"3\": 50}","source":30,"target":29,"layer":"L","from":"桜坂(駅)","to":"六本松(駅)"},"geometry":{"type":"LineString","coordinates":[[130.386858,33.577326],[130.377331,33.577693]]}},{"type":"Feature","properties":{"shape_id":"{}","direction_id":"{\"0\": 50}","headsign":"{}","duration_avg":120,"n_vehicles":50,"d":1200,"route_I_counts":"{\"3\": 50}","source":30,"target":31,"layer":"L","from":"桜坂(駅)","to":"薬院大通(駅)"},"geometry":{"type":"LineString","coordinates":[[130.386858,33.577326],[130.396203,33.580392]]}},{"type":"Feature","properties":{"shape_id":"{}","direction_id":"{\"1\": 50}","headsign":"{}","duration_avg":120,"n_vehicles":50,"d":1200,"route_I_counts":"{\"3\": 50}","source":31,"target":30,"layer":"L","from":"薬院大通(駅)","to":"桜坂(駅)"},"geometry":{"type":"LineString","coordinates":[[130.396203,33.580392],[130.386858,33.577326]]}},{"type":"Feature","properties":{"shape_id":"{}","direction_id":"{\"0\": 50}","headsign":"{}","duration_avg":92,"n_vehicles":50,"d":920,"route_I_counts":"{\"3\": 50}","source":31,"target":32,"layer":"L","from":"薬院大通(駅)","to":"薬院(駅)"},"geometry":{"type":"LineString","coordinates":[[130.396203,33.580392],[130.401825,33.581805]]}},{"type":"Feature","properties":{"shape_id":"{}","direction_id":"{\"1\": 50}","headsign":"{}","duration_avg":92,"n_vehicles":50,"d":920,"route_I_counts":"{\"3\": 50}","source":32,"target":31,"layer":"L","from":"薬院(駅)","to":"薬院大通(駅)"},"geometry":{"type":"LineString","coordinates":[[130.401825,33.581805],[130.396203,33.580392]]}},{"type":"Feature","properties":{"shape_id":"{}","direction_id":"{\"0\": 50}","headsign":"{}","duration_avg":95,"n_vehicles":50,"d":950,"route_I_counts":"{\"3\": 50}","source":32,"target":33,"layer":"L","from":"薬院(駅)","to":"渡辺通(駅)"},"geometry":{"type":"LineString","coordinates":[[130.401825,33.581805],[130.404947,33.583968]]}},{"type":"Feature","properties":{"shape_id":"{}","direction_id":"{\"1\": 50}","headsign":"{}","duration_avg":95,"n_vehicles":50,"d":950,"route_I_counts":"{\"3\": 50}","source":33,"target":32,"layer":"L","from":"渡辺通(駅)","to":"薬院(駅)"},"geometry":{"type":"LineString","coordinates":[[130.404947,33.583968],[130.401825,33.581805]]}},{"type":"Feature","properties":{"shape_id":"{}","direction_id":"{\"0\": 50}","headsign":"{}","duration_avg":121,"n_vehicles":50,"d":1210,"route_I_counts":"{\"3\": 50}","source":33,"target":34,"layer":"L","from":"渡辺通(駅)","to":"天神南(駅)"},"geometry":{"type":"LineString","coordinates":[[130.404947,33.583968],[130.401717,33.58824]]}},{"type":"Feature","properties":{"shape_id":"{}","direction_id":"{\"1\": 50}","headsign":"{}","duration_avg":121,"n_vehicles":50,"d":1210,"route_I_counts":"{\"3\": 50}","source":34,"target":33,"layer":"L","from":"天神南(駅)","to":"渡辺通(駅)"},"geometry":{"type":"LineString","coordinates":[[130.401717,33.58824],[130.404947,33.583968]]}},{"type":"Feature","properties":{"shape_id":"{}","direction_id":"{\"0\": 50}","headsign":"{}","duration_avg":120,"n_vehicles":50,"d":1200,"route_I_counts":"{\"3\": 50}","source":34,"target":35,"layer":"L","from":"天神南(駅)","to":"櫛田神社前(駅)"},"geometry":{"type":"LineString","coordinates":[[130.401717,33.58824],[130.411583,33.591333]]}},{"type":"Feature","properties":{"shape_id":"{}","direction_id":"{\"1\": 50}","headsign":"{}","duration_avg":120,"n_vehicles":50,"d":1200,"route_I_counts":"{\"3\": 50}","source":35,"target":34,"layer":"L","from":"櫛田神社前(駅)","to":"天神南(駅)"},"geometry":{"type":"LineString","coordinates":[[130.411583,33.591333],[130.401717,33.58824]]}},{"type":"Feature","properties":{"shape_id":"{}","direction_id":"{\"0\": 50}","headsign":"{}","duration_avg":85,"n_vehicles":50,"d":850,"route_I_counts":"{\"3\": 50}","source":35,"target":10,"layer":"L","from":"櫛田神社前(駅)","to":"博多(駅)"},"geometry":{"type":"LineString","coordinates":[[130.411583,33.591333],[130.420616,33.59013]]}},{"type":"Feature","properties":{"shape_id":"{}","direction_id":"{\"1\": 50}","headsign":"{}","duration_avg":85,"n_vehicles":50,"d":850,"route_I_counts":"{\"3\": 50}","source":10,"target":35,"layer":"L","from":"博多(駅)","to":"櫛田神社前(駅)"},"geometry":{"type":"LineString","coordinates":[[130.420616,33.59013],[130.411583,33.591333]]}}]}