{"type":"FeatureCollection","features":[{"type":"Feature","geometry":{"type":"Point","coordinates":[119.324774,26.146524]},"properties":{"name":"福州象峰(地铁站)","original_ids":"[1]","id":0,"layer":"stop"}},{"type":"Feature","geometry":{"type":"Point","coordinates":[119.316169,26.136882]},"properties":{"name":"福州秀山(地铁站)","original_ids":"[2]","id":1,"layer":"stop"}},{"type":"Feature","geometry":{"type":"Point","coordinates":[119.313522,26.129188]},"properties":{"name":"福州罗汉山(地铁站)","original_ids":"[3]","id":2,"layer":"stop"}},{"type":"Feature","geometry":{"type":"Point","coordinates":[119.313293,26.116068]},"properties":{"name":"福州福州火车站(地铁站)","original_ids":"[4]","id":3,"layer":"stop"}},{"type":"Feature","geometry":{"type":"Point","coordinates":[119.308891,26.107066]},"properties":{"name":"福州斗门(地铁站)","original_ids":"[5]","id":4,"layer":"stop"}},{"type":"Feature","geometry":{"type":"Point","coordinates":[119.301167,26.105314]},"properties":{"name":"福州树兜(地铁站)","original_ids":"[6]","id":5,"layer":"stop"}},{"type":"Feature","geometry":{"type":"Point","coordinates":[119.292235,26.099372]},"properties":{"name":"福州屏山(地铁站)","original_ids":"[7]","id":6,"layer":"stop"}},{"type":"Feature","geometry":{"type":"Point","coordinates":[119.294454,26.089064]},"properties":{"name":"福州东街口(地铁站)","original_ids":"[8]","id":7,"layer":"stop"}},{"type":"Feature","geometry":{"type":"Point","coordinates":[119.29681,26.080869]},"properties":{"name":"福州南门兜(地铁站)","original_ids":"[9]","id":8,"layer":"stop"}},{"type":"Feature","geometry":{"type":"Point","coordinates":[119.299563,26.072253]},"properties":{"name":"福州茶亭(地铁站)","original_ids":"[10]","id":9,"layer":"stop"}},{"type":"Feature","geometry":{"type":"Point","coordinates":[119.305034,26.060049]},"properties":{"name":"福州达道(地铁站)","original_ids":"[11]","id":10,"layer":"stop"}},{"type":"Feature","geometry":{"type":"Point","coordinates":[119.315739,26.046748]},"properties":{"name":"福州上藤(地铁站)","original_ids":"[12]","id":11,"layer":"stop"}},{"type":"Feature","geometry":{"type":"Point","coordinates":[119.321841,26.037807]},"properties":{"name":"福州三叉街(地铁站)","original_ids":"[13]","id":12,"layer":"stop"}},{"type":"Feature","geometry":{"type":"Point","coordinates":[119.330394,26.028915]},"properties":{"name":"福州白湖亭(地铁站)","original_ids":"[14]","id":13,"layer":"stop"}},{"type":"Feature","geometry":{"type":"Point","coordinates":[119.338666,26.020093]},"properties":{"name":"福州葫芦阵(地铁站)","original_ids":"[15]","id":14,"layer":"stop"}},{"type":"Feature","geometry":{"type":"Point","coordinates":[119.343898,26.01314]},"properties":{"name":"福州黄山(地铁站)","original_ids":"[16]","id":15,"layer":"stop"}},{"type":"Feature","geometry":{"type":"Point","coordinates":[119.349109,26.004552]},"properties":{"name":"福州排下(地铁站)","original_ids":"[17]","id":16,"layer":"stop"}},{"type":"Feature","geometry":{"type":"Point","coordinates":[119.355312,25.999093]},"properties":{"name":"福州城门(地铁站)","original_ids":"[18]","id":17,"layer":"stop"}},{"type":"Feature","geometry":{"type":"Point","coordinates":[119.363387,25.993717]},"properties":{"name":"福州三角埕(地铁站)","original_ids":"[19]","id":18,"layer":"stop"}},{"type":"Feature","geometry":{"type":"Point","coordinates":[119.375157,25.987407]},"properties":{"name":"福州胪雷(地铁站)","original_ids":"[20]","id":19,"layer":"stop"}},{"type":"Feature","geometry":{"type":"Point","coordinates":[119.386942,25.989269]},"properties":{"name":"福州福州火车南站(地铁站)","original_ids":"[21]","id":20,"layer":"stop"}},{"type":"Feature","geometry":{"type":"Point","coordinates":[119.397289,25.995233]},"properties":{"name":"福州安平(地铁站)","original_ids":"[22]","id":21,"layer":"stop"}},{"type":"Feature","geometry":{"type":"Point","coordinates":[119.410181,25.997165]},"properties":{"name":"福州梁厝(地铁站)","original_ids":"[23]","id":22,"layer":"stop"}},{"type":"Feature","geometry":{"type":"Point","coordinates":[119.415855,25.987104]},"properties":{"name":"福州下洋(地铁站)","original_ids":"[24]","id":23,"layer":"stop"}},{"type":"Feature","geometry":{"type":"Point","coordinates":[119.421208,25.981762]},"properties":{"name":"福州三江口(地铁站)","original_ids":"[25]","id":24,"layer":"stop"}},{"type":"Feature","geometry":{"type":"Point","coordinates":[119.330576,25.990355]},"properties":{"name":"福州帝封江(地铁站)","original_ids":"[26]","id":25,"layer":"stop"}},{"type":"Feature","geometry":{"type":"Point","coordinates":[119.344134,25.99329]},"properties":{"name":"福州螺洲温泉(地铁站)","original_ids":"[27]","id":26,"layer":"stop"}},{"type":"Feature","geometry":{"type":"Point","coordinates":[119.360452,26.018934]},"properties":{"name":"福州林浦(地铁站)","original_ids":"[28]","id":27,"layer":"stop"}},{"type":"Feature","geometry":{"type":"Point","coordinates":[119.354653,26.032566]},"properties":{"name":"福州会展中心(地铁站)","original_ids":"[29]","id":28,"layer":"stop"}},{"type":"Feature","geometry":{"type":"Point","coordinates":[119.345439,26.04308]},"properties":{"name":"福州花海公园(地铁站)","original_ids":"[30]","id":29,"layer":"stop"}},{"type":"Feature","geometry":{"type":"Point","coordinates":[119.33963,26.057749]},"properties":{"name":"福州鳌峰洲(地铁站)","original_ids":"[31]","id":30,"layer":"stop"}},{"type":"Feature","geometry":{"type":"Point","coordinates":[119.341851,26.067408]},"properties":{"name":"福州光明港(地铁站)","original_ids":"[32]","id":31,"layer":"stop"}},{"type":"Feature","geometry":{"type":"Point","coordinates":[119.345458,26.074938]},"properties":{"name":"福州前屿(地铁站)","original_ids":"[33]","id":32,"layer":"stop"}},{"type":"Feature","geometry":{"type":"Point","coordinates":[119.347559,26.084218]},"properties":{"name":"福州后屿(地铁站)","original_ids":"[34]","id":33,"layer":"stop"}},{"type":"Feature","geometry":{"type":"Point","coordinates":[119.347335,26.092842]},"properties":{"name":"福州横屿(地铁站)","original_ids":"[35]","id":34,"layer":"stop"}},{"type":"Feature","geometry":{"type":"Point","coordinates":[119.332798,26.096079]},"properties":{"name":"福州竹屿(地铁站)","original_ids":"[36]","id":35,"layer":"stop"}},{"type":"Feature","geometry":{"type":"Point","coordinates":[119.321407,26.094036]},"properties":{"name":"福州三角池(地铁站)","original_ids":"[37]","id":36,"layer":"stop"}},{"type":"Feature","geometry":{"type":"Point","coordinates":[119.310185,26.09067]},"properties":{"name":"福州东门(地铁站)","original_ids":"[38]","id":37,"layer":"stop"}},{"type":"Feature","geometry":{"type":"Point","coordinates":[119.302324,26.089797]},"properties":{"name":"福州省立医院(地铁站)","original_ids":"[39]","id":38,"layer":"stop"}},{"type":"Feature","geometry":{"type":"Point","coordinates":[119.285263,26.087818]},"properties":{"name":"福州西门(地铁站)","original_ids":"[40]","id":39,"layer":"stop"}},{"type":"Feature","geometry":{"type":"Point","coordinates":[119.27867,26.085591]},"properties":{"name":"福州陆庄(地铁站)","original_ids":"[41]","id":40,"layer":"stop"}},{"type":"Feature","geometry":{"type":"Point","coordinates":[119.26794,26.081523]},"properties":{"name":"福州凤凰池(地铁站)","original_ids":"[42]","id":41,"layer":"stop"}},{"type":"Feature","geometry":{"type":"Point","coordinates":[119.256959,26.079442]},"properties":{"name":"福州金牛山(地铁站)","original_ids":"[43]","id":42,"layer":"stop"}},{"type":"Feature","geometry":{"type":"Point","coordinates":[119.244054,26.076467]},"properties":{"name":"福州洪塘(地铁站)","original_ids":"[44]","id":43,"layer":"stop"}},{"type":"Feature","geometry":{"type":"Point","coordinates":[119.232845,26.067185]},"properties":{"name":"福州建新(地铁站)","original_ids":"[45]","id":44,"layer":"stop"}},{"type":"Feature","geometry":{"type":"Point","coordinates":[119.232955,26.061035]},"properties":{"name":"福州半洲(地铁站)","original_ids":"[46]","id":45,"layer":"stop"}},{"type":"Feature","geometry":{"type":"Point","coordinates":[119.226769,26.112884]},"properties":{"name":"福州荆溪厚屿(地铁站)","original_ids":"[47]","id":46,"layer":"stop"}},{"type":"Feature","geometry":{"type":"Point","coordinates":[119.24247,26.087999]},"properties":{"name":"福州农林大学(地铁站)","original_ids":"[48]","id":47,"layer":"stop"}},{"type":"Feature","geometry":{"type":"Point","coordinates":[119.247007,26.068522]},"properties":{"name":"福州阵坂(地铁站)","original_ids":"[49]","id":48,"layer":"stop"}},{"type":"Feature","geometry":{"type":"Point","coordinates":[119.253613,26.058563]},"properties":{"name":"福州马榕(地铁站)","original_ids":"[50]","id":49,"layer":"stop"}},{"type":"Feature","geometry":{"type":"Point","coordinates":[119.257569,26.050569]},"properties":{"name":"福州金山(地铁站)","original_ids":"[51]","id":50,"layer":"stop"}},{"type":"Feature","geometry":{"type":"Point","coordinates":[119.262188,26.041819]},"properties":{"name":"福州凤岗里(地铁站)","original_ids":"[52]","id":51,"layer":"stop"}},{"type":"Feature","geometry":{"type":"Point","coordinates":[119.267908,26.037195]},"properties":{"name":"福州浦上大道(地铁站)","original_ids":"[53]","id":52,"layer":"stop"}},{"type":"Feature","geometry":{"type":"Point","coordinates":[119.271708,26.028406]},"properties":{"name":"福州霞镜(地铁站)","original_ids":"[54]","id":53,"layer":"stop"}},{"type":"Feature","geometry":{"type":"Point","coordinates":[119.272577,26.016456]},"properties":{"name":"福州东岭(地铁站)","original_ids":"[55]","id":54,"layer":"stop"}},{"type":"Feature","geometry":{"type":"Point","coordinates":[119.27656,26.009051]},"properties":{"name":"福州台屿(地铁站)","original_ids":"[56]","id":55,"layer":"stop"}},{"type":"Feature","geometry":{"type":"Point","coordinates":[119.288206,26.002447]},"properties":{"name":"福州盘屿(地铁站)","original_ids":"[57]","id":56,"layer":"stop"}},{"type":"Feature","geometry":{"type":"Point","coordinates":[119.306537,26.000484]},"properties":{"name":"福州吴山(地铁站)","original_ids":"[58]","id":57,"layer":"stop"}},{"type":"Feature","geometry":{"type":"Point","coordinates":[119.315747,25.996753]},"properties":{"name":"福州盖山竹榄(地铁站)","original_ids":"[59]","id":58,"layer":"stop"}},{"type":"Feature","geometry":{"type":"Point","coordinates":[119.32258,25.989883]},"properties":{"name":"福州义序(地铁站)","original_ids":"[60]","id":59,"layer":"stop"}},{"type":"Feature","geometry":{"type":"Point","coordinates":[119.346486,25.989217]},"properties":{"name":"福州螺洲古镇(地铁站)","original_ids":"[61]","id":60,"layer":"stop"}},{"type":"Feature","geometry":{"type":"Point","coordinates":[119.357491,25.987351]},"properties":{"name":"福州前锦(地铁站)","original_ids":"[62]","id":61,"layer":"stop"}},{"type":"Feature","geometry":{"type":"Point","coordinates":[119.367459,25.987354]},"properties":{"name":"福州龙江(地铁站)","original_ids":"[63]","id":62,"layer":"stop"}},{"type":"Feature","geometry":{"type":"Point","coordinates":[119.146804,26.106281]},"properties":{"name":"福州苏洋(地铁站)","original_ids":"[64]","id":63,"layer":"stop"}},{"type":"Feature","geometry":{"type":"Point","coordinates":[119.167278,26.089823]},"properties":{"name":"福州沙堤(地铁站)","original_ids":"[65]","id":64,"layer":"stop"}},{"type":"Feature","geometry":{"type":"Point","coordinates":[119.184884,26.093101]},"properties":{"name":"福州上街(地铁站)","original_ids":"[66]","id":65,"layer":"stop"}},{"type":"Feature","geometry":{"type":"Point","coordinates":[119.195537,26.070808]},"properties":{"name":"福州金屿(地铁站)","original_ids":"[67]","id":66,"layer":"stop"}},{"type":"Feature","geometry":{"type":"Point","coordinates":[119.202324,26.061538]},"properties":{"name":"福州福州大学(地铁站)","original_ids":"[68]","id":67,"layer":"stop"}},{"type":"Feature","geometry":{"type":"Point","coordinates":[119.203741,26.043057]},"properties":{"name":"福州董屿·福建师大(地铁站)","original_ids":"[69]","id":68,"layer":"stop"}},{"type":"Feature","geometry":{"type":"Point","coordinates":[119.213941,26.045244]},"properties":{"name":"福州厚庭(地铁站)","original_ids":"[70]","id":69,"layer":"stop"}},{"type":"Feature","geometry":{"type":"Point","coordinates":[119.237563,26.050028]},"properties":{"name":"福州桔园洲(地铁站)","original_ids":"[71]","id":70,"layer":"stop"}},{"type":"Feature","geometry":{"type":"Point","coordinates":[119.244907,26.053091]},"properties":{"name":"福州洪湾(地铁站)","original_ids":"[72]","id":71,"layer":"stop"}},{"type":"Feature","geometry":{"type":"Point","coordinates":[119.271875,26.053497]},"properties":{"name":"福州金祥(地铁站)","original_ids":"[73]","id":72,"layer":"stop"}},{"type":"Feature","geometry":{"type":"Point","coordinates":[119.291721,26.073866]},"properties":{"name":"福州祥坂(地铁站)","original_ids":"[74]","id":73,"layer":"stop"}},{"type":"Feature","geometry":{"type":"Point","coordinates":[119.28884,26.066019]},"properties":{"name":"福州宁化(地铁站)","original_ids":"[75]","id":74,"layer":"stop"}},{"type":"Feature","geometry":{"type":"Point","coordinates":[119.291721,26.073866]},"properties":{"name":"福州西洋(地铁站)","original_ids":"[76]","id":75,"layer":"stop"}},{"type":"Feature","geometry":{"type":"Point","coordinates":[119.308808,26.079673]},"properties":{"name":"福州水部(地铁站)","original_ids":"[77]","id":76,"layer":"stop"}},{"type":"Feature","geometry":{"type":"Point","coordinates":[119.32198,26.079717]},"properties":{"name":"福州紫阳(地铁站)","original_ids":"[78]","id":77,"layer":"stop"}},{"type":"Feature","geometry":{"type":"Point","coordinates":[119.330235,26.07775]},"properties":{"name":"福州五里亭(地铁站)","original_ids":"[79]","id":78,"layer":"stop"}},{"type":"Feature","geometry":{"type":"Point","coordinates":[119.358787,26.069132]},"properties":{"name":"福州上洋(地铁站)","original_ids":"[80]","id":79,"layer":"stop"}},{"type":"Feature","geometry":{"type":"Point","coordinates":[119.370126,26.056555]},"properties":{"name":"福州鼓山(地铁站)","original_ids":"[81]","id":80,"layer":"stop"}},{"type":"Feature","geometry":{"type":"Point","coordinates":[119.367351,26.047366]},"properties":{"name":"福州洋里(地铁站)","original_ids":"[82]","id":81,"layer":"stop"}},{"type":"Feature","geometry":{"type":"Point","coordinates":[119.352874,26.02388]},"properties":{"name":"福州潘墩(地铁站)","original_ids":"[83]","id":82,"layer":"stop"}},{"type":"Feature","geometry":{"type":"Point","coordinates":[119.383873,26.009166]},"properties":{"name":"福州樟岚(地铁站)","original_ids":"[84]","id":83,"layer":"stop"}},{"type":"Feature","geometry":{"type":"Point","coordinates":[119.468441,25.959898]},"properties":{"name":"福州营前(地铁站)","original_ids":"[85]","id":84,"layer":"stop"}},{"type":"Feature","geometry":{"type":"Point","coordinates":[119.485609,25.954301]},"properties":{"name":"福州航城(地铁站)","original_ids":"[86]","id":85,"layer":"stop"}},{"type":"Feature","geometry":{"type":"Point","coordinates":[119.49834,25.961213]},"properties":{"name":"福州郑和(地铁站)","original_ids":"[87]","id":86,"layer":"stop"}},{"type":"Feature","geometry":{"type":"Point","coordinates":[119.510619,25.961293]},"properties":{"name":"福州十洋(地铁站)","original_ids":"[88]","id":87,"layer":"stop"}},{"type":"Feature","geometry":{"type":"Point","coordinates":[119.524278,25.954533]},"properties":{"name":"福州吴航(地铁站)","original_ids":"[89]","id":88,"layer":"stop"}},{"type":"Feature","geometry":{"type":"Point","coordinates":[119.533907,25.943881]},"properties":{"name":"福州鹤上(地铁站)","original_ids":"[90]","id":89,"layer":"stop"}},{"type":"Feature","geometry":{"type":"Point","coordinates":[119.540941,25.933846]},"properties":{"name":"福州沙京(地铁站)","original_ids":"[91]","id":90,"layer":"stop"}},{"type":"Feature","geometry":{"type":"Point","coordinates":[119.578119,25.915565]},"properties":{"name":"福州下吴(地铁站)","original_ids":"[92]","id":91,"layer":"stop"}},{"type":"Feature","geometry":{"type":"Point","coordinates":[119.598895,25.902709]},"properties":{"name":"福州万寿(地铁站)","original_ids":"[93]","id":92,"layer":"stop"}},{"type":"Feature","properties":{"shape_id":"{}","direction_id":"{\"0\": 50}","headsign":"{}","duration_avg":180,"n_vehicles":50,"d":1800,"route_I_counts":"{\"1\": 50}","source":0,"target":1,"layer":"L","from":"福州象峰(地铁站)","to":"福州秀山(地铁站)"},"geometry":{"type":"LineString","coordinates":[[119.324774,26.146524],[119.316169,26.136882]]}},{"type":"Feature","properties":{"shape_id":"{}","direction_id":"{\"1\": 50}","headsign":"{}","duration_avg":180,"n_vehicles":50,"d":1800,"route_I_counts":"{\"1\": 50}","source":1,"target":0,"layer":"L","from":"福州秀山(地铁站)","to":"福州象峰(地铁站)"},"geometry":{"type":"LineString","coordinates":[[119.316169,26.136882],[119.324774,26.146524]]}},{"type":"Feature","properties":{"shape_id":"{}","direction_id":"{\"0\": 50}","headsign":"{}","duration_avg":120,"n_vehicles":50,"d":1200,"route_I_counts":"{\"1\": 50}","source":1,"target":2,"layer":"L","from":"福州秀山(地铁站)","to":"福州罗汉山(地铁站)"},"geometry":{"type":"LineString","coordinates":[[119.316169,26.136882],[119.313522,26.129188]]}},{"type":"Feature","properties":{"shape_id":"{}","direction_id":"{\"1\": 50}","headsign":"{}","duration_avg":120,"n_vehicles":50,"d":1200,"route_I_counts":"{\"1\": 50}","source":2,"target":1,"layer":"L","from":"福州罗汉山(地铁站)","to":"福州秀山(地铁站)"},"geometry":{"type":"LineString","coordinates":[[119.313522,26.129188],[119.316169,26.136882]]}},{"type":"Feature","properties":{"shape_id":"{}","direction_id":"{\"0\": 50}","headsign":"{}","duration_avg":180,"n_vehicles":50,"d":1800,"route_I_counts":"{\"1\": 50}","source":2,"target":3,"layer":"L","from":"福州罗汉山(地铁站)","to":"福州福州火车站(地铁站)"},"geometry":{"type":"LineString","coordinates":[[119.313522,26.129188],[119.313293,26.116068]]}},{"type":"Feature","properties":{"shape_id":"{}","direction_id":"{\"1\": 50}","headsign":"{}","duration_avg":180,"n_vehicles":50,"d":1800,"route_I_counts":"{\"1\": 50}","source":3,"target":2,"layer":"L","from":"福州福州火车站(地铁站)","to":"福州罗汉山(地铁站)"},"geometry":{"type":"LineString","coordinates":[[119.313293,26.116068],[119.313522,26.129188]]}},{"type":"Feature","properties":{"shape_id":"{}","direction_id":"{\"0\": 50}","headsign":"{}","duration_avg":120,"n_vehicles":50,"d":1200,"route_I_counts":"{\"1\": 50}","source":3,"target":4,"layer":"L","from":"福州福州火车站(地铁站)","to":"福州斗门(地铁站)"},"geometry":{"type":"LineString","coordinates":[[119.313293,26.116068],[119.308891,26.107066]]}},{"type":"Feature","properties":{"shape_id":"{}","direction_id":"{\"1\": 50}","headsign":"{}","duration_avg":120,"n_vehicles":50,"d":1200,"route_I_counts":"{\"1\": 50}","source":4,"target":3,"layer":"L","from":"福州斗门(地铁站)","to":"福州福州火车站(地铁站)"},"geometry":{"type":"LineString","coordinates":[[119.308891,26.107066],[119.313293,26.116068]]}},{"type":"Feature","properties":{"shape_id":"{}","direction_id":"{\"0\": 50}","headsign":"{}","duration_avg":120,"n_vehicles":50,"d":1200,"route_I_counts":"{\"1\": 50}","source":4,"target":5,"layer":"L","from":"福州斗门(地铁站)","to":"福州树兜(地铁站)"},"geometry":{"type":"LineString","coordinates":[[119.308891,26.107066],[119.301167,26.105314]]}},{"type":"Feature","properties":{"shape_id":"{}","direction_id":"{\"1\": 50}","headsign":"{}","duration_avg":120,"n_vehicles":50,"d":1200,"route_I_counts":"{\"1\": 50}","source":5,"target":4,"layer":"L","from":"福州树兜(地铁站)","to":"福州斗门(地铁站)"},"geometry":{"type":"LineString","coordinates":[[119.301167,26.105314],[119.308891,26.107066]]}},{"type":"Feature","properties":{"shape_id":"{}","direction_id":"{\"0\": 50}","headsign":"{}","duration_avg":120,"n_vehicles":50,"d":1200,"route_I_counts":"{\"1\": 50}","source":5,"target":6,"layer":"L","from":"福州树兜(地铁站)","to":"福州屏山(地铁站)"},"geometry":{"type":"LineString","coordinates":[[119.301167,26.105314],[119.292235,26.099372]]}},{"type":"Feature","properties":{"shape_id":"{}","direction_id":"{\"1\": 50}","headsign":"{}","duration_avg":120,"n_vehicles":50,"d":1200,"route_I_counts":"{\"1\": 50}","source":6,"target":5,"layer":"L","from":"福州屏山(地铁站)","to":"福州树兜(地铁站)"},"geometry":{"type":"LineString","coordinates":[[119.292235,26.099372],[119.301167,26.105314]]}},{"type":"Feature","properties":{"shape_id":"{}","direction_id":"{\"0\": 50}","headsign":"{}","duration_avg":120,"n_vehicles":50,"d":1200,"route_I_counts":"{\"1\": 50}","source":6,"target":7,"layer":"L","from":"福州屏山(地铁站)","to":"福州东街口(地铁站)"},"geometry":{"type":"LineString","coordinates":[[119.292235,26.099372],[119.294454,26.089064]]}},{"type":"Feature","properties":{"shape_id":"{}","direction_id":"{\"1\": 50}","headsign":"{}","duration_avg":120,"n_vehicles":50,"d":1200,"route_I_counts":"{\"1\": 50}","source":7,"target":6,"layer":"L","from":"福州东街口(地铁站)","to":"福州屏山(地铁站)"},"geometry":{"type":"LineString","coordinates":[[119.294454,26.089064],[119.292235,26.099372]]}},{"type":"Feature","properties":{"shape_id":"{}","direction_id":"{\"0\": 50}","headsign":"{}","duration_avg":120,"n_vehicles":50,"d":1200,"route_I_counts":"{\"1\": 50}","source":7,"target":8,"layer":"L","from":"福州东街口(地铁站)","to":"福州南门兜(地铁站)"},"geometry":{"type":"LineString","coordinates":[[119.294454,26.089064],[119.29681,26.080869]]}},{"type":"Feature","properties":{"shape_id":"{}","direction_id":"{\"1\": 50}","headsign":"{}","duration_avg":120,"n_vehicles":50,"d":1200,"route_I_counts":"{\"1\": 50}","source":8,"target":7,"layer":"L","from":"福州南门兜(地铁站)","to":"福州东街口(地铁站)"},"geometry":{"type":"LineString","coordinates":[[119.29681,26.080869],[119.294454,26.089064]]}},{"type":"Feature","properties":{"shape_id":"{}","direction_id":"{\"0\": 50}","headsign":"{}","duration_avg":180,"n_vehicles":50,"d":1800,"route_I_counts":"{\"1\": 50}","source":8,"target":9,"layer":"L","from":"福州南门兜(地铁站)","to":"福州茶亭(地铁站)"},"geometry":{"type":"LineString","coordinates":[[119.29681,26.080869],[119.299563,26.072253]]}},{"type":"Feature","properties":{"shape_id":"{}","direction_id":"{\"1\": 50}","headsign":"{}","duration_avg":180,"n_vehicles":50,"d":1800,"route_I_counts":"{\"1\": 50}","source":9,"target":8,"layer":"L","from":"福州茶亭(地铁站)","to":"福州南门兜(地铁站)"},"geometry":{"type":"LineString","coordinates":[[119.299563,26.072253],[119.29681,26.080869]]}},{"type":"Feature","properties":{"shape_id":"{}","direction_id":"{\"0\": 50}","headsign":"{}","duration_avg":120,"n_vehicles":50,"d":1200,"route_I_counts":"{\"1\": 50}","source":9,"target":10,"layer":"L","from":"福州茶亭(地铁站)","to":"福州达道(地铁站)"},"geometry":{"type":"LineString","coordinates":[[119.299563,26.072253],[119.305034,26.060049]]}},{"type":"Feature","properties":{"shape_id":"{}","direction_id":"{\"1\": 50}","headsign":"{}","duration_avg":120,"n_vehicles":50,"d":1200,"route_I_counts":"{\"1\": 50}","source":10,"target":9,"layer":"L","from":"福州达道(地铁站)","to":"福州茶亭(地铁站)"},"geometry":{"type":"LineString","coordinates":[[119.305034,26.060049],[119.299563,26.072253]]}},{"type":"Feature","properties":{"shape_id":"{}","direction_id":"{\"0\": 50}","headsign":"{}","duration_avg":180,"n_vehicles":50,"d":1800,"route_I_counts":"{\"1\": 50}","source":10,"target":11,"layer":"L","from":"福州达道(地铁站)","to":"福州上藤(地铁站)"},"geometry":{"type":"LineString","coordinates":[[119.305034,26.060049],[119.315739,26.046748]]}},{"type":"Feature","properties":{"shape_id":"{}","direction_id":"{\"1\": 50}","headsign":"{}","duration_avg":180,"n_vehicles":50,"d":1800,"route_I_counts":"{\"1\": 50}","source":11,"target":10,"layer":"L","from":"福州上藤(地铁站)","to":"福州达道(地铁站)"},"geometry":{"type":"LineString","coordinates":[[119.315739,26.046748],[119.305034,26.060049]]}},{"type":"Feature","properties":{"shape_id":"{}","direction_id":"{\"0\": 50}","headsign":"{}","duration_avg":120,"n_vehicles":50,"d":1200,"route_I_counts":"{\"1\": 50}","source":11,"target":12,"layer":"L","from":"福州上藤(地铁站)","to":"福州三叉街(地铁站)"},"geometry":{"type":"LineString","coordinates":[[119.315739,26.046748],[119.321841,26.037807]]}},{"type":"Feature","properties":{"shape_id":"{}","direction_id":"{\"1\": 50}","headsign":"{}","duration_avg":120,"n_vehicles":50,"d":1200,"route_I_counts":"{\"1\": 50}","source":12,"target":11,"layer":"L","from":"福州三叉街(地铁站)","to":"福州上藤(地铁站)"},"geometry":{"type":"LineString","coordinates":[[119.321841,26.037807],[119.315739,26.046748]]}},{"type":"Feature","properties":{"shape_id":"{}","direction_id":"{\"0\": 50}","headsign":"{}","duration_avg":180,"n_vehicles":50,"d":1800,"route_I_counts":"{\"1\": 50}","source":12,"target":13,"layer":"L","from":"福州三叉街(地铁站)","to":"福州白湖亭(地铁站)"},"geometry":{"type":"LineString","coordinates":[[119.321841,26.037807],[119.330394,26.028915]]}},{"type":"Feature","properties":{"shape_id":"{}","direction_id":"{\"1\": 50}","headsign":"{}","duration_avg":180,"n_vehicles":50,"d":1800,"route_I_counts":"{\"1\": 50}","source":13,"target":12,"layer":"L","from":"福州白湖亭(地铁站)","to":"福州三叉街(地铁站)"},"geometry":{"type":"LineString","coordinates":[[119.330394,26.028915],[119.321841,26.037807]]}},{"type":"Feature","properties":{"shape_id":"{}","direction_id":"{\"0\": 50}","headsign":"{}","duration_avg":120,"n_vehicles":50,"d":1200,"route_I_counts":"{\"1\": 50}","source":13,"target":14,"layer":"L","from":"福州白湖亭(地铁站)","to":"福州葫芦阵(地铁站)"},"geometry":{"type":"LineString","coordinates":[[119.330394,26.028915],[119.338666,26.020093]]}},{"type":"Feature","properties":{"shape_id":"{}","direction_id":"{\"1\": 50}","headsign":"{}","duration_avg":120,"n_vehicles":50,"d":1200,"route_I_counts":"{\"1\": 50}","source":14,"target":13,"layer":"L","from":"福州葫芦阵(地铁站)","to":"福州白湖亭(地铁站)"},"geometry":{"type":"LineString","coordinates":[[119.338666,26.020093],[119.330394,26.028915]]}},{"type":"Feature","properties":{"shape_id":"{}","direction_id":"{\"0\": 50}","headsign":"{}","duration_avg":60,"n_vehicles":50,"d":600,"route_I_counts":"{\"1\": 50}","source":14,"target":15,"layer":"L","from":"福州葫芦阵(地铁站)","to":"福州黄山(地铁站)"},"geometry":{"type":"LineString","coordinates":[[119.338666,26.020093],[119.343898,26.01314]]}},{"type":"Feature","properties":{"shape_id":"{}","direction_id":"{\"1\": 50}","headsign":"{}","duration_avg":60,"n_vehicles":50,"d":600,"route_I_counts":"{\"1\": 50}","source":15,"target":14,"layer":"L","from":"福州黄山(地铁站)","to":"福州葫芦阵(地铁站)"},"geometry":{"type":"LineString","coordinates":[[119.343898,26.01314],[119.338666,26.020093]]}},{"type":"Feature","properties":{"shape_id":"{}","direction_id":"{\"0\": 50}","headsign":"{}","duration_avg":180,"n_vehicles":50,"d":1800,"route_I_counts":"{\"1\": 50}","source":15,"target":16,"layer":"L","from":"福州黄山(地铁站)","to":"福州排下(地铁站)"},"geometry":{"type":"LineString","coordinates":[[119.343898,26.01314],[119.349109,26.004552]]}},{"type":"Feature","properties":{"shape_id":"{}","direction_id":"{\"1\": 50}","headsign":"{}","duration_avg":180,"n_vehicles":50,"d":1800,"route_I_counts":"{\"1\": 50}","source":16,"target":15,"layer":"L","from":"福州排下(地铁站)","to":"福州黄山(地铁站)"},"geometry":{"type":"LineString","coordinates":[[119.349109,26.004552],[119.343898,26.01314]]}},{"type":"Feature","properties":{"shape_id":"{}","direction_id":"{\"0\": 50}","headsign":"{}","duration_avg":60,"n_vehicles":50,"d":600,"route_I_counts":"{\"1\": 50}","source":16,"target":17,"layer":"L","from":"福州排下(地铁站)","to":"福州城门(地铁站)"},"geometry":{"type":"LineString","coordinates":[[119.349109,26.004552],[119.355312,25.999093]]}},{"type":"Feature","properties":{"shape_id":"{}","direction_id":"{\"1\": 50}","headsign":"{}","duration_avg":60,"n_vehicles":50,"d":600,"route_I_counts":"{\"1\": 50}","source":17,"target":16,"layer":"L","from":"福州城门(地铁站)","to":"福州排下(地铁站)"},"geometry":{"type":"LineString","coordinates":[[119.355312,25.999093],[119.349109,26.004552]]}},{"type":"Feature","properties":{"shape_id":"{}","direction_id":"{\"0\": 50}","headsign":"{}","duration_avg":120,"n_vehicles":50,"d":1200,"route_I_counts":"{\"1\": 50}","source":17,"target":18,"layer":"L","from":"福州城门(地铁站)","to":"福州三角埕(地铁站)"},"geometry":{"type":"LineString","coordinates":[[119.355312,25.999093],[119.363387,25.993717]]}},{"type":"Feature","properties":{"shape_id":"{}","direction_id":"{\"1\": 50}","headsign":"{}","duration_avg":120,"n_vehicles":50,"d":1200,"route_I_counts":"{\"1\": 50}","source":18,"target":17,"layer":"L","from":"福州三角埕(地铁站)","to":"福州城门(地铁站)"},"geometry":{"type":"LineString","coordinates":[[119.363387,25.993717],[119.355312,25.999093]]}},{"type":"Feature","properties":{"shape_id":"{}","direction_id":"{\"0\": 50}","headsign":"{}","duration_avg":180,"n_vehicles":50,"d":1800,"route_I_counts":"{\"1\": 50}","source":18,"target":19,"layer":"L","from":"福州三角埕(地铁站)","to":"福州胪雷(地铁站)"},"geometry":{"type":"LineString","coordinates":[[119.363387,25.993717],[119.375157,25.987407]]}},{"type":"Feature","properties":{"shape_id":"{}","direction_id":"{\"1\": 50}","headsign":"{}","duration_avg":180,"n_vehicles":50,"d":1800,"route_I_counts":"{\"1\": 50}","source":19,"target":18,"layer":"L","from":"福州胪雷(地铁站)","to":"福州三角埕(地铁站)"},"geometry":{"type":"LineString","coordinates":[[119.375157,25.987407],[119.363387,25.993717]]}},{"type":"Feature","properties":{"shape_id":"{}","direction_id":"{\"0\": 50}","headsign":"{}","duration_avg":120,"n_vehicles":50,"d":1200,"route_I_counts":"{\"1\": 50}","source":19,"target":20,"layer":"L","from":"福州胪雷(地铁站)","to":"福州福州火车南站(地铁站)"},"geometry":{"type":"LineString","coordinates":[[119.375157,25.987407],[119.386942,25.989269]]}},{"type":"Feature","properties":{"shape_id":"{}","direction_id":"{\"1\": 50}","headsign":"{}","duration_avg":120,"n_vehicles":50,"d":1200,"route_I_counts":"{\"1\": 50}","source":20,"target":19,"layer":"L","from":"福州福州火车南站(地铁站)","to":"福州胪雷(地铁站)"},"geometry":{"type":"LineString","coordinates":[[119.386942,25.989269],[119.375157,25.987407]]}},{"type":"Feature","properties":{"shape_id":"{}","direction_id":"{\"0\": 50}","headsign":"{}","duration_avg":120,"n_vehicles":50,"d":1200,"route_I_counts":"{\"1\": 50}","source":20,"target":21,"layer":"L","from":"福州福州火车南站(地铁站)","to":"福州安平(地铁站)"},"geometry":{"type":"LineString","coordinates":[[119.386942,25.989269],[119.397289,25.995233]]}},{"type":"Feature","properties":{"shape_id":"{}","direction_id":"{\"1\": 50}","headsign":"{}","duration_avg":120,"n_vehicles":50,"d":1200,"route_I_counts":"{\"1\": 50}","source":21,"target":20,"layer":"L","from":"福州安平(地铁站)","to":"福州福州火车南站(地铁站)"},"geometry":{"type":"LineString","coordinates":[[119.397289,25.995233],[119.386942,25.989269]]}},{"type":"Feature","properties":{"shape_id":"{}","direction_id":"{\"0\": 50}","headsign":"{}","duration_avg":180,"n_vehicles":50,"d":1800,"route_I_counts":"{\"1\": 50}","source":21,"target":22,"layer":"L","from":"福州安平(地铁站)","to":"福州梁厝(地铁站)"},"geometry":{"type":"LineString","coordinates":[[119.397289,25.995233],[119.410181,25.997165]]}},{"type":"Feature","properties":{"shape_id":"{}","direction_id":"{\"1\": 50}","headsign":"{}","duration_avg":180,"n_vehicles":50,"d":1800,"route_I_counts":"{\"1\": 50}","source":22,"target":21,"layer":"L","from":"福州梁厝(地铁站)","to":"福州安平(地铁站)"},"geometry":{"type":"LineString","coordinates":[[119.410181,25.997165],[119.397289,25.995233]]}},{"type":"Feature","properties":{"shape_id":"{}","direction_id":"{\"0\": 50}","headsign":"{}","duration_avg":120,"n_vehicles":50,"d":1200,"route_I_counts":"{\"1\": 50, \"5\": 50}","source":22,"target":23,"layer":"L","from":"福州梁厝(地铁站)","to":"福州下洋(地铁站)"},"geometry":{"type":"LineString","coordinates":[[119.410181,25.997165],[119.415855,25.987104]]}},{"type":"Feature","properties":{"shape_id":"{}","direction_id":"{\"1\": 50}","headsign":"{}","duration_avg":120,"n_vehicles":50,"d":1200,"route_I_counts":"{\"1\": 50, \"5\": 50}","source":23,"target":22,"layer":"L","from":"福州下洋(地铁站)","to":"福州梁厝(地铁站)"},"geometry":{"type":"LineString","coordinates":[[119.415855,25.987104],[119.410181,25.997165]]}},{"type":"Feature","properties":{"shape_id":"{}","direction_id":"{\"0\": 50}","headsign":"{}","duration_avg":60,"n_vehicles":50,"d":600,"route_I_counts":"{\"1\": 50}","source":23,"target":24,"layer":"L","from":"福州下洋(地铁站)","to":"福州三江口(地铁站)"},"geometry":{"type":"LineString","coordinates":[[119.415855,25.987104],[119.421208,25.981762]]}},{"type":"Feature","properties":{"shape_id":"{}","direction_id":"{\"1\": 50}","headsign":"{}","duration_avg":60,"n_vehicles":50,"d":600,"route_I_counts":"{\"1\": 50}","source":24,"target":23,"layer":"L","from":"福州三江口(地铁站)","to":"福州下洋(地铁站)"},"geometry":{"type":"LineString","coordinates":[[119.421208,25.981762],[119.415855,25.987104]]}},{"type":"Feature","properties":{"shape_id":"{}","direction_id":"{\"0\": 50}","headsign":"{}","duration_avg":120,"n_vehicles":50,"d":1200,"route_I_counts":"{\"3\": 50}","source":25,"target":26,"layer":"L","from":"福州帝封江(地铁站)","to":"福州螺洲温泉(地铁站)"},"geometry":{"type":"LineString","coordinates":[[119.330576,25.990355],[119.344134,25.99329]]}},{"type":"Feature","properties":{"shape_id":"{}","direction_id":"{\"1\": 50}","headsign":"{}","duration_avg":120,"n_vehicles":50,"d":1200,"route_I_counts":"{\"3\": 50}","source":26,"target":25,"layer":"L","from":"福州螺洲温泉(地铁站)","to":"福州帝封江(地铁站)"},"geometry":{"type":"LineString","coordinates":[[119.344134,25.99329],[119.330576,25.990355]]}},{"type":"Feature","properties":{"shape_id":"{}","direction_id":"{\"0\": 50}","headsign":"{}","duration_avg":120,"n_vehicles":50,"d":1200,"route_I_counts":"{\"3\": 50}","source":26,"target":17,"layer":"L","from":"福州螺洲温泉(地铁站)","to":"福州城门(地铁站)"},"geometry":{"type":"LineString","coordinates":[[119.344134,25.99329],[119.355312,25.999093]]}},{"type":"Feature","properties":{"shape_id":"{}","direction_id":"{\"1\": 50}","headsign":"{}","duration_avg":120,"n_vehicles":50,"d":1200,"route_I_counts":"{\"3\": 50}","source":17,"target":26,"layer":"L","from":"福州城门(地铁站)","to":"福州螺洲温泉(地铁站)"},"geometry":{"type":"LineString","coordinates":[[119.355312,25.999093],[119.344134,25.99329]]}},{"type":"Feature","properties":{"shape_id":"{}","direction_id":"{\"0\": 50}","headsign":"{}","duration_avg":180,"n_vehicles":50,"d":1800,"route_I_counts":"{\"3\": 50}","source":17,"target":27,"layer":"L","from":"福州城门(地铁站)","to":"福州林浦(地铁站)"},"geometry":{"type":"LineString","coordinates":[[119.355312,25.999093],[119.360452,26.018934]]}},{"type":"Feature","properties":{"shape_id":"{}","direction_id":"{\"1\": 50}","headsign":"{}","duration_avg":180,"n_vehicles":50,"d":1800,"route_I_counts":"{\"3\": 50}","source":27,"target":17,"layer":"L","from":"福州林浦(地铁站)","to":"福州城门(地铁站)"},"geometry":{"type":"LineString","coordinates":[[119.360452,26.018934],[119.355312,25.999093]]}},{"type":"Feature","properties":{"shape_id":"{}","direction_id":"{\"0\": 50}","headsign":"{}","duration_avg":180,"n_vehicles":50,"d":1800,"route_I_counts":"{\"3\": 50}","source":27,"target":28,"layer":"L","from":"福州林浦(地铁站)","to":"福州会展中心(地铁站)"},"geometry":{"type":"LineString","coordinates":[[119.360452,26.018934],[119.354653,26.032566]]}},{"type":"Feature","properties":{"shape_id":"{}","direction_id":"{\"1\": 50}","headsign":"{}","duration_avg":180,"n_vehicles":50,"d":1800,"route_I_counts":"{\"3\": 50}","source":28,"target":27,"layer":"L","from":"福州会展中心(地铁站)","to":"福州林浦(地铁站)"},"geometry":{"type":"LineString","coordinates":[[119.354653,26.032566],[119.360452,26.018934]]}},{"type":"Feature","properties":{"shape_id":"{}","direction_id":"{\"0\": 50}","headsign":"{}","duration_avg":180,"n_vehicles":50,"d":1800,"route_I_counts":"{\"3\": 50}","source":28,"target":29,"layer":"L","from":"福州会展中心(地铁站)","to":"福州花海公园(地铁站)"},"geometry":{"type":"LineString","coordinates":[[119.354653,26.032566],[119.345439,26.04308]]}},{"type":"Feature","properties":{"shape_id":"{}","direction_id":"{\"1\": 50}","headsign":"{}","duration_avg":180,"n_vehicles":50,"d":1800,"route_I_counts":"{\"3\": 50}","source":29,"target":28,"layer":"L","from":"福州花海公园(地铁站)","to":"福州会展中心(地铁站)"},"geometry":{"type":"LineString","coordinates":[[119.345439,26.04308],[119.354653,26.032566]]}},{"type":"Feature","properties":{"shape_id":"{}","direction_id":"{\"0\": 50}","headsign":"{}","duration_avg":180,"n_vehicles":50,"d":1800,"route_I_counts":"{\"3\": 50}","source":29,"target":30,"layer":"L","from":"福州花海公园(地铁站)","to":"福州鳌峰洲(地铁站)"},"geometry":{"type":"LineString","coordinates":[[119.345439,26.04308],[119.33963,26.057749]]}},{"type":"Feature","properties":{"shape_id":"{}","direction_id":"{\"1\": 50}","headsign":"{}","duration_avg":180,"n_vehicles":50,"d":1800,"route_I_counts":"{\"3\": 50}","source":30,"target":29,"layer":"L","from":"福州鳌峰洲(地铁站)","to":"福州花海公园(地铁站)"},"geometry":{"type":"LineString","coordinates":[[119.33963,26.057749],[119.345439,26.04308]]}},{"type":"Feature","properties":{"shape_id":"{}","direction_id":"{\"0\": 50}","headsign":"{}","duration_avg":120,"n_vehicles":50,"d":1200,"route_I_counts":"{\"3\": 50}","source":30,"target":31,"layer":"L","from":"福州鳌峰洲(地铁站)","to":"福州光明港(地铁站)"},"geometry":{"type":"LineString","coordinates":[[119.33963,26.057749],[119.341851,26.067408]]}},{"type":"Feature","properties":{"shape_id":"{}","direction_id":"{\"1\": 50}","headsign":"{}","duration_avg":120,"n_vehicles":50,"d":1200,"route_I_counts":"{\"3\": 50}","source":31,"target":30,"layer":"L","from":"福州光明港(地铁站)","to":"福州鳌峰洲(地铁站)"},"geometry":{"type":"LineString","coordinates":[[119.341851,26.067408],[119.33963,26.057749]]}},{"type":"Feature","properties":{"shape_id":"{}","direction_id":"{\"0\": 50}","headsign":"{}","duration_avg":120,"n_vehicles":50,"d":1200,"route_I_counts":"{\"3\": 50}","source":31,"target":32,"layer":"L","from":"福州光明港(地铁站)","to":"福州前屿(地铁站)"},"geometry":{"type":"LineString","coordinates":[[119.341851,26.067408],[119.345458,26.074938]]}},{"type":"Feature","properties":{"shape_id":"{}","direction_id":"{\"1\": 50}","headsign":"{}","duration_avg":120,"n_vehicles":50,"d":1200,"route_I_counts":"{\"3\": 50}","source":32,"target":31,"layer":"L","from":"福州前屿(地铁站)","to":"福州光明港(地铁站)"},"geometry":{"type":"LineString","coordinates":[[119.345458,26.074938],[119.341851,26.067408]]}},{"type":"Feature","properties":{"shape_id":"{}","direction_id":"{\"0\": 50}","headsign":"{}","duration_avg":120,"n_vehicles":50,"d":1200,"route_I_counts":"{\"3\": 50}","source":32,"target":33,"layer":"L","from":"福州前屿(地铁站)","to":"福州后屿(地铁站)"},"geometry":{"type":"LineString","coordinates":[[119.345458,26.074938],[119.347559,26.084218]]}},{"type":"Feature","properties":{"shape_id":"{}","direction_id":"{\"1\": 50}","headsign":"{}","duration_avg":120,"n_vehicles":50,"d":1200,"route_I_counts":"{\"3\": 50}","source":33,"target":32,"layer":"L","from":"福州后屿(地铁站)","to":"福州前屿(地铁站)"},"geometry":{"type":"LineString","coordinates":[[119.347559,26.084218],[119.345458,26.074938]]}},{"type":"Feature","properties":{"shape_id":"{}","direction_id":"{\"0\": 50}","headsign":"{}","duration_avg":120,"n_vehicles":50,"d":1200,"route_I_counts":"{\"3\": 50}","source":33,"target":34,"layer":"L","from":"福州后屿(地铁站)","to":"福州横屿(地铁站)"},"geometry":{"type":"LineString","coordinates":[[119.347559,26.084218],[119.347335,26.092842]]}},{"type":"Feature","properties":{"shape_id":"{}","direction_id":"{\"1\": 50}","headsign":"{}","duration_avg":120,"n_vehicles":50,"d":1200,"route_I_counts":"{\"3\": 50}","source":34,"target":33,"layer":"L","from":"福州横屿(地铁站)","to":"福州后屿(地铁站)"},"geometry":{"type":"LineString","coordinates":[[119.347335,26.092842],[119.347559,26.084218]]}},{"type":"Feature","properties":{"shape_id":"{}","direction_id":"{\"0\": 50}","headsign":"{}","duration_avg":180,"n_vehicles":50,"d":1800,"route_I_counts":"{\"3\": 50}","source":34,"target":35,"layer":"L","from":"福州横屿(地铁站)","to":"福州竹屿(地铁站)"},"geometry":{"type":"LineString","coordinates":[[119.347335,26.092842],[119.332798,26.096079]]}},{"type":"Feature","properties":{"shape_id":"{}","direction_id":"{\"1\": 50}","headsign":"{}","duration_avg":180,"n_vehicles":50,"d":1800,"route_I_counts":"{\"3\": 50}","source":35,"target":34,"layer":"L","from":"福州竹屿(地铁站)","to":"福州横屿(地铁站)"},"geometry":{"type":"LineString","coordinates":[[119.332798,26.096079],[119.347335,26.092842]]}},{"type":"Feature","properties":{"shape_id":"{}","direction_id":"{\"0\": 50}","headsign":"{}","duration_avg":120,"n_vehicles":50,"d":1200,"route_I_counts":"{\"3\": 50}","source":35,"target":36,"layer":"L","from":"福州竹屿(地铁站)","to":"福州三角池(地铁站)"},"geometry":{"type":"LineString","coordinates":[[119.332798,26.096079],[119.321407,26.094036]]}},{"type":"Feature","properties":{"shape_id":"{}","direction_id":"{\"1\": 50}","headsign":"{}","duration_avg":120,"n_vehicles":50,"d":1200,"route_I_counts":"{\"3\": 50}","source":36,"target":35,"layer":"L","from":"福州三角池(地铁站)","to":"福州竹屿(地铁站)"},"geometry":{"type":"LineString","coordinates":[[119.321407,26.094036],[119.332798,26.096079]]}},{"type":"Feature","properties":{"shape_id":"{}","direction_id":"{\"0\": 50}","headsign":"{}","duration_avg":120,"n_vehicles":50,"d":1200,"route_I_counts":"{\"3\": 50}","source":36,"target":37,"layer":"L","from":"福州三角池(地铁站)","to":"福州东门(地铁站)"},"geometry":{"type":"LineString","coordinates":[[119.321407,26.094036],[119.310185,26.09067]]}},{"type":"Feature","properties":{"shape_id":"{}","direction_id":"{\"1\": 50}","headsign":"{}","duration_avg":120,"n_vehicles":50,"d":1200,"route_I_counts":"{\"3\": 50}","source":37,"target":36,"layer":"L","from":"福州东门(地铁站)","to":"福州三角池(地铁站)"},"geometry":{"type":"LineString","coordinates":[[119.310185,26.09067],[119.321407,26.094036]]}},{"type":"Feature","properties":{"shape_id":"{}","direction_id":"{\"0\": 50}","headsign":"{}","duration_avg":120,"n_vehicles":50,"d":1200,"route_I_counts":"{\"3\": 50}","source":37,"target":38,"layer":"L","from":"福州东门(地铁站)","to":"福州省立医院(地铁站)"},"geometry":{"type":"LineString","coordinates":[[119.310185,26.09067],[119.302324,26.089797]]}},{"type":"Feature","properties":{"shape_id":"{}","direction_id":"{\"1\": 50}","headsign":"{}","duration_avg":120,"n_vehicles":50,"d":1200,"route_I_counts":"{\"3\": 50}","source":38,"target":37,"layer":"L","from":"福州省立医院(地铁站)","to":"福州东门(地铁站)"},"geometry":{"type":"LineString","coordinates":[[119.302324,26.089797],[119.310185,26.09067]]}},{"type":"Feature","properties":{"shape_id":"{}","direction_id":"{\"0\": 50}","headsign":"{}","duration_avg":120,"n_vehicles":50,"d":1200,"route_I_counts":"{\"3\": 50}","source":38,"target":7,"layer":"L","from":"福州省立医院(地铁站)","to":"福州东街口(地铁站)"},"geometry":{"type":"LineString","coordinates":[[119.302324,26.089797],[119.294454,26.089064]]}},{"type":"Feature","properties":{"shape_id":"{}","direction_id":"{\"1\": 50}","headsign":"{}","duration_avg":120,"n_vehicles":50,"d":1200,"route_I_counts":"{\"3\": 50}","source":7,"target":38,"layer":"L","from":"福州东街口(地铁站)","to":"福州省立医院(地铁站)"},"geometry":{"type":"LineString","coordinates":[[119.294454,26.089064],[119.302324,26.089797]]}},{"type":"Feature","properties":{"shape_id":"{}","direction_id":"{\"0\": 50}","headsign":"{}","duration_avg":120,"n_vehicles":50,"d":1200,"route_I_counts":"{\"3\": 50}","source":7,"target":39,"layer":"L","from":"福州东街口(地铁站)","to":"福州西门(地铁站)"},"geometry":{"type":"LineString","coordinates":[[119.294454,26.089064],[119.285263,26.087818]]}},{"type":"Feature","properties":{"shape_id":"{}","direction_id":"{\"1\": 50}","headsign":"{}","duration_avg":120,"n_vehicles":50,"d":1200,"route_I_counts":"{\"3\": 50}","source":39,"target":7,"layer":"L","from":"福州西门(地铁站)","to":"福州东街口(地铁站)"},"geometry":{"type":"LineString","coordinates":[[119.285263,26.087818],[119.294454,26.089064]]}},{"type":"Feature","properties":{"shape_id":"{}","direction_id":"{\"0\": 50}","headsign":"{}","duration_avg":120,"n_vehicles":50,"d":1200,"route_I_counts":"{\"3\": 50}","source":39,"target":40,"layer":"L","from":"福州西门(地铁站)","to":"福州陆庄(地铁站)"},"geometry":{"type":"LineString","coordinates":[[119.285263,26.087818],[119.27867,26.085591]]}},{"type":"Feature","properties":{"shape_id":"{}","direction_id":"{\"1\": 50}","headsign":"{}","duration_avg":120,"n_vehicles":50,"d":1200,"route_I_counts":"{\"3\": 50}","source":40,"target":39,"layer":"L","from":"福州陆庄(地铁站)","to":"福州西门(地铁站)"},"geometry":{"type":"LineString","coordinates":[[119.27867,26.085591],[119.285263,26.087818]]}},{"type":"Feature","properties":{"shape_id":"{}","direction_id":"{\"0\": 50}","headsign":"{}","duration_avg":60,"n_vehicles":50,"d":600,"route_I_counts":"{\"3\": 50}","source":40,"target":41,"layer":"L","from":"福州陆庄(地铁站)","to":"福州凤凰池(地铁站)"},"geometry":{"type":"LineString","coordinates":[[119.27867,26.085591],[119.26794,26.081523]]}},{"type":"Feature","properties":{"shape_id":"{}","direction_id":"{\"1\": 50}","headsign":"{}","duration_avg":60,"n_vehicles":50,"d":600,"route_I_counts":"{\"3\": 50}","source":41,"target":40,"layer":"L","from":"福州凤凰池(地铁站)","to":"福州陆庄(地铁站)"},"geometry":{"type":"LineString","coordinates":[[119.26794,26.081523],[119.27867,26.085591]]}},{"type":"Feature","properties":{"shape_id":"{}","direction_id":"{\"0\": 50}","headsign":"{}","duration_avg":120,"n_vehicles":50,"d":1200,"route_I_counts":"{\"3\": 50}","source":41,"target":42,"layer":"L","from":"福州凤凰池(地铁站)","to":"福州金牛山(地铁站)"},"geometry":{"type":"LineString","coordinates":[[119.26794,26.081523],[119.256959,26.079442]]}},{"type":"Feature","properties":{"shape_id":"{}","direction_id":"{\"1\": 50}","headsign":"{}","duration_avg":120,"n_vehicles":50,"d":1200,"route_I_counts":"{\"3\": 50}","source":42,"target":41,"layer":"L","from":"福州金牛山(地铁站)","to":"福州凤凰池(地铁站)"},"geometry":{"type":"LineString","coordinates":[[119.256959,26.079442],[119.26794,26.081523]]}},{"type":"Feature","properties":{"shape_id":"{}","direction_id":"{\"0\": 50}","headsign":"{}","duration_avg":120,"n_vehicles":50,"d":1200,"route_I_counts":"{\"3\": 50}","source":42,"target":43,"layer":"L","from":"福州金牛山(地铁站)","to":"福州洪塘(地铁站)"},"geometry":{"type":"LineString","coordinates":[[119.256959,26.079442],[119.244054,26.076467]]}},{"type":"Feature","properties":{"shape_id":"{}","direction_id":"{\"1\": 50}","headsign":"{}","duration_avg":120,"n_vehicles":50,"d":1200,"route_I_counts":"{\"3\": 50}","source":43,"target":42,"layer":"L","from":"福州洪塘(地铁站)","to":"福州金牛山(地铁站)"},"geometry":{"type":"LineString","coordinates":[[119.244054,26.076467],[119.256959,26.079442]]}},{"type":"Feature","properties":{"shape_id":"{}","direction_id":"{\"0\": 50}","headsign":"{}","duration_avg":120,"n_vehicles":50,"d":1200,"route_I_counts":"{\"3\": 50}","source":43,"target":44,"layer":"L","from":"福州洪塘(地铁站)","to":"福州建新(地铁站)"},"geometry":{"type":"LineString","coordinates":[[119.244054,26.076467],[119.232845,26.067185]]}},{"type":"Feature","properties":{"shape_id":"{}","direction_id":"{\"1\": 50}","headsign":"{}","duration_avg":120,"n_vehicles":50,"d":1200,"route_I_counts":"{\"3\": 50}","source":44,"target":43,"layer":"L","from":"福州建新(地铁站)","to":"福州洪塘(地铁站)"},"geometry":{"type":"LineString","coordinates":[[119.232845,26.067185],[119.244054,26.076467]]}},{"type":"Feature","properties":{"shape_id":"{}","direction_id":"{\"0\": 50}","headsign":"{}","duration_avg":120,"n_vehicles":50,"d":1200,"route_I_counts":"{\"3\": 50}","source":44,"target":45,"layer":"L","from":"福州建新(地铁站)","to":"福州半洲(地铁站)"},"geometry":{"type":"LineString","coordinates":[[119.232845,26.067185],[119.232955,26.061035]]}},{"type":"Feature","properties":{"shape_id":"{}","direction_id":"{\"1\": 50}","headsign":"{}","duration_avg":120,"n_vehicles":50,"d":1200,"route_I_counts":"{\"3\": 50}","source":45,"target":44,"layer":"L","from":"福州半洲(地铁站)","to":"福州建新(地铁站)"},"geometry":{"type":"LineString","coordinates":[[119.232955,26.061035],[119.232845,26.067185]]}},{"type":"Feature","properties":{"shape_id":"{}","direction_id":"{\"0\": 50}","headsign":"{}","duration_avg":240,"n_vehicles":50,"d":2400,"route_I_counts":"{\"4\": 50}","source":46,"target":47,"layer":"L","from":"福州荆溪厚屿(地铁站)","to":"福州农林大学(地铁站)"},"geometry":{"type":"LineString","coordinates":[[119.226769,26.112884],[119.24247,26.087999]]}},{"type":"Feature","properties":{"shape_id":"{}","direction_id":"{\"1\": 50}","headsign":"{}","duration_avg":240,"n_vehicles":50,"d":2400,"route_I_counts":"{\"4\": 50}","source":47,"target":46,"layer":"L","from":"福州农林大学(地铁站)","to":"福州荆溪厚屿(地铁站)"},"geometry":{"type":"LineString","coordinates":[[119.24247,26.087999],[119.226769,26.112884]]}},{"type":"Feature","properties":{"shape_id":"{}","direction_id":"{\"0\": 50}","headsign":"{}","duration_avg":180,"n_vehicles":50,"d":1800,"route_I_counts":"{\"4\": 50}","source":47,"target":43,"layer":"L","from":"福州农林大学(地铁站)","to":"福州洪塘(地铁站)"},"geometry":{"type":"LineString","coordinates":[[119.24247,26.087999],[119.244054,26.076467]]}},{"type":"Feature","properties":{"shape_id":"{}","direction_id":"{\"1\": 50}","headsign":"{}","duration_avg":180,"n_vehicles":50,"d":1800,"route_I_counts":"{\"4\": 50}","source":43,"target":47,"layer":"L","from":"福州洪塘(地铁站)","to":"福州农林大学(地铁站)"},"geometry":{"type":"LineString","coordinates":[[119.244054,26.076467],[119.24247,26.087999]]}},{"type":"Feature","properties":{"shape_id":"{}","direction_id":"{\"0\": 50}","headsign":"{}","duration_avg":120,"n_vehicles":50,"d":1200,"route_I_counts":"{\"4\": 50}","source":43,"target":48,"layer":"L","from":"福州洪塘(地铁站)","to":"福州阵坂(地铁站)"},"geometry":{"type":"LineString","coordinates":[[119.244054,26.076467],[119.247007,26.068522]]}},{"type":"Feature","properties":{"shape_id":"{}","direction_id":"{\"1\": 50}","headsign":"{}","duration_avg":120,"n_vehicles":50,"d":1200,"route_I_counts":"{\"4\": 50}","source":48,"target":43,"layer":"L","from":"福州阵坂(地铁站)","to":"福州洪塘(地铁站)"},"geometry":{"type":"LineString","coordinates":[[119.247007,26.068522],[119.244054,26.076467]]}},{"type":"Feature","properties":{"shape_id":"{}","direction_id":"{\"0\": 50}","headsign":"{}","duration_avg":240,"n_vehicles":50,"d":2400,"route_I_counts":"{\"4\": 50}","source":48,"target":49,"layer":"L","from":"福州阵坂(地铁站)","to":"福州马榕(地铁站)"},"geometry":{"type":"LineString","coordinates":[[119.247007,26.068522],[119.253613,26.058563]]}},{"type":"Feature","properties":{"shape_id":"{}","direction_id":"{\"1\": 50}","headsign":"{}","duration_avg":240,"n_vehicles":50,"d":2400,"route_I_counts":"{\"4\": 50}","source":49,"target":48,"layer":"L","from":"福州马榕(地铁站)","to":"福州阵坂(地铁站)"},"geometry":{"type":"LineString","coordinates":[[119.253613,26.058563],[119.247007,26.068522]]}},{"type":"Feature","properties":{"shape_id":"{}","direction_id":"{\"0\": 50}","headsign":"{}","duration_avg":120,"n_vehicles":50,"d":1200,"route_I_counts":"{\"4\": 50}","source":49,"target":50,"layer":"L","from":"福州马榕(地铁站)","to":"福州金山(地铁站)"},"geometry":{"type":"LineString","coordinates":[[119.253613,26.058563],[119.257569,26.050569]]}},{"type":"Feature","properties":{"shape_id":"{}","direction_id":"{\"1\": 50}","headsign":"{}","duration_avg":120,"n_vehicles":50,"d":1200,"route_I_counts":"{\"4\": 50}","source":50,"target":49,"layer":"L","from":"福州金山(地铁站)","to":"福州马榕(地铁站)"},"geometry":{"type":"LineString","coordinates":[[119.257569,26.050569],[119.253613,26.058563]]}},{"type":"Feature","properties":{"shape_id":"{}","direction_id":"{\"0\": 50}","headsign":"{}","duration_avg":180,"n_vehicles":50,"d":1800,"route_I_counts":"{\"4\": 50}","source":50,"target":51,"layer":"L","from":"福州金山(地铁站)","to":"福州凤岗里(地铁站)"},"geometry":{"type":"LineString","coordinates":[[119.257569,26.050569],[119.262188,26.041819]]}},{"type":"Feature","properties":{"shape_id":"{}","direction_id":"{\"1\": 50}","headsign":"{}","duration_avg":180,"n_vehicles":50,"d":1800,"route_I_counts":"{\"4\": 50}","source":51,"target":50,"layer":"L","from":"福州凤岗里(地铁站)","to":"福州金山(地铁站)"},"geometry":{"type":"LineString","coordinates":[[119.262188,26.041819],[119.257569,26.050569]]}},{"type":"Feature","properties":{"shape_id":"{}","direction_id":"{\"0\": 50}","headsign":"{}","duration_avg":120,"n_vehicles":50,"d":1200,"route_I_counts":"{\"4\": 50}","source":51,"target":52,"layer":"L","from":"福州凤岗里(地铁站)","to":"福州浦上大道(地铁站)"},"geometry":{"type":"LineString","coordinates":[[119.262188,26.041819],[119.267908,26.037195]]}},{"type":"Feature","properties":{"shape_id":"{}","direction_id":"{\"1\": 50}","headsign":"{}","duration_avg":120,"n_vehicles":50,"d":1200,"route_I_counts":"{\"4\": 50}","source":52,"target":51,"layer":"L","from":"福州浦上大道(地铁站)","to":"福州凤岗里(地铁站)"},"geometry":{"type":"LineString","coordinates":[[119.267908,26.037195],[119.262188,26.041819]]}},{"type":"Feature","properties":{"shape_id":"{}","direction_id":"{\"0\": 50}","headsign":"{}","duration_avg":180,"n_vehicles":50,"d":1800,"route_I_counts":"{\"4\": 50}","source":52,"target":53,"layer":"L","from":"福州浦上大道(地铁站)","to":"福州霞镜(地铁站)"},"geometry":{"type":"LineString","coordinates":[[119.267908,26.037195],[119.271708,26.028406]]}},{"type":"Feature","properties":{"shape_id":"{}","direction_id":"{\"1\": 50}","headsign":"{}","duration_avg":180,"n_vehicles":50,"d":1800,"route_I_counts":"{\"4\": 50}","source":53,"target":52,"layer":"L","from":"福州霞镜(地铁站)","to":"福州浦上大道(地铁站)"},"geometry":{"type":"LineString","coordinates":[[119.271708,26.028406],[119.267908,26.037195]]}},{"type":"Feature","properties":{"shape_id":"{}","direction_id":"{\"0\": 50}","headsign":"{}","duration_avg":180,"n_vehicles":50,"d":1800,"route_I_counts":"{\"4\": 50}","source":53,"target":54,"layer":"L","from":"福州霞镜(地铁站)","to":"福州东岭(地铁站)"},"geometry":{"type":"LineString","coordinates":[[119.271708,26.028406],[119.272577,26.016456]]}},{"type":"Feature","properties":{"shape_id":"{}","direction_id":"{\"1\": 50}","headsign":"{}","duration_avg":180,"n_vehicles":50,"d":1800,"route_I_counts":"{\"4\": 50}","source":54,"target":53,"layer":"L","from":"福州东岭(地铁站)","to":"福州霞镜(地铁站)"},"geometry":{"type":"LineString","coordinates":[[119.272577,26.016456],[119.271708,26.028406]]}},{"type":"Feature","properties":{"shape_id":"{}","direction_id":"{\"0\": 50}","headsign":"{}","duration_avg":120,"n_vehicles":50,"d":1200,"route_I_counts":"{\"4\": 50}","source":54,"target":55,"layer":"L","from":"福州东岭(地铁站)","to":"福州台屿(地铁站)"},"geometry":{"type":"LineString","coordinates":[[119.272577,26.016456],[119.27656,26.009051]]}},{"type":"Feature","properties":{"shape_id":"{}","direction_id":"{\"1\": 50}","headsign":"{}","duration_avg":120,"n_vehicles":50,"d":1200,"route_I_counts":"{\"4\": 50}","source":55,"target":54,"layer":"L","from":"福州台屿(地铁站)","to":"福州东岭(地铁站)"},"geometry":{"type":"LineString","coordinates":[[119.27656,26.009051],[119.272577,26.016456]]}},{"type":"Feature","properties":{"shape_id":"{}","direction_id":"{\"0\": 50}","headsign":"{}","duration_avg":180,"n_vehicles":50,"d":1800,"route_I_counts":"{\"4\": 50}","source":55,"target":56,"layer":"L","from":"福州台屿(地铁站)","to":"福州盘屿(地铁站)"},"geometry":{"type":"LineString","coordinates":[[119.27656,26.009051],[119.288206,26.002447]]}},{"type":"Feature","properties":{"shape_id":"{}","direction_id":"{\"1\": 50}","headsign":"{}","duration_avg":180,"n_vehicles":50,"d":1800,"route_I_counts":"{\"4\": 50}","source":56,"target":55,"layer":"L","from":"福州盘屿(地铁站)","to":"福州台屿(地铁站)"},"geometry":{"type":"LineString","coordinates":[[119.288206,26.002447],[119.27656,26.009051]]}},{"type":"Feature","properties":{"shape_id":"{}","direction_id":"{\"0\": 50}","headsign":"{}","duration_avg":180,"n_vehicles":50,"d":1800,"route_I_counts":"{\"4\": 50}","source":56,"target":57,"layer":"L","from":"福州盘屿(地铁站)","to":"福州吴山(地铁站)"},"geometry":{"type":"LineString","coordinates":[[119.288206,26.002447],[119.306537,26.000484]]}},{"type":"Feature","properties":{"shape_id":"{}","direction_id":"{\"1\": 50}","headsign":"{}","duration_avg":180,"n_vehicles":50,"d":1800,"route_I_counts":"{\"4\": 50}","source":57,"target":56,"layer":"L","from":"福州吴山(地铁站)","to":"福州盘屿(地铁站)"},"geometry":{"type":"LineString","coordinates":[[119.306537,26.000484],[119.288206,26.002447]]}},{"type":"Feature","properties":{"shape_id":"{}","direction_id":"{\"0\": 50}","headsign":"{}","duration_avg":120,"n_vehicles":50,"d":1200,"route_I_counts":"{\"4\": 50}","source":57,"target":58,"layer":"L","from":"福州吴山(地铁站)","to":"福州盖山竹榄(地铁站)"},"geometry":{"type":"LineString","coordinates":[[119.306537,26.000484],[119.315747,25.996753]]}},{"type":"Feature","properties":{"shape_id":"{}","direction_id":"{\"1\": 50}","headsign":"{}","duration_avg":120,"n_vehicles":50,"d":1200,"route_I_counts":"{\"4\": 50}","source":58,"target":57,"layer":"L","from":"福州盖山竹榄(地铁站)","to":"福州吴山(地铁站)"},"geometry":{"type":"LineString","coordinates":[[119.315747,25.996753],[119.306537,26.000484]]}},{"type":"Feature","properties":{"shape_id":"{}","direction_id":"{\"0\": 50}","headsign":"{}","duration_avg":180,"n_vehicles":50,"d":1800,"route_I_counts":"{\"4\": 50}","source":58,"target":59,"layer":"L","from":"福州盖山竹榄(地铁站)","to":"福州义序(地铁站)"},"geometry":{"type":"LineString","coordinates":[[119.315747,25.996753],[119.32258,25.989883]]}},{"type":"Feature","properties":{"shape_id":"{}","direction_id":"{\"1\": 50}","headsign":"{}","duration_avg":180,"n_vehicles":50,"d":1800,"route_I_counts":"{\"4\": 50}","source":59,"target":58,"layer":"L","from":"福州义序(地铁站)","to":"福州盖山竹榄(地铁站)"},"geometry":{"type":"LineString","coordinates":[[119.32258,25.989883],[119.315747,25.996753]]}},{"type":"Feature","properties":{"shape_id":"{}","direction_id":"{\"0\": 50}","headsign":"{}","duration_avg":120,"n_vehicles":50,"d":1200,"route_I_counts":"{\"4\": 50}","source":59,"target":25,"layer":"L","from":"福州义序(地铁站)","to":"福州帝封江(地铁站)"},"geometry":{"type":"LineString","coordinates":[[119.32258,25.989883],[119.330576,25.990355]]}},{"type":"Feature","properties":{"shape_id":"{}","direction_id":"{\"1\": 50}","headsign":"{}","duration_avg":120,"n_vehicles":50,"d":1200,"route_I_counts":"{\"4\": 50}","source":25,"target":59,"layer":"L","from":"福州帝封江(地铁站)","to":"福州义序(地铁站)"},"geometry":{"type":"LineString","coordinates":[[119.330576,25.990355],[119.32258,25.989883]]}},{"type":"Feature","properties":{"shape_id":"{}","direction_id":"{\"0\": 50}","headsign":"{}","duration_avg":180,"n_vehicles":50,"d":1800,"route_I_counts":"{\"4\": 50}","source":25,"target":60,"layer":"L","from":"福州帝封江(地铁站)","to":"福州螺洲古镇(地铁站)"},"geometry":{"type":"LineString","coordinates":[[119.330576,25.990355],[119.346486,25.989217]]}},{"type":"Feature","properties":{"shape_id":"{}","direction_id":"{\"1\": 50}","headsign":"{}","duration_avg":180,"n_vehicles":50,"d":1800,"route_I_counts":"{\"4\": 50}","source":60,"target":25,"layer":"L","from":"福州螺洲古镇(地铁站)","to":"福州帝封江(地铁站)"},"geometry":{"type":"LineString","coordinates":[[119.346486,25.989217],[119.330576,25.990355]]}},{"type":"Feature","properties":{"shape_id":"{}","direction_id":"{\"0\": 50}","headsign":"{}","duration_avg":180,"n_vehicles":50,"d":1800,"route_I_counts":"{\"4\": 50}","source":60,"target":61,"layer":"L","from":"福州螺洲古镇(地铁站)","to":"福州前锦(地铁站)"},"geometry":{"type":"LineString","coordinates":[[119.346486,25.989217],[119.357491,25.987351]]}},{"type":"Feature","properties":{"shape_id":"{}","direction_id":"{\"1\": 50}","headsign":"{}","duration_avg":180,"n_vehicles":50,"d":1800,"route_I_counts":"{\"4\": 50}","source":61,"target":60,"layer":"L","from":"福州前锦(地铁站)","to":"福州螺洲古镇(地铁站)"},"geometry":{"type":"LineString","coordinates":[[119.357491,25.987351],[119.346486,25.989217]]}},{"type":"Feature","properties":{"shape_id":"{}","direction_id":"{\"0\": 50}","headsign":"{}","duration_avg":180,"n_vehicles":50,"d":1800,"route_I_counts":"{\"4\": 50}","source":61,"target":62,"layer":"L","from":"福州前锦(地铁站)","to":"福州龙江(地铁站)"},"geometry":{"type":"LineString","coordinates":[[119.357491,25.987351],[119.367459,25.987354]]}},{"type":"Feature","properties":{"shape_id":"{}","direction_id":"{\"1\": 50}","headsign":"{}","duration_avg":180,"n_vehicles":50,"d":1800,"route_I_counts":"{\"4\": 50}","source":62,"target":61,"layer":"L","from":"福州龙江(地铁站)","to":"福州前锦(地铁站)"},"geometry":{"type":"LineString","coordinates":[[119.367459,25.987354],[119.357491,25.987351]]}},{"type":"Feature","properties":{"shape_id":"{}","direction_id":"{\"0\": 50}","headsign":"{}","duration_avg":300,"n_vehicles":50,"d":3000,"route_I_counts":"{\"4\": 50}","source":62,"target":20,"layer":"L","from":"福州龙江(地铁站)","to":"福州福州火车南站(地铁站)"},"geometry":{"type":"LineString","coordinates":[[119.367459,25.987354],[119.386942,25.989269]]}},{"type":"Feature","properties":{"shape_id":"{}","direction_id":"{\"1\": 50}","headsign":"{}","duration_avg":300,"n_vehicles":50,"d":3000,"route_I_counts":"{\"4\": 50}","source":20,"target":62,"layer":"L","from":"福州福州火车南站(地铁站)","to":"福州龙江(地铁站)"},"geometry":{"type":"LineString","coordinates":[[119.386942,25.989269],[119.367459,25.987354]]}},{"type":"Feature","properties":{"shape_id":"{}","direction_id":"{\"0\": 50}","headsign":"{}","duration_avg":120,"n_vehicles":50,"d":1200,"route_I_counts":"{\"2\": 50}","source":63,"target":64,"layer":"L","from":"福州苏洋(地铁站)","to":"福州沙堤(地铁站)"},"geometry":{"type":"LineString","coordinates":[[119.146804,26.106281],[119.167278,26.089823]]}},{"type":"Feature","properties":{"shape_id":"{}","direction_id":"{\"1\": 50}","headsign":"{}","duration_avg":120,"n_vehicles":50,"d":1200,"route_I_counts":"{\"2\": 50}","source":64,"target":63,"layer":"L","from":"福州沙堤(地铁站)","to":"福州苏洋(地铁站)"},"geometry":{"type":"LineString","coordinates":[[119.167278,26.089823],[119.146804,26.106281]]}},{"type":"Feature","properties":{"shape_id":"{}","direction_id":"{\"0\": 50}","headsign":"{}","duration_avg":180,"n_vehicles":50,"d":1800,"route_I_counts":"{\"2\": 50}","source":64,"target":65,"layer":"L","from":"福州沙堤(地铁站)","to":"福州上街(地铁站)"},"geometry":{"type":"LineString","coordinates":[[119.167278,26.089823],[119.184884,26.093101]]}},{"type":"Feature","properties":{"shape_id":"{}","direction_id":"{\"1\": 50}","headsign":"{}","duration_avg":180,"n_vehicles":50,"d":1800,"route_I_counts":"{\"2\": 50}","source":65,"target":64,"layer":"L","from":"福州上街(地铁站)","to":"福州沙堤(地铁站)"},"geometry":{"type":"LineString","coordinates":[[119.184884,26.093101],[119.167278,26.089823]]}},{"type":"Feature","properties":{"shape_id":"{}","direction_id":"{\"0\": 50}","headsign":"{}","duration_avg":180,"n_vehicles":50,"d":1800,"route_I_counts":"{\"2\": 50}","source":65,"target":66,"layer":"L","from":"福州上街(地铁站)","to":"福州金屿(地铁站)"},"geometry":{"type":"LineString","coordinates":[[119.184884,26.093101],[119.195537,26.070808]]}},{"type":"Feature","properties":{"shape_id":"{}","direction_id":"{\"1\": 50}","headsign":"{}","duration_avg":180,"n_vehicles":50,"d":1800,"route_I_counts":"{\"2\": 50}","source":66,"target":65,"layer":"L","from":"福州金屿(地铁站)","to":"福州上街(地铁站)"},"geometry":{"type":"LineString","coordinates":[[119.195537,26.070808],[119.184884,26.093101]]}},{"type":"Feature","properties":{"shape_id":"{}","direction_id":"{\"0\": 50}","headsign":"{}","duration_avg":120,"n_vehicles":50,"d":1200,"route_I_counts":"{\"2\": 50}","source":66,"target":67,"layer":"L","from":"福州金屿(地铁站)","to":"福州福州大学(地铁站)"},"geometry":{"type":"LineString","coordinates":[[119.195537,26.070808],[119.202324,26.061538]]}},{"type":"Feature","properties":{"shape_id":"{}","direction_id":"{\"1\": 50}","headsign":"{}","duration_avg":120,"n_vehicles":50,"d":1200,"route_I_counts":"{\"2\": 50}","source":67,"target":66,"layer":"L","from":"福州福州大学(地铁站)","to":"福州金屿(地铁站)"},"geometry":{"type":"LineString","coordinates":[[119.202324,26.061538],[119.195537,26.070808]]}},{"type":"Feature","properties":{"shape_id":"{}","direction_id":"{\"0\": 50}","headsign":"{}","duration_avg":180,"n_vehicles":50,"d":1800,"route_I_counts":"{\"2\": 50}","source":67,"target":68,"layer":"L","from":"福州福州大学(地铁站)","to":"福州董屿·福建师大(地铁站)"},"geometry":{"type":"LineString","coordinates":[[119.202324,26.061538],[119.203741,26.043057]]}},{"type":"Feature","properties":{"shape_id":"{}","direction_id":"{\"1\": 50}","headsign":"{}","duration_avg":180,"n_vehicles":50,"d":1800,"route_I_counts":"{\"2\": 50}","source":68,"target":67,"layer":"L","from":"福州董屿·福建师大(地铁站)","to":"福州福州大学(地铁站)"},"geometry":{"type":"LineString","coordinates":[[119.203741,26.043057],[119.202324,26.061538]]}},{"type":"Feature","properties":{"shape_id":"{}","direction_id":"{\"0\": 50}","headsign":"{}","duration_avg":120,"n_vehicles":50,"d":1200,"route_I_counts":"{\"2\": 50}","source":68,"target":69,"layer":"L","from":"福州董屿·福建师大(地铁站)","to":"福州厚庭(地铁站)"},"geometry":{"type":"LineString","coordinates":[[119.203741,26.043057],[119.213941,26.045244]]}},{"type":"Feature","properties":{"shape_id":"{}","direction_id":"{\"1\": 50}","headsign":"{}","duration_avg":120,"n_vehicles":50,"d":1200,"route_I_counts":"{\"2\": 50}","source":69,"target":68,"layer":"L","from":"福州厚庭(地铁站)","to":"福州董屿·福建师大(地铁站)"},"geometry":{"type":"LineString","coordinates":[[119.213941,26.045244],[119.203741,26.043057]]}},{"type":"Feature","properties":{"shape_id":"{}","direction_id":"{\"0\": 50}","headsign":"{}","duration_avg":240,"n_vehicles":50,"d":2400,"route_I_counts":"{\"2\": 50}","source":69,"target":70,"layer":"L","from":"福州厚庭(地铁站)","to":"福州桔园洲(地铁站)"},"geometry":{"type":"LineString","coordinates":[[119.213941,26.045244],[119.237563,26.050028]]}},{"type":"Feature","properties":{"shape_id":"{}","direction_id":"{\"1\": 50}","headsign":"{}","duration_avg":240,"n_vehicles":50,"d":2400,"route_I_counts":"{\"2\": 50}","source":70,"target":69,"layer":"L","from":"福州桔园洲(地铁站)","to":"福州厚庭(地铁站)"},"geometry":{"type":"LineString","coordinates":[[119.237563,26.050028],[119.213941,26.045244]]}},{"type":"Feature","properties":{"shape_id":"{}","direction_id":"{\"0\": 50}","headsign":"{}","duration_avg":120,"n_vehicles":50,"d":1200,"route_I_counts":"{\"2\": 50}","source":70,"target":71,"layer":"L","from":"福州桔园洲(地铁站)","to":"福州洪湾(地铁站)"},"geometry":{"type":"LineString","coordinates":[[119.237563,26.050028],[119.244907,26.053091]]}},{"type":"Feature","properties":{"shape_id":"{}","direction_id":"{\"1\": 50}","headsign":"{}","duration_avg":120,"n_vehicles":50,"d":1200,"route_I_counts":"{\"2\": 50}","source":71,"target":70,"layer":"L","from":"福州洪湾(地铁站)","to":"福州桔园洲(地铁站)"},"geometry":{"type":"LineString","coordinates":[[119.244907,26.053091],[119.237563,26.050028]]}},{"type":"Feature","properties":{"shape_id":"{}","direction_id":"{\"0\": 50}","headsign":"{}","duration_avg":120,"n_vehicles":50,"d":1200,"route_I_counts":"{\"2\": 50}","source":71,"target":50,"layer":"L","from":"福州洪湾(地铁站)","to":"福州金山(地铁站)"},"geometry":{"type":"LineString","coordinates":[[119.244907,26.053091],[119.257569,26.050569]]}},{"type":"Feature","properties":{"shape_id":"{}","direction_id":"{\"1\": 50}","headsign":"{}","duration_avg":120,"n_vehicles":50,"d":1200,"route_I_counts":"{\"2\": 50}","source":50,"target":71,"layer":"L","from":"福州金山(地铁站)","to":"福州洪湾(地铁站)"},"geometry":{"type":"LineString","coordinates":[[119.257569,26.050569],[119.244907,26.053091]]}},{"type":"Feature","properties":{"shape_id":"{}","direction_id":"{\"0\": 50}","headsign":"{}","duration_avg":120,"n_vehicles":50,"d":1200,"route_I_counts":"{\"2\": 50}","source":50,"target":72,"layer":"L","from":"福州金山(地铁站)","to":"福州金祥(地铁站)"},"geometry":{"type":"LineString","coordinates":[[119.257569,26.050569],[119.271875,26.053497]]}},{"type":"Feature","properties":{"shape_id":"{}","direction_id":"{\"1\": 50}","headsign":"{}","duration_avg":120,"n_vehicles":50,"d":1200,"route_I_counts":"{\"2\": 50}","source":72,"target":50,"layer":"L","from":"福州金祥(地铁站)","to":"福州金山(地铁站)"},"geometry":{"type":"LineString","coordinates":[[119.271875,26.053497],[119.257569,26.050569]]}},{"type":"Feature","properties":{"shape_id":"{}","direction_id":"{\"0\": 50}","headsign":"{}","duration_avg":180,"n_vehicles":50,"d":1800,"route_I_counts":"{\"2\": 50}","source":72,"target":73,"layer":"L","from":"福州金祥(地铁站)","to":"福州祥坂(地铁站)"},"geometry":{"type":"LineString","coordinates":[[119.271875,26.053497],[119.291721,26.073866]]}},{"type":"Feature","properties":{"shape_id":"{}","direction_id":"{\"1\": 50}","headsign":"{}","duration_avg":180,"n_vehicles":50,"d":1800,"route_I_counts":"{\"2\": 50}","source":73,"target":72,"layer":"L","from":"福州祥坂(地铁站)","to":"福州金祥(地铁站)"},"geometry":{"type":"LineString","coordinates":[[119.291721,26.073866],[119.271875,26.053497]]}},{"type":"Feature","properties":{"shape_id":"{}","direction_id":"{\"0\": 50}","headsign":"{}","duration_avg":120,"n_vehicles":50,"d":1200,"route_I_counts":"{\"2\": 50}","source":73,"target":74,"layer":"L","from":"福州祥坂(地铁站)","to":"福州宁化(地铁站)"},"geometry":{"type":"LineString","coordinates":[[119.291721,26.073866],[119.28884,26.066019]]}},{"type":"Feature","properties":{"shape_id":"{}","direction_id":"{\"1\": 50}","headsign":"{}","duration_avg":120,"n_vehicles":50,"d":1200,"route_I_counts":"{\"2\": 50}","source":74,"target":73,"layer":"L","from":"福州宁化(地铁站)","to":"福州祥坂(地铁站)"},"geometry":{"type":"LineString","coordinates":[[119.28884,26.066019],[119.291721,26.073866]]}},{"type":"Feature","properties":{"shape_id":"{}","direction_id":"{\"0\": 50}","headsign":"{}","duration_avg":240,"n_vehicles":50,"d":2400,"route_I_counts":"{\"2\": 50}","source":74,"target":75,"layer":"L","from":"福州宁化(地铁站)","to":"福州西洋(地铁站)"},"geometry":{"type":"LineString","coordinates":[[119.28884,26.066019],[119.291721,26.073866]]}},{"type":"Feature","properties":{"shape_id":"{}","direction_id":"{\"1\": 50}","headsign":"{}","duration_avg":240,"n_vehicles":50,"d":2400,"route_I_counts":"{\"2\": 50}","source":75,"target":74,"layer":"L","from":"福州西洋(地铁站)","to":"福州宁化(地铁站)"},"geometry":{"type":"LineString","coordinates":[[119.291721,26.073866],[119.28884,26.066019]]}},{"type":"Feature","properties":{"shape_id":"{}","direction_id":"{\"0\": 50}","headsign":"{}","duration_avg":120,"n_vehicles":50,"d":1200,"route_I_counts":"{\"2\": 50}","source":75,"target":8,"layer":"L","from":"福州西洋(地铁站)","to":"福州南门兜(地铁站)"},"geometry":{"type":"LineString","coordinates":[[119.291721,26.073866],[119.29681,26.080869]]}},{"type":"Feature","properties":{"shape_id":"{}","direction_id":"{\"1\": 50}","headsign":"{}","duration_avg":120,"n_vehicles":50,"d":1200,"route_I_counts":"{\"2\": 50}","source":8,"target":75,"layer":"L","from":"福州南门兜(地铁站)","to":"福州西洋(地铁站)"},"geometry":{"type":"LineString","coordinates":[[119.29681,26.080869],[119.291721,26.073866]]}},{"type":"Feature","properties":{"shape_id":"{}","direction_id":"{\"0\": 50}","headsign":"{}","duration_avg":120,"n_vehicles":50,"d":1200,"route_I_counts":"{\"2\": 50}","source":8,"target":76,"layer":"L","from":"福州南门兜(地铁站)","to":"福州水部(地铁站)"},"geometry":{"type":"LineString","coordinates":[[119.29681,26.080869],[119.308808,26.079673]]}},{"type":"Feature","properties":{"shape_id":"{}","direction_id":"{\"1\": 50}","headsign":"{}","duration_avg":120,"n_vehicles":50,"d":1200,"route_I_counts":"{\"2\": 50}","source":76,"target":8,"layer":"L","from":"福州水部(地铁站)","to":"福州南门兜(地铁站)"},"geometry":{"type":"LineString","coordinates":[[119.308808,26.079673],[119.29681,26.080869]]}},{"type":"Feature","properties":{"shape_id":"{}","direction_id":"{\"0\": 50}","headsign":"{}","duration_avg":180,"n_vehicles":50,"d":1800,"route_I_counts":"{\"2\": 50}","source":76,"target":77,"layer":"L","from":"福州水部(地铁站)","to":"福州紫阳(地铁站)"},"geometry":{"type":"LineString","coordinates":[[119.308808,26.079673],[119.32198,26.079717]]}},{"type":"Feature","properties":{"shape_id":"{}","direction_id":"{\"1\": 50}","headsign":"{}","duration_avg":180,"n_vehicles":50,"d":1800,"route_I_counts":"{\"2\": 50}","source":77,"target":76,"layer":"L","from":"福州紫阳(地铁站)","to":"福州水部(地铁站)"},"geometry":{"type":"LineString","coordinates":[[119.32198,26.079717],[119.308808,26.079673]]}},{"type":"Feature","properties":{"shape_id":"{}","direction_id":"{\"0\": 50}","headsign":"{}","duration_avg":120,"n_vehicles":50,"d":1200,"route_I_counts":"{\"2\": 50}","source":77,"target":78,"layer":"L","from":"福州紫阳(地铁站)","to":"福州五里亭(地铁站)"},"geometry":{"type":"LineString","coordinates":[[119.32198,26.079717],[119.330235,26.07775]]}},{"type":"Feature","properties":{"shape_id":"{}","direction_id":"{\"1\": 50}","headsign":"{}","duration_avg":120,"n_vehicles":50,"d":1200,"route_I_counts":"{\"2\": 50}","source":78,"target":77,"layer":"L","from":"福州五里亭(地铁站)","to":"福州紫阳(地铁站)"},"geometry":{"type":"LineString","coordinates":[[119.330235,26.07775],[119.32198,26.079717]]}},{"type":"Feature","properties":{"shape_id":"{}","direction_id":"{\"0\": 50}","headsign":"{}","duration_avg":120,"n_vehicles":50,"d":1200,"route_I_counts":"{\"2\": 50}","source":78,"target":32,"layer":"L","from":"福州五里亭(地铁站)","to":"福州前屿(地铁站)"},"geometry":{"type":"LineString","coordinates":[[119.330235,26.07775],[119.345458,26.074938]]}},{"type":"Feature","properties":{"shape_id":"{}","direction_id":"{\"1\": 50}","headsign":"{}","duration_avg":120,"n_vehicles":50,"d":1200,"route_I_counts":"{\"2\": 50}","source":32,"target":78,"layer":"L","from":"福州前屿(地铁站)","to":"福州五里亭(地铁站)"},"geometry":{"type":"LineString","coordinates":[[119.345458,26.074938],[119.330235,26.07775]]}},{"type":"Feature","properties":{"shape_id":"{}","direction_id":"{\"0\": 50}","headsign":"{}","duration_avg":180,"n_vehicles":50,"d":1800,"route_I_counts":"{\"2\": 50}","source":32,"target":79,"layer":"L","from":"福州前屿(地铁站)","to":"福州上洋(地铁站)"},"geometry":{"type":"LineString","coordinates":[[119.345458,26.074938],[119.358787,26.069132]]}},{"type":"Feature","properties":{"shape_id":"{}","direction_id":"{\"1\": 50}","headsign":"{}","duration_avg":180,"n_vehicles":50,"d":1800,"route_I_counts":"{\"2\": 50}","source":79,"target":32,"layer":"L","from":"福州上洋(地铁站)","to":"福州前屿(地铁站)"},"geometry":{"type":"LineString","coordinates":[[119.358787,26.069132],[119.345458,26.074938]]}},{"type":"Feature","properties":{"shape_id":"{}","direction_id":"{\"0\": 50}","headsign":"{}","duration_avg":180,"n_vehicles":50,"d":1800,"route_I_counts":"{\"2\": 50}","source":79,"target":80,"layer":"L","from":"福州上洋(地铁站)","to":"福州鼓山(地铁站)"},"geometry":{"type":"LineString","coordinates":[[119.358787,26.069132],[119.370126,26.056555]]}},{"type":"Feature","properties":{"shape_id":"{}","direction_id":"{\"1\": 50}","headsign":"{}","duration_avg":180,"n_vehicles":50,"d":1800,"route_I_counts":"{\"2\": 50}","source":80,"target":79,"layer":"L","from":"福州鼓山(地铁站)","to":"福州上洋(地铁站)"},"geometry":{"type":"LineString","coordinates":[[119.370126,26.056555],[119.358787,26.069132]]}},{"type":"Feature","properties":{"shape_id":"{}","direction_id":"{\"0\": 50}","headsign":"{}","duration_avg":120,"n_vehicles":50,"d":1200,"route_I_counts":"{\"2\": 50}","source":80,"target":81,"layer":"L","from":"福州鼓山(地铁站)","to":"福州洋里(地铁站)"},"geometry":{"type":"LineString","coordinates":[[119.370126,26.056555],[119.367351,26.047366]]}},{"type":"Feature","properties":{"shape_id":"{}","direction_id":"{\"1\": 50}","headsign":"{}","duration_avg":120,"n_vehicles":50,"d":1200,"route_I_counts":"{\"2\": 50}","source":81,"target":80,"layer":"L","from":"福州洋里(地铁站)","to":"福州鼓山(地铁站)"},"geometry":{"type":"LineString","coordinates":[[119.367351,26.047366],[119.370126,26.056555]]}},{"type":"Feature","properties":{"shape_id":"{}","direction_id":"{\"0\": 50}","headsign":"{}","duration_avg":120,"n_vehicles":50,"d":1200,"route_I_counts":"{\"5\": 50}","source":82,"target":27,"layer":"L","from":"福州潘墩(地铁站)","to":"福州林浦(地铁站)"},"geometry":{"type":"LineString","coordinates":[[119.352874,26.02388],[119.360452,26.018934]]}},{"type":"Feature","properties":{"shape_id":"{}","direction_id":"{\"1\": 50}","headsign":"{}","duration_avg":120,"n_vehicles":50,"d":1200,"route_I_counts":"{\"5\": 50}","source":27,"target":82,"layer":"L","from":"福州林浦(地铁站)","to":"福州潘墩(地铁站)"},"geometry":{"type":"LineString","coordinates":[[119.360452,26.018934],[119.352874,26.02388]]}},{"type":"Feature","properties":{"shape_id":"{}","direction_id":"{\"0\": 50}","headsign":"{}","duration_avg":180,"n_vehicles":50,"d":1800,"route_I_counts":"{\"5\": 50}","source":27,"target":83,"layer":"L","from":"福州林浦(地铁站)","to":"福州樟岚(地铁站)"},"geometry":{"type":"LineString","coordinates":[[119.360452,26.018934],[119.383873,26.009166]]}},{"type":"Feature","properties":{"shape_id":"{}","direction_id":"{\"1\": 50}","headsign":"{}","duration_avg":180,"n_vehicles":50,"d":1800,"route_I_counts":"{\"5\": 50}","source":83,"target":27,"layer":"L","from":"福州樟岚(地铁站)","to":"福州林浦(地铁站)"},"geometry":{"type":"LineString","coordinates":[[119.383873,26.009166],[119.360452,26.018934]]}},{"type":"Feature","properties":{"shape_id":"{}","direction_id":"{\"0\": 50}","headsign":"{}","duration_avg":240,"n_vehicles":50,"d":2400,"route_I_counts":"{\"5\": 50}","source":83,"target":22,"layer":"L","from":"福州樟岚(地铁站)","to":"福州梁厝(地铁站)"},"geometry":{"type":"LineString","coordinates":[[119.383873,26.009166],[119.410181,25.997165]]}},{"type":"Feature","properties":{"shape_id":"{}","direction_id":"{\"1\": 50}","headsign":"{}","duration_avg":240,"n_vehicles":50,"d":2400,"route_I_counts":"{\"5\": 50}","source":22,"target":83,"layer":"L","from":"福州梁厝(地铁站)","to":"福州樟岚(地铁站)"},"geometry":{"type":"LineString","coordinates":[[119.410181,25.997165],[119.383873,26.009166]]}},{"type":"Feature","properties":{"shape_id":"{}","direction_id":"{\"0\": 50}","headsign":"{}","duration_avg":480,"n_vehicles":50,"d":4800,"route_I_counts":"{\"5\": 50}","source":23,"target":84,"layer":"L","from":"福州下洋(地铁站)","to":"福州营前(地铁站)"},"geometry":{"type":"LineString","coordinates":[[119.415855,25.987104],[119.468441,25.959898]]}},{"type":"Feature","properties":{"shape_id":"{}","direction_id":"{\"1\": 50}","headsign":"{}","duration_avg":480,"n_vehicles":50,"d":4800,"route_I_counts":"{\"5\": 50}","source":84,"target":23,"layer":"L","from":"福州营前(地铁站)","to":"福州下洋(地铁站)"},"geometry":{"type":"LineString","coordinates":[[119.468441,25.959898],[119.415855,25.987104]]}},{"type":"Feature","properties":{"shape_id":"{}","direction_id":"{\"0\": 50}","headsign":"{}","duration_avg":180,"n_vehicles":50,"d":1800,"route_I_counts":"{\"5\": 50}","source":84,"target":85,"layer":"L","from":"福州营前(地铁站)","to":"福州航城(地铁站)"},"geometry":{"type":"LineString","coordinates":[[119.468441,25.959898],[119.485609,25.954301]]}},{"type":"Feature","properties":{"shape_id":"{}","direction_id":"{\"1\": 50}","headsign":"{}","duration_avg":180,"n_vehicles":50,"d":1800,"route_I_counts":"{\"5\": 50}","source":85,"target":84,"layer":"L","from":"福州航城(地铁站)","to":"福州营前(地铁站)"},"geometry":{"type":"LineString","coordinates":[[119.485609,25.954301],[119.468441,25.959898]]}},{"type":"Feature","properties":{"shape_id":"{}","direction_id":"{\"0\": 50}","headsign":"{}","duration_avg":120,"n_vehicles":50,"d":1200,"route_I_counts":"{\"5\": 50}","source":85,"target":86,"layer":"L","from":"福州航城(地铁站)","to":"福州郑和(地铁站)"},"geometry":{"type":"LineString","coordinates":[[119.485609,25.954301],[119.49834,25.961213]]}},{"type":"Feature","properties":{"shape_id":"{}","direction_id":"{\"1\": 50}","headsign":"{}","duration_avg":120,"n_vehicles":50,"d":1200,"route_I_counts":"{\"5\": 50}","source":86,"target":85,"layer":"L","from":"福州郑和(地铁站)","to":"福州航城(地铁站)"},"geometry":{"type":"LineString","coordinates":[[119.49834,25.961213],[119.485609,25.954301]]}},{"type":"Feature","properties":{"shape_id":"{}","direction_id":"{\"0\": 50}","headsign":"{}","duration_avg":180,"n_vehicles":50,"d":1800,"route_I_counts":"{\"5\": 50}","source":86,"target":87,"layer":"L","from":"福州郑和(地铁站)","to":"福州十洋(地铁站)"},"geometry":{"type":"LineString","coordinates":[[119.49834,25.961213],[119.510619,25.961293]]}},{"type":"Feature","properties":{"shape_id":"{}","direction_id":"{\"1\": 50}","headsign":"{}","duration_avg":180,"n_vehicles":50,"d":1800,"route_I_counts":"{\"5\": 50}","source":87,"target":86,"layer":"L","from":"福州十洋(地铁站)","to":"福州郑和(地铁站)"},"geometry":{"type":"LineString","coordinates":[[119.510619,25.961293],[119.49834,25.961213]]}},{"type":"Feature","properties":{"shape_id":"{}","direction_id":"{\"0\": 50}","headsign":"{}","duration_avg":120,"n_vehicles":50,"d":1200,"route_I_counts":"{\"5\": 50}","source":87,"target":88,"layer":"L","from":"福州十洋(地铁站)","to":"福州吴航(地铁站)"},"geometry":{"type":"LineString","coordinates":[[119.510619,25.961293],[119.524278,25.954533]]}},{"type":"Feature","properties":{"shape_id":"{}","direction_id":"{\"1\": 50}","headsign":"{}","duration_avg":120,"n_vehicles":50,"d":1200,"route_I_counts":"{\"5\": 50}","source":88,"target":87,"layer":"L","from":"福州吴航(地铁站)","to":"福州十洋(地铁站)"},"geometry":{"type":"LineString","coordinates":[[119.524278,25.954533],[119.510619,25.961293]]}},{"type":"Feature","properties":{"shape_id":"{}","direction_id":"{\"0\": 50}","headsign":"{}","duration_avg":180,"n_vehicles":50,"d":1800,"route_I_counts":"{\"5\": 50}","source":88,"target":89,"layer":"L","from":"福州吴航(地铁站)","to":"福州鹤上(地铁站)"},"geometry":{"type":"LineString","coordinates":[[119.524278,25.954533],[119.533907,25.943881]]}},{"type":"Feature","properties":{"shape_id":"{}","direction_id":"{\"1\": 50}","headsign":"{}","duration_avg":180,"n_vehicles":50,"d":1800,"route_I_counts":"{\"5\": 50}","source":89,"target":88,"layer":"L","from":"福州鹤上(地铁站)","to":"福州吴航(地铁站)"},"geometry":{"type":"LineString","coordinates":[[119.533907,25.943881],[119.524278,25.954533]]}},{"type":"Feature","properties":{"shape_id":"{}","direction_id":"{\"0\": 50}","headsign":"{}","duration_avg":120,"n_vehicles":50,"d":1200,"route_I_counts":"{\"5\": 50}","source":89,"target":90,"layer":"L","from":"福州鹤上(地铁站)","to":"福州沙京(地铁站)"},"geometry":{"type":"LineString","coordinates":[[119.533907,25.943881],[119.540941,25.933846]]}},{"type":"Feature","properties":{"shape_id":"{}","direction_id":"{\"1\": 50}","headsign":"{}","duration_avg":120,"n_vehicles":50,"d":1200,"route_I_counts":"{\"5\": 50}","source":90,"target":89,"layer":"L","from":"福州沙京(地铁站)","to":"福州鹤上(地铁站)"},"geometry":{"type":"LineString","coordinates":[[119.540941,25.933846],[119.533907,25.943881]]}},{"type":"Feature","properties":{"shape_id":"{}","direction_id":"{\"0\": 50}","headsign":"{}","duration_avg":300,"n_vehicles":50,"d":3000,"route_I_counts":"{\"5\": 50}","source":90,"target":91,"layer":"L","from":"福州沙京(地铁站)","to":"福州下吴(地铁站)"},"geometry":{"type":"LineString","coordinates":[[119.540941,25.933846],[119.578119,25.915565]]}},{"type":"Feature","properties":{"shape_id":"{}","direction_id":"{\"1\": 50}","headsign":"{}","duration_avg":300,"n_vehicles":50,"d":3000,"route_I_counts":"{\"5\": 50}","source":91,"target":90,"layer":"L","from":"福州下吴(地铁站)","to":"福州沙京(地铁站)"},"geometry":{"type":"LineString","coordinates":[[119.578119,25.915565],[119.540941,25.933846]]}},{"type":"Feature","properties":{"shape_id":"{}","direction_id":"{\"0\": 50}","headsign":"{}","duration_avg":180,"n_vehicles":50,"d":1800,"route_I_counts":"{\"5\": 50}","source":91,"target":92,"layer":"L","from":"福州下吴(地铁站)","to":"福州万寿(地铁站)"},"geometry":{"type":"LineString","coordinates":[[119.578119,25.915565],[119.598895,25.902709]]}},{"type":"Feature","properties":{"shape_id":"{}","direction_id":"{\"1\": 50}","headsign":"{}","duration_avg":180,"n_vehicles":50,"d":1800,"route_I_counts":"{\"5\": 50}","source":92,"target":91,"layer":"L","from":"福州万寿(地铁站)","to":"福州下吴(地铁站)"},"geometry":{"type":"LineString","coordinates":[[119.598895,25.902709],[119.578119,25.915565]]}}]}