{"type":"FeatureCollection","features":[{"type":"Feature","geometry":{"type":"Point","coordinates":[106.565739,26.657086]},"properties":{"name":"贵阳窦官(地铁站)","original_ids":"[1]","id":0,"layer":"stop"}},{"type":"Feature","geometry":{"type":"Point","coordinates":[106.576421,26.65873]},"properties":{"name":"贵阳下麦西(地铁站)","original_ids":"[2]","id":1,"layer":"stop"}},{"type":"Feature","geometry":{"type":"Point","coordinates":[106.586684,26.652006]},"properties":{"name":"贵阳老湾塘(地铁站)","original_ids":"[3]","id":2,"layer":"stop"}},{"type":"Feature","geometry":{"type":"Point","coordinates":[106.604708,26.649657]},"properties":{"name":"贵阳阅山湖公园(地铁站)","original_ids":"[4]","id":3,"layer":"stop"}},{"type":"Feature","geometry":{"type":"Point","coordinates":[106.61394,26.648911]},"properties":{"name":"贵阳林城西路(地铁站)","original_ids":"[5]","id":4,"layer":"stop"}},{"type":"Feature","geometry":{"type":"Point","coordinates":[106.628015,26.648758]},"properties":{"name":"贵阳观山湖公园(地铁站)","original_ids":"[6]","id":5,"layer":"stop"}},{"type":"Feature","geometry":{"type":"Point","coordinates":[106.644954,26.649274]},"properties":{"name":"贵阳国际生态会议中心(地铁站)","original_ids":"[7]","id":6,"layer":"stop"}},{"type":"Feature","geometry":{"type":"Point","coordinates":[106.65211,26.642688]},"properties":{"name":"贵阳阳关(地铁站)","original_ids":"[8]","id":7,"layer":"stop"}},{"type":"Feature","geometry":{"type":"Point","coordinates":[106.650698,26.632706]},"properties":{"name":"贵阳新寨(地铁站)","original_ids":"[9]","id":8,"layer":"stop"}},{"type":"Feature","geometry":{"type":"Point","coordinates":[106.658096,26.623259]},"properties":{"name":"贵阳白鹭湖(地铁站)","original_ids":"[10]","id":9,"layer":"stop"}},{"type":"Feature","geometry":{"type":"Point","coordinates":[106.671655,26.623102]},"properties":{"name":"贵阳贵阳北站(地铁站)","original_ids":"[11]","id":10,"layer":"stop"}},{"type":"Feature","geometry":{"type":"Point","coordinates":[106.698579,26.640088]},"properties":{"name":"贵阳雅关(地铁站)","original_ids":"[12]","id":11,"layer":"stop"}},{"type":"Feature","geometry":{"type":"Point","coordinates":[106.701381,26.618831]},"properties":{"name":"贵阳南垭路(地铁站)","original_ids":"[13]","id":12,"layer":"stop"}},{"type":"Feature","geometry":{"type":"Point","coordinates":[106.699369,26.600529]},"properties":{"name":"贵阳八鸽岩(地铁站)","original_ids":"[14]","id":13,"layer":"stop"}},{"type":"Feature","geometry":{"type":"Point","coordinates":[106.702495,26.59647]},"properties":{"name":"贵阳北京路(地铁站)","original_ids":"[15]","id":14,"layer":"stop"}},{"type":"Feature","geometry":{"type":"Point","coordinates":[106.706611,26.587172]},"properties":{"name":"贵阳喷水池(地铁站)","original_ids":"[16]","id":15,"layer":"stop"}},{"type":"Feature","geometry":{"type":"Point","coordinates":[106.706016,26.580677]},"properties":{"name":"贵阳中山西路(地铁站)","original_ids":"[17]","id":16,"layer":"stop"}},{"type":"Feature","geometry":{"type":"Point","coordinates":[106.70408,26.572762]},"properties":{"name":"贵阳河滨公园(地铁站)","original_ids":"[18]","id":17,"layer":"stop"}},{"type":"Feature","geometry":{"type":"Point","coordinates":[106.699645,26.561164]},"properties":{"name":"贵阳贵阳火车站(地铁站)","original_ids":"[19]","id":18,"layer":"stop"}},{"type":"Feature","geometry":{"type":"Point","coordinates":[106.699261,26.55327]},"properties":{"name":"贵阳沙冲路(地铁站)","original_ids":"[20]","id":19,"layer":"stop"}},{"type":"Feature","geometry":{"type":"Point","coordinates":[106.708511,26.540013]},"properties":{"name":"贵阳望城坡(地铁站)","original_ids":"[21]","id":20,"layer":"stop"}},{"type":"Feature","geometry":{"type":"Point","coordinates":[106.707152,26.529715]},"properties":{"name":"贵阳珠江路(地铁站)","original_ids":"[22]","id":21,"layer":"stop"}},{"type":"Feature","geometry":{"type":"Point","coordinates":[106.707249,26.521411]},"properties":{"name":"贵阳长江路(地铁站)","original_ids":"[23]","id":22,"layer":"stop"}},{"type":"Feature","geometry":{"type":"Point","coordinates":[106.705541,26.510556]},"properties":{"name":"贵阳清水江路(地铁站)","original_ids":"[24]","id":23,"layer":"stop"}},{"type":"Feature","geometry":{"type":"Point","coordinates":[106.705871,26.501229]},"properties":{"name":"贵阳小孟工业园(地铁站)","original_ids":"[25]","id":24,"layer":"stop"}},{"type":"Feature","geometry":{"type":"Point","coordinates":[106.698271,26.525146]},"properties":{"name":"贵阳小河(地铁站)","original_ids":"[26]","id":25,"layer":"stop"}},{"type":"Feature","geometry":{"type":"Point","coordinates":[106.694763,26.514927]},"properties":{"name":"贵阳锦江路(地铁站)","original_ids":"[27]","id":26,"layer":"stop"}},{"type":"Feature","geometry":{"type":"Point","coordinates":[106.673047,26.506292]},"properties":{"name":"贵阳中曹司(地铁站)","original_ids":"[28]","id":27,"layer":"stop"}},{"type":"Feature","geometry":{"type":"Point","coordinates":[106.652389,26.490693]},"properties":{"name":"贵阳金竹(地铁站)","original_ids":"[29]","id":28,"layer":"stop"}},{"type":"Feature","geometry":{"type":"Point","coordinates":[106.6251,26.482503]},"properties":{"name":"贵阳石板哨(地铁站)","original_ids":"[30]","id":29,"layer":"stop"}},{"type":"Feature","geometry":{"type":"Point","coordinates":[106.578174,26.452686]},"properties":{"name":"贵阳天河潭(地铁站)","original_ids":"[31]","id":30,"layer":"stop"}},{"type":"Feature","geometry":{"type":"Point","coordinates":[106.542248,26.459329]},"properties":{"name":"贵阳大龙井(地铁站)","original_ids":"[32]","id":31,"layer":"stop"}},{"type":"Feature","geometry":{"type":"Point","coordinates":[106.524372,26.458236]},"properties":{"name":"贵阳星月湖(地铁站)","original_ids":"[33]","id":32,"layer":"stop"}},{"type":"Feature","geometry":{"type":"Point","coordinates":[106.503234,26.460482]},"properties":{"name":"贵阳数谷大道(地铁站)","original_ids":"[34]","id":33,"layer":"stop"}},{"type":"Feature","geometry":{"type":"Point","coordinates":[106.494798,26.463816]},"properties":{"name":"贵阳大科城(地铁站)","original_ids":"[35]","id":34,"layer":"stop"}},{"type":"Feature","geometry":{"type":"Point","coordinates":[106.481854,26.469008]},"properties":{"name":"贵阳贵安站(地铁站)","original_ids":"[36]","id":35,"layer":"stop"}},{"type":"Feature","geometry":{"type":"Point","coordinates":[106.465048,26.474778]},"properties":{"name":"贵阳皂角坝(地铁站)","original_ids":"[37]","id":36,"layer":"stop"}},{"type":"Feature","geometry":{"type":"Point","coordinates":[106.621693,26.696115]},"properties":{"name":"贵阳白云北路(地铁站)","original_ids":"[38]","id":37,"layer":"stop"}},{"type":"Feature","geometry":{"type":"Point","coordinates":[106.627809,26.687137]},"properties":{"name":"贵阳白云中路(地铁站)","original_ids":"[39]","id":38,"layer":"stop"}},{"type":"Feature","geometry":{"type":"Point","coordinates":[106.622569,26.681033]},"properties":{"name":"贵阳云峰大道(地铁站)","original_ids":"[40]","id":39,"layer":"stop"}},{"type":"Feature","geometry":{"type":"Point","coordinates":[106.618551,26.673008]},"properties":{"name":"贵阳泉湖公园(地铁站)","original_ids":"[41]","id":40,"layer":"stop"}},{"type":"Feature","geometry":{"type":"Point","coordinates":[106.614023,26.665092]},"properties":{"name":"贵阳枫林路(地铁站)","original_ids":"[42]","id":41,"layer":"stop"}},{"type":"Feature","geometry":{"type":"Point","coordinates":[106.614021,26.654842]},"properties":{"name":"贵阳诚信路(地铁站)","original_ids":"[43]","id":42,"layer":"stop"}},{"type":"Feature","geometry":{"type":"Point","coordinates":[106.613474,26.638663]},"properties":{"name":"贵阳观山西路(地铁站)","original_ids":"[44]","id":43,"layer":"stop"}},{"type":"Feature","geometry":{"type":"Point","coordinates":[106.613079,26.626844]},"properties":{"name":"贵阳兴筑路(地铁站)","original_ids":"[45]","id":44,"layer":"stop"}},{"type":"Feature","geometry":{"type":"Point","coordinates":[106.617697,26.615338]},"properties":{"name":"贵阳金阳医院(地铁站)","original_ids":"[46]","id":45,"layer":"stop"}},{"type":"Feature","geometry":{"type":"Point","coordinates":[106.616389,26.606981]},"properties":{"name":"贵阳金阳南路(地铁站)","original_ids":"[47]","id":46,"layer":"stop"}},{"type":"Feature","geometry":{"type":"Point","coordinates":[106.620327,26.600478]},"properties":{"name":"贵阳茶园(地铁站)","original_ids":"[48]","id":47,"layer":"stop"}},{"type":"Feature","geometry":{"type":"Point","coordinates":[106.633002,26.59311]},"properties":{"name":"贵阳百花大道(地铁站)","original_ids":"[49]","id":48,"layer":"stop"}},{"type":"Feature","geometry":{"type":"Point","coordinates":[106.649675,26.590552]},"properties":{"name":"贵阳马王庙(地铁站)","original_ids":"[50]","id":49,"layer":"stop"}},{"type":"Feature","geometry":{"type":"Point","coordinates":[106.655889,26.596133]},"properties":{"name":"贵阳北京西路(地铁站)","original_ids":"[51]","id":50,"layer":"stop"}},{"type":"Feature","geometry":{"type":"Point","coordinates":[106.66385,26.587399]},"properties":{"name":"贵阳改茶路(地铁站)","original_ids":"[52]","id":51,"layer":"stop"}},{"type":"Feature","geometry":{"type":"Point","coordinates":[106.67625,26.584284]},"properties":{"name":"贵阳黔春路(地铁站)","original_ids":"[53]","id":52,"layer":"stop"}},{"type":"Feature","geometry":{"type":"Point","coordinates":[106.694014,26.585474]},"properties":{"name":"贵阳延安西路(地铁站)","original_ids":"[54]","id":53,"layer":"stop"}},{"type":"Feature","geometry":{"type":"Point","coordinates":[106.701426,26.585847]},"properties":{"name":"贵阳紫林庵(地铁站)","original_ids":"[55]","id":54,"layer":"stop"}},{"type":"Feature","geometry":{"type":"Point","coordinates":[106.719321,26.586501]},"properties":{"name":"贵阳阳明祠(地铁站)","original_ids":"[56]","id":55,"layer":"stop"}},{"type":"Feature","geometry":{"type":"Point","coordinates":[106.721211,26.580228]},"properties":{"name":"贵阳省人民医院(地铁站)","original_ids":"[57]","id":56,"layer":"stop"}},{"type":"Feature","geometry":{"type":"Point","coordinates":[106.725355,26.573851]},"properties":{"name":"贵阳宝山南路(地铁站)","original_ids":"[58]","id":57,"layer":"stop"}},{"type":"Feature","geometry":{"type":"Point","coordinates":[106.727947,26.565797]},"properties":{"name":"贵阳油榨街(地铁站)","original_ids":"[59]","id":58,"layer":"stop"}},{"type":"Feature","geometry":{"type":"Point","coordinates":[106.728095,26.55796]},"properties":{"name":"贵阳贵钢(地铁站)","original_ids":"[60]","id":59,"layer":"stop"}},{"type":"Feature","geometry":{"type":"Point","coordinates":[106.734942,26.55275]},"properties":{"name":"贵阳富源北路(地铁站)","original_ids":"[61]","id":60,"layer":"stop"}},{"type":"Feature","geometry":{"type":"Point","coordinates":[106.766817,26.549711]},"properties":{"name":"贵阳森林公园(地铁站)","original_ids":"[62]","id":61,"layer":"stop"}},{"type":"Feature","geometry":{"type":"Point","coordinates":[106.776964,26.550468]},"properties":{"name":"贵阳见龙洞(地铁站)","original_ids":"[63]","id":62,"layer":"stop"}},{"type":"Feature","geometry":{"type":"Point","coordinates":[106.794858,26.547341]},"properties":{"name":"贵阳龙洞堡机场(地铁站)","original_ids":"[64]","id":63,"layer":"stop"}},{"type":"Feature","geometry":{"type":"Point","coordinates":[106.785328,26.538466]},"properties":{"name":"贵阳小碧(地铁站)","original_ids":"[65]","id":64,"layer":"stop"}},{"type":"Feature","geometry":{"type":"Point","coordinates":[106.776647,26.533759]},"properties":{"name":"贵阳云盘(地铁站)","original_ids":"[66]","id":65,"layer":"stop"}},{"type":"Feature","geometry":{"type":"Point","coordinates":[106.773707,26.522428]},"properties":{"name":"贵阳中兴路(地铁站)","original_ids":"[67]","id":66,"layer":"stop"}},{"type":"Feature","geometry":{"type":"Point","coordinates":[106.822233,26.658578]},"properties":{"name":"贵阳洛湾(地铁站)","original_ids":"[68]","id":67,"layer":"stop"}},{"type":"Feature","geometry":{"type":"Point","coordinates":[106.815238,26.640945]},"properties":{"name":"贵阳东风(贵黔医院)(地铁站)","original_ids":"[69]","id":68,"layer":"stop"}},{"type":"Feature","geometry":{"type":"Point","coordinates":[106.791152,26.639154]},"properties":{"name":"贵阳师范学院(地铁站)","original_ids":"[70]","id":69,"layer":"stop"}},{"type":"Feature","geometry":{"type":"Point","coordinates":[106.774045,26.639921]},"properties":{"name":"贵阳高新路(地铁站)","original_ids":"[71]","id":70,"layer":"stop"}},{"type":"Feature","geometry":{"type":"Point","coordinates":[106.765463,26.635388]},"properties":{"name":"贵阳新添(地铁站)","original_ids":"[72]","id":71,"layer":"stop"}},{"type":"Feature","geometry":{"type":"Point","coordinates":[106.743632,26.626083]},"properties":{"name":"贵阳顺海(地铁站)","original_ids":"[73]","id":72,"layer":"stop"}},{"type":"Feature","geometry":{"type":"Point","coordinates":[106.729516,26.618902]},"properties":{"name":"贵阳茶店(地铁站)","original_ids":"[74]","id":73,"layer":"stop"}},{"type":"Feature","geometry":{"type":"Point","coordinates":[106.722179,26.608333]},"properties":{"name":"贵阳大营坡(地铁站)","original_ids":"[75]","id":74,"layer":"stop"}},{"type":"Feature","geometry":{"type":"Point","coordinates":[106.711466,26.599404]},"properties":{"name":"贵阳贵医(地铁站)","original_ids":"[76]","id":75,"layer":"stop"}},{"type":"Feature","geometry":{"type":"Point","coordinates":[106.693392,26.590649]},"properties":{"name":"贵阳黔灵山公园(地铁站)","original_ids":"[77]","id":76,"layer":"stop"}},{"type":"Feature","geometry":{"type":"Point","coordinates":[106.685872,26.573125]},"properties":{"name":"贵阳松花路(地铁站)","original_ids":"[78]","id":77,"layer":"stop"}},{"type":"Feature","geometry":{"type":"Point","coordinates":[106.68146,26.569334]},"properties":{"name":"贵阳花果园(地铁站)","original_ids":"[79]","id":78,"layer":"stop"}},{"type":"Feature","geometry":{"type":"Point","coordinates":[106.670966,26.562249]},"properties":{"name":"贵阳五里冲(地铁站)","original_ids":"[80]","id":79,"layer":"stop"}},{"type":"Feature","geometry":{"type":"Point","coordinates":[106.678726,26.556512]},"properties":{"name":"贵阳太慈桥(地铁站)","original_ids":"[81]","id":80,"layer":"stop"}},{"type":"Feature","geometry":{"type":"Point","coordinates":[106.682734,26.546089]},"properties":{"name":"贵阳皂角井(地铁站)","original_ids":"[82]","id":81,"layer":"stop"}},{"type":"Feature","geometry":{"type":"Point","coordinates":[106.678624,26.534043]},"properties":{"name":"贵阳四方河(省中医院)(地铁站)","original_ids":"[83]","id":82,"layer":"stop"}},{"type":"Feature","geometry":{"type":"Point","coordinates":[106.673738,26.523255]},"properties":{"name":"贵阳甘荫塘(地铁站)","original_ids":"[84]","id":83,"layer":"stop"}},{"type":"Feature","geometry":{"type":"Point","coordinates":[106.669026,26.481299]},"properties":{"name":"贵阳十里河滩(地铁站)","original_ids":"[85]","id":84,"layer":"stop"}},{"type":"Feature","geometry":{"type":"Point","coordinates":[106.671414,26.463742]},"properties":{"name":"贵阳孔学堂(地铁站)","original_ids":"[86]","id":85,"layer":"stop"}},{"type":"Feature","geometry":{"type":"Point","coordinates":[106.672213,26.453326]},"properties":{"name":"贵阳贵州大学(地铁站)","original_ids":"[87]","id":86,"layer":"stop"}},{"type":"Feature","geometry":{"type":"Point","coordinates":[106.673298,26.442132]},"properties":{"name":"贵阳花溪公园(地铁站)","original_ids":"[88]","id":87,"layer":"stop"}},{"type":"Feature","geometry":{"type":"Point","coordinates":[106.673878,26.425186]},"properties":{"name":"贵阳学士路(地铁站)","original_ids":"[89]","id":88,"layer":"stop"}},{"type":"Feature","geometry":{"type":"Point","coordinates":[106.67391,26.412126]},"properties":{"name":"贵阳明珠大道(地铁站)","original_ids":"[90]","id":89,"layer":"stop"}},{"type":"Feature","geometry":{"type":"Point","coordinates":[106.672486,26.40577]},"properties":{"name":"贵阳花溪南站(地铁站)","original_ids":"[91]","id":90,"layer":"stop"}},{"type":"Feature","geometry":{"type":"Point","coordinates":[106.673251,26.395882]},"properties":{"name":"贵阳浪风关(地铁站)","original_ids":"[92]","id":91,"layer":"stop"}},{"type":"Feature","geometry":{"type":"Point","coordinates":[106.676685,26.382896]},"properties":{"name":"贵阳桐木岭(省委党校)(地铁站)","original_ids":"[93]","id":92,"layer":"stop"}},{"type":"Feature","properties":{"shape_id":"{}","direction_id":"{\"0\": 50}","headsign":"{}","duration_avg":120,"n_vehicles":50,"d":1200,"route_I_counts":"{\"1\": 50}","source":0,"target":1,"layer":"L","from":"贵阳窦官(地铁站)","to":"贵阳下麦西(地铁站)"},"geometry":{"type":"LineString","coordinates":[[106.565739,26.657086],[106.576421,26.65873]]}},{"type":"Feature","properties":{"shape_id":"{}","direction_id":"{\"1\": 50}","headsign":"{}","duration_avg":120,"n_vehicles":50,"d":1200,"route_I_counts":"{\"1\": 50}","source":1,"target":0,"layer":"L","from":"贵阳下麦西(地铁站)","to":"贵阳窦官(地铁站)"},"geometry":{"type":"LineString","coordinates":[[106.576421,26.65873],[106.565739,26.657086]]}},{"type":"Feature","properties":{"shape_id":"{}","direction_id":"{\"0\": 50}","headsign":"{}","duration_avg":180,"n_vehicles":50,"d":1800,"route_I_counts":"{\"1\": 50}","source":1,"target":2,"layer":"L","from":"贵阳下麦西(地铁站)","to":"贵阳老湾塘(地铁站)"},"geometry":{"type":"LineString","coordinates":[[106.576421,26.65873],[106.586684,26.652006]]}},{"type":"Feature","properties":{"shape_id":"{}","direction_id":"{\"1\": 50}","headsign":"{}","duration_avg":180,"n_vehicles":50,"d":1800,"route_I_counts":"{\"1\": 50}","source":2,"target":1,"layer":"L","from":"贵阳老湾塘(地铁站)","to":"贵阳下麦西(地铁站)"},"geometry":{"type":"LineString","coordinates":[[106.586684,26.652006],[106.576421,26.65873]]}},{"type":"Feature","properties":{"shape_id":"{}","direction_id":"{\"0\": 50}","headsign":"{}","duration_avg":180,"n_vehicles":50,"d":1800,"route_I_counts":"{\"1\": 50}","source":2,"target":3,"layer":"L","from":"贵阳老湾塘(地铁站)","to":"贵阳阅山湖公园(地铁站)"},"geometry":{"type":"LineString","coordinates":[[106.586684,26.652006],[106.604708,26.649657]]}},{"type":"Feature","properties":{"shape_id":"{}","direction_id":"{\"1\": 50}","headsign":"{}","duration_avg":180,"n_vehicles":50,"d":1800,"route_I_counts":"{\"1\": 50}","source":3,"target":2,"layer":"L","from":"贵阳阅山湖公园(地铁站)","to":"贵阳老湾塘(地铁站)"},"geometry":{"type":"LineString","coordinates":[[106.604708,26.649657],[106.586684,26.652006]]}},{"type":"Feature","properties":{"shape_id":"{}","direction_id":"{\"0\": 50}","headsign":"{}","duration_avg":120,"n_vehicles":50,"d":1200,"route_I_counts":"{\"1\": 50}","source":3,"target":4,"layer":"L","from":"贵阳阅山湖公园(地铁站)","to":"贵阳林城西路(地铁站)"},"geometry":{"type":"LineString","coordinates":[[106.604708,26.649657],[106.61394,26.648911]]}},{"type":"Feature","properties":{"shape_id":"{}","direction_id":"{\"1\": 50}","headsign":"{}","duration_avg":120,"n_vehicles":50,"d":1200,"route_I_counts":"{\"1\": 50}","source":4,"target":3,"layer":"L","from":"贵阳林城西路(地铁站)","to":"贵阳阅山湖公园(地铁站)"},"geometry":{"type":"LineString","coordinates":[[106.61394,26.648911],[106.604708,26.649657]]}},{"type":"Feature","properties":{"shape_id":"{}","direction_id":"{\"0\": 50}","headsign":"{}","duration_avg":120,"n_vehicles":50,"d":1200,"route_I_counts":"{\"1\": 50}","source":4,"target":5,"layer":"L","from":"贵阳林城西路(地铁站)","to":"贵阳观山湖公园(地铁站)"},"geometry":{"type":"LineString","coordinates":[[106.61394,26.648911],[106.628015,26.648758]]}},{"type":"Feature","properties":{"shape_id":"{}","direction_id":"{\"1\": 50}","headsign":"{}","duration_avg":120,"n_vehicles":50,"d":1200,"route_I_counts":"{\"1\": 50}","source":5,"target":4,"layer":"L","from":"贵阳观山湖公园(地铁站)","to":"贵阳林城西路(地铁站)"},"geometry":{"type":"LineString","coordinates":[[106.628015,26.648758],[106.61394,26.648911]]}},{"type":"Feature","properties":{"shape_id":"{}","direction_id":"{\"0\": 50}","headsign":"{}","duration_avg":180,"n_vehicles":50,"d":1800,"route_I_counts":"{\"1\": 50}","source":5,"target":6,"layer":"L","from":"贵阳观山湖公园(地铁站)","to":"贵阳国际生态会议中心(地铁站)"},"geometry":{"type":"LineString","coordinates":[[106.628015,26.648758],[106.644954,26.649274]]}},{"type":"Feature","properties":{"shape_id":"{}","direction_id":"{\"1\": 50}","headsign":"{}","duration_avg":180,"n_vehicles":50,"d":1800,"route_I_counts":"{\"1\": 50}","source":6,"target":5,"layer":"L","from":"贵阳国际生态会议中心(地铁站)","to":"贵阳观山湖公园(地铁站)"},"geometry":{"type":"LineString","coordinates":[[106.644954,26.649274],[106.628015,26.648758]]}},{"type":"Feature","properties":{"shape_id":"{}","direction_id":"{\"0\": 50}","headsign":"{}","duration_avg":180,"n_vehicles":50,"d":1800,"route_I_counts":"{\"1\": 50}","source":6,"target":7,"layer":"L","from":"贵阳国际生态会议中心(地铁站)","to":"贵阳阳关(地铁站)"},"geometry":{"type":"LineString","coordinates":[[106.644954,26.649274],[106.65211,26.642688]]}},{"type":"Feature","properties":{"shape_id":"{}","direction_id":"{\"1\": 50}","headsign":"{}","duration_avg":180,"n_vehicles":50,"d":1800,"route_I_counts":"{\"1\": 50}","source":7,"target":6,"layer":"L","from":"贵阳阳关(地铁站)","to":"贵阳国际生态会议中心(地铁站)"},"geometry":{"type":"LineString","coordinates":[[106.65211,26.642688],[106.644954,26.649274]]}},{"type":"Feature","properties":{"shape_id":"{}","direction_id":"{\"0\": 50}","headsign":"{}","duration_avg":120,"n_vehicles":50,"d":1200,"route_I_counts":"{\"1\": 50}","source":7,"target":8,"layer":"L","from":"贵阳阳关(地铁站)","to":"贵阳新寨(地铁站)"},"geometry":{"type":"LineString","coordinates":[[106.65211,26.642688],[106.650698,26.632706]]}},{"type":"Feature","properties":{"shape_id":"{}","direction_id":"{\"1\": 50}","headsign":"{}","duration_avg":120,"n_vehicles":50,"d":1200,"route_I_counts":"{\"1\": 50}","source":8,"target":7,"layer":"L","from":"贵阳新寨(地铁站)","to":"贵阳阳关(地铁站)"},"geometry":{"type":"LineString","coordinates":[[106.650698,26.632706],[106.65211,26.642688]]}},{"type":"Feature","properties":{"shape_id":"{}","direction_id":"{\"0\": 50}","headsign":"{}","duration_avg":120,"n_vehicles":50,"d":1200,"route_I_counts":"{\"1\": 50}","source":8,"target":9,"layer":"L","from":"贵阳新寨(地铁站)","to":"贵阳白鹭湖(地铁站)"},"geometry":{"type":"LineString","coordinates":[[106.650698,26.632706],[106.658096,26.623259]]}},{"type":"Feature","properties":{"shape_id":"{}","direction_id":"{\"1\": 50}","headsign":"{}","duration_avg":120,"n_vehicles":50,"d":1200,"route_I_counts":"{\"1\": 50}","source":9,"target":8,"layer":"L","from":"贵阳白鹭湖(地铁站)","to":"贵阳新寨(地铁站)"},"geometry":{"type":"LineString","coordinates":[[106.658096,26.623259],[106.650698,26.632706]]}},{"type":"Feature","properties":{"shape_id":"{}","direction_id":"{\"0\": 50}","headsign":"{}","duration_avg":180,"n_vehicles":50,"d":1800,"route_I_counts":"{\"1\": 50}","source":9,"target":10,"layer":"L","from":"贵阳白鹭湖(地铁站)","to":"贵阳贵阳北站(地铁站)"},"geometry":{"type":"LineString","coordinates":[[106.658096,26.623259],[106.671655,26.623102]]}},{"type":"Feature","properties":{"shape_id":"{}","direction_id":"{\"1\": 50}","headsign":"{}","duration_avg":180,"n_vehicles":50,"d":1800,"route_I_counts":"{\"1\": 50}","source":10,"target":9,"layer":"L","from":"贵阳贵阳北站(地铁站)","to":"贵阳白鹭湖(地铁站)"},"geometry":{"type":"LineString","coordinates":[[106.671655,26.623102],[106.658096,26.623259]]}},{"type":"Feature","properties":{"shape_id":"{}","direction_id":"{\"0\": 50}","headsign":"{}","duration_avg":240,"n_vehicles":50,"d":2400,"route_I_counts":"{\"1\": 50}","source":10,"target":11,"layer":"L","from":"贵阳贵阳北站(地铁站)","to":"贵阳雅关(地铁站)"},"geometry":{"type":"LineString","coordinates":[[106.671655,26.623102],[106.698579,26.640088]]}},{"type":"Feature","properties":{"shape_id":"{}","direction_id":"{\"1\": 50}","headsign":"{}","duration_avg":240,"n_vehicles":50,"d":2400,"route_I_counts":"{\"1\": 50}","source":11,"target":10,"layer":"L","from":"贵阳雅关(地铁站)","to":"贵阳贵阳北站(地铁站)"},"geometry":{"type":"LineString","coordinates":[[106.698579,26.640088],[106.671655,26.623102]]}},{"type":"Feature","properties":{"shape_id":"{}","direction_id":"{\"0\": 50}","headsign":"{}","duration_avg":240,"n_vehicles":50,"d":2400,"route_I_counts":"{\"1\": 50}","source":11,"target":12,"layer":"L","from":"贵阳雅关(地铁站)","to":"贵阳南垭路(地铁站)"},"geometry":{"type":"LineString","coordinates":[[106.698579,26.640088],[106.701381,26.618831]]}},{"type":"Feature","properties":{"shape_id":"{}","direction_id":"{\"1\": 50}","headsign":"{}","duration_avg":240,"n_vehicles":50,"d":2400,"route_I_counts":"{\"1\": 50}","source":12,"target":11,"layer":"L","from":"贵阳南垭路(地铁站)","to":"贵阳雅关(地铁站)"},"geometry":{"type":"LineString","coordinates":[[106.701381,26.618831],[106.698579,26.640088]]}},{"type":"Feature","properties":{"shape_id":"{}","direction_id":"{\"0\": 50}","headsign":"{}","duration_avg":180,"n_vehicles":50,"d":1800,"route_I_counts":"{\"1\": 50}","source":12,"target":13,"layer":"L","from":"贵阳南垭路(地铁站)","to":"贵阳八鸽岩(地铁站)"},"geometry":{"type":"LineString","coordinates":[[106.701381,26.618831],[106.699369,26.600529]]}},{"type":"Feature","properties":{"shape_id":"{}","direction_id":"{\"1\": 50}","headsign":"{}","duration_avg":180,"n_vehicles":50,"d":1800,"route_I_counts":"{\"1\": 50}","source":13,"target":12,"layer":"L","from":"贵阳八鸽岩(地铁站)","to":"贵阳南垭路(地铁站)"},"geometry":{"type":"LineString","coordinates":[[106.699369,26.600529],[106.701381,26.618831]]}},{"type":"Feature","properties":{"shape_id":"{}","direction_id":"{\"0\": 50}","headsign":"{}","duration_avg":120,"n_vehicles":50,"d":1200,"route_I_counts":"{\"1\": 50}","source":13,"target":14,"layer":"L","from":"贵阳八鸽岩(地铁站)","to":"贵阳北京路(地铁站)"},"geometry":{"type":"LineString","coordinates":[[106.699369,26.600529],[106.702495,26.59647]]}},{"type":"Feature","properties":{"shape_id":"{}","direction_id":"{\"1\": 50}","headsign":"{}","duration_avg":120,"n_vehicles":50,"d":1200,"route_I_counts":"{\"1\": 50}","source":14,"target":13,"layer":"L","from":"贵阳北京路(地铁站)","to":"贵阳八鸽岩(地铁站)"},"geometry":{"type":"LineString","coordinates":[[106.702495,26.59647],[106.699369,26.600529]]}},{"type":"Feature","properties":{"shape_id":"{}","direction_id":"{\"0\": 50}","headsign":"{}","duration_avg":120,"n_vehicles":50,"d":1200,"route_I_counts":"{\"1\": 50}","source":14,"target":15,"layer":"L","from":"贵阳北京路(地铁站)","to":"贵阳喷水池(地铁站)"},"geometry":{"type":"LineString","coordinates":[[106.702495,26.59647],[106.706611,26.587172]]}},{"type":"Feature","properties":{"shape_id":"{}","direction_id":"{\"1\": 50}","headsign":"{}","duration_avg":120,"n_vehicles":50,"d":1200,"route_I_counts":"{\"1\": 50}","source":15,"target":14,"layer":"L","from":"贵阳喷水池(地铁站)","to":"贵阳北京路(地铁站)"},"geometry":{"type":"LineString","coordinates":[[106.706611,26.587172],[106.702495,26.59647]]}},{"type":"Feature","properties":{"shape_id":"{}","direction_id":"{\"0\": 50}","headsign":"{}","duration_avg":180,"n_vehicles":50,"d":1800,"route_I_counts":"{\"1\": 50}","source":15,"target":16,"layer":"L","from":"贵阳喷水池(地铁站)","to":"贵阳中山西路(地铁站)"},"geometry":{"type":"LineString","coordinates":[[106.706611,26.587172],[106.706016,26.580677]]}},{"type":"Feature","properties":{"shape_id":"{}","direction_id":"{\"1\": 50}","headsign":"{}","duration_avg":180,"n_vehicles":50,"d":1800,"route_I_counts":"{\"1\": 50}","source":16,"target":15,"layer":"L","from":"贵阳中山西路(地铁站)","to":"贵阳喷水池(地铁站)"},"geometry":{"type":"LineString","coordinates":[[106.706016,26.580677],[106.706611,26.587172]]}},{"type":"Feature","properties":{"shape_id":"{}","direction_id":"{\"0\": 50}","headsign":"{}","duration_avg":120,"n_vehicles":50,"d":1200,"route_I_counts":"{\"1\": 50}","source":16,"target":17,"layer":"L","from":"贵阳中山西路(地铁站)","to":"贵阳河滨公园(地铁站)"},"geometry":{"type":"LineString","coordinates":[[106.706016,26.580677],[106.70408,26.572762]]}},{"type":"Feature","properties":{"shape_id":"{}","direction_id":"{\"1\": 50}","headsign":"{}","duration_avg":120,"n_vehicles":50,"d":1200,"route_I_counts":"{\"1\": 50}","source":17,"target":16,"layer":"L","from":"贵阳河滨公园(地铁站)","to":"贵阳中山西路(地铁站)"},"geometry":{"type":"LineString","coordinates":[[106.70408,26.572762],[106.706016,26.580677]]}},{"type":"Feature","properties":{"shape_id":"{}","direction_id":"{\"0\": 50}","headsign":"{}","duration_avg":120,"n_vehicles":50,"d":1200,"route_I_counts":"{\"1\": 50}","source":17,"target":18,"layer":"L","from":"贵阳河滨公园(地铁站)","to":"贵阳贵阳火车站(地铁站)"},"geometry":{"type":"LineString","coordinates":[[106.70408,26.572762],[106.699645,26.561164]]}},{"type":"Feature","properties":{"shape_id":"{}","direction_id":"{\"1\": 50}","headsign":"{}","duration_avg":120,"n_vehicles":50,"d":1200,"route_I_counts":"{\"1\": 50}","source":18,"target":17,"layer":"L","from":"贵阳贵阳火车站(地铁站)","to":"贵阳河滨公园(地铁站)"},"geometry":{"type":"LineString","coordinates":[[106.699645,26.561164],[106.70408,26.572762]]}},{"type":"Feature","properties":{"shape_id":"{}","direction_id":"{\"0\": 50}","headsign":"{}","duration_avg":120,"n_vehicles":50,"d":1200,"route_I_counts":"{\"1\": 50}","source":18,"target":19,"layer":"L","from":"贵阳贵阳火车站(地铁站)","to":"贵阳沙冲路(地铁站)"},"geometry":{"type":"LineString","coordinates":[[106.699645,26.561164],[106.699261,26.55327]]}},{"type":"Feature","properties":{"shape_id":"{}","direction_id":"{\"1\": 50}","headsign":"{}","duration_avg":120,"n_vehicles":50,"d":1200,"route_I_counts":"{\"1\": 50}","source":19,"target":18,"layer":"L","from":"贵阳沙冲路(地铁站)","to":"贵阳贵阳火车站(地铁站)"},"geometry":{"type":"LineString","coordinates":[[106.699261,26.55327],[106.699645,26.561164]]}},{"type":"Feature","properties":{"shape_id":"{}","direction_id":"{\"0\": 50}","headsign":"{}","duration_avg":180,"n_vehicles":50,"d":1800,"route_I_counts":"{\"1\": 50}","source":19,"target":20,"layer":"L","from":"贵阳沙冲路(地铁站)","to":"贵阳望城坡(地铁站)"},"geometry":{"type":"LineString","coordinates":[[106.699261,26.55327],[106.708511,26.540013]]}},{"type":"Feature","properties":{"shape_id":"{}","direction_id":"{\"1\": 50}","headsign":"{}","duration_avg":180,"n_vehicles":50,"d":1800,"route_I_counts":"{\"1\": 50}","source":20,"target":19,"layer":"L","from":"贵阳望城坡(地铁站)","to":"贵阳沙冲路(地铁站)"},"geometry":{"type":"LineString","coordinates":[[106.708511,26.540013],[106.699261,26.55327]]}},{"type":"Feature","properties":{"shape_id":"{}","direction_id":"{\"0\": 50}","headsign":"{}","duration_avg":120,"n_vehicles":50,"d":1200,"route_I_counts":"{\"1\": 50}","source":20,"target":21,"layer":"L","from":"贵阳望城坡(地铁站)","to":"贵阳珠江路(地铁站)"},"geometry":{"type":"LineString","coordinates":[[106.708511,26.540013],[106.707152,26.529715]]}},{"type":"Feature","properties":{"shape_id":"{}","direction_id":"{\"1\": 50}","headsign":"{}","duration_avg":120,"n_vehicles":50,"d":1200,"route_I_counts":"{\"1\": 50}","source":21,"target":20,"layer":"L","from":"贵阳珠江路(地铁站)","to":"贵阳望城坡(地铁站)"},"geometry":{"type":"LineString","coordinates":[[106.707152,26.529715],[106.708511,26.540013]]}},{"type":"Feature","properties":{"shape_id":"{}","direction_id":"{\"0\": 50}","headsign":"{}","duration_avg":120,"n_vehicles":50,"d":1200,"route_I_counts":"{\"1\": 50}","source":21,"target":22,"layer":"L","from":"贵阳珠江路(地铁站)","to":"贵阳长江路(地铁站)"},"geometry":{"type":"LineString","coordinates":[[106.707152,26.529715],[106.707249,26.521411]]}},{"type":"Feature","properties":{"shape_id":"{}","direction_id":"{\"1\": 50}","headsign":"{}","duration_avg":120,"n_vehicles":50,"d":1200,"route_I_counts":"{\"1\": 50}","source":22,"target":21,"layer":"L","from":"贵阳长江路(地铁站)","to":"贵阳珠江路(地铁站)"},"geometry":{"type":"LineString","coordinates":[[106.707249,26.521411],[106.707152,26.529715]]}},{"type":"Feature","properties":{"shape_id":"{}","direction_id":"{\"0\": 50}","headsign":"{}","duration_avg":120,"n_vehicles":50,"d":1200,"route_I_counts":"{\"1\": 50}","source":22,"target":23,"layer":"L","from":"贵阳长江路(地铁站)","to":"贵阳清水江路(地铁站)"},"geometry":{"type":"LineString","coordinates":[[106.707249,26.521411],[106.705541,26.510556]]}},{"type":"Feature","properties":{"shape_id":"{}","direction_id":"{\"1\": 50}","headsign":"{}","duration_avg":120,"n_vehicles":50,"d":1200,"route_I_counts":"{\"1\": 50}","source":23,"target":22,"layer":"L","from":"贵阳清水江路(地铁站)","to":"贵阳长江路(地铁站)"},"geometry":{"type":"LineString","coordinates":[[106.705541,26.510556],[106.707249,26.521411]]}},{"type":"Feature","properties":{"shape_id":"{}","direction_id":"{\"0\": 50}","headsign":"{}","duration_avg":120,"n_vehicles":50,"d":1200,"route_I_counts":"{\"1\": 50}","source":23,"target":24,"layer":"L","from":"贵阳清水江路(地铁站)","to":"贵阳小孟工业园(地铁站)"},"geometry":{"type":"LineString","coordinates":[[106.705541,26.510556],[106.705871,26.501229]]}},{"type":"Feature","properties":{"shape_id":"{}","direction_id":"{\"1\": 50}","headsign":"{}","duration_avg":120,"n_vehicles":50,"d":1200,"route_I_counts":"{\"1\": 50}","source":24,"target":23,"layer":"L","from":"贵阳小孟工业园(地铁站)","to":"贵阳清水江路(地铁站)"},"geometry":{"type":"LineString","coordinates":[[106.705871,26.501229],[106.705541,26.510556]]}},{"type":"Feature","properties":{"shape_id":"{}","direction_id":"{\"0\": 50}","headsign":"{}","duration_avg":180,"n_vehicles":50,"d":1800,"route_I_counts":"{\"2\": 50}","source":20,"target":25,"layer":"L","from":"贵阳望城坡(地铁站)","to":"贵阳小河(地铁站)"},"geometry":{"type":"LineString","coordinates":[[106.708511,26.540013],[106.698271,26.525146]]}},{"type":"Feature","properties":{"shape_id":"{}","direction_id":"{\"1\": 50}","headsign":"{}","duration_avg":180,"n_vehicles":50,"d":1800,"route_I_counts":"{\"2\": 50}","source":25,"target":20,"layer":"L","from":"贵阳小河(地铁站)","to":"贵阳望城坡(地铁站)"},"geometry":{"type":"LineString","coordinates":[[106.698271,26.525146],[106.708511,26.540013]]}},{"type":"Feature","properties":{"shape_id":"{}","direction_id":"{\"0\": 50}","headsign":"{}","duration_avg":120,"n_vehicles":50,"d":1200,"route_I_counts":"{\"2\": 50}","source":25,"target":26,"layer":"L","from":"贵阳小河(地铁站)","to":"贵阳锦江路(地铁站)"},"geometry":{"type":"LineString","coordinates":[[106.698271,26.525146],[106.694763,26.514927]]}},{"type":"Feature","properties":{"shape_id":"{}","direction_id":"{\"1\": 50}","headsign":"{}","duration_avg":120,"n_vehicles":50,"d":1200,"route_I_counts":"{\"2\": 50}","source":26,"target":25,"layer":"L","from":"贵阳锦江路(地铁站)","to":"贵阳小河(地铁站)"},"geometry":{"type":"LineString","coordinates":[[106.694763,26.514927],[106.698271,26.525146]]}},{"type":"Feature","properties":{"shape_id":"{}","direction_id":"{\"0\": 50}","headsign":"{}","duration_avg":180,"n_vehicles":50,"d":1800,"route_I_counts":"{\"2\": 50}","source":26,"target":27,"layer":"L","from":"贵阳锦江路(地铁站)","to":"贵阳中曹司(地铁站)"},"geometry":{"type":"LineString","coordinates":[[106.694763,26.514927],[106.673047,26.506292]]}},{"type":"Feature","properties":{"shape_id":"{}","direction_id":"{\"1\": 50}","headsign":"{}","duration_avg":180,"n_vehicles":50,"d":1800,"route_I_counts":"{\"2\": 50}","source":27,"target":26,"layer":"L","from":"贵阳中曹司(地铁站)","to":"贵阳锦江路(地铁站)"},"geometry":{"type":"LineString","coordinates":[[106.673047,26.506292],[106.694763,26.514927]]}},{"type":"Feature","properties":{"shape_id":"{}","direction_id":"{\"0\": 50}","headsign":"{}","duration_avg":240,"n_vehicles":50,"d":2400,"route_I_counts":"{\"2\": 50}","source":27,"target":28,"layer":"L","from":"贵阳中曹司(地铁站)","to":"贵阳金竹(地铁站)"},"geometry":{"type":"LineString","coordinates":[[106.673047,26.506292],[106.652389,26.490693]]}},{"type":"Feature","properties":{"shape_id":"{}","direction_id":"{\"1\": 50}","headsign":"{}","duration_avg":240,"n_vehicles":50,"d":2400,"route_I_counts":"{\"2\": 50}","source":28,"target":27,"layer":"L","from":"贵阳金竹(地铁站)","to":"贵阳中曹司(地铁站)"},"geometry":{"type":"LineString","coordinates":[[106.652389,26.490693],[106.673047,26.506292]]}},{"type":"Feature","properties":{"shape_id":"{}","direction_id":"{\"0\": 50}","headsign":"{}","duration_avg":180,"n_vehicles":50,"d":1800,"route_I_counts":"{\"2\": 50}","source":28,"target":29,"layer":"L","from":"贵阳金竹(地铁站)","to":"贵阳石板哨(地铁站)"},"geometry":{"type":"LineString","coordinates":[[106.652389,26.490693],[106.6251,26.482503]]}},{"type":"Feature","properties":{"shape_id":"{}","direction_id":"{\"1\": 50}","headsign":"{}","duration_avg":180,"n_vehicles":50,"d":1800,"route_I_counts":"{\"2\": 50}","source":29,"target":28,"layer":"L","from":"贵阳石板哨(地铁站)","to":"贵阳金竹(地铁站)"},"geometry":{"type":"LineString","coordinates":[[106.6251,26.482503],[106.652389,26.490693]]}},{"type":"Feature","properties":{"shape_id":"{}","direction_id":"{\"0\": 50}","headsign":"{}","duration_avg":240,"n_vehicles":50,"d":2400,"route_I_counts":"{\"2\": 50}","source":29,"target":30,"layer":"L","from":"贵阳石板哨(地铁站)","to":"贵阳天河潭(地铁站)"},"geometry":{"type":"LineString","coordinates":[[106.6251,26.482503],[106.578174,26.452686]]}},{"type":"Feature","properties":{"shape_id":"{}","direction_id":"{\"1\": 50}","headsign":"{}","duration_avg":240,"n_vehicles":50,"d":2400,"route_I_counts":"{\"2\": 50}","source":30,"target":29,"layer":"L","from":"贵阳天河潭(地铁站)","to":"贵阳石板哨(地铁站)"},"geometry":{"type":"LineString","coordinates":[[106.578174,26.452686],[106.6251,26.482503]]}},{"type":"Feature","properties":{"shape_id":"{}","direction_id":"{\"0\": 50}","headsign":"{}","duration_avg":240,"n_vehicles":50,"d":2400,"route_I_counts":"{\"2\": 50}","source":30,"target":31,"layer":"L","from":"贵阳天河潭(地铁站)","to":"贵阳大龙井(地铁站)"},"geometry":{"type":"LineString","coordinates":[[106.578174,26.452686],[106.542248,26.459329]]}},{"type":"Feature","properties":{"shape_id":"{}","direction_id":"{\"1\": 50}","headsign":"{}","duration_avg":240,"n_vehicles":50,"d":2400,"route_I_counts":"{\"2\": 50}","source":31,"target":30,"layer":"L","from":"贵阳大龙井(地铁站)","to":"贵阳天河潭(地铁站)"},"geometry":{"type":"LineString","coordinates":[[106.542248,26.459329],[106.578174,26.452686]]}},{"type":"Feature","properties":{"shape_id":"{}","direction_id":"{\"0\": 50}","headsign":"{}","duration_avg":180,"n_vehicles":50,"d":1800,"route_I_counts":"{\"2\": 50}","source":31,"target":32,"layer":"L","from":"贵阳大龙井(地铁站)","to":"贵阳星月湖(地铁站)"},"geometry":{"type":"LineString","coordinates":[[106.542248,26.459329],[106.524372,26.458236]]}},{"type":"Feature","properties":{"shape_id":"{}","direction_id":"{\"1\": 50}","headsign":"{}","duration_avg":180,"n_vehicles":50,"d":1800,"route_I_counts":"{\"2\": 50}","source":32,"target":31,"layer":"L","from":"贵阳星月湖(地铁站)","to":"贵阳大龙井(地铁站)"},"geometry":{"type":"LineString","coordinates":[[106.524372,26.458236],[106.542248,26.459329]]}},{"type":"Feature","properties":{"shape_id":"{}","direction_id":"{\"0\": 50}","headsign":"{}","duration_avg":180,"n_vehicles":50,"d":1800,"route_I_counts":"{\"2\": 50}","source":32,"target":33,"layer":"L","from":"贵阳星月湖(地铁站)","to":"贵阳数谷大道(地铁站)"},"geometry":{"type":"LineString","coordinates":[[106.524372,26.458236],[106.503234,26.460482]]}},{"type":"Feature","properties":{"shape_id":"{}","direction_id":"{\"1\": 50}","headsign":"{}","duration_avg":180,"n_vehicles":50,"d":1800,"route_I_counts":"{\"2\": 50}","source":33,"target":32,"layer":"L","from":"贵阳数谷大道(地铁站)","to":"贵阳星月湖(地铁站)"},"geometry":{"type":"LineString","coordinates":[[106.503234,26.460482],[106.524372,26.458236]]}},{"type":"Feature","properties":{"shape_id":"{}","direction_id":"{\"0\": 50}","headsign":"{}","duration_avg":120,"n_vehicles":50,"d":1200,"route_I_counts":"{\"2\": 50}","source":33,"target":34,"layer":"L","from":"贵阳数谷大道(地铁站)","to":"贵阳大科城(地铁站)"},"geometry":{"type":"LineString","coordinates":[[106.503234,26.460482],[106.494798,26.463816]]}},{"type":"Feature","properties":{"shape_id":"{}","direction_id":"{\"1\": 50}","headsign":"{}","duration_avg":120,"n_vehicles":50,"d":1200,"route_I_counts":"{\"2\": 50}","source":34,"target":33,"layer":"L","from":"贵阳大科城(地铁站)","to":"贵阳数谷大道(地铁站)"},"geometry":{"type":"LineString","coordinates":[[106.494798,26.463816],[106.503234,26.460482]]}},{"type":"Feature","properties":{"shape_id":"{}","direction_id":"{\"0\": 50}","headsign":"{}","duration_avg":180,"n_vehicles":50,"d":1800,"route_I_counts":"{\"2\": 50}","source":34,"target":35,"layer":"L","from":"贵阳大科城(地铁站)","to":"贵阳贵安站(地铁站)"},"geometry":{"type":"LineString","coordinates":[[106.494798,26.463816],[106.481854,26.469008]]}},{"type":"Feature","properties":{"shape_id":"{}","direction_id":"{\"1\": 50}","headsign":"{}","duration_avg":180,"n_vehicles":50,"d":1800,"route_I_counts":"{\"2\": 50}","source":35,"target":34,"layer":"L","from":"贵阳贵安站(地铁站)","to":"贵阳大科城(地铁站)"},"geometry":{"type":"LineString","coordinates":[[106.481854,26.469008],[106.494798,26.463816]]}},{"type":"Feature","properties":{"shape_id":"{}","direction_id":"{\"0\": 50}","headsign":"{}","duration_avg":120,"n_vehicles":50,"d":1200,"route_I_counts":"{\"2\": 50}","source":35,"target":36,"layer":"L","from":"贵阳贵安站(地铁站)","to":"贵阳皂角坝(地铁站)"},"geometry":{"type":"LineString","coordinates":[[106.481854,26.469008],[106.465048,26.474778]]}},{"type":"Feature","properties":{"shape_id":"{}","direction_id":"{\"1\": 50}","headsign":"{}","duration_avg":120,"n_vehicles":50,"d":1200,"route_I_counts":"{\"2\": 50}","source":36,"target":35,"layer":"L","from":"贵阳皂角坝(地铁站)","to":"贵阳贵安站(地铁站)"},"geometry":{"type":"LineString","coordinates":[[106.465048,26.474778],[106.481854,26.469008]]}},{"type":"Feature","properties":{"shape_id":"{}","direction_id":"{\"0\": 50}","headsign":"{}","duration_avg":120,"n_vehicles":50,"d":1200,"route_I_counts":"{\"3\": 50}","source":37,"target":38,"layer":"L","from":"贵阳白云北路(地铁站)","to":"贵阳白云中路(地铁站)"},"geometry":{"type":"LineString","coordinates":[[106.621693,26.696115],[106.627809,26.687137]]}},{"type":"Feature","properties":{"shape_id":"{}","direction_id":"{\"1\": 50}","headsign":"{}","duration_avg":120,"n_vehicles":50,"d":1200,"route_I_counts":"{\"3\": 50}","source":38,"target":37,"layer":"L","from":"贵阳白云中路(地铁站)","to":"贵阳白云北路(地铁站)"},"geometry":{"type":"LineString","coordinates":[[106.627809,26.687137],[106.621693,26.696115]]}},{"type":"Feature","properties":{"shape_id":"{}","direction_id":"{\"0\": 50}","headsign":"{}","duration_avg":120,"n_vehicles":50,"d":1200,"route_I_counts":"{\"3\": 50}","source":38,"target":39,"layer":"L","from":"贵阳白云中路(地铁站)","to":"贵阳云峰大道(地铁站)"},"geometry":{"type":"LineString","coordinates":[[106.627809,26.687137],[106.622569,26.681033]]}},{"type":"Feature","properties":{"shape_id":"{}","direction_id":"{\"1\": 50}","headsign":"{}","duration_avg":120,"n_vehicles":50,"d":1200,"route_I_counts":"{\"3\": 50}","source":39,"target":38,"layer":"L","from":"贵阳云峰大道(地铁站)","to":"贵阳白云中路(地铁站)"},"geometry":{"type":"LineString","coordinates":[[106.622569,26.681033],[106.627809,26.687137]]}},{"type":"Feature","properties":{"shape_id":"{}","direction_id":"{\"0\": 50}","headsign":"{}","duration_avg":120,"n_vehicles":50,"d":1200,"route_I_counts":"{\"3\": 50}","source":39,"target":40,"layer":"L","from":"贵阳云峰大道(地铁站)","to":"贵阳泉湖公园(地铁站)"},"geometry":{"type":"LineString","coordinates":[[106.622569,26.681033],[106.618551,26.673008]]}},{"type":"Feature","properties":{"shape_id":"{}","direction_id":"{\"1\": 50}","headsign":"{}","duration_avg":120,"n_vehicles":50,"d":1200,"route_I_counts":"{\"3\": 50}","source":40,"target":39,"layer":"L","from":"贵阳泉湖公园(地铁站)","to":"贵阳云峰大道(地铁站)"},"geometry":{"type":"LineString","coordinates":[[106.618551,26.673008],[106.622569,26.681033]]}},{"type":"Feature","properties":{"shape_id":"{}","direction_id":"{\"0\": 50}","headsign":"{}","duration_avg":120,"n_vehicles":50,"d":1200,"route_I_counts":"{\"3\": 50}","source":40,"target":41,"layer":"L","from":"贵阳泉湖公园(地铁站)","to":"贵阳枫林路(地铁站)"},"geometry":{"type":"LineString","coordinates":[[106.618551,26.673008],[106.614023,26.665092]]}},{"type":"Feature","properties":{"shape_id":"{}","direction_id":"{\"1\": 50}","headsign":"{}","duration_avg":120,"n_vehicles":50,"d":1200,"route_I_counts":"{\"3\": 50}","source":41,"target":40,"layer":"L","from":"贵阳枫林路(地铁站)","to":"贵阳泉湖公园(地铁站)"},"geometry":{"type":"LineString","coordinates":[[106.614023,26.665092],[106.618551,26.673008]]}},{"type":"Feature","properties":{"shape_id":"{}","direction_id":"{\"0\": 50}","headsign":"{}","duration_avg":120,"n_vehicles":50,"d":1200,"route_I_counts":"{\"3\": 50}","source":41,"target":42,"layer":"L","from":"贵阳枫林路(地铁站)","to":"贵阳诚信路(地铁站)"},"geometry":{"type":"LineString","coordinates":[[106.614023,26.665092],[106.614021,26.654842]]}},{"type":"Feature","properties":{"shape_id":"{}","direction_id":"{\"1\": 50}","headsign":"{}","duration_avg":120,"n_vehicles":50,"d":1200,"route_I_counts":"{\"3\": 50}","source":42,"target":41,"layer":"L","from":"贵阳诚信路(地铁站)","to":"贵阳枫林路(地铁站)"},"geometry":{"type":"LineString","coordinates":[[106.614021,26.654842],[106.614023,26.665092]]}},{"type":"Feature","properties":{"shape_id":"{}","direction_id":"{\"0\": 50}","headsign":"{}","duration_avg":120,"n_vehicles":50,"d":1200,"route_I_counts":"{\"3\": 50}","source":42,"target":4,"layer":"L","from":"贵阳诚信路(地铁站)","to":"贵阳林城西路(地铁站)"},"geometry":{"type":"LineString","coordinates":[[106.614021,26.654842],[106.61394,26.648911]]}},{"type":"Feature","properties":{"shape_id":"{}","direction_id":"{\"1\": 50}","headsign":"{}","duration_avg":120,"n_vehicles":50,"d":1200,"route_I_counts":"{\"3\": 50}","source":4,"target":42,"layer":"L","from":"贵阳林城西路(地铁站)","to":"贵阳诚信路(地铁站)"},"geometry":{"type":"LineString","coordinates":[[106.61394,26.648911],[106.614021,26.654842]]}},{"type":"Feature","properties":{"shape_id":"{}","direction_id":"{\"0\": 50}","headsign":"{}","duration_avg":120,"n_vehicles":50,"d":1200,"route_I_counts":"{\"3\": 50}","source":4,"target":43,"layer":"L","from":"贵阳林城西路(地铁站)","to":"贵阳观山西路(地铁站)"},"geometry":{"type":"LineString","coordinates":[[106.61394,26.648911],[106.613474,26.638663]]}},{"type":"Feature","properties":{"shape_id":"{}","direction_id":"{\"1\": 50}","headsign":"{}","duration_avg":120,"n_vehicles":50,"d":1200,"route_I_counts":"{\"3\": 50}","source":43,"target":4,"layer":"L","from":"贵阳观山西路(地铁站)","to":"贵阳林城西路(地铁站)"},"geometry":{"type":"LineString","coordinates":[[106.613474,26.638663],[106.61394,26.648911]]}},{"type":"Feature","properties":{"shape_id":"{}","direction_id":"{\"0\": 50}","headsign":"{}","duration_avg":120,"n_vehicles":50,"d":1200,"route_I_counts":"{\"3\": 50}","source":43,"target":44,"layer":"L","from":"贵阳观山西路(地铁站)","to":"贵阳兴筑路(地铁站)"},"geometry":{"type":"LineString","coordinates":[[106.613474,26.638663],[106.613079,26.626844]]}},{"type":"Feature","properties":{"shape_id":"{}","direction_id":"{\"1\": 50}","headsign":"{}","duration_avg":120,"n_vehicles":50,"d":1200,"route_I_counts":"{\"3\": 50}","source":44,"target":43,"layer":"L","from":"贵阳兴筑路(地铁站)","to":"贵阳观山西路(地铁站)"},"geometry":{"type":"LineString","coordinates":[[106.613079,26.626844],[106.613474,26.638663]]}},{"type":"Feature","properties":{"shape_id":"{}","direction_id":"{\"0\": 50}","headsign":"{}","duration_avg":180,"n_vehicles":50,"d":1800,"route_I_counts":"{\"3\": 50}","source":44,"target":45,"layer":"L","from":"贵阳兴筑路(地铁站)","to":"贵阳金阳医院(地铁站)"},"geometry":{"type":"LineString","coordinates":[[106.613079,26.626844],[106.617697,26.615338]]}},{"type":"Feature","properties":{"shape_id":"{}","direction_id":"{\"1\": 50}","headsign":"{}","duration_avg":180,"n_vehicles":50,"d":1800,"route_I_counts":"{\"3\": 50}","source":45,"target":44,"layer":"L","from":"贵阳金阳医院(地铁站)","to":"贵阳兴筑路(地铁站)"},"geometry":{"type":"LineString","coordinates":[[106.617697,26.615338],[106.613079,26.626844]]}},{"type":"Feature","properties":{"shape_id":"{}","direction_id":"{\"0\": 50}","headsign":"{}","duration_avg":120,"n_vehicles":50,"d":1200,"route_I_counts":"{\"3\": 50}","source":45,"target":46,"layer":"L","from":"贵阳金阳医院(地铁站)","to":"贵阳金阳南路(地铁站)"},"geometry":{"type":"LineString","coordinates":[[106.617697,26.615338],[106.616389,26.606981]]}},{"type":"Feature","properties":{"shape_id":"{}","direction_id":"{\"1\": 50}","headsign":"{}","duration_avg":120,"n_vehicles":50,"d":1200,"route_I_counts":"{\"3\": 50}","source":46,"target":45,"layer":"L","from":"贵阳金阳南路(地铁站)","to":"贵阳金阳医院(地铁站)"},"geometry":{"type":"LineString","coordinates":[[106.616389,26.606981],[106.617697,26.615338]]}},{"type":"Feature","properties":{"shape_id":"{}","direction_id":"{\"0\": 50}","headsign":"{}","duration_avg":120,"n_vehicles":50,"d":1200,"route_I_counts":"{\"3\": 50}","source":46,"target":47,"layer":"L","from":"贵阳金阳南路(地铁站)","to":"贵阳茶园(地铁站)"},"geometry":{"type":"LineString","coordinates":[[106.616389,26.606981],[106.620327,26.600478]]}},{"type":"Feature","properties":{"shape_id":"{}","direction_id":"{\"1\": 50}","headsign":"{}","duration_avg":120,"n_vehicles":50,"d":1200,"route_I_counts":"{\"3\": 50}","source":47,"target":46,"layer":"L","from":"贵阳茶园(地铁站)","to":"贵阳金阳南路(地铁站)"},"geometry":{"type":"LineString","coordinates":[[106.620327,26.600478],[106.616389,26.606981]]}},{"type":"Feature","properties":{"shape_id":"{}","direction_id":"{\"0\": 50}","headsign":"{}","duration_avg":120,"n_vehicles":50,"d":1200,"route_I_counts":"{\"3\": 50}","source":47,"target":48,"layer":"L","from":"贵阳茶园(地铁站)","to":"贵阳百花大道(地铁站)"},"geometry":{"type":"LineString","coordinates":[[106.620327,26.600478],[106.633002,26.59311]]}},{"type":"Feature","properties":{"shape_id":"{}","direction_id":"{\"1\": 50}","headsign":"{}","duration_avg":120,"n_vehicles":50,"d":1200,"route_I_counts":"{\"3\": 50}","source":48,"target":47,"layer":"L","from":"贵阳百花大道(地铁站)","to":"贵阳茶园(地铁站)"},"geometry":{"type":"LineString","coordinates":[[106.633002,26.59311],[106.620327,26.600478]]}},{"type":"Feature","properties":{"shape_id":"{}","direction_id":"{\"0\": 50}","headsign":"{}","duration_avg":180,"n_vehicles":50,"d":1800,"route_I_counts":"{\"3\": 50}","source":48,"target":49,"layer":"L","from":"贵阳百花大道(地铁站)","to":"贵阳马王庙(地铁站)"},"geometry":{"type":"LineString","coordinates":[[106.633002,26.59311],[106.649675,26.590552]]}},{"type":"Feature","properties":{"shape_id":"{}","direction_id":"{\"1\": 50}","headsign":"{}","duration_avg":180,"n_vehicles":50,"d":1800,"route_I_counts":"{\"3\": 50}","source":49,"target":48,"layer":"L","from":"贵阳马王庙(地铁站)","to":"贵阳百花大道(地铁站)"},"geometry":{"type":"LineString","coordinates":[[106.649675,26.590552],[106.633002,26.59311]]}},{"type":"Feature","properties":{"shape_id":"{}","direction_id":"{\"0\": 50}","headsign":"{}","duration_avg":120,"n_vehicles":50,"d":1200,"route_I_counts":"{\"3\": 50}","source":49,"target":50,"layer":"L","from":"贵阳马王庙(地铁站)","to":"贵阳北京西路(地铁站)"},"geometry":{"type":"LineString","coordinates":[[106.649675,26.590552],[106.655889,26.596133]]}},{"type":"Feature","properties":{"shape_id":"{}","direction_id":"{\"1\": 50}","headsign":"{}","duration_avg":120,"n_vehicles":50,"d":1200,"route_I_counts":"{\"3\": 50}","source":50,"target":49,"layer":"L","from":"贵阳北京西路(地铁站)","to":"贵阳马王庙(地铁站)"},"geometry":{"type":"LineString","coordinates":[[106.655889,26.596133],[106.649675,26.590552]]}},{"type":"Feature","properties":{"shape_id":"{}","direction_id":"{\"0\": 50}","headsign":"{}","duration_avg":180,"n_vehicles":50,"d":1800,"route_I_counts":"{\"3\": 50}","source":50,"target":51,"layer":"L","from":"贵阳北京西路(地铁站)","to":"贵阳改茶路(地铁站)"},"geometry":{"type":"LineString","coordinates":[[106.655889,26.596133],[106.66385,26.587399]]}},{"type":"Feature","properties":{"shape_id":"{}","direction_id":"{\"1\": 50}","headsign":"{}","duration_avg":180,"n_vehicles":50,"d":1800,"route_I_counts":"{\"3\": 50}","source":51,"target":50,"layer":"L","from":"贵阳改茶路(地铁站)","to":"贵阳北京西路(地铁站)"},"geometry":{"type":"LineString","coordinates":[[106.66385,26.587399],[106.655889,26.596133]]}},{"type":"Feature","properties":{"shape_id":"{}","direction_id":"{\"0\": 50}","headsign":"{}","duration_avg":180,"n_vehicles":50,"d":1800,"route_I_counts":"{\"3\": 50}","source":51,"target":52,"layer":"L","from":"贵阳改茶路(地铁站)","to":"贵阳黔春路(地铁站)"},"geometry":{"type":"LineString","coordinates":[[106.66385,26.587399],[106.67625,26.584284]]}},{"type":"Feature","properties":{"shape_id":"{}","direction_id":"{\"1\": 50}","headsign":"{}","duration_avg":180,"n_vehicles":50,"d":1800,"route_I_counts":"{\"3\": 50}","source":52,"target":51,"layer":"L","from":"贵阳黔春路(地铁站)","to":"贵阳改茶路(地铁站)"},"geometry":{"type":"LineString","coordinates":[[106.67625,26.584284],[106.66385,26.587399]]}},{"type":"Feature","properties":{"shape_id":"{}","direction_id":"{\"0\": 50}","headsign":"{}","duration_avg":120,"n_vehicles":50,"d":1200,"route_I_counts":"{\"3\": 50}","source":52,"target":53,"layer":"L","from":"贵阳黔春路(地铁站)","to":"贵阳延安西路(地铁站)"},"geometry":{"type":"LineString","coordinates":[[106.67625,26.584284],[106.694014,26.585474]]}},{"type":"Feature","properties":{"shape_id":"{}","direction_id":"{\"1\": 50}","headsign":"{}","duration_avg":120,"n_vehicles":50,"d":1200,"route_I_counts":"{\"3\": 50}","source":53,"target":52,"layer":"L","from":"贵阳延安西路(地铁站)","to":"贵阳黔春路(地铁站)"},"geometry":{"type":"LineString","coordinates":[[106.694014,26.585474],[106.67625,26.584284]]}},{"type":"Feature","properties":{"shape_id":"{}","direction_id":"{\"0\": 50}","headsign":"{}","duration_avg":120,"n_vehicles":50,"d":1200,"route_I_counts":"{\"3\": 50}","source":53,"target":54,"layer":"L","from":"贵阳延安西路(地铁站)","to":"贵阳紫林庵(地铁站)"},"geometry":{"type":"LineString","coordinates":[[106.694014,26.585474],[106.701426,26.585847]]}},{"type":"Feature","properties":{"shape_id":"{}","direction_id":"{\"1\": 50}","headsign":"{}","duration_avg":120,"n_vehicles":50,"d":1200,"route_I_counts":"{\"3\": 50}","source":54,"target":53,"layer":"L","from":"贵阳紫林庵(地铁站)","to":"贵阳延安西路(地铁站)"},"geometry":{"type":"LineString","coordinates":[[106.701426,26.585847],[106.694014,26.585474]]}},{"type":"Feature","properties":{"shape_id":"{}","direction_id":"{\"0\": 50}","headsign":"{}","duration_avg":120,"n_vehicles":50,"d":1200,"route_I_counts":"{\"3\": 50}","source":54,"target":15,"layer":"L","from":"贵阳紫林庵(地铁站)","to":"贵阳喷水池(地铁站)"},"geometry":{"type":"LineString","coordinates":[[106.701426,26.585847],[106.706611,26.587172]]}},{"type":"Feature","properties":{"shape_id":"{}","direction_id":"{\"1\": 50}","headsign":"{}","duration_avg":120,"n_vehicles":50,"d":1200,"route_I_counts":"{\"3\": 50}","source":15,"target":54,"layer":"L","from":"贵阳喷水池(地铁站)","to":"贵阳紫林庵(地铁站)"},"geometry":{"type":"LineString","coordinates":[[106.706611,26.587172],[106.701426,26.585847]]}},{"type":"Feature","properties":{"shape_id":"{}","direction_id":"{\"0\": 50}","headsign":"{}","duration_avg":180,"n_vehicles":50,"d":1800,"route_I_counts":"{\"3\": 50}","source":15,"target":55,"layer":"L","from":"贵阳喷水池(地铁站)","to":"贵阳阳明祠(地铁站)"},"geometry":{"type":"LineString","coordinates":[[106.706611,26.587172],[106.719321,26.586501]]}},{"type":"Feature","properties":{"shape_id":"{}","direction_id":"{\"1\": 50}","headsign":"{}","duration_avg":180,"n_vehicles":50,"d":1800,"route_I_counts":"{\"3\": 50}","source":55,"target":15,"layer":"L","from":"贵阳阳明祠(地铁站)","to":"贵阳喷水池(地铁站)"},"geometry":{"type":"LineString","coordinates":[[106.719321,26.586501],[106.706611,26.587172]]}},{"type":"Feature","properties":{"shape_id":"{}","direction_id":"{\"0\": 50}","headsign":"{}","duration_avg":120,"n_vehicles":50,"d":1200,"route_I_counts":"{\"3\": 50}","source":55,"target":56,"layer":"L","from":"贵阳阳明祠(地铁站)","to":"贵阳省人民医院(地铁站)"},"geometry":{"type":"LineString","coordinates":[[106.719321,26.586501],[106.721211,26.580228]]}},{"type":"Feature","properties":{"shape_id":"{}","direction_id":"{\"1\": 50}","headsign":"{}","duration_avg":120,"n_vehicles":50,"d":1200,"route_I_counts":"{\"3\": 50}","source":56,"target":55,"layer":"L","from":"贵阳省人民医院(地铁站)","to":"贵阳阳明祠(地铁站)"},"geometry":{"type":"LineString","coordinates":[[106.721211,26.580228],[106.719321,26.586501]]}},{"type":"Feature","properties":{"shape_id":"{}","direction_id":"{\"0\": 50}","headsign":"{}","duration_avg":60,"n_vehicles":50,"d":600,"route_I_counts":"{\"3\": 50}","source":56,"target":57,"layer":"L","from":"贵阳省人民医院(地铁站)","to":"贵阳宝山南路(地铁站)"},"geometry":{"type":"LineString","coordinates":[[106.721211,26.580228],[106.725355,26.573851]]}},{"type":"Feature","properties":{"shape_id":"{}","direction_id":"{\"1\": 50}","headsign":"{}","duration_avg":60,"n_vehicles":50,"d":600,"route_I_counts":"{\"3\": 50}","source":57,"target":56,"layer":"L","from":"贵阳宝山南路(地铁站)","to":"贵阳省人民医院(地铁站)"},"geometry":{"type":"LineString","coordinates":[[106.725355,26.573851],[106.721211,26.580228]]}},{"type":"Feature","properties":{"shape_id":"{}","direction_id":"{\"0\": 50}","headsign":"{}","duration_avg":120,"n_vehicles":50,"d":1200,"route_I_counts":"{\"3\": 50}","source":57,"target":58,"layer":"L","from":"贵阳宝山南路(地铁站)","to":"贵阳油榨街(地铁站)"},"geometry":{"type":"LineString","coordinates":[[106.725355,26.573851],[106.727947,26.565797]]}},{"type":"Feature","properties":{"shape_id":"{}","direction_id":"{\"1\": 50}","headsign":"{}","duration_avg":120,"n_vehicles":50,"d":1200,"route_I_counts":"{\"3\": 50}","source":58,"target":57,"layer":"L","from":"贵阳油榨街(地铁站)","to":"贵阳宝山南路(地铁站)"},"geometry":{"type":"LineString","coordinates":[[106.727947,26.565797],[106.725355,26.573851]]}},{"type":"Feature","properties":{"shape_id":"{}","direction_id":"{\"0\": 50}","headsign":"{}","duration_avg":120,"n_vehicles":50,"d":1200,"route_I_counts":"{\"3\": 50}","source":58,"target":59,"layer":"L","from":"贵阳油榨街(地铁站)","to":"贵阳贵钢(地铁站)"},"geometry":{"type":"LineString","coordinates":[[106.727947,26.565797],[106.728095,26.55796]]}},{"type":"Feature","properties":{"shape_id":"{}","direction_id":"{\"1\": 50}","headsign":"{}","duration_avg":120,"n_vehicles":50,"d":1200,"route_I_counts":"{\"3\": 50}","source":59,"target":58,"layer":"L","from":"贵阳贵钢(地铁站)","to":"贵阳油榨街(地铁站)"},"geometry":{"type":"LineString","coordinates":[[106.728095,26.55796],[106.727947,26.565797]]}},{"type":"Feature","properties":{"shape_id":"{}","direction_id":"{\"0\": 50}","headsign":"{}","duration_avg":180,"n_vehicles":50,"d":1800,"route_I_counts":"{\"3\": 50}","source":59,"target":60,"layer":"L","from":"贵阳贵钢(地铁站)","to":"贵阳富源北路(地铁站)"},"geometry":{"type":"LineString","coordinates":[[106.728095,26.55796],[106.734942,26.55275]]}},{"type":"Feature","properties":{"shape_id":"{}","direction_id":"{\"1\": 50}","headsign":"{}","duration_avg":180,"n_vehicles":50,"d":1800,"route_I_counts":"{\"3\": 50}","source":60,"target":59,"layer":"L","from":"贵阳富源北路(地铁站)","to":"贵阳贵钢(地铁站)"},"geometry":{"type":"LineString","coordinates":[[106.734942,26.55275],[106.728095,26.55796]]}},{"type":"Feature","properties":{"shape_id":"{}","direction_id":"{\"0\": 50}","headsign":"{}","duration_avg":240,"n_vehicles":50,"d":2400,"route_I_counts":"{\"3\": 50}","source":60,"target":61,"layer":"L","from":"贵阳富源北路(地铁站)","to":"贵阳森林公园(地铁站)"},"geometry":{"type":"LineString","coordinates":[[106.734942,26.55275],[106.766817,26.549711]]}},{"type":"Feature","properties":{"shape_id":"{}","direction_id":"{\"1\": 50}","headsign":"{}","duration_avg":240,"n_vehicles":50,"d":2400,"route_I_counts":"{\"3\": 50}","source":61,"target":60,"layer":"L","from":"贵阳森林公园(地铁站)","to":"贵阳富源北路(地铁站)"},"geometry":{"type":"LineString","coordinates":[[106.766817,26.549711],[106.734942,26.55275]]}},{"type":"Feature","properties":{"shape_id":"{}","direction_id":"{\"0\": 50}","headsign":"{}","duration_avg":120,"n_vehicles":50,"d":1200,"route_I_counts":"{\"3\": 50}","source":61,"target":62,"layer":"L","from":"贵阳森林公园(地铁站)","to":"贵阳见龙洞(地铁站)"},"geometry":{"type":"LineString","coordinates":[[106.766817,26.549711],[106.776964,26.550468]]}},{"type":"Feature","properties":{"shape_id":"{}","direction_id":"{\"1\": 50}","headsign":"{}","duration_avg":120,"n_vehicles":50,"d":1200,"route_I_counts":"{\"3\": 50}","source":62,"target":61,"layer":"L","from":"贵阳见龙洞(地铁站)","to":"贵阳森林公园(地铁站)"},"geometry":{"type":"LineString","coordinates":[[106.776964,26.550468],[106.766817,26.549711]]}},{"type":"Feature","properties":{"shape_id":"{}","direction_id":"{\"0\": 50}","headsign":"{}","duration_avg":180,"n_vehicles":50,"d":1800,"route_I_counts":"{\"3\": 50}","source":62,"target":63,"layer":"L","from":"贵阳见龙洞(地铁站)","to":"贵阳龙洞堡机场(地铁站)"},"geometry":{"type":"LineString","coordinates":[[106.776964,26.550468],[106.794858,26.547341]]}},{"type":"Feature","properties":{"shape_id":"{}","direction_id":"{\"1\": 50}","headsign":"{}","duration_avg":180,"n_vehicles":50,"d":1800,"route_I_counts":"{\"3\": 50}","source":63,"target":62,"layer":"L","from":"贵阳龙洞堡机场(地铁站)","to":"贵阳见龙洞(地铁站)"},"geometry":{"type":"LineString","coordinates":[[106.794858,26.547341],[106.776964,26.550468]]}},{"type":"Feature","properties":{"shape_id":"{}","direction_id":"{\"0\": 50}","headsign":"{}","duration_avg":180,"n_vehicles":50,"d":1800,"route_I_counts":"{\"3\": 50}","source":63,"target":64,"layer":"L","from":"贵阳龙洞堡机场(地铁站)","to":"贵阳小碧(地铁站)"},"geometry":{"type":"LineString","coordinates":[[106.794858,26.547341],[106.785328,26.538466]]}},{"type":"Feature","properties":{"shape_id":"{}","direction_id":"{\"1\": 50}","headsign":"{}","duration_avg":180,"n_vehicles":50,"d":1800,"route_I_counts":"{\"3\": 50}","source":64,"target":63,"layer":"L","from":"贵阳小碧(地铁站)","to":"贵阳龙洞堡机场(地铁站)"},"geometry":{"type":"LineString","coordinates":[[106.785328,26.538466],[106.794858,26.547341]]}},{"type":"Feature","properties":{"shape_id":"{}","direction_id":"{\"0\": 50}","headsign":"{}","duration_avg":120,"n_vehicles":50,"d":1200,"route_I_counts":"{\"3\": 50}","source":64,"target":65,"layer":"L","from":"贵阳小碧(地铁站)","to":"贵阳云盘(地铁站)"},"geometry":{"type":"LineString","coordinates":[[106.785328,26.538466],[106.776647,26.533759]]}},{"type":"Feature","properties":{"shape_id":"{}","direction_id":"{\"1\": 50}","headsign":"{}","duration_avg":120,"n_vehicles":50,"d":1200,"route_I_counts":"{\"3\": 50}","source":65,"target":64,"layer":"L","from":"贵阳云盘(地铁站)","to":"贵阳小碧(地铁站)"},"geometry":{"type":"LineString","coordinates":[[106.776647,26.533759],[106.785328,26.538466]]}},{"type":"Feature","properties":{"shape_id":"{}","direction_id":"{\"0\": 50}","headsign":"{}","duration_avg":120,"n_vehicles":50,"d":1200,"route_I_counts":"{\"3\": 50}","source":65,"target":66,"layer":"L","from":"贵阳云盘(地铁站)","to":"贵阳中兴路(地铁站)"},"geometry":{"type":"LineString","coordinates":[[106.776647,26.533759],[106.773707,26.522428]]}},{"type":"Feature","properties":{"shape_id":"{}","direction_id":"{\"1\": 50}","headsign":"{}","duration_avg":120,"n_vehicles":50,"d":1200,"route_I_counts":"{\"3\": 50}","source":66,"target":65,"layer":"L","from":"贵阳中兴路(地铁站)","to":"贵阳云盘(地铁站)"},"geometry":{"type":"LineString","coordinates":[[106.773707,26.522428],[106.776647,26.533759]]}},{"type":"Feature","properties":{"shape_id":"{}","direction_id":"{\"0\": 50}","headsign":"{}","duration_avg":120,"n_vehicles":50,"d":1200,"route_I_counts":"{\"4\": 50}","source":67,"target":68,"layer":"L","from":"贵阳洛湾(地铁站)","to":"贵阳东风(贵黔医院)(地铁站)"},"geometry":{"type":"LineString","coordinates":[[106.822233,26.658578],[106.815238,26.640945]]}},{"type":"Feature","properties":{"shape_id":"{}","direction_id":"{\"1\": 50}","headsign":"{}","duration_avg":120,"n_vehicles":50,"d":1200,"route_I_counts":"{\"4\": 50}","source":68,"target":67,"layer":"L","from":"贵阳东风(贵黔医院)(地铁站)","to":"贵阳洛湾(地铁站)"},"geometry":{"type":"LineString","coordinates":[[106.815238,26.640945],[106.822233,26.658578]]}},{"type":"Feature","properties":{"shape_id":"{}","direction_id":"{\"0\": 50}","headsign":"{}","duration_avg":180,"n_vehicles":50,"d":1800,"route_I_counts":"{\"4\": 50}","source":68,"target":69,"layer":"L","from":"贵阳东风(贵黔医院)(地铁站)","to":"贵阳师范学院(地铁站)"},"geometry":{"type":"LineString","coordinates":[[106.815238,26.640945],[106.791152,26.639154]]}},{"type":"Feature","properties":{"shape_id":"{}","direction_id":"{\"1\": 50}","headsign":"{}","duration_avg":180,"n_vehicles":50,"d":1800,"route_I_counts":"{\"4\": 50}","source":69,"target":68,"layer":"L","from":"贵阳师范学院(地铁站)","to":"贵阳东风(贵黔医院)(地铁站)"},"geometry":{"type":"LineString","coordinates":[[106.791152,26.639154],[106.815238,26.640945]]}},{"type":"Feature","properties":{"shape_id":"{}","direction_id":"{\"0\": 50}","headsign":"{}","duration_avg":180,"n_vehicles":50,"d":1800,"route_I_counts":"{\"4\": 50}","source":69,"target":70,"layer":"L","from":"贵阳师范学院(地铁站)","to":"贵阳高新路(地铁站)"},"geometry":{"type":"LineString","coordinates":[[106.791152,26.639154],[106.774045,26.639921]]}},{"type":"Feature","properties":{"shape_id":"{}","direction_id":"{\"1\": 50}","headsign":"{}","duration_avg":180,"n_vehicles":50,"d":1800,"route_I_counts":"{\"4\": 50}","source":70,"target":69,"layer":"L","from":"贵阳高新路(地铁站)","to":"贵阳师范学院(地铁站)"},"geometry":{"type":"LineString","coordinates":[[106.774045,26.639921],[106.791152,26.639154]]}},{"type":"Feature","properties":{"shape_id":"{}","direction_id":"{\"0\": 50}","headsign":"{}","duration_avg":120,"n_vehicles":50,"d":1200,"route_I_counts":"{\"4\": 50}","source":70,"target":71,"layer":"L","from":"贵阳高新路(地铁站)","to":"贵阳新添(地铁站)"},"geometry":{"type":"LineString","coordinates":[[106.774045,26.639921],[106.765463,26.635388]]}},{"type":"Feature","properties":{"shape_id":"{}","direction_id":"{\"1\": 50}","headsign":"{}","duration_avg":120,"n_vehicles":50,"d":1200,"route_I_counts":"{\"4\": 50}","source":71,"target":70,"layer":"L","from":"贵阳新添(地铁站)","to":"贵阳高新路(地铁站)"},"geometry":{"type":"LineString","coordinates":[[106.765463,26.635388],[106.774045,26.639921]]}},{"type":"Feature","properties":{"shape_id":"{}","direction_id":"{\"0\": 50}","headsign":"{}","duration_avg":120,"n_vehicles":50,"d":1200,"route_I_counts":"{\"4\": 50}","source":71,"target":72,"layer":"L","from":"贵阳新添(地铁站)","to":"贵阳顺海(地铁站)"},"geometry":{"type":"LineString","coordinates":[[106.765463,26.635388],[106.743632,26.626083]]}},{"type":"Feature","properties":{"shape_id":"{}","direction_id":"{\"1\": 50}","headsign":"{}","duration_avg":120,"n_vehicles":50,"d":1200,"route_I_counts":"{\"4\": 50}","source":72,"target":71,"layer":"L","from":"贵阳顺海(地铁站)","to":"贵阳新添(地铁站)"},"geometry":{"type":"LineString","coordinates":[[106.743632,26.626083],[106.765463,26.635388]]}},{"type":"Feature","properties":{"shape_id":"{}","direction_id":"{\"0\": 50}","headsign":"{}","duration_avg":180,"n_vehicles":50,"d":1800,"route_I_counts":"{\"4\": 50}","source":72,"target":73,"layer":"L","from":"贵阳顺海(地铁站)","to":"贵阳茶店(地铁站)"},"geometry":{"type":"LineString","coordinates":[[106.743632,26.626083],[106.729516,26.618902]]}},{"type":"Feature","properties":{"shape_id":"{}","direction_id":"{\"1\": 50}","headsign":"{}","duration_avg":180,"n_vehicles":50,"d":1800,"route_I_counts":"{\"4\": 50}","source":73,"target":72,"layer":"L","from":"贵阳茶店(地铁站)","to":"贵阳顺海(地铁站)"},"geometry":{"type":"LineString","coordinates":[[106.729516,26.618902],[106.743632,26.626083]]}},{"type":"Feature","properties":{"shape_id":"{}","direction_id":"{\"0\": 50}","headsign":"{}","duration_avg":120,"n_vehicles":50,"d":1200,"route_I_counts":"{\"4\": 50}","source":73,"target":74,"layer":"L","from":"贵阳茶店(地铁站)","to":"贵阳大营坡(地铁站)"},"geometry":{"type":"LineString","coordinates":[[106.729516,26.618902],[106.722179,26.608333]]}},{"type":"Feature","properties":{"shape_id":"{}","direction_id":"{\"1\": 50}","headsign":"{}","duration_avg":120,"n_vehicles":50,"d":1200,"route_I_counts":"{\"4\": 50}","source":74,"target":73,"layer":"L","from":"贵阳大营坡(地铁站)","to":"贵阳茶店(地铁站)"},"geometry":{"type":"LineString","coordinates":[[106.722179,26.608333],[106.729516,26.618902]]}},{"type":"Feature","properties":{"shape_id":"{}","direction_id":"{\"0\": 50}","headsign":"{}","duration_avg":180,"n_vehicles":50,"d":1800,"route_I_counts":"{\"4\": 50}","source":74,"target":75,"layer":"L","from":"贵阳大营坡(地铁站)","to":"贵阳贵医(地铁站)"},"geometry":{"type":"LineString","coordinates":[[106.722179,26.608333],[106.711466,26.599404]]}},{"type":"Feature","properties":{"shape_id":"{}","direction_id":"{\"1\": 50}","headsign":"{}","duration_avg":180,"n_vehicles":50,"d":1800,"route_I_counts":"{\"4\": 50}","source":75,"target":74,"layer":"L","from":"贵阳贵医(地铁站)","to":"贵阳大营坡(地铁站)"},"geometry":{"type":"LineString","coordinates":[[106.711466,26.599404],[106.722179,26.608333]]}},{"type":"Feature","properties":{"shape_id":"{}","direction_id":"{\"0\": 50}","headsign":"{}","duration_avg":120,"n_vehicles":50,"d":1200,"route_I_counts":"{\"4\": 50}","source":75,"target":14,"layer":"L","from":"贵阳贵医(地铁站)","to":"贵阳北京路(地铁站)"},"geometry":{"type":"LineString","coordinates":[[106.711466,26.599404],[106.702495,26.59647]]}},{"type":"Feature","properties":{"shape_id":"{}","direction_id":"{\"1\": 50}","headsign":"{}","duration_avg":120,"n_vehicles":50,"d":1200,"route_I_counts":"{\"4\": 50}","source":14,"target":75,"layer":"L","from":"贵阳北京路(地铁站)","to":"贵阳贵医(地铁站)"},"geometry":{"type":"LineString","coordinates":[[106.702495,26.59647],[106.711466,26.599404]]}},{"type":"Feature","properties":{"shape_id":"{}","direction_id":"{\"0\": 50}","headsign":"{}","duration_avg":120,"n_vehicles":50,"d":1200,"route_I_counts":"{\"4\": 50}","source":14,"target":76,"layer":"L","from":"贵阳北京路(地铁站)","to":"贵阳黔灵山公园(地铁站)"},"geometry":{"type":"LineString","coordinates":[[106.702495,26.59647],[106.693392,26.590649]]}},{"type":"Feature","properties":{"shape_id":"{}","direction_id":"{\"1\": 50}","headsign":"{}","duration_avg":120,"n_vehicles":50,"d":1200,"route_I_counts":"{\"4\": 50}","source":76,"target":14,"layer":"L","from":"贵阳黔灵山公园(地铁站)","to":"贵阳北京路(地铁站)"},"geometry":{"type":"LineString","coordinates":[[106.693392,26.590649],[106.702495,26.59647]]}},{"type":"Feature","properties":{"shape_id":"{}","direction_id":"{\"0\": 50}","headsign":"{}","duration_avg":120,"n_vehicles":50,"d":1200,"route_I_counts":"{\"4\": 50}","source":76,"target":53,"layer":"L","from":"贵阳黔灵山公园(地铁站)","to":"贵阳延安西路(地铁站)"},"geometry":{"type":"LineString","coordinates":[[106.693392,26.590649],[106.694014,26.585474]]}},{"type":"Feature","properties":{"shape_id":"{}","direction_id":"{\"1\": 50}","headsign":"{}","duration_avg":120,"n_vehicles":50,"d":1200,"route_I_counts":"{\"4\": 50}","source":53,"target":76,"layer":"L","from":"贵阳延安西路(地铁站)","to":"贵阳黔灵山公园(地铁站)"},"geometry":{"type":"LineString","coordinates":[[106.694014,26.585474],[106.693392,26.590649]]}},{"type":"Feature","properties":{"shape_id":"{}","direction_id":"{\"0\": 50}","headsign":"{}","duration_avg":180,"n_vehicles":50,"d":1800,"route_I_counts":"{\"4\": 50}","source":53,"target":77,"layer":"L","from":"贵阳延安西路(地铁站)","to":"贵阳松花路(地铁站)"},"geometry":{"type":"LineString","coordinates":[[106.694014,26.585474],[106.685872,26.573125]]}},{"type":"Feature","properties":{"shape_id":"{}","direction_id":"{\"1\": 50}","headsign":"{}","duration_avg":180,"n_vehicles":50,"d":1800,"route_I_counts":"{\"4\": 50}","source":77,"target":53,"layer":"L","from":"贵阳松花路(地铁站)","to":"贵阳延安西路(地铁站)"},"geometry":{"type":"LineString","coordinates":[[106.685872,26.573125],[106.694014,26.585474]]}},{"type":"Feature","properties":{"shape_id":"{}","direction_id":"{\"0\": 50}","headsign":"{}","duration_avg":120,"n_vehicles":50,"d":1200,"route_I_counts":"{\"4\": 50}","source":77,"target":78,"layer":"L","from":"贵阳松花路(地铁站)","to":"贵阳花果园(地铁站)"},"geometry":{"type":"LineString","coordinates":[[106.685872,26.573125],[106.68146,26.569334]]}},{"type":"Feature","properties":{"shape_id":"{}","direction_id":"{\"1\": 50}","headsign":"{}","duration_avg":120,"n_vehicles":50,"d":1200,"route_I_counts":"{\"4\": 50}","source":78,"target":77,"layer":"L","from":"贵阳花果园(地铁站)","to":"贵阳松花路(地铁站)"},"geometry":{"type":"LineString","coordinates":[[106.68146,26.569334],[106.685872,26.573125]]}},{"type":"Feature","properties":{"shape_id":"{}","direction_id":"{\"0\": 50}","headsign":"{}","duration_avg":120,"n_vehicles":50,"d":1200,"route_I_counts":"{\"4\": 50}","source":78,"target":79,"layer":"L","from":"贵阳花果园(地铁站)","to":"贵阳五里冲(地铁站)"},"geometry":{"type":"LineString","coordinates":[[106.68146,26.569334],[106.670966,26.562249]]}},{"type":"Feature","properties":{"shape_id":"{}","direction_id":"{\"1\": 50}","headsign":"{}","duration_avg":120,"n_vehicles":50,"d":1200,"route_I_counts":"{\"4\": 50}","source":79,"target":78,"layer":"L","from":"贵阳五里冲(地铁站)","to":"贵阳花果园(地铁站)"},"geometry":{"type":"LineString","coordinates":[[106.670966,26.562249],[106.68146,26.569334]]}},{"type":"Feature","properties":{"shape_id":"{}","direction_id":"{\"0\": 50}","headsign":"{}","duration_avg":180,"n_vehicles":50,"d":1800,"route_I_counts":"{\"4\": 50}","source":79,"target":80,"layer":"L","from":"贵阳五里冲(地铁站)","to":"贵阳太慈桥(地铁站)"},"geometry":{"type":"LineString","coordinates":[[106.670966,26.562249],[106.678726,26.556512]]}},{"type":"Feature","properties":{"shape_id":"{}","direction_id":"{\"1\": 50}","headsign":"{}","duration_avg":180,"n_vehicles":50,"d":1800,"route_I_counts":"{\"4\": 50}","source":80,"target":79,"layer":"L","from":"贵阳太慈桥(地铁站)","to":"贵阳五里冲(地铁站)"},"geometry":{"type":"LineString","coordinates":[[106.678726,26.556512],[106.670966,26.562249]]}},{"type":"Feature","properties":{"shape_id":"{}","direction_id":"{\"0\": 50}","headsign":"{}","duration_avg":120,"n_vehicles":50,"d":1200,"route_I_counts":"{\"4\": 50}","source":80,"target":81,"layer":"L","from":"贵阳太慈桥(地铁站)","to":"贵阳皂角井(地铁站)"},"geometry":{"type":"LineString","coordinates":[[106.678726,26.556512],[106.682734,26.546089]]}},{"type":"Feature","properties":{"shape_id":"{}","direction_id":"{\"1\": 50}","headsign":"{}","duration_avg":120,"n_vehicles":50,"d":1200,"route_I_counts":"{\"4\": 50}","source":81,"target":80,"layer":"L","from":"贵阳皂角井(地铁站)","to":"贵阳太慈桥(地铁站)"},"geometry":{"type":"LineString","coordinates":[[106.682734,26.546089],[106.678726,26.556512]]}},{"type":"Feature","properties":{"shape_id":"{}","direction_id":"{\"0\": 50}","headsign":"{}","duration_avg":120,"n_vehicles":50,"d":1200,"route_I_counts":"{\"4\": 50}","source":81,"target":82,"layer":"L","from":"贵阳皂角井(地铁站)","to":"贵阳四方河(省中医院)(地铁站)"},"geometry":{"type":"LineString","coordinates":[[106.682734,26.546089],[106.678624,26.534043]]}},{"type":"Feature","properties":{"shape_id":"{}","direction_id":"{\"1\": 50}","headsign":"{}","duration_avg":120,"n_vehicles":50,"d":1200,"route_I_counts":"{\"4\": 50}","source":82,"target":81,"layer":"L","from":"贵阳四方河(省中医院)(地铁站)","to":"贵阳皂角井(地铁站)"},"geometry":{"type":"LineString","coordinates":[[106.678624,26.534043],[106.682734,26.546089]]}},{"type":"Feature","properties":{"shape_id":"{}","direction_id":"{\"0\": 50}","headsign":"{}","duration_avg":180,"n_vehicles":50,"d":1800,"route_I_counts":"{\"4\": 50}","source":82,"target":83,"layer":"L","from":"贵阳四方河(省中医院)(地铁站)","to":"贵阳甘荫塘(地铁站)"},"geometry":{"type":"LineString","coordinates":[[106.678624,26.534043],[106.673738,26.523255]]}},{"type":"Feature","properties":{"shape_id":"{}","direction_id":"{\"1\": 50}","headsign":"{}","duration_avg":180,"n_vehicles":50,"d":1800,"route_I_counts":"{\"4\": 50}","source":83,"target":82,"layer":"L","from":"贵阳甘荫塘(地铁站)","to":"贵阳四方河(省中医院)(地铁站)"},"geometry":{"type":"LineString","coordinates":[[106.673738,26.523255],[106.678624,26.534043]]}},{"type":"Feature","properties":{"shape_id":"{}","direction_id":"{\"0\": 50}","headsign":"{}","duration_avg":120,"n_vehicles":50,"d":1200,"route_I_counts":"{\"4\": 50}","source":83,"target":27,"layer":"L","from":"贵阳甘荫塘(地铁站)","to":"贵阳中曹司(地铁站)"},"geometry":{"type":"LineString","coordinates":[[106.673738,26.523255],[106.673047,26.506292]]}},{"type":"Feature","properties":{"shape_id":"{}","direction_id":"{\"1\": 50}","headsign":"{}","duration_avg":120,"n_vehicles":50,"d":1200,"route_I_counts":"{\"4\": 50}","source":27,"target":83,"layer":"L","from":"贵阳中曹司(地铁站)","to":"贵阳甘荫塘(地铁站)"},"geometry":{"type":"LineString","coordinates":[[106.673047,26.506292],[106.673738,26.523255]]}},{"type":"Feature","properties":{"shape_id":"{}","direction_id":"{\"0\": 50}","headsign":"{}","duration_avg":180,"n_vehicles":50,"d":1800,"route_I_counts":"{\"4\": 50}","source":27,"target":84,"layer":"L","from":"贵阳中曹司(地铁站)","to":"贵阳十里河滩(地铁站)"},"geometry":{"type":"LineString","coordinates":[[106.673047,26.506292],[106.669026,26.481299]]}},{"type":"Feature","properties":{"shape_id":"{}","direction_id":"{\"1\": 50}","headsign":"{}","duration_avg":180,"n_vehicles":50,"d":1800,"route_I_counts":"{\"4\": 50}","source":84,"target":27,"layer":"L","from":"贵阳十里河滩(地铁站)","to":"贵阳中曹司(地铁站)"},"geometry":{"type":"LineString","coordinates":[[106.669026,26.481299],[106.673047,26.506292]]}},{"type":"Feature","properties":{"shape_id":"{}","direction_id":"{\"0\": 50}","headsign":"{}","duration_avg":120,"n_vehicles":50,"d":1200,"route_I_counts":"{\"4\": 50}","source":84,"target":85,"layer":"L","from":"贵阳十里河滩(地铁站)","to":"贵阳孔学堂(地铁站)"},"geometry":{"type":"LineString","coordinates":[[106.669026,26.481299],[106.671414,26.463742]]}},{"type":"Feature","properties":{"shape_id":"{}","direction_id":"{\"1\": 50}","headsign":"{}","duration_avg":120,"n_vehicles":50,"d":1200,"route_I_counts":"{\"4\": 50}","source":85,"target":84,"layer":"L","from":"贵阳孔学堂(地铁站)","to":"贵阳十里河滩(地铁站)"},"geometry":{"type":"LineString","coordinates":[[106.671414,26.463742],[106.669026,26.481299]]}},{"type":"Feature","properties":{"shape_id":"{}","direction_id":"{\"0\": 50}","headsign":"{}","duration_avg":120,"n_vehicles":50,"d":1200,"route_I_counts":"{\"4\": 50}","source":85,"target":86,"layer":"L","from":"贵阳孔学堂(地铁站)","to":"贵阳贵州大学(地铁站)"},"geometry":{"type":"LineString","coordinates":[[106.671414,26.463742],[106.672213,26.453326]]}},{"type":"Feature","properties":{"shape_id":"{}","direction_id":"{\"1\": 50}","headsign":"{}","duration_avg":120,"n_vehicles":50,"d":1200,"route_I_counts":"{\"4\": 50}","source":86,"target":85,"layer":"L","from":"贵阳贵州大学(地铁站)","to":"贵阳孔学堂(地铁站)"},"geometry":{"type":"LineString","coordinates":[[106.672213,26.453326],[106.671414,26.463742]]}},{"type":"Feature","properties":{"shape_id":"{}","direction_id":"{\"0\": 50}","headsign":"{}","duration_avg":120,"n_vehicles":50,"d":1200,"route_I_counts":"{\"4\": 50}","source":86,"target":87,"layer":"L","from":"贵阳贵州大学(地铁站)","to":"贵阳花溪公园(地铁站)"},"geometry":{"type":"LineString","coordinates":[[106.672213,26.453326],[106.673298,26.442132]]}},{"type":"Feature","properties":{"shape_id":"{}","direction_id":"{\"1\": 50}","headsign":"{}","duration_avg":120,"n_vehicles":50,"d":1200,"route_I_counts":"{\"4\": 50}","source":87,"target":86,"layer":"L","from":"贵阳花溪公园(地铁站)","to":"贵阳贵州大学(地铁站)"},"geometry":{"type":"LineString","coordinates":[[106.673298,26.442132],[106.672213,26.453326]]}},{"type":"Feature","properties":{"shape_id":"{}","direction_id":"{\"0\": 50}","headsign":"{}","duration_avg":180,"n_vehicles":50,"d":1800,"route_I_counts":"{\"4\": 50}","source":87,"target":88,"layer":"L","from":"贵阳花溪公园(地铁站)","to":"贵阳学士路(地铁站)"},"geometry":{"type":"LineString","coordinates":[[106.673298,26.442132],[106.673878,26.425186]]}},{"type":"Feature","properties":{"shape_id":"{}","direction_id":"{\"1\": 50}","headsign":"{}","duration_avg":180,"n_vehicles":50,"d":1800,"route_I_counts":"{\"4\": 50}","source":88,"target":87,"layer":"L","from":"贵阳学士路(地铁站)","to":"贵阳花溪公园(地铁站)"},"geometry":{"type":"LineString","coordinates":[[106.673878,26.425186],[106.673298,26.442132]]}},{"type":"Feature","properties":{"shape_id":"{}","direction_id":"{\"0\": 50}","headsign":"{}","duration_avg":120,"n_vehicles":50,"d":1200,"route_I_counts":"{\"4\": 50}","source":88,"target":89,"layer":"L","from":"贵阳学士路(地铁站)","to":"贵阳明珠大道(地铁站)"},"geometry":{"type":"LineString","coordinates":[[106.673878,26.425186],[106.67391,26.412126]]}},{"type":"Feature","properties":{"shape_id":"{}","direction_id":"{\"1\": 50}","headsign":"{}","duration_avg":120,"n_vehicles":50,"d":1200,"route_I_counts":"{\"4\": 50}","source":89,"target":88,"layer":"L","from":"贵阳明珠大道(地铁站)","to":"贵阳学士路(地铁站)"},"geometry":{"type":"LineString","coordinates":[[106.67391,26.412126],[106.673878,26.425186]]}},{"type":"Feature","properties":{"shape_id":"{}","direction_id":"{\"0\": 50}","headsign":"{}","duration_avg":120,"n_vehicles":50,"d":1200,"route_I_counts":"{\"4\": 50}","source":89,"target":90,"layer":"L","from":"贵阳明珠大道(地铁站)","to":"贵阳花溪南站(地铁站)"},"geometry":{"type":"LineString","coordinates":[[106.67391,26.412126],[106.672486,26.40577]]}},{"type":"Feature","properties":{"shape_id":"{}","direction_id":"{\"1\": 50}","headsign":"{}","duration_avg":120,"n_vehicles":50,"d":1200,"route_I_counts":"{\"4\": 50}","source":90,"target":89,"layer":"L","from":"贵阳花溪南站(地铁站)","to":"贵阳明珠大道(地铁站)"},"geometry":{"type":"LineString","coordinates":[[106.672486,26.40577],[106.67391,26.412126]]}},{"type":"Feature","properties":{"shape_id":"{}","direction_id":"{\"0\": 50}","headsign":"{}","duration_avg":120,"n_vehicles":50,"d":1200,"route_I_counts":"{\"4\": 50}","source":90,"target":91,"layer":"L","from":"贵阳花溪南站(地铁站)","to":"贵阳浪风关(地铁站)"},"geometry":{"type":"LineString","coordinates":[[106.672486,26.40577],[106.673251,26.395882]]}},{"type":"Feature","properties":{"shape_id":"{}","direction_id":"{\"1\": 50}","headsign":"{}","duration_avg":120,"n_vehicles":50,"d":1200,"route_I_counts":"{\"4\": 50}","source":91,"target":90,"layer":"L","from":"贵阳浪风关(地铁站)","to":"贵阳花溪南站(地铁站)"},"geometry":{"type":"LineString","coordinates":[[106.673251,26.395882],[106.672486,26.40577]]}},{"type":"Feature","properties":{"shape_id":"{}","direction_id":"{\"0\": 50}","headsign":"{}","duration_avg":120,"n_vehicles":50,"d":1200,"route_I_counts":"{\"4\": 50}","source":91,"target":92,"layer":"L","from":"贵阳浪风关(地铁站)","to":"贵阳桐木岭(省委党校)(地铁站)"},"geometry":{"type":"LineString","coordinates":[[106.673251,26.395882],[106.676685,26.382896]]}},{"type":"Feature","properties":{"shape_id":"{}","direction_id":"{\"1\": 50}","headsign":"{}","duration_avg":120,"n_vehicles":50,"d":1200,"route_I_counts":"{\"4\": 50}","source":92,"target":91,"layer":"L","from":"贵阳桐木岭(省委党校)(地铁站)","to":"贵阳浪风关(地铁站)"},"geometry":{"type":"LineString","coordinates":[[106.676685,26.382896],[106.673251,26.395882]]}}]}