{"type":"FeatureCollection","features":[{"type":"Feature","geometry":{"type":"Point","coordinates":[126.702983,45.787276]},"properties":{"name":"哈尔滨哈尔滨东站(地铁站)","original_ids":"[1]","id":0,"layer":"stop"}},{"type":"Feature","geometry":{"type":"Point","coordinates":[126.691911,45.78604]},"properties":{"name":"哈尔滨桦树街(地铁站)","original_ids":"[2]","id":1,"layer":"stop"}},{"type":"Feature","geometry":{"type":"Point","coordinates":[126.681402,45.78574]},"properties":{"name":"哈尔滨交通学院(地铁站)","original_ids":"[3]","id":2,"layer":"stop"}},{"type":"Feature","geometry":{"type":"Point","coordinates":[126.671115,45.781562]},"properties":{"name":"哈尔滨太平桥(地铁站)","original_ids":"[4]","id":3,"layer":"stop"}},{"type":"Feature","geometry":{"type":"Point","coordinates":[126.662026,45.773486]},"properties":{"name":"哈尔滨工程大学(地铁站)","original_ids":"[5]","id":4,"layer":"stop"}},{"type":"Feature","geometry":{"type":"Point","coordinates":[126.649904,45.766756]},"properties":{"name":"哈尔滨烟厂(地铁站)","original_ids":"[6]","id":5,"layer":"stop"}},{"type":"Feature","geometry":{"type":"Point","coordinates":[126.644448,45.762116]},"properties":{"name":"哈尔滨医大一院(地铁站)","original_ids":"[7]","id":6,"layer":"stop"}},{"type":"Feature","geometry":{"type":"Point","coordinates":[126.63782,45.756452]},"properties":{"name":"哈尔滨博物馆(地铁站)","original_ids":"[8]","id":7,"layer":"stop"}},{"type":"Feature","geometry":{"type":"Point","coordinates":[126.630042,45.74957]},"properties":{"name":"哈尔滨铁路局(地铁站)","original_ids":"[9]","id":8,"layer":"stop"}},{"type":"Feature","geometry":{"type":"Point","coordinates":[126.621816,45.742631]},"properties":{"name":"哈尔滨哈工大(地铁站)","original_ids":"[10]","id":9,"layer":"stop"}},{"type":"Feature","geometry":{"type":"Point","coordinates":[126.615189,45.73692]},"properties":{"name":"哈尔滨西大桥(地铁站)","original_ids":"[11]","id":10,"layer":"stop"}},{"type":"Feature","geometry":{"type":"Point","coordinates":[126.609532,45.73049]},"properties":{"name":"哈尔滨和兴路(地铁站)","original_ids":"[12]","id":11,"layer":"stop"}},{"type":"Feature","geometry":{"type":"Point","coordinates":[126.60397,45.720533]},"properties":{"name":"哈尔滨学府路(地铁站)","original_ids":"[13]","id":12,"layer":"stop"}},{"type":"Feature","geometry":{"type":"Point","coordinates":[126.605957,45.712926]},"properties":{"name":"哈尔滨理工大学(地铁站)","original_ids":"[14]","id":13,"layer":"stop"}},{"type":"Feature","geometry":{"type":"Point","coordinates":[126.60768,45.70504]},"properties":{"name":"哈尔滨黑龙江大学(地铁站)","original_ids":"[15]","id":14,"layer":"stop"}},{"type":"Feature","geometry":{"type":"Point","coordinates":[126.609783,45.695557]},"properties":{"name":"哈尔滨医大二院(地铁站)","original_ids":"[16]","id":15,"layer":"stop"}},{"type":"Feature","geometry":{"type":"Point","coordinates":[126.6129,45.681269]},"properties":{"name":"哈尔滨哈达(地铁站)","original_ids":"[17]","id":16,"layer":"stop"}},{"type":"Feature","geometry":{"type":"Point","coordinates":[126.615832,45.667977]},"properties":{"name":"哈尔滨哈尔滨南站(地铁站)","original_ids":"[18]","id":17,"layer":"stop"}},{"type":"Feature","geometry":{"type":"Point","coordinates":[126.618798,45.654295]},"properties":{"name":"哈尔滨同江路(地铁站)","original_ids":"[19]","id":18,"layer":"stop"}},{"type":"Feature","geometry":{"type":"Point","coordinates":[126.627532,45.64347]},"properties":{"name":"哈尔滨瓦盆窑(地铁站)","original_ids":"[20]","id":19,"layer":"stop"}},{"type":"Feature","geometry":{"type":"Point","coordinates":[126.630965,45.630217]},"properties":{"name":"哈尔滨镜泊路(地铁站)","original_ids":"[21]","id":20,"layer":"stop"}},{"type":"Feature","geometry":{"type":"Point","coordinates":[126.641884,45.613391]},"properties":{"name":"哈尔滨渤海路(地铁站)","original_ids":"[22]","id":21,"layer":"stop"}},{"type":"Feature","geometry":{"type":"Point","coordinates":[126.627054,45.603936]},"properties":{"name":"哈尔滨新疆大街(地铁站)","original_ids":"[23]","id":22,"layer":"stop"}},{"type":"Feature","geometry":{"type":"Point","coordinates":[126.53755,45.871119]},"properties":{"name":"哈尔滨江北大学城(地铁站)","original_ids":"[24]","id":23,"layer":"stop"}},{"type":"Feature","geometry":{"type":"Point","coordinates":[126.531588,45.850356]},"properties":{"name":"哈尔滨哈尔滨北站(地铁站)","original_ids":"[25]","id":24,"layer":"stop"}},{"type":"Feature","geometry":{"type":"Point","coordinates":[126.534894,45.833065]},"properties":{"name":"哈尔滨大耿家(地铁站)","original_ids":"[26]","id":25,"layer":"stop"}},{"type":"Feature","geometry":{"type":"Point","coordinates":[126.543547,45.821431]},"properties":{"name":"哈尔滨龙川路(地铁站)","original_ids":"[27]","id":26,"layer":"stop"}},{"type":"Feature","geometry":{"type":"Point","coordinates":[126.546409,45.804734]},"properties":{"name":"哈尔滨世茂大道(地铁站)","original_ids":"[28]","id":27,"layer":"stop"}},{"type":"Feature","geometry":{"type":"Point","coordinates":[126.561751,45.776643]},"properties":{"name":"哈尔滨冰雪大世界(地铁站)","original_ids":"[29]","id":28,"layer":"stop"}},{"type":"Feature","geometry":{"type":"Point","coordinates":[126.581945,45.782618]},"properties":{"name":"哈尔滨太阳岛(地铁站)","original_ids":"[30]","id":29,"layer":"stop"}},{"type":"Feature","geometry":{"type":"Point","coordinates":[126.599068,45.771101]},"properties":{"name":"哈尔滨人民广场(地铁站)","original_ids":"[31]","id":30,"layer":"stop"}},{"type":"Feature","geometry":{"type":"Point","coordinates":[126.610332,45.767011]},"properties":{"name":"哈尔滨中央大街(地铁站)","original_ids":"[32]","id":31,"layer":"stop"}},{"type":"Feature","geometry":{"type":"Point","coordinates":[126.620061,45.76366]},"properties":{"name":"哈尔滨尚志大街(地铁站)","original_ids":"[33]","id":32,"layer":"stop"}},{"type":"Feature","geometry":{"type":"Point","coordinates":[126.628962,45.760472]},"properties":{"name":"哈尔滨哈尔滨站(地铁站)","original_ids":"[34]","id":33,"layer":"stop"}},{"type":"Feature","geometry":{"type":"Point","coordinates":[126.647901,45.748038]},"properties":{"name":"哈尔滨工人文化宫(地铁站)","original_ids":"[35]","id":34,"layer":"stop"}},{"type":"Feature","geometry":{"type":"Point","coordinates":[126.657386,45.740459]},"properties":{"name":"哈尔滨省政府(地铁站)","original_ids":"[36]","id":35,"layer":"stop"}},{"type":"Feature","geometry":{"type":"Point","coordinates":[126.671193,45.734706]},"properties":{"name":"哈尔滨省医院(地铁站)","original_ids":"[37]","id":36,"layer":"stop"}},{"type":"Feature","geometry":{"type":"Point","coordinates":[126.685688,45.734703]},"properties":{"name":"哈尔滨珠江路(地铁站)","original_ids":"[38]","id":37,"layer":"stop"}},{"type":"Feature","geometry":{"type":"Point","coordinates":[126.699817,45.732859]},"properties":{"name":"哈尔滨南直路(地铁站)","original_ids":"[39]","id":38,"layer":"stop"}},{"type":"Feature","geometry":{"type":"Point","coordinates":[126.717867,45.727618]},"properties":{"name":"哈尔滨东北农业大学(地铁站)","original_ids":"[40]","id":39,"layer":"stop"}},{"type":"Feature","geometry":{"type":"Point","coordinates":[126.736387,45.724985]},"properties":{"name":"哈尔滨气象台(地铁站)","original_ids":"[41]","id":40,"layer":"stop"}},{"type":"Feature","geometry":{"type":"Point","coordinates":[126.680204,45.70268]},"properties":{"name":"哈尔滨进乡街(地铁站)","original_ids":"[42]","id":41,"layer":"stop"}},{"type":"Feature","geometry":{"type":"Point","coordinates":[126.683484,45.712468]},"properties":{"name":"哈尔滨汽轮机厂(地铁站)","original_ids":"[43]","id":42,"layer":"stop"}},{"type":"Feature","geometry":{"type":"Point","coordinates":[126.684422,45.721234]},"properties":{"name":"哈尔滨油坊街(地铁站)","original_ids":"[44]","id":43,"layer":"stop"}},{"type":"Feature","geometry":{"type":"Point","coordinates":[126.685043,45.728752]},"properties":{"name":"哈尔滨公滨路(地铁站)","original_ids":"[45]","id":44,"layer":"stop"}},{"type":"Feature","geometry":{"type":"Point","coordinates":[126.688389,45.740349]},"properties":{"name":"哈尔滨湘江路(地铁站)","original_ids":"[46]","id":45,"layer":"stop"}},{"type":"Feature","geometry":{"type":"Point","coordinates":[126.690553,45.748425]},"properties":{"name":"哈尔滨会展中心(地铁站)","original_ids":"[47]","id":46,"layer":"stop"}},{"type":"Feature","geometry":{"type":"Point","coordinates":[126.688536,45.757846]},"properties":{"name":"哈尔滨海河东路(地铁站)","original_ids":"[48]","id":47,"layer":"stop"}},{"type":"Feature","geometry":{"type":"Point","coordinates":[126.68663,45.765235]},"properties":{"name":"哈尔滨市第二医院(地铁站)","original_ids":"[49]","id":48,"layer":"stop"}},{"type":"Feature","geometry":{"type":"Point","coordinates":[126.684676,45.773128]},"properties":{"name":"哈尔滨大有坊街(地铁站)","original_ids":"[50]","id":49,"layer":"stop"}},{"type":"Feature","geometry":{"type":"Point","coordinates":[126.661553,45.78686]},"properties":{"name":"哈尔滨靖宇公园(地铁站)","original_ids":"[51]","id":50,"layer":"stop"}},{"type":"Feature","geometry":{"type":"Point","coordinates":[126.64561,45.786225]},"properties":{"name":"哈尔滨清真寺(地铁站)","original_ids":"[52]","id":51,"layer":"stop"}},{"type":"Feature","geometry":{"type":"Point","coordinates":[126.636409,45.782436]},"properties":{"name":"哈尔滨中华巴洛克街区(地铁站)","original_ids":"[53]","id":52,"layer":"stop"}},{"type":"Feature","geometry":{"type":"Point","coordinates":[126.628448,45.778467]},"properties":{"name":"哈尔滨北马路(地铁站)","original_ids":"[54]","id":53,"layer":"stop"}},{"type":"Feature","geometry":{"type":"Point","coordinates":[126.618199,45.777375]},"properties":{"name":"哈尔滨兆麟公园(地铁站)","original_ids":"[55]","id":54,"layer":"stop"}},{"type":"Feature","geometry":{"type":"Point","coordinates":[126.606267,45.775091]},"properties":{"name":"哈尔滨友谊宫(地铁站)","original_ids":"[56]","id":55,"layer":"stop"}},{"type":"Feature","geometry":{"type":"Point","coordinates":[126.591164,45.76377]},"properties":{"name":"哈尔滨上海街(地铁站)","original_ids":"[57]","id":56,"layer":"stop"}},{"type":"Feature","geometry":{"type":"Point","coordinates":[126.589684,45.756313]},"properties":{"name":"哈尔滨公路大桥(地铁站)","original_ids":"[58]","id":57,"layer":"stop"}},{"type":"Feature","geometry":{"type":"Point","coordinates":[126.588024,45.747034]},"properties":{"name":"哈尔滨河松街(地铁站)","original_ids":"[59]","id":58,"layer":"stop"}},{"type":"Feature","geometry":{"type":"Point","coordinates":[126.578538,45.741305]},"properties":{"name":"哈尔滨河山街(地铁站)","original_ids":"[60]","id":59,"layer":"stop"}},{"type":"Feature","geometry":{"type":"Point","coordinates":[126.561957,45.739042]},"properties":{"name":"哈尔滨丁香公园(地铁站)","original_ids":"[61]","id":60,"layer":"stop"}},{"type":"Feature","geometry":{"type":"Point","coordinates":[126.544287,45.736666]},"properties":{"name":"哈尔滨体育公园(地铁站)","original_ids":"[62]","id":61,"layer":"stop"}},{"type":"Feature","geometry":{"type":"Point","coordinates":[126.539431,45.728807]},"properties":{"name":"哈尔滨群力第五大道(地铁站)","original_ids":"[63]","id":62,"layer":"stop"}},{"type":"Feature","geometry":{"type":"Point","coordinates":[126.545668,45.722604]},"properties":{"name":"哈尔滨医大一院群力院区(地铁站)","original_ids":"[64]","id":63,"layer":"stop"}},{"type":"Feature","geometry":{"type":"Point","coordinates":[126.552689,45.716842]},"properties":{"name":"哈尔滨工农大街(地铁站)","original_ids":"[65]","id":64,"layer":"stop"}},{"type":"Feature","geometry":{"type":"Point","coordinates":[126.561614,45.710087]},"properties":{"name":"哈尔滨城乡路(地铁站)","original_ids":"[66]","id":65,"layer":"stop"}},{"type":"Feature","geometry":{"type":"Point","coordinates":[126.573287,45.704347]},"properties":{"name":"哈尔滨哈尔滨西站(地铁站)","original_ids":"[67]","id":66,"layer":"stop"}},{"type":"Feature","geometry":{"type":"Point","coordinates":[126.579413,45.699355]},"properties":{"name":"哈尔滨凯盛源广场(地铁站)","original_ids":"[68]","id":67,"layer":"stop"}},{"type":"Feature","geometry":{"type":"Point","coordinates":[126.590966,45.693735]},"properties":{"name":"哈尔滨哈西大街(地铁站)","original_ids":"[69]","id":68,"layer":"stop"}},{"type":"Feature","geometry":{"type":"Point","coordinates":[126.628492,45.697589]},"properties":{"name":"哈尔滨征仪路(地铁站)","original_ids":"[70]","id":69,"layer":"stop"}},{"type":"Feature","geometry":{"type":"Point","coordinates":[126.63719,45.698488]},"properties":{"name":"哈尔滨肿瘤医院(地铁站)","original_ids":"[71]","id":70,"layer":"stop"}},{"type":"Feature","geometry":{"type":"Point","coordinates":[126.658075,45.700393]},"properties":{"name":"哈尔滨旭升街(地铁站)","original_ids":"[72]","id":71,"layer":"stop"}},{"type":"Feature","geometry":{"type":"Point","coordinates":[126.669122,45.698942]},"properties":{"name":"哈尔滨劳动公园(地铁站)","original_ids":"[73]","id":72,"layer":"stop"}},{"type":"Feature","properties":{"shape_id":"{}","direction_id":"{\"0\": 50}","headsign":"{}","duration_avg":60,"n_vehicles":50,"d":600,"route_I_counts":"{\"1\": 50}","source":0,"target":1,"layer":"L","from":"哈尔滨哈尔滨东站(地铁站)","to":"哈尔滨桦树街(地铁站)"},"geometry":{"type":"LineString","coordinates":[[126.702983,45.787276],[126.691911,45.78604]]}},{"type":"Feature","properties":{"shape_id":"{}","direction_id":"{\"1\": 50}","headsign":"{}","duration_avg":60,"n_vehicles":50,"d":600,"route_I_counts":"{\"1\": 50}","source":1,"target":0,"layer":"L","from":"哈尔滨桦树街(地铁站)","to":"哈尔滨哈尔滨东站(地铁站)"},"geometry":{"type":"LineString","coordinates":[[126.691911,45.78604],[126.702983,45.787276]]}},{"type":"Feature","properties":{"shape_id":"{}","direction_id":"{\"0\": 50}","headsign":"{}","duration_avg":180,"n_vehicles":50,"d":1800,"route_I_counts":"{\"1\": 50}","source":1,"target":2,"layer":"L","from":"哈尔滨桦树街(地铁站)","to":"哈尔滨交通学院(地铁站)"},"geometry":{"type":"LineString","coordinates":[[126.691911,45.78604],[126.681402,45.78574]]}},{"type":"Feature","properties":{"shape_id":"{}","direction_id":"{\"1\": 50}","headsign":"{}","duration_avg":180,"n_vehicles":50,"d":1800,"route_I_counts":"{\"1\": 50}","source":2,"target":1,"layer":"L","from":"哈尔滨交通学院(地铁站)","to":"哈尔滨桦树街(地铁站)"},"geometry":{"type":"LineString","coordinates":[[126.681402,45.78574],[126.691911,45.78604]]}},{"type":"Feature","properties":{"shape_id":"{}","direction_id":"{\"0\": 50}","headsign":"{}","duration_avg":120,"n_vehicles":50,"d":1200,"route_I_counts":"{\"1\": 50}","source":2,"target":3,"layer":"L","from":"哈尔滨交通学院(地铁站)","to":"哈尔滨太平桥(地铁站)"},"geometry":{"type":"LineString","coordinates":[[126.681402,45.78574],[126.671115,45.781562]]}},{"type":"Feature","properties":{"shape_id":"{}","direction_id":"{\"1\": 50}","headsign":"{}","duration_avg":120,"n_vehicles":50,"d":1200,"route_I_counts":"{\"1\": 50}","source":3,"target":2,"layer":"L","from":"哈尔滨太平桥(地铁站)","to":"哈尔滨交通学院(地铁站)"},"geometry":{"type":"LineString","coordinates":[[126.671115,45.781562],[126.681402,45.78574]]}},{"type":"Feature","properties":{"shape_id":"{}","direction_id":"{\"0\": 50}","headsign":"{}","duration_avg":120,"n_vehicles":50,"d":1200,"route_I_counts":"{\"1\": 50}","source":3,"target":4,"layer":"L","from":"哈尔滨太平桥(地铁站)","to":"哈尔滨工程大学(地铁站)"},"geometry":{"type":"LineString","coordinates":[[126.671115,45.781562],[126.662026,45.773486]]}},{"type":"Feature","properties":{"shape_id":"{}","direction_id":"{\"1\": 50}","headsign":"{}","duration_avg":120,"n_vehicles":50,"d":1200,"route_I_counts":"{\"1\": 50}","source":4,"target":3,"layer":"L","from":"哈尔滨工程大学(地铁站)","to":"哈尔滨太平桥(地铁站)"},"geometry":{"type":"LineString","coordinates":[[126.662026,45.773486],[126.671115,45.781562]]}},{"type":"Feature","properties":{"shape_id":"{}","direction_id":"{\"0\": 50}","headsign":"{}","duration_avg":120,"n_vehicles":50,"d":1200,"route_I_counts":"{\"1\": 50}","source":4,"target":5,"layer":"L","from":"哈尔滨工程大学(地铁站)","to":"哈尔滨烟厂(地铁站)"},"geometry":{"type":"LineString","coordinates":[[126.662026,45.773486],[126.649904,45.766756]]}},{"type":"Feature","properties":{"shape_id":"{}","direction_id":"{\"1\": 50}","headsign":"{}","duration_avg":120,"n_vehicles":50,"d":1200,"route_I_counts":"{\"1\": 50}","source":5,"target":4,"layer":"L","from":"哈尔滨烟厂(地铁站)","to":"哈尔滨工程大学(地铁站)"},"geometry":{"type":"LineString","coordinates":[[126.649904,45.766756],[126.662026,45.773486]]}},{"type":"Feature","properties":{"shape_id":"{}","direction_id":"{\"0\": 50}","headsign":"{}","duration_avg":120,"n_vehicles":50,"d":1200,"route_I_counts":"{\"1\": 50}","source":5,"target":6,"layer":"L","from":"哈尔滨烟厂(地铁站)","to":"哈尔滨医大一院(地铁站)"},"geometry":{"type":"LineString","coordinates":[[126.649904,45.766756],[126.644448,45.762116]]}},{"type":"Feature","properties":{"shape_id":"{}","direction_id":"{\"1\": 50}","headsign":"{}","duration_avg":120,"n_vehicles":50,"d":1200,"route_I_counts":"{\"1\": 50}","source":6,"target":5,"layer":"L","from":"哈尔滨医大一院(地铁站)","to":"哈尔滨烟厂(地铁站)"},"geometry":{"type":"LineString","coordinates":[[126.644448,45.762116],[126.649904,45.766756]]}},{"type":"Feature","properties":{"shape_id":"{}","direction_id":"{\"0\": 50}","headsign":"{}","duration_avg":60,"n_vehicles":50,"d":600,"route_I_counts":"{\"1\": 50}","source":6,"target":7,"layer":"L","from":"哈尔滨医大一院(地铁站)","to":"哈尔滨博物馆(地铁站)"},"geometry":{"type":"LineString","coordinates":[[126.644448,45.762116],[126.63782,45.756452]]}},{"type":"Feature","properties":{"shape_id":"{}","direction_id":"{\"1\": 50}","headsign":"{}","duration_avg":60,"n_vehicles":50,"d":600,"route_I_counts":"{\"1\": 50}","source":7,"target":6,"layer":"L","from":"哈尔滨博物馆(地铁站)","to":"哈尔滨医大一院(地铁站)"},"geometry":{"type":"LineString","coordinates":[[126.63782,45.756452],[126.644448,45.762116]]}},{"type":"Feature","properties":{"shape_id":"{}","direction_id":"{\"0\": 50}","headsign":"{}","duration_avg":120,"n_vehicles":50,"d":1200,"route_I_counts":"{\"1\": 50}","source":7,"target":8,"layer":"L","from":"哈尔滨博物馆(地铁站)","to":"哈尔滨铁路局(地铁站)"},"geometry":{"type":"LineString","coordinates":[[126.63782,45.756452],[126.630042,45.74957]]}},{"type":"Feature","properties":{"shape_id":"{}","direction_id":"{\"1\": 50}","headsign":"{}","duration_avg":120,"n_vehicles":50,"d":1200,"route_I_counts":"{\"1\": 50}","source":8,"target":7,"layer":"L","from":"哈尔滨铁路局(地铁站)","to":"哈尔滨博物馆(地铁站)"},"geometry":{"type":"LineString","coordinates":[[126.630042,45.74957],[126.63782,45.756452]]}},{"type":"Feature","properties":{"shape_id":"{}","direction_id":"{\"0\": 50}","headsign":"{}","duration_avg":120,"n_vehicles":50,"d":1200,"route_I_counts":"{\"1\": 50}","source":8,"target":9,"layer":"L","from":"哈尔滨铁路局(地铁站)","to":"哈尔滨哈工大(地铁站)"},"geometry":{"type":"LineString","coordinates":[[126.630042,45.74957],[126.621816,45.742631]]}},{"type":"Feature","properties":{"shape_id":"{}","direction_id":"{\"1\": 50}","headsign":"{}","duration_avg":120,"n_vehicles":50,"d":1200,"route_I_counts":"{\"1\": 50}","source":9,"target":8,"layer":"L","from":"哈尔滨哈工大(地铁站)","to":"哈尔滨铁路局(地铁站)"},"geometry":{"type":"LineString","coordinates":[[126.621816,45.742631],[126.630042,45.74957]]}},{"type":"Feature","properties":{"shape_id":"{}","direction_id":"{\"0\": 50}","headsign":"{}","duration_avg":120,"n_vehicles":50,"d":1200,"route_I_counts":"{\"1\": 50}","source":9,"target":10,"layer":"L","from":"哈尔滨哈工大(地铁站)","to":"哈尔滨西大桥(地铁站)"},"geometry":{"type":"LineString","coordinates":[[126.621816,45.742631],[126.615189,45.73692]]}},{"type":"Feature","properties":{"shape_id":"{}","direction_id":"{\"1\": 50}","headsign":"{}","duration_avg":120,"n_vehicles":50,"d":1200,"route_I_counts":"{\"1\": 50}","source":10,"target":9,"layer":"L","from":"哈尔滨西大桥(地铁站)","to":"哈尔滨哈工大(地铁站)"},"geometry":{"type":"LineString","coordinates":[[126.615189,45.73692],[126.621816,45.742631]]}},{"type":"Feature","properties":{"shape_id":"{}","direction_id":"{\"0\": 50}","headsign":"{}","duration_avg":120,"n_vehicles":50,"d":1200,"route_I_counts":"{\"1\": 50}","source":10,"target":11,"layer":"L","from":"哈尔滨西大桥(地铁站)","to":"哈尔滨和兴路(地铁站)"},"geometry":{"type":"LineString","coordinates":[[126.615189,45.73692],[126.609532,45.73049]]}},{"type":"Feature","properties":{"shape_id":"{}","direction_id":"{\"1\": 50}","headsign":"{}","duration_avg":120,"n_vehicles":50,"d":1200,"route_I_counts":"{\"1\": 50}","source":11,"target":10,"layer":"L","from":"哈尔滨和兴路(地铁站)","to":"哈尔滨西大桥(地铁站)"},"geometry":{"type":"LineString","coordinates":[[126.609532,45.73049],[126.615189,45.73692]]}},{"type":"Feature","properties":{"shape_id":"{}","direction_id":"{\"0\": 50}","headsign":"{}","duration_avg":120,"n_vehicles":50,"d":1200,"route_I_counts":"{\"1\": 50}","source":11,"target":12,"layer":"L","from":"哈尔滨和兴路(地铁站)","to":"哈尔滨学府路(地铁站)"},"geometry":{"type":"LineString","coordinates":[[126.609532,45.73049],[126.60397,45.720533]]}},{"type":"Feature","properties":{"shape_id":"{}","direction_id":"{\"1\": 50}","headsign":"{}","duration_avg":120,"n_vehicles":50,"d":1200,"route_I_counts":"{\"1\": 50}","source":12,"target":11,"layer":"L","from":"哈尔滨学府路(地铁站)","to":"哈尔滨和兴路(地铁站)"},"geometry":{"type":"LineString","coordinates":[[126.60397,45.720533],[126.609532,45.73049]]}},{"type":"Feature","properties":{"shape_id":"{}","direction_id":"{\"0\": 50}","headsign":"{}","duration_avg":120,"n_vehicles":50,"d":1200,"route_I_counts":"{\"1\": 50}","source":12,"target":13,"layer":"L","from":"哈尔滨学府路(地铁站)","to":"哈尔滨理工大学(地铁站)"},"geometry":{"type":"LineString","coordinates":[[126.60397,45.720533],[126.605957,45.712926]]}},{"type":"Feature","properties":{"shape_id":"{}","direction_id":"{\"1\": 50}","headsign":"{}","duration_avg":120,"n_vehicles":50,"d":1200,"route_I_counts":"{\"1\": 50}","source":13,"target":12,"layer":"L","from":"哈尔滨理工大学(地铁站)","to":"哈尔滨学府路(地铁站)"},"geometry":{"type":"LineString","coordinates":[[126.605957,45.712926],[126.60397,45.720533]]}},{"type":"Feature","properties":{"shape_id":"{}","direction_id":"{\"0\": 50}","headsign":"{}","duration_avg":120,"n_vehicles":50,"d":1200,"route_I_counts":"{\"1\": 50}","source":13,"target":14,"layer":"L","from":"哈尔滨理工大学(地铁站)","to":"哈尔滨黑龙江大学(地铁站)"},"geometry":{"type":"LineString","coordinates":[[126.605957,45.712926],[126.60768,45.70504]]}},{"type":"Feature","properties":{"shape_id":"{}","direction_id":"{\"1\": 50}","headsign":"{}","duration_avg":120,"n_vehicles":50,"d":1200,"route_I_counts":"{\"1\": 50}","source":14,"target":13,"layer":"L","from":"哈尔滨黑龙江大学(地铁站)","to":"哈尔滨理工大学(地铁站)"},"geometry":{"type":"LineString","coordinates":[[126.60768,45.70504],[126.605957,45.712926]]}},{"type":"Feature","properties":{"shape_id":"{}","direction_id":"{\"0\": 50}","headsign":"{}","duration_avg":120,"n_vehicles":50,"d":1200,"route_I_counts":"{\"1\": 50}","source":14,"target":15,"layer":"L","from":"哈尔滨黑龙江大学(地铁站)","to":"哈尔滨医大二院(地铁站)"},"geometry":{"type":"LineString","coordinates":[[126.60768,45.70504],[126.609783,45.695557]]}},{"type":"Feature","properties":{"shape_id":"{}","direction_id":"{\"1\": 50}","headsign":"{}","duration_avg":120,"n_vehicles":50,"d":1200,"route_I_counts":"{\"1\": 50}","source":15,"target":14,"layer":"L","from":"哈尔滨医大二院(地铁站)","to":"哈尔滨黑龙江大学(地铁站)"},"geometry":{"type":"LineString","coordinates":[[126.609783,45.695557],[126.60768,45.70504]]}},{"type":"Feature","properties":{"shape_id":"{}","direction_id":"{\"0\": 50}","headsign":"{}","duration_avg":120,"n_vehicles":50,"d":1200,"route_I_counts":"{\"1\": 50}","source":15,"target":16,"layer":"L","from":"哈尔滨医大二院(地铁站)","to":"哈尔滨哈达(地铁站)"},"geometry":{"type":"LineString","coordinates":[[126.609783,45.695557],[126.6129,45.681269]]}},{"type":"Feature","properties":{"shape_id":"{}","direction_id":"{\"1\": 50}","headsign":"{}","duration_avg":120,"n_vehicles":50,"d":1200,"route_I_counts":"{\"1\": 50}","source":16,"target":15,"layer":"L","from":"哈尔滨哈达(地铁站)","to":"哈尔滨医大二院(地铁站)"},"geometry":{"type":"LineString","coordinates":[[126.6129,45.681269],[126.609783,45.695557]]}},{"type":"Feature","properties":{"shape_id":"{}","direction_id":"{\"0\": 50}","headsign":"{}","duration_avg":180,"n_vehicles":50,"d":1800,"route_I_counts":"{\"1\": 50}","source":16,"target":17,"layer":"L","from":"哈尔滨哈达(地铁站)","to":"哈尔滨哈尔滨南站(地铁站)"},"geometry":{"type":"LineString","coordinates":[[126.6129,45.681269],[126.615832,45.667977]]}},{"type":"Feature","properties":{"shape_id":"{}","direction_id":"{\"1\": 50}","headsign":"{}","duration_avg":180,"n_vehicles":50,"d":1800,"route_I_counts":"{\"1\": 50}","source":17,"target":16,"layer":"L","from":"哈尔滨哈尔滨南站(地铁站)","to":"哈尔滨哈达(地铁站)"},"geometry":{"type":"LineString","coordinates":[[126.615832,45.667977],[126.6129,45.681269]]}},{"type":"Feature","properties":{"shape_id":"{}","direction_id":"{\"0\": 50}","headsign":"{}","duration_avg":120,"n_vehicles":50,"d":1200,"route_I_counts":"{\"1\": 50}","source":17,"target":18,"layer":"L","from":"哈尔滨哈尔滨南站(地铁站)","to":"哈尔滨同江路(地铁站)"},"geometry":{"type":"LineString","coordinates":[[126.615832,45.667977],[126.618798,45.654295]]}},{"type":"Feature","properties":{"shape_id":"{}","direction_id":"{\"1\": 50}","headsign":"{}","duration_avg":120,"n_vehicles":50,"d":1200,"route_I_counts":"{\"1\": 50}","source":18,"target":17,"layer":"L","from":"哈尔滨同江路(地铁站)","to":"哈尔滨哈尔滨南站(地铁站)"},"geometry":{"type":"LineString","coordinates":[[126.618798,45.654295],[126.615832,45.667977]]}},{"type":"Feature","properties":{"shape_id":"{}","direction_id":"{\"0\": 50}","headsign":"{}","duration_avg":120,"n_vehicles":50,"d":1200,"route_I_counts":"{\"1\": 50}","source":18,"target":19,"layer":"L","from":"哈尔滨同江路(地铁站)","to":"哈尔滨瓦盆窑(地铁站)"},"geometry":{"type":"LineString","coordinates":[[126.618798,45.654295],[126.627532,45.64347]]}},{"type":"Feature","properties":{"shape_id":"{}","direction_id":"{\"1\": 50}","headsign":"{}","duration_avg":120,"n_vehicles":50,"d":1200,"route_I_counts":"{\"1\": 50}","source":19,"target":18,"layer":"L","from":"哈尔滨瓦盆窑(地铁站)","to":"哈尔滨同江路(地铁站)"},"geometry":{"type":"LineString","coordinates":[[126.627532,45.64347],[126.618798,45.654295]]}},{"type":"Feature","properties":{"shape_id":"{}","direction_id":"{\"0\": 50}","headsign":"{}","duration_avg":180,"n_vehicles":50,"d":1800,"route_I_counts":"{\"1\": 50}","source":19,"target":20,"layer":"L","from":"哈尔滨瓦盆窑(地铁站)","to":"哈尔滨镜泊路(地铁站)"},"geometry":{"type":"LineString","coordinates":[[126.627532,45.64347],[126.630965,45.630217]]}},{"type":"Feature","properties":{"shape_id":"{}","direction_id":"{\"1\": 50}","headsign":"{}","duration_avg":180,"n_vehicles":50,"d":1800,"route_I_counts":"{\"1\": 50}","source":20,"target":19,"layer":"L","from":"哈尔滨镜泊路(地铁站)","to":"哈尔滨瓦盆窑(地铁站)"},"geometry":{"type":"LineString","coordinates":[[126.630965,45.630217],[126.627532,45.64347]]}},{"type":"Feature","properties":{"shape_id":"{}","direction_id":"{\"0\": 50}","headsign":"{}","duration_avg":180,"n_vehicles":50,"d":1800,"route_I_counts":"{\"1\": 50}","source":20,"target":21,"layer":"L","from":"哈尔滨镜泊路(地铁站)","to":"哈尔滨渤海路(地铁站)"},"geometry":{"type":"LineString","coordinates":[[126.630965,45.630217],[126.641884,45.613391]]}},{"type":"Feature","properties":{"shape_id":"{}","direction_id":"{\"1\": 50}","headsign":"{}","duration_avg":180,"n_vehicles":50,"d":1800,"route_I_counts":"{\"1\": 50}","source":21,"target":20,"layer":"L","from":"哈尔滨渤海路(地铁站)","to":"哈尔滨镜泊路(地铁站)"},"geometry":{"type":"LineString","coordinates":[[126.641884,45.613391],[126.630965,45.630217]]}},{"type":"Feature","properties":{"shape_id":"{}","direction_id":"{\"0\": 50}","headsign":"{}","duration_avg":120,"n_vehicles":50,"d":1200,"route_I_counts":"{\"1\": 50}","source":21,"target":22,"layer":"L","from":"哈尔滨渤海路(地铁站)","to":"哈尔滨新疆大街(地铁站)"},"geometry":{"type":"LineString","coordinates":[[126.641884,45.613391],[126.627054,45.603936]]}},{"type":"Feature","properties":{"shape_id":"{}","direction_id":"{\"1\": 50}","headsign":"{}","duration_avg":120,"n_vehicles":50,"d":1200,"route_I_counts":"{\"1\": 50}","source":22,"target":21,"layer":"L","from":"哈尔滨新疆大街(地铁站)","to":"哈尔滨渤海路(地铁站)"},"geometry":{"type":"LineString","coordinates":[[126.627054,45.603936],[126.641884,45.613391]]}},{"type":"Feature","properties":{"shape_id":"{}","direction_id":"{\"0\": 50}","headsign":"{}","duration_avg":180,"n_vehicles":50,"d":1800,"route_I_counts":"{\"2\": 50}","source":23,"target":24,"layer":"L","from":"哈尔滨江北大学城(地铁站)","to":"哈尔滨哈尔滨北站(地铁站)"},"geometry":{"type":"LineString","coordinates":[[126.53755,45.871119],[126.531588,45.850356]]}},{"type":"Feature","properties":{"shape_id":"{}","direction_id":"{\"1\": 50}","headsign":"{}","duration_avg":180,"n_vehicles":50,"d":1800,"route_I_counts":"{\"2\": 50}","source":24,"target":23,"layer":"L","from":"哈尔滨哈尔滨北站(地铁站)","to":"哈尔滨江北大学城(地铁站)"},"geometry":{"type":"LineString","coordinates":[[126.531588,45.850356],[126.53755,45.871119]]}},{"type":"Feature","properties":{"shape_id":"{}","direction_id":"{\"0\": 50}","headsign":"{}","duration_avg":180,"n_vehicles":50,"d":1800,"route_I_counts":"{\"2\": 50}","source":24,"target":25,"layer":"L","from":"哈尔滨哈尔滨北站(地铁站)","to":"哈尔滨大耿家(地铁站)"},"geometry":{"type":"LineString","coordinates":[[126.531588,45.850356],[126.534894,45.833065]]}},{"type":"Feature","properties":{"shape_id":"{}","direction_id":"{\"1\": 50}","headsign":"{}","duration_avg":180,"n_vehicles":50,"d":1800,"route_I_counts":"{\"2\": 50}","source":25,"target":24,"layer":"L","from":"哈尔滨大耿家(地铁站)","to":"哈尔滨哈尔滨北站(地铁站)"},"geometry":{"type":"LineString","coordinates":[[126.534894,45.833065],[126.531588,45.850356]]}},{"type":"Feature","properties":{"shape_id":"{}","direction_id":"{\"0\": 50}","headsign":"{}","duration_avg":120,"n_vehicles":50,"d":1200,"route_I_counts":"{\"2\": 50}","source":25,"target":26,"layer":"L","from":"哈尔滨大耿家(地铁站)","to":"哈尔滨龙川路(地铁站)"},"geometry":{"type":"LineString","coordinates":[[126.534894,45.833065],[126.543547,45.821431]]}},{"type":"Feature","properties":{"shape_id":"{}","direction_id":"{\"1\": 50}","headsign":"{}","duration_avg":120,"n_vehicles":50,"d":1200,"route_I_counts":"{\"2\": 50}","source":26,"target":25,"layer":"L","from":"哈尔滨龙川路(地铁站)","to":"哈尔滨大耿家(地铁站)"},"geometry":{"type":"LineString","coordinates":[[126.543547,45.821431],[126.534894,45.833065]]}},{"type":"Feature","properties":{"shape_id":"{}","direction_id":"{\"0\": 50}","headsign":"{}","duration_avg":180,"n_vehicles":50,"d":1800,"route_I_counts":"{\"2\": 50}","source":26,"target":27,"layer":"L","from":"哈尔滨龙川路(地铁站)","to":"哈尔滨世茂大道(地铁站)"},"geometry":{"type":"LineString","coordinates":[[126.543547,45.821431],[126.546409,45.804734]]}},{"type":"Feature","properties":{"shape_id":"{}","direction_id":"{\"1\": 50}","headsign":"{}","duration_avg":180,"n_vehicles":50,"d":1800,"route_I_counts":"{\"2\": 50}","source":27,"target":26,"layer":"L","from":"哈尔滨世茂大道(地铁站)","to":"哈尔滨龙川路(地铁站)"},"geometry":{"type":"LineString","coordinates":[[126.546409,45.804734],[126.543547,45.821431]]}},{"type":"Feature","properties":{"shape_id":"{}","direction_id":"{\"0\": 50}","headsign":"{}","duration_avg":200,"n_vehicles":50,"d":2000,"route_I_counts":"{\"2\": 50}","source":27,"target":28,"layer":"L","from":"哈尔滨世茂大道(地铁站)","to":"哈尔滨冰雪大世界(地铁站)"},"geometry":{"type":"LineString","coordinates":[[126.546409,45.804734],[126.561751,45.776643]]}},{"type":"Feature","properties":{"shape_id":"{}","direction_id":"{\"1\": 50}","headsign":"{}","duration_avg":200,"n_vehicles":50,"d":2000,"route_I_counts":"{\"2\": 50}","source":28,"target":27,"layer":"L","from":"哈尔滨冰雪大世界(地铁站)","to":"哈尔滨世茂大道(地铁站)"},"geometry":{"type":"LineString","coordinates":[[126.561751,45.776643],[126.546409,45.804734]]}},{"type":"Feature","properties":{"shape_id":"{}","direction_id":"{\"0\": 50}","headsign":"{}","duration_avg":180,"n_vehicles":50,"d":1800,"route_I_counts":"{\"2\": 50}","source":28,"target":29,"layer":"L","from":"哈尔滨冰雪大世界(地铁站)","to":"哈尔滨太阳岛(地铁站)"},"geometry":{"type":"LineString","coordinates":[[126.561751,45.776643],[126.581945,45.782618]]}},{"type":"Feature","properties":{"shape_id":"{}","direction_id":"{\"1\": 50}","headsign":"{}","duration_avg":180,"n_vehicles":50,"d":1800,"route_I_counts":"{\"2\": 50}","source":29,"target":28,"layer":"L","from":"哈尔滨太阳岛(地铁站)","to":"哈尔滨冰雪大世界(地铁站)"},"geometry":{"type":"LineString","coordinates":[[126.581945,45.782618],[126.561751,45.776643]]}},{"type":"Feature","properties":{"shape_id":"{}","direction_id":"{\"0\": 50}","headsign":"{}","duration_avg":180,"n_vehicles":50,"d":1800,"route_I_counts":"{\"2\": 50}","source":29,"target":30,"layer":"L","from":"哈尔滨太阳岛(地铁站)","to":"哈尔滨人民广场(地铁站)"},"geometry":{"type":"LineString","coordinates":[[126.581945,45.782618],[126.599068,45.771101]]}},{"type":"Feature","properties":{"shape_id":"{}","direction_id":"{\"1\": 50}","headsign":"{}","duration_avg":180,"n_vehicles":50,"d":1800,"route_I_counts":"{\"2\": 50}","source":30,"target":29,"layer":"L","from":"哈尔滨人民广场(地铁站)","to":"哈尔滨太阳岛(地铁站)"},"geometry":{"type":"LineString","coordinates":[[126.599068,45.771101],[126.581945,45.782618]]}},{"type":"Feature","properties":{"shape_id":"{}","direction_id":"{\"0\": 50}","headsign":"{}","duration_avg":120,"n_vehicles":50,"d":1200,"route_I_counts":"{\"2\": 50}","source":30,"target":31,"layer":"L","from":"哈尔滨人民广场(地铁站)","to":"哈尔滨中央大街(地铁站)"},"geometry":{"type":"LineString","coordinates":[[126.599068,45.771101],[126.610332,45.767011]]}},{"type":"Feature","properties":{"shape_id":"{}","direction_id":"{\"1\": 50}","headsign":"{}","duration_avg":120,"n_vehicles":50,"d":1200,"route_I_counts":"{\"2\": 50}","source":31,"target":30,"layer":"L","from":"哈尔滨中央大街(地铁站)","to":"哈尔滨人民广场(地铁站)"},"geometry":{"type":"LineString","coordinates":[[126.610332,45.767011],[126.599068,45.771101]]}},{"type":"Feature","properties":{"shape_id":"{}","direction_id":"{\"0\": 50}","headsign":"{}","duration_avg":120,"n_vehicles":50,"d":1200,"route_I_counts":"{\"2\": 50}","source":31,"target":32,"layer":"L","from":"哈尔滨中央大街(地铁站)","to":"哈尔滨尚志大街(地铁站)"},"geometry":{"type":"LineString","coordinates":[[126.610332,45.767011],[126.620061,45.76366]]}},{"type":"Feature","properties":{"shape_id":"{}","direction_id":"{\"1\": 50}","headsign":"{}","duration_avg":120,"n_vehicles":50,"d":1200,"route_I_counts":"{\"2\": 50}","source":32,"target":31,"layer":"L","from":"哈尔滨尚志大街(地铁站)","to":"哈尔滨中央大街(地铁站)"},"geometry":{"type":"LineString","coordinates":[[126.620061,45.76366],[126.610332,45.767011]]}},{"type":"Feature","properties":{"shape_id":"{}","direction_id":"{\"0\": 50}","headsign":"{}","duration_avg":120,"n_vehicles":50,"d":1200,"route_I_counts":"{\"2\": 50}","source":32,"target":33,"layer":"L","from":"哈尔滨尚志大街(地铁站)","to":"哈尔滨哈尔滨站(地铁站)"},"geometry":{"type":"LineString","coordinates":[[126.620061,45.76366],[126.628962,45.760472]]}},{"type":"Feature","properties":{"shape_id":"{}","direction_id":"{\"1\": 50}","headsign":"{}","duration_avg":120,"n_vehicles":50,"d":1200,"route_I_counts":"{\"2\": 50}","source":33,"target":32,"layer":"L","from":"哈尔滨哈尔滨站(地铁站)","to":"哈尔滨尚志大街(地铁站)"},"geometry":{"type":"LineString","coordinates":[[126.628962,45.760472],[126.620061,45.76366]]}},{"type":"Feature","properties":{"shape_id":"{}","direction_id":"{\"0\": 50}","headsign":"{}","duration_avg":180,"n_vehicles":50,"d":1800,"route_I_counts":"{\"2\": 50}","source":33,"target":7,"layer":"L","from":"哈尔滨哈尔滨站(地铁站)","to":"哈尔滨博物馆(地铁站)"},"geometry":{"type":"LineString","coordinates":[[126.628962,45.760472],[126.63782,45.756452]]}},{"type":"Feature","properties":{"shape_id":"{}","direction_id":"{\"1\": 50}","headsign":"{}","duration_avg":180,"n_vehicles":50,"d":1800,"route_I_counts":"{\"2\": 50}","source":7,"target":33,"layer":"L","from":"哈尔滨博物馆(地铁站)","to":"哈尔滨哈尔滨站(地铁站)"},"geometry":{"type":"LineString","coordinates":[[126.63782,45.756452],[126.628962,45.760472]]}},{"type":"Feature","properties":{"shape_id":"{}","direction_id":"{\"0\": 50}","headsign":"{}","duration_avg":120,"n_vehicles":50,"d":1200,"route_I_counts":"{\"2\": 50}","source":7,"target":34,"layer":"L","from":"哈尔滨博物馆(地铁站)","to":"哈尔滨工人文化宫(地铁站)"},"geometry":{"type":"LineString","coordinates":[[126.63782,45.756452],[126.647901,45.748038]]}},{"type":"Feature","properties":{"shape_id":"{}","direction_id":"{\"1\": 50}","headsign":"{}","duration_avg":120,"n_vehicles":50,"d":1200,"route_I_counts":"{\"2\": 50}","source":34,"target":7,"layer":"L","from":"哈尔滨工人文化宫(地铁站)","to":"哈尔滨博物馆(地铁站)"},"geometry":{"type":"LineString","coordinates":[[126.647901,45.748038],[126.63782,45.756452]]}},{"type":"Feature","properties":{"shape_id":"{}","direction_id":"{\"0\": 50}","headsign":"{}","duration_avg":120,"n_vehicles":50,"d":1200,"route_I_counts":"{\"2\": 50}","source":34,"target":35,"layer":"L","from":"哈尔滨工人文化宫(地铁站)","to":"哈尔滨省政府(地铁站)"},"geometry":{"type":"LineString","coordinates":[[126.647901,45.748038],[126.657386,45.740459]]}},{"type":"Feature","properties":{"shape_id":"{}","direction_id":"{\"1\": 50}","headsign":"{}","duration_avg":120,"n_vehicles":50,"d":1200,"route_I_counts":"{\"2\": 50}","source":35,"target":34,"layer":"L","from":"哈尔滨省政府(地铁站)","to":"哈尔滨工人文化宫(地铁站)"},"geometry":{"type":"LineString","coordinates":[[126.657386,45.740459],[126.647901,45.748038]]}},{"type":"Feature","properties":{"shape_id":"{}","direction_id":"{\"0\": 50}","headsign":"{}","duration_avg":180,"n_vehicles":50,"d":1800,"route_I_counts":"{\"2\": 50}","source":35,"target":36,"layer":"L","from":"哈尔滨省政府(地铁站)","to":"哈尔滨省医院(地铁站)"},"geometry":{"type":"LineString","coordinates":[[126.657386,45.740459],[126.671193,45.734706]]}},{"type":"Feature","properties":{"shape_id":"{}","direction_id":"{\"1\": 50}","headsign":"{}","duration_avg":180,"n_vehicles":50,"d":1800,"route_I_counts":"{\"2\": 50}","source":36,"target":35,"layer":"L","from":"哈尔滨省医院(地铁站)","to":"哈尔滨省政府(地铁站)"},"geometry":{"type":"LineString","coordinates":[[126.671193,45.734706],[126.657386,45.740459]]}},{"type":"Feature","properties":{"shape_id":"{}","direction_id":"{\"0\": 50}","headsign":"{}","duration_avg":120,"n_vehicles":50,"d":1200,"route_I_counts":"{\"2\": 50}","source":36,"target":37,"layer":"L","from":"哈尔滨省医院(地铁站)","to":"哈尔滨珠江路(地铁站)"},"geometry":{"type":"LineString","coordinates":[[126.671193,45.734706],[126.685688,45.734703]]}},{"type":"Feature","properties":{"shape_id":"{}","direction_id":"{\"1\": 50}","headsign":"{}","duration_avg":120,"n_vehicles":50,"d":1200,"route_I_counts":"{\"2\": 50}","source":37,"target":36,"layer":"L","from":"哈尔滨珠江路(地铁站)","to":"哈尔滨省医院(地铁站)"},"geometry":{"type":"LineString","coordinates":[[126.685688,45.734703],[126.671193,45.734706]]}},{"type":"Feature","properties":{"shape_id":"{}","direction_id":"{\"0\": 50}","headsign":"{}","duration_avg":120,"n_vehicles":50,"d":1200,"route_I_counts":"{\"2\": 50}","source":37,"target":38,"layer":"L","from":"哈尔滨珠江路(地铁站)","to":"哈尔滨南直路(地铁站)"},"geometry":{"type":"LineString","coordinates":[[126.685688,45.734703],[126.699817,45.732859]]}},{"type":"Feature","properties":{"shape_id":"{}","direction_id":"{\"1\": 50}","headsign":"{}","duration_avg":120,"n_vehicles":50,"d":1200,"route_I_counts":"{\"2\": 50}","source":38,"target":37,"layer":"L","from":"哈尔滨南直路(地铁站)","to":"哈尔滨珠江路(地铁站)"},"geometry":{"type":"LineString","coordinates":[[126.699817,45.732859],[126.685688,45.734703]]}},{"type":"Feature","properties":{"shape_id":"{}","direction_id":"{\"0\": 50}","headsign":"{}","duration_avg":200,"n_vehicles":50,"d":2000,"route_I_counts":"{\"2\": 50}","source":38,"target":39,"layer":"L","from":"哈尔滨南直路(地铁站)","to":"哈尔滨东北农业大学(地铁站)"},"geometry":{"type":"LineString","coordinates":[[126.699817,45.732859],[126.717867,45.727618]]}},{"type":"Feature","properties":{"shape_id":"{}","direction_id":"{\"1\": 50}","headsign":"{}","duration_avg":200,"n_vehicles":50,"d":2000,"route_I_counts":"{\"2\": 50}","source":39,"target":38,"layer":"L","from":"哈尔滨东北农业大学(地铁站)","to":"哈尔滨南直路(地铁站)"},"geometry":{"type":"LineString","coordinates":[[126.717867,45.727618],[126.699817,45.732859]]}},{"type":"Feature","properties":{"shape_id":"{}","direction_id":"{\"0\": 50}","headsign":"{}","duration_avg":120,"n_vehicles":50,"d":1200,"route_I_counts":"{\"2\": 50}","source":39,"target":40,"layer":"L","from":"哈尔滨东北农业大学(地铁站)","to":"哈尔滨气象台(地铁站)"},"geometry":{"type":"LineString","coordinates":[[126.717867,45.727618],[126.736387,45.724985]]}},{"type":"Feature","properties":{"shape_id":"{}","direction_id":"{\"1\": 50}","headsign":"{}","duration_avg":120,"n_vehicles":50,"d":1200,"route_I_counts":"{\"2\": 50}","source":40,"target":39,"layer":"L","from":"哈尔滨气象台(地铁站)","to":"哈尔滨东北农业大学(地铁站)"},"geometry":{"type":"LineString","coordinates":[[126.736387,45.724985],[126.717867,45.727618]]}},{"type":"Feature","properties":{"shape_id":"{}","direction_id":"{\"0\": 50}","headsign":"{}","duration_avg":1,"n_vehicles":50,"d":10,"route_I_counts":"{\"3\": 50, \"4\": 50}","source":41,"target":41,"layer":"L","from":"哈尔滨进乡街(地铁站)","to":"哈尔滨进乡街(地铁站)"},"geometry":{"type":"LineString","coordinates":[[126.680204,45.70268],[126.680204,45.70268]]}},{"type":"Feature","properties":{"shape_id":"{}","direction_id":"{\"0\": 50}","headsign":"{}","duration_avg":180,"n_vehicles":50,"d":1800,"route_I_counts":"{\"3\": 50, \"4\": 50}","source":41,"target":42,"layer":"L","from":"哈尔滨进乡街(地铁站)","to":"哈尔滨汽轮机厂(地铁站)"},"geometry":{"type":"LineString","coordinates":[[126.680204,45.70268],[126.683484,45.712468]]}},{"type":"Feature","properties":{"shape_id":"{}","direction_id":"{\"1\": 50}","headsign":"{}","duration_avg":180,"n_vehicles":50,"d":1800,"route_I_counts":"{\"3\": 50, \"4\": 50}","source":42,"target":41,"layer":"L","from":"哈尔滨汽轮机厂(地铁站)","to":"哈尔滨进乡街(地铁站)"},"geometry":{"type":"LineString","coordinates":[[126.683484,45.712468],[126.680204,45.70268]]}},{"type":"Feature","properties":{"shape_id":"{}","direction_id":"{\"0\": 50}","headsign":"{}","duration_avg":120,"n_vehicles":50,"d":1200,"route_I_counts":"{\"3\": 50, \"4\": 50}","source":42,"target":42,"layer":"L","from":"哈尔滨汽轮机厂(地铁站)","to":"哈尔滨汽轮机厂(地铁站)"},"geometry":{"type":"LineString","coordinates":[[126.683484,45.712468],[126.683484,45.712468]]}},{"type":"Feature","properties":{"shape_id":"{}","direction_id":"{\"0\": 50}","headsign":"{}","duration_avg":120,"n_vehicles":50,"d":1200,"route_I_counts":"{\"3\": 50, \"4\": 50}","source":42,"target":43,"layer":"L","from":"哈尔滨汽轮机厂(地铁站)","to":"哈尔滨油坊街(地铁站)"},"geometry":{"type":"LineString","coordinates":[[126.683484,45.712468],[126.684422,45.721234]]}},{"type":"Feature","properties":{"shape_id":"{}","direction_id":"{\"1\": 50}","headsign":"{}","duration_avg":120,"n_vehicles":50,"d":1200,"route_I_counts":"{\"3\": 50, \"4\": 50}","source":43,"target":42,"layer":"L","from":"哈尔滨油坊街(地铁站)","to":"哈尔滨汽轮机厂(地铁站)"},"geometry":{"type":"LineString","coordinates":[[126.684422,45.721234],[126.683484,45.712468]]}},{"type":"Feature","properties":{"shape_id":"{}","direction_id":"{\"0\": 50}","headsign":"{}","duration_avg":120,"n_vehicles":50,"d":1200,"route_I_counts":"{\"3\": 50, \"4\": 50}","source":43,"target":43,"layer":"L","from":"哈尔滨油坊街(地铁站)","to":"哈尔滨油坊街(地铁站)"},"geometry":{"type":"LineString","coordinates":[[126.684422,45.721234],[126.684422,45.721234]]}},{"type":"Feature","properties":{"shape_id":"{}","direction_id":"{\"0\": 50}","headsign":"{}","duration_avg":180,"n_vehicles":50,"d":1800,"route_I_counts":"{\"3\": 50, \"4\": 50}","source":43,"target":44,"layer":"L","from":"哈尔滨油坊街(地铁站)","to":"哈尔滨公滨路(地铁站)"},"geometry":{"type":"LineString","coordinates":[[126.684422,45.721234],[126.685043,45.728752]]}},{"type":"Feature","properties":{"shape_id":"{}","direction_id":"{\"1\": 50}","headsign":"{}","duration_avg":180,"n_vehicles":50,"d":1800,"route_I_counts":"{\"3\": 50, \"4\": 50}","source":44,"target":43,"layer":"L","from":"哈尔滨公滨路(地铁站)","to":"哈尔滨油坊街(地铁站)"},"geometry":{"type":"LineString","coordinates":[[126.685043,45.728752],[126.684422,45.721234]]}},{"type":"Feature","properties":{"shape_id":"{}","direction_id":"{\"0\": 50}","headsign":"{}","duration_avg":120,"n_vehicles":50,"d":1200,"route_I_counts":"{\"3\": 50, \"4\": 50}","source":44,"target":44,"layer":"L","from":"哈尔滨公滨路(地铁站)","to":"哈尔滨公滨路(地铁站)"},"geometry":{"type":"LineString","coordinates":[[126.685043,45.728752],[126.685043,45.728752]]}},{"type":"Feature","properties":{"shape_id":"{}","direction_id":"{\"0\": 50}","headsign":"{}","duration_avg":120,"n_vehicles":50,"d":1200,"route_I_counts":"{\"3\": 50, \"4\": 50}","source":44,"target":37,"layer":"L","from":"哈尔滨公滨路(地铁站)","to":"哈尔滨珠江路(地铁站)"},"geometry":{"type":"LineString","coordinates":[[126.685043,45.728752],[126.685688,45.734703]]}},{"type":"Feature","properties":{"shape_id":"{}","direction_id":"{\"1\": 50}","headsign":"{}","duration_avg":120,"n_vehicles":50,"d":1200,"route_I_counts":"{\"3\": 50, \"4\": 50}","source":37,"target":44,"layer":"L","from":"哈尔滨珠江路(地铁站)","to":"哈尔滨公滨路(地铁站)"},"geometry":{"type":"LineString","coordinates":[[126.685688,45.734703],[126.685043,45.728752]]}},{"type":"Feature","properties":{"shape_id":"{}","direction_id":"{\"0\": 50}","headsign":"{}","duration_avg":120,"n_vehicles":50,"d":1200,"route_I_counts":"{\"3\": 50, \"4\": 50}","source":37,"target":37,"layer":"L","from":"哈尔滨珠江路(地铁站)","to":"哈尔滨珠江路(地铁站)"},"geometry":{"type":"LineString","coordinates":[[126.685688,45.734703],[126.685688,45.734703]]}},{"type":"Feature","properties":{"shape_id":"{}","direction_id":"{\"0\": 50}","headsign":"{}","duration_avg":60,"n_vehicles":50,"d":600,"route_I_counts":"{\"3\": 50, \"4\": 50}","source":37,"target":45,"layer":"L","from":"哈尔滨珠江路(地铁站)","to":"哈尔滨湘江路(地铁站)"},"geometry":{"type":"LineString","coordinates":[[126.685688,45.734703],[126.688389,45.740349]]}},{"type":"Feature","properties":{"shape_id":"{}","direction_id":"{\"1\": 50}","headsign":"{}","duration_avg":60,"n_vehicles":50,"d":600,"route_I_counts":"{\"3\": 50, \"4\": 50}","source":45,"target":37,"layer":"L","from":"哈尔滨湘江路(地铁站)","to":"哈尔滨珠江路(地铁站)"},"geometry":{"type":"LineString","coordinates":[[126.688389,45.740349],[126.685688,45.734703]]}},{"type":"Feature","properties":{"shape_id":"{}","direction_id":"{\"0\": 50}","headsign":"{}","duration_avg":120,"n_vehicles":50,"d":1200,"route_I_counts":"{\"3\": 50, \"4\": 50}","source":45,"target":45,"layer":"L","from":"哈尔滨湘江路(地铁站)","to":"哈尔滨湘江路(地铁站)"},"geometry":{"type":"LineString","coordinates":[[126.688389,45.740349],[126.688389,45.740349]]}},{"type":"Feature","properties":{"shape_id":"{}","direction_id":"{\"0\": 50}","headsign":"{}","duration_avg":120,"n_vehicles":50,"d":1200,"route_I_counts":"{\"3\": 50, \"4\": 50}","source":45,"target":46,"layer":"L","from":"哈尔滨湘江路(地铁站)","to":"哈尔滨会展中心(地铁站)"},"geometry":{"type":"LineString","coordinates":[[126.688389,45.740349],[126.690553,45.748425]]}},{"type":"Feature","properties":{"shape_id":"{}","direction_id":"{\"1\": 50}","headsign":"{}","duration_avg":120,"n_vehicles":50,"d":1200,"route_I_counts":"{\"3\": 50, \"4\": 50}","source":46,"target":45,"layer":"L","from":"哈尔滨会展中心(地铁站)","to":"哈尔滨湘江路(地铁站)"},"geometry":{"type":"LineString","coordinates":[[126.690553,45.748425],[126.688389,45.740349]]}},{"type":"Feature","properties":{"shape_id":"{}","direction_id":"{\"0\": 50}","headsign":"{}","duration_avg":120,"n_vehicles":50,"d":1200,"route_I_counts":"{\"3\": 50, \"4\": 50}","source":46,"target":46,"layer":"L","from":"哈尔滨会展中心(地铁站)","to":"哈尔滨会展中心(地铁站)"},"geometry":{"type":"LineString","coordinates":[[126.690553,45.748425],[126.690553,45.748425]]}},{"type":"Feature","properties":{"shape_id":"{}","direction_id":"{\"0\": 50}","headsign":"{}","duration_avg":120,"n_vehicles":50,"d":1200,"route_I_counts":"{\"3\": 50, \"4\": 50}","source":46,"target":47,"layer":"L","from":"哈尔滨会展中心(地铁站)","to":"哈尔滨海河东路(地铁站)"},"geometry":{"type":"LineString","coordinates":[[126.690553,45.748425],[126.688536,45.757846]]}},{"type":"Feature","properties":{"shape_id":"{}","direction_id":"{\"1\": 50}","headsign":"{}","duration_avg":120,"n_vehicles":50,"d":1200,"route_I_counts":"{\"3\": 50, \"4\": 50}","source":47,"target":46,"layer":"L","from":"哈尔滨海河东路(地铁站)","to":"哈尔滨会展中心(地铁站)"},"geometry":{"type":"LineString","coordinates":[[126.688536,45.757846],[126.690553,45.748425]]}},{"type":"Feature","properties":{"shape_id":"{}","direction_id":"{\"0\": 50}","headsign":"{}","duration_avg":120,"n_vehicles":50,"d":1200,"route_I_counts":"{\"3\": 50, \"4\": 50}","source":47,"target":47,"layer":"L","from":"哈尔滨海河东路(地铁站)","to":"哈尔滨海河东路(地铁站)"},"geometry":{"type":"LineString","coordinates":[[126.688536,45.757846],[126.688536,45.757846]]}},{"type":"Feature","properties":{"shape_id":"{}","direction_id":"{\"0\": 50}","headsign":"{}","duration_avg":120,"n_vehicles":50,"d":1200,"route_I_counts":"{\"3\": 50, \"4\": 50}","source":47,"target":48,"layer":"L","from":"哈尔滨海河东路(地铁站)","to":"哈尔滨市第二医院(地铁站)"},"geometry":{"type":"LineString","coordinates":[[126.688536,45.757846],[126.68663,45.765235]]}},{"type":"Feature","properties":{"shape_id":"{}","direction_id":"{\"1\": 50}","headsign":"{}","duration_avg":120,"n_vehicles":50,"d":1200,"route_I_counts":"{\"3\": 50, \"4\": 50}","source":48,"target":47,"layer":"L","from":"哈尔滨市第二医院(地铁站)","to":"哈尔滨海河东路(地铁站)"},"geometry":{"type":"LineString","coordinates":[[126.68663,45.765235],[126.688536,45.757846]]}},{"type":"Feature","properties":{"shape_id":"{}","direction_id":"{\"0\": 50}","headsign":"{}","duration_avg":120,"n_vehicles":50,"d":1200,"route_I_counts":"{\"3\": 50, \"4\": 50}","source":48,"target":48,"layer":"L","from":"哈尔滨市第二医院(地铁站)","to":"哈尔滨市第二医院(地铁站)"},"geometry":{"type":"LineString","coordinates":[[126.68663,45.765235],[126.68663,45.765235]]}},{"type":"Feature","properties":{"shape_id":"{}","direction_id":"{\"0\": 50}","headsign":"{}","duration_avg":120,"n_vehicles":50,"d":1200,"route_I_counts":"{\"3\": 50, \"4\": 50}","source":48,"target":49,"layer":"L","from":"哈尔滨市第二医院(地铁站)","to":"哈尔滨大有坊街(地铁站)"},"geometry":{"type":"LineString","coordinates":[[126.68663,45.765235],[126.684676,45.773128]]}},{"type":"Feature","properties":{"shape_id":"{}","direction_id":"{\"1\": 50}","headsign":"{}","duration_avg":120,"n_vehicles":50,"d":1200,"route_I_counts":"{\"3\": 50, \"4\": 50}","source":49,"target":48,"layer":"L","from":"哈尔滨大有坊街(地铁站)","to":"哈尔滨市第二医院(地铁站)"},"geometry":{"type":"LineString","coordinates":[[126.684676,45.773128],[126.68663,45.765235]]}},{"type":"Feature","properties":{"shape_id":"{}","direction_id":"{\"0\": 50}","headsign":"{}","duration_avg":120,"n_vehicles":50,"d":1200,"route_I_counts":"{\"3\": 50, \"4\": 50}","source":49,"target":49,"layer":"L","from":"哈尔滨大有坊街(地铁站)","to":"哈尔滨大有坊街(地铁站)"},"geometry":{"type":"LineString","coordinates":[[126.684676,45.773128],[126.684676,45.773128]]}},{"type":"Feature","properties":{"shape_id":"{}","direction_id":"{\"0\": 50}","headsign":"{}","duration_avg":180,"n_vehicles":50,"d":1800,"route_I_counts":"{\"3\": 50, \"4\": 50}","source":49,"target":3,"layer":"L","from":"哈尔滨大有坊街(地铁站)","to":"哈尔滨太平桥(地铁站)"},"geometry":{"type":"LineString","coordinates":[[126.684676,45.773128],[126.671115,45.781562]]}},{"type":"Feature","properties":{"shape_id":"{}","direction_id":"{\"1\": 50}","headsign":"{}","duration_avg":180,"n_vehicles":50,"d":1800,"route_I_counts":"{\"3\": 50, \"4\": 50}","source":3,"target":49,"layer":"L","from":"哈尔滨太平桥(地铁站)","to":"哈尔滨大有坊街(地铁站)"},"geometry":{"type":"LineString","coordinates":[[126.671115,45.781562],[126.684676,45.773128]]}},{"type":"Feature","properties":{"shape_id":"{}","direction_id":"{\"0\": 50}","headsign":"{}","duration_avg":120,"n_vehicles":50,"d":1200,"route_I_counts":"{\"3\": 50, \"4\": 50}","source":3,"target":3,"layer":"L","from":"哈尔滨太平桥(地铁站)","to":"哈尔滨太平桥(地铁站)"},"geometry":{"type":"LineString","coordinates":[[126.671115,45.781562],[126.671115,45.781562]]}},{"type":"Feature","properties":{"shape_id":"{}","direction_id":"{\"0\": 50}","headsign":"{}","duration_avg":120,"n_vehicles":50,"d":1200,"route_I_counts":"{\"3\": 50, \"4\": 50}","source":3,"target":50,"layer":"L","from":"哈尔滨太平桥(地铁站)","to":"哈尔滨靖宇公园(地铁站)"},"geometry":{"type":"LineString","coordinates":[[126.671115,45.781562],[126.661553,45.78686]]}},{"type":"Feature","properties":{"shape_id":"{}","direction_id":"{\"1\": 50}","headsign":"{}","duration_avg":120,"n_vehicles":50,"d":1200,"route_I_counts":"{\"3\": 50, \"4\": 50}","source":50,"target":3,"layer":"L","from":"哈尔滨靖宇公园(地铁站)","to":"哈尔滨太平桥(地铁站)"},"geometry":{"type":"LineString","coordinates":[[126.661553,45.78686],[126.671115,45.781562]]}},{"type":"Feature","properties":{"shape_id":"{}","direction_id":"{\"0\": 50}","headsign":"{}","duration_avg":120,"n_vehicles":50,"d":1200,"route_I_counts":"{\"3\": 50, \"4\": 50}","source":50,"target":50,"layer":"L","from":"哈尔滨靖宇公园(地铁站)","to":"哈尔滨靖宇公园(地铁站)"},"geometry":{"type":"LineString","coordinates":[[126.661553,45.78686],[126.661553,45.78686]]}},{"type":"Feature","properties":{"shape_id":"{}","direction_id":"{\"0\": 50}","headsign":"{}","duration_avg":120,"n_vehicles":50,"d":1200,"route_I_counts":"{\"3\": 50, \"4\": 50}","source":50,"target":51,"layer":"L","from":"哈尔滨靖宇公园(地铁站)","to":"哈尔滨清真寺(地铁站)"},"geometry":{"type":"LineString","coordinates":[[126.661553,45.78686],[126.64561,45.786225]]}},{"type":"Feature","properties":{"shape_id":"{}","direction_id":"{\"1\": 50}","headsign":"{}","duration_avg":120,"n_vehicles":50,"d":1200,"route_I_counts":"{\"3\": 50, \"4\": 50}","source":51,"target":50,"layer":"L","from":"哈尔滨清真寺(地铁站)","to":"哈尔滨靖宇公园(地铁站)"},"geometry":{"type":"LineString","coordinates":[[126.64561,45.786225],[126.661553,45.78686]]}},{"type":"Feature","properties":{"shape_id":"{}","direction_id":"{\"0\": 50}","headsign":"{}","duration_avg":120,"n_vehicles":50,"d":1200,"route_I_counts":"{\"3\": 50, \"4\": 50}","source":51,"target":51,"layer":"L","from":"哈尔滨清真寺(地铁站)","to":"哈尔滨清真寺(地铁站)"},"geometry":{"type":"LineString","coordinates":[[126.64561,45.786225],[126.64561,45.786225]]}},{"type":"Feature","properties":{"shape_id":"{}","direction_id":"{\"0\": 50}","headsign":"{}","duration_avg":120,"n_vehicles":50,"d":1200,"route_I_counts":"{\"3\": 50, \"4\": 50}","source":51,"target":52,"layer":"L","from":"哈尔滨清真寺(地铁站)","to":"哈尔滨中华巴洛克街区(地铁站)"},"geometry":{"type":"LineString","coordinates":[[126.64561,45.786225],[126.636409,45.782436]]}},{"type":"Feature","properties":{"shape_id":"{}","direction_id":"{\"1\": 50}","headsign":"{}","duration_avg":120,"n_vehicles":50,"d":1200,"route_I_counts":"{\"3\": 50, \"4\": 50}","source":52,"target":51,"layer":"L","from":"哈尔滨中华巴洛克街区(地铁站)","to":"哈尔滨清真寺(地铁站)"},"geometry":{"type":"LineString","coordinates":[[126.636409,45.782436],[126.64561,45.786225]]}},{"type":"Feature","properties":{"shape_id":"{}","direction_id":"{\"0\": 50}","headsign":"{}","duration_avg":120,"n_vehicles":50,"d":1200,"route_I_counts":"{\"3\": 50, \"4\": 50}","source":52,"target":52,"layer":"L","from":"哈尔滨中华巴洛克街区(地铁站)","to":"哈尔滨中华巴洛克街区(地铁站)"},"geometry":{"type":"LineString","coordinates":[[126.636409,45.782436],[126.636409,45.782436]]}},{"type":"Feature","properties":{"shape_id":"{}","direction_id":"{\"0\": 50}","headsign":"{}","duration_avg":120,"n_vehicles":50,"d":1200,"route_I_counts":"{\"3\": 50, \"4\": 50}","source":52,"target":53,"layer":"L","from":"哈尔滨中华巴洛克街区(地铁站)","to":"哈尔滨北马路(地铁站)"},"geometry":{"type":"LineString","coordinates":[[126.636409,45.782436],[126.628448,45.778467]]}},{"type":"Feature","properties":{"shape_id":"{}","direction_id":"{\"1\": 50}","headsign":"{}","duration_avg":120,"n_vehicles":50,"d":1200,"route_I_counts":"{\"3\": 50, \"4\": 50}","source":53,"target":52,"layer":"L","from":"哈尔滨北马路(地铁站)","to":"哈尔滨中华巴洛克街区(地铁站)"},"geometry":{"type":"LineString","coordinates":[[126.628448,45.778467],[126.636409,45.782436]]}},{"type":"Feature","properties":{"shape_id":"{}","direction_id":"{\"0\": 50}","headsign":"{}","duration_avg":120,"n_vehicles":50,"d":1200,"route_I_counts":"{\"3\": 50, \"4\": 50}","source":53,"target":53,"layer":"L","from":"哈尔滨北马路(地铁站)","to":"哈尔滨北马路(地铁站)"},"geometry":{"type":"LineString","coordinates":[[126.628448,45.778467],[126.628448,45.778467]]}},{"type":"Feature","properties":{"shape_id":"{}","direction_id":"{\"0\": 50}","headsign":"{}","duration_avg":60,"n_vehicles":50,"d":600,"route_I_counts":"{\"3\": 50, \"4\": 50, \"5\": 50}","source":53,"target":54,"layer":"L","from":"哈尔滨北马路(地铁站)","to":"哈尔滨兆麟公园(地铁站)"},"geometry":{"type":"LineString","coordinates":[[126.628448,45.778467],[126.618199,45.777375]]}},{"type":"Feature","properties":{"shape_id":"{}","direction_id":"{\"1\": 50}","headsign":"{}","duration_avg":60,"n_vehicles":50,"d":600,"route_I_counts":"{\"3\": 50, \"4\": 50, \"5\": 50}","source":54,"target":53,"layer":"L","from":"哈尔滨兆麟公园(地铁站)","to":"哈尔滨北马路(地铁站)"},"geometry":{"type":"LineString","coordinates":[[126.618199,45.777375],[126.628448,45.778467]]}},{"type":"Feature","properties":{"shape_id":"{}","direction_id":"{\"0\": 50}","headsign":"{}","duration_avg":120,"n_vehicles":50,"d":1200,"route_I_counts":"{\"3\": 50, \"4\": 50}","source":54,"target":54,"layer":"L","from":"哈尔滨兆麟公园(地铁站)","to":"哈尔滨兆麟公园(地铁站)"},"geometry":{"type":"LineString","coordinates":[[126.618199,45.777375],[126.618199,45.777375]]}},{"type":"Feature","properties":{"shape_id":"{}","direction_id":"{\"0\": 50}","headsign":"{}","duration_avg":120,"n_vehicles":50,"d":1200,"route_I_counts":"{\"3\": 50, \"4\": 50, \"5\": 50}","source":54,"target":55,"layer":"L","from":"哈尔滨兆麟公园(地铁站)","to":"哈尔滨友谊宫(地铁站)"},"geometry":{"type":"LineString","coordinates":[[126.618199,45.777375],[126.606267,45.775091]]}},{"type":"Feature","properties":{"shape_id":"{}","direction_id":"{\"1\": 50}","headsign":"{}","duration_avg":120,"n_vehicles":50,"d":1200,"route_I_counts":"{\"3\": 50, \"4\": 50, \"5\": 50}","source":55,"target":54,"layer":"L","from":"哈尔滨友谊宫(地铁站)","to":"哈尔滨兆麟公园(地铁站)"},"geometry":{"type":"LineString","coordinates":[[126.606267,45.775091],[126.618199,45.777375]]}},{"type":"Feature","properties":{"shape_id":"{}","direction_id":"{\"0\": 50}","headsign":"{}","duration_avg":120,"n_vehicles":50,"d":1200,"route_I_counts":"{\"3\": 50, \"4\": 50}","source":55,"target":55,"layer":"L","from":"哈尔滨友谊宫(地铁站)","to":"哈尔滨友谊宫(地铁站)"},"geometry":{"type":"LineString","coordinates":[[126.606267,45.775091],[126.606267,45.775091]]}},{"type":"Feature","properties":{"shape_id":"{}","direction_id":"{\"0\": 50}","headsign":"{}","duration_avg":120,"n_vehicles":50,"d":1200,"route_I_counts":"{\"3\": 50, \"4\": 50, \"5\": 50}","source":55,"target":30,"layer":"L","from":"哈尔滨友谊宫(地铁站)","to":"哈尔滨人民广场(地铁站)"},"geometry":{"type":"LineString","coordinates":[[126.606267,45.775091],[126.599068,45.771101]]}},{"type":"Feature","properties":{"shape_id":"{}","direction_id":"{\"1\": 50}","headsign":"{}","duration_avg":120,"n_vehicles":50,"d":1200,"route_I_counts":"{\"3\": 50, \"4\": 50, \"5\": 50}","source":30,"target":55,"layer":"L","from":"哈尔滨人民广场(地铁站)","to":"哈尔滨友谊宫(地铁站)"},"geometry":{"type":"LineString","coordinates":[[126.599068,45.771101],[126.606267,45.775091]]}},{"type":"Feature","properties":{"shape_id":"{}","direction_id":"{\"0\": 50}","headsign":"{}","duration_avg":120,"n_vehicles":50,"d":1200,"route_I_counts":"{\"3\": 50, \"4\": 50}","source":30,"target":30,"layer":"L","from":"哈尔滨人民广场(地铁站)","to":"哈尔滨人民广场(地铁站)"},"geometry":{"type":"LineString","coordinates":[[126.599068,45.771101],[126.599068,45.771101]]}},{"type":"Feature","properties":{"shape_id":"{}","direction_id":"{\"0\": 50}","headsign":"{}","duration_avg":120,"n_vehicles":50,"d":1200,"route_I_counts":"{\"3\": 50, \"4\": 50, \"5\": 50}","source":30,"target":56,"layer":"L","from":"哈尔滨人民广场(地铁站)","to":"哈尔滨上海街(地铁站)"},"geometry":{"type":"LineString","coordinates":[[126.599068,45.771101],[126.591164,45.76377]]}},{"type":"Feature","properties":{"shape_id":"{}","direction_id":"{\"1\": 50}","headsign":"{}","duration_avg":120,"n_vehicles":50,"d":1200,"route_I_counts":"{\"3\": 50, \"4\": 50, \"5\": 50}","source":56,"target":30,"layer":"L","from":"哈尔滨上海街(地铁站)","to":"哈尔滨人民广场(地铁站)"},"geometry":{"type":"LineString","coordinates":[[126.591164,45.76377],[126.599068,45.771101]]}},{"type":"Feature","properties":{"shape_id":"{}","direction_id":"{\"0\": 50}","headsign":"{}","duration_avg":120,"n_vehicles":50,"d":1200,"route_I_counts":"{\"3\": 50, \"4\": 50}","source":56,"target":56,"layer":"L","from":"哈尔滨上海街(地铁站)","to":"哈尔滨上海街(地铁站)"},"geometry":{"type":"LineString","coordinates":[[126.591164,45.76377],[126.591164,45.76377]]}},{"type":"Feature","properties":{"shape_id":"{}","direction_id":"{\"0\": 50}","headsign":"{}","duration_avg":120,"n_vehicles":50,"d":1200,"route_I_counts":"{\"3\": 50, \"4\": 50, \"5\": 50}","source":56,"target":57,"layer":"L","from":"哈尔滨上海街(地铁站)","to":"哈尔滨公路大桥(地铁站)"},"geometry":{"type":"LineString","coordinates":[[126.591164,45.76377],[126.589684,45.756313]]}},{"type":"Feature","properties":{"shape_id":"{}","direction_id":"{\"1\": 50}","headsign":"{}","duration_avg":120,"n_vehicles":50,"d":1200,"route_I_counts":"{\"3\": 50, \"4\": 50, \"5\": 50}","source":57,"target":56,"layer":"L","from":"哈尔滨公路大桥(地铁站)","to":"哈尔滨上海街(地铁站)"},"geometry":{"type":"LineString","coordinates":[[126.589684,45.756313],[126.591164,45.76377]]}},{"type":"Feature","properties":{"shape_id":"{}","direction_id":"{\"0\": 50}","headsign":"{}","duration_avg":120,"n_vehicles":50,"d":1200,"route_I_counts":"{\"3\": 50, \"4\": 50}","source":57,"target":57,"layer":"L","from":"哈尔滨公路大桥(地铁站)","to":"哈尔滨公路大桥(地铁站)"},"geometry":{"type":"LineString","coordinates":[[126.589684,45.756313],[126.589684,45.756313]]}},{"type":"Feature","properties":{"shape_id":"{}","direction_id":"{\"0\": 50}","headsign":"{}","duration_avg":180,"n_vehicles":50,"d":1800,"route_I_counts":"{\"3\": 50, \"4\": 50}","source":57,"target":58,"layer":"L","from":"哈尔滨公路大桥(地铁站)","to":"哈尔滨河松街(地铁站)"},"geometry":{"type":"LineString","coordinates":[[126.589684,45.756313],[126.588024,45.747034]]}},{"type":"Feature","properties":{"shape_id":"{}","direction_id":"{\"1\": 50}","headsign":"{}","duration_avg":180,"n_vehicles":50,"d":1800,"route_I_counts":"{\"3\": 50, \"4\": 50}","source":58,"target":57,"layer":"L","from":"哈尔滨河松街(地铁站)","to":"哈尔滨公路大桥(地铁站)"},"geometry":{"type":"LineString","coordinates":[[126.588024,45.747034],[126.589684,45.756313]]}},{"type":"Feature","properties":{"shape_id":"{}","direction_id":"{\"0\": 50}","headsign":"{}","duration_avg":120,"n_vehicles":50,"d":1200,"route_I_counts":"{\"3\": 50, \"4\": 50}","source":58,"target":58,"layer":"L","from":"哈尔滨河松街(地铁站)","to":"哈尔滨河松街(地铁站)"},"geometry":{"type":"LineString","coordinates":[[126.588024,45.747034],[126.588024,45.747034]]}},{"type":"Feature","properties":{"shape_id":"{}","direction_id":"{\"0\": 50}","headsign":"{}","duration_avg":120,"n_vehicles":50,"d":1200,"route_I_counts":"{\"3\": 50, \"4\": 50}","source":58,"target":59,"layer":"L","from":"哈尔滨河松街(地铁站)","to":"哈尔滨河山街(地铁站)"},"geometry":{"type":"LineString","coordinates":[[126.588024,45.747034],[126.578538,45.741305]]}},{"type":"Feature","properties":{"shape_id":"{}","direction_id":"{\"1\": 50}","headsign":"{}","duration_avg":120,"n_vehicles":50,"d":1200,"route_I_counts":"{\"3\": 50, \"4\": 50}","source":59,"target":58,"layer":"L","from":"哈尔滨河山街(地铁站)","to":"哈尔滨河松街(地铁站)"},"geometry":{"type":"LineString","coordinates":[[126.578538,45.741305],[126.588024,45.747034]]}},{"type":"Feature","properties":{"shape_id":"{}","direction_id":"{\"0\": 50}","headsign":"{}","duration_avg":120,"n_vehicles":50,"d":1200,"route_I_counts":"{\"3\": 50, \"4\": 50}","source":59,"target":59,"layer":"L","from":"哈尔滨河山街(地铁站)","to":"哈尔滨河山街(地铁站)"},"geometry":{"type":"LineString","coordinates":[[126.578538,45.741305],[126.578538,45.741305]]}},{"type":"Feature","properties":{"shape_id":"{}","direction_id":"{\"0\": 50}","headsign":"{}","duration_avg":120,"n_vehicles":50,"d":1200,"route_I_counts":"{\"3\": 50, \"4\": 50}","source":59,"target":60,"layer":"L","from":"哈尔滨河山街(地铁站)","to":"哈尔滨丁香公园(地铁站)"},"geometry":{"type":"LineString","coordinates":[[126.578538,45.741305],[126.561957,45.739042]]}},{"type":"Feature","properties":{"shape_id":"{}","direction_id":"{\"1\": 50}","headsign":"{}","duration_avg":120,"n_vehicles":50,"d":1200,"route_I_counts":"{\"3\": 50, \"4\": 50}","source":60,"target":59,"layer":"L","from":"哈尔滨丁香公园(地铁站)","to":"哈尔滨河山街(地铁站)"},"geometry":{"type":"LineString","coordinates":[[126.561957,45.739042],[126.578538,45.741305]]}},{"type":"Feature","properties":{"shape_id":"{}","direction_id":"{\"0\": 50}","headsign":"{}","duration_avg":120,"n_vehicles":50,"d":1200,"route_I_counts":"{\"3\": 50, \"4\": 50}","source":60,"target":60,"layer":"L","from":"哈尔滨丁香公园(地铁站)","to":"哈尔滨丁香公园(地铁站)"},"geometry":{"type":"LineString","coordinates":[[126.561957,45.739042],[126.561957,45.739042]]}},{"type":"Feature","properties":{"shape_id":"{}","direction_id":"{\"0\": 50}","headsign":"{}","duration_avg":120,"n_vehicles":50,"d":1200,"route_I_counts":"{\"3\": 50, \"4\": 50}","source":60,"target":61,"layer":"L","from":"哈尔滨丁香公园(地铁站)","to":"哈尔滨体育公园(地铁站)"},"geometry":{"type":"LineString","coordinates":[[126.561957,45.739042],[126.544287,45.736666]]}},{"type":"Feature","properties":{"shape_id":"{}","direction_id":"{\"1\": 50}","headsign":"{}","duration_avg":120,"n_vehicles":50,"d":1200,"route_I_counts":"{\"3\": 50, \"4\": 50}","source":61,"target":60,"layer":"L","from":"哈尔滨体育公园(地铁站)","to":"哈尔滨丁香公园(地铁站)"},"geometry":{"type":"LineString","coordinates":[[126.544287,45.736666],[126.561957,45.739042]]}},{"type":"Feature","properties":{"shape_id":"{}","direction_id":"{\"0\": 50}","headsign":"{}","duration_avg":120,"n_vehicles":50,"d":1200,"route_I_counts":"{\"3\": 50, \"4\": 50}","source":61,"target":61,"layer":"L","from":"哈尔滨体育公园(地铁站)","to":"哈尔滨体育公园(地铁站)"},"geometry":{"type":"LineString","coordinates":[[126.544287,45.736666],[126.544287,45.736666]]}},{"type":"Feature","properties":{"shape_id":"{}","direction_id":"{\"0\": 50}","headsign":"{}","duration_avg":180,"n_vehicles":50,"d":1800,"route_I_counts":"{\"3\": 50, \"4\": 50}","source":61,"target":62,"layer":"L","from":"哈尔滨体育公园(地铁站)","to":"哈尔滨群力第五大道(地铁站)"},"geometry":{"type":"LineString","coordinates":[[126.544287,45.736666],[126.539431,45.728807]]}},{"type":"Feature","properties":{"shape_id":"{}","direction_id":"{\"1\": 50}","headsign":"{}","duration_avg":180,"n_vehicles":50,"d":1800,"route_I_counts":"{\"3\": 50, \"4\": 50}","source":62,"target":61,"layer":"L","from":"哈尔滨群力第五大道(地铁站)","to":"哈尔滨体育公园(地铁站)"},"geometry":{"type":"LineString","coordinates":[[126.539431,45.728807],[126.544287,45.736666]]}},{"type":"Feature","properties":{"shape_id":"{}","direction_id":"{\"0\": 50}","headsign":"{}","duration_avg":120,"n_vehicles":50,"d":1200,"route_I_counts":"{\"3\": 50, \"4\": 50}","source":62,"target":62,"layer":"L","from":"哈尔滨群力第五大道(地铁站)","to":"哈尔滨群力第五大道(地铁站)"},"geometry":{"type":"LineString","coordinates":[[126.539431,45.728807],[126.539431,45.728807]]}},{"type":"Feature","properties":{"shape_id":"{}","direction_id":"{\"0\": 50}","headsign":"{}","duration_avg":60,"n_vehicles":50,"d":600,"route_I_counts":"{\"3\": 50, \"4\": 50}","source":62,"target":63,"layer":"L","from":"哈尔滨群力第五大道(地铁站)","to":"哈尔滨医大一院群力院区(地铁站)"},"geometry":{"type":"LineString","coordinates":[[126.539431,45.728807],[126.545668,45.722604]]}},{"type":"Feature","properties":{"shape_id":"{}","direction_id":"{\"1\": 50}","headsign":"{}","duration_avg":60,"n_vehicles":50,"d":600,"route_I_counts":"{\"3\": 50, \"4\": 50}","source":63,"target":62,"layer":"L","from":"哈尔滨医大一院群力院区(地铁站)","to":"哈尔滨群力第五大道(地铁站)"},"geometry":{"type":"LineString","coordinates":[[126.545668,45.722604],[126.539431,45.728807]]}},{"type":"Feature","properties":{"shape_id":"{}","direction_id":"{\"0\": 50}","headsign":"{}","duration_avg":120,"n_vehicles":50,"d":1200,"route_I_counts":"{\"3\": 50, \"4\": 50}","source":63,"target":63,"layer":"L","from":"哈尔滨医大一院群力院区(地铁站)","to":"哈尔滨医大一院群力院区(地铁站)"},"geometry":{"type":"LineString","coordinates":[[126.545668,45.722604],[126.545668,45.722604]]}},{"type":"Feature","properties":{"shape_id":"{}","direction_id":"{\"0\": 50}","headsign":"{}","duration_avg":120,"n_vehicles":50,"d":1200,"route_I_counts":"{\"3\": 50, \"4\": 50}","source":63,"target":64,"layer":"L","from":"哈尔滨医大一院群力院区(地铁站)","to":"哈尔滨工农大街(地铁站)"},"geometry":{"type":"LineString","coordinates":[[126.545668,45.722604],[126.552689,45.716842]]}},{"type":"Feature","properties":{"shape_id":"{}","direction_id":"{\"1\": 50}","headsign":"{}","duration_avg":120,"n_vehicles":50,"d":1200,"route_I_counts":"{\"3\": 50, \"4\": 50}","source":64,"target":63,"layer":"L","from":"哈尔滨工农大街(地铁站)","to":"哈尔滨医大一院群力院区(地铁站)"},"geometry":{"type":"LineString","coordinates":[[126.552689,45.716842],[126.545668,45.722604]]}},{"type":"Feature","properties":{"shape_id":"{}","direction_id":"{\"0\": 50}","headsign":"{}","duration_avg":120,"n_vehicles":50,"d":1200,"route_I_counts":"{\"3\": 50, \"4\": 50}","source":64,"target":64,"layer":"L","from":"哈尔滨工农大街(地铁站)","to":"哈尔滨工农大街(地铁站)"},"geometry":{"type":"LineString","coordinates":[[126.552689,45.716842],[126.552689,45.716842]]}},{"type":"Feature","properties":{"shape_id":"{}","direction_id":"{\"0\": 50}","headsign":"{}","duration_avg":120,"n_vehicles":50,"d":1200,"route_I_counts":"{\"3\": 50, \"4\": 50}","source":64,"target":65,"layer":"L","from":"哈尔滨工农大街(地铁站)","to":"哈尔滨城乡路(地铁站)"},"geometry":{"type":"LineString","coordinates":[[126.552689,45.716842],[126.561614,45.710087]]}},{"type":"Feature","properties":{"shape_id":"{}","direction_id":"{\"1\": 50}","headsign":"{}","duration_avg":120,"n_vehicles":50,"d":1200,"route_I_counts":"{\"3\": 50, \"4\": 50}","source":65,"target":64,"layer":"L","from":"哈尔滨城乡路(地铁站)","to":"哈尔滨工农大街(地铁站)"},"geometry":{"type":"LineString","coordinates":[[126.561614,45.710087],[126.552689,45.716842]]}},{"type":"Feature","properties":{"shape_id":"{}","direction_id":"{\"0\": 50}","headsign":"{}","duration_avg":120,"n_vehicles":50,"d":1200,"route_I_counts":"{\"3\": 50, \"4\": 50}","source":65,"target":65,"layer":"L","from":"哈尔滨城乡路(地铁站)","to":"哈尔滨城乡路(地铁站)"},"geometry":{"type":"LineString","coordinates":[[126.561614,45.710087],[126.561614,45.710087]]}},{"type":"Feature","properties":{"shape_id":"{}","direction_id":"{\"0\": 50}","headsign":"{}","duration_avg":120,"n_vehicles":50,"d":1200,"route_I_counts":"{\"3\": 50, \"4\": 50}","source":65,"target":66,"layer":"L","from":"哈尔滨城乡路(地铁站)","to":"哈尔滨哈尔滨西站(地铁站)"},"geometry":{"type":"LineString","coordinates":[[126.561614,45.710087],[126.573287,45.704347]]}},{"type":"Feature","properties":{"shape_id":"{}","direction_id":"{\"1\": 50}","headsign":"{}","duration_avg":120,"n_vehicles":50,"d":1200,"route_I_counts":"{\"3\": 50, \"4\": 50}","source":66,"target":65,"layer":"L","from":"哈尔滨哈尔滨西站(地铁站)","to":"哈尔滨城乡路(地铁站)"},"geometry":{"type":"LineString","coordinates":[[126.573287,45.704347],[126.561614,45.710087]]}},{"type":"Feature","properties":{"shape_id":"{}","direction_id":"{\"0\": 50}","headsign":"{}","duration_avg":120,"n_vehicles":50,"d":1200,"route_I_counts":"{\"3\": 50, \"4\": 50}","source":66,"target":66,"layer":"L","from":"哈尔滨哈尔滨西站(地铁站)","to":"哈尔滨哈尔滨西站(地铁站)"},"geometry":{"type":"LineString","coordinates":[[126.573287,45.704347],[126.573287,45.704347]]}},{"type":"Feature","properties":{"shape_id":"{}","direction_id":"{\"0\": 50}","headsign":"{}","duration_avg":120,"n_vehicles":50,"d":1200,"route_I_counts":"{\"3\": 50, \"4\": 50}","source":66,"target":67,"layer":"L","from":"哈尔滨哈尔滨西站(地铁站)","to":"哈尔滨凯盛源广场(地铁站)"},"geometry":{"type":"LineString","coordinates":[[126.573287,45.704347],[126.579413,45.699355]]}},{"type":"Feature","properties":{"shape_id":"{}","direction_id":"{\"1\": 50}","headsign":"{}","duration_avg":120,"n_vehicles":50,"d":1200,"route_I_counts":"{\"3\": 50, \"4\": 50}","source":67,"target":66,"layer":"L","from":"哈尔滨凯盛源广场(地铁站)","to":"哈尔滨哈尔滨西站(地铁站)"},"geometry":{"type":"LineString","coordinates":[[126.579413,45.699355],[126.573287,45.704347]]}},{"type":"Feature","properties":{"shape_id":"{}","direction_id":"{\"0\": 50}","headsign":"{}","duration_avg":120,"n_vehicles":50,"d":1200,"route_I_counts":"{\"3\": 50, \"4\": 50}","source":67,"target":67,"layer":"L","from":"哈尔滨凯盛源广场(地铁站)","to":"哈尔滨凯盛源广场(地铁站)"},"geometry":{"type":"LineString","coordinates":[[126.579413,45.699355],[126.579413,45.699355]]}},{"type":"Feature","properties":{"shape_id":"{}","direction_id":"{\"0\": 50}","headsign":"{}","duration_avg":120,"n_vehicles":50,"d":1200,"route_I_counts":"{\"3\": 50, \"4\": 50}","source":67,"target":68,"layer":"L","from":"哈尔滨凯盛源广场(地铁站)","to":"哈尔滨哈西大街(地铁站)"},"geometry":{"type":"LineString","coordinates":[[126.579413,45.699355],[126.590966,45.693735]]}},{"type":"Feature","properties":{"shape_id":"{}","direction_id":"{\"1\": 50}","headsign":"{}","duration_avg":120,"n_vehicles":50,"d":1200,"route_I_counts":"{\"3\": 50, \"4\": 50}","source":68,"target":67,"layer":"L","from":"哈尔滨哈西大街(地铁站)","to":"哈尔滨凯盛源广场(地铁站)"},"geometry":{"type":"LineString","coordinates":[[126.590966,45.693735],[126.579413,45.699355]]}},{"type":"Feature","properties":{"shape_id":"{}","direction_id":"{\"0\": 50}","headsign":"{}","duration_avg":120,"n_vehicles":50,"d":1200,"route_I_counts":"{\"3\": 50, \"4\": 50}","source":68,"target":68,"layer":"L","from":"哈尔滨哈西大街(地铁站)","to":"哈尔滨哈西大街(地铁站)"},"geometry":{"type":"LineString","coordinates":[[126.590966,45.693735],[126.590966,45.693735]]}},{"type":"Feature","properties":{"shape_id":"{}","direction_id":"{\"0\": 50}","headsign":"{}","duration_avg":180,"n_vehicles":50,"d":1800,"route_I_counts":"{\"3\": 50, \"4\": 50}","source":68,"target":15,"layer":"L","from":"哈尔滨哈西大街(地铁站)","to":"哈尔滨医大二院(地铁站)"},"geometry":{"type":"LineString","coordinates":[[126.590966,45.693735],[126.609783,45.695557]]}},{"type":"Feature","properties":{"shape_id":"{}","direction_id":"{\"1\": 50}","headsign":"{}","duration_avg":180,"n_vehicles":50,"d":1800,"route_I_counts":"{\"3\": 50, \"4\": 50}","source":15,"target":68,"layer":"L","from":"哈尔滨医大二院(地铁站)","to":"哈尔滨哈西大街(地铁站)"},"geometry":{"type":"LineString","coordinates":[[126.609783,45.695557],[126.590966,45.693735]]}},{"type":"Feature","properties":{"shape_id":"{}","direction_id":"{\"0\": 50}","headsign":"{}","duration_avg":120,"n_vehicles":50,"d":1200,"route_I_counts":"{\"3\": 50, \"4\": 50}","source":15,"target":15,"layer":"L","from":"哈尔滨医大二院(地铁站)","to":"哈尔滨医大二院(地铁站)"},"geometry":{"type":"LineString","coordinates":[[126.609783,45.695557],[126.609783,45.695557]]}},{"type":"Feature","properties":{"shape_id":"{}","direction_id":"{\"0\": 50}","headsign":"{}","duration_avg":120,"n_vehicles":50,"d":1200,"route_I_counts":"{\"3\": 50, \"4\": 50}","source":15,"target":69,"layer":"L","from":"哈尔滨医大二院(地铁站)","to":"哈尔滨征仪路(地铁站)"},"geometry":{"type":"LineString","coordinates":[[126.609783,45.695557],[126.628492,45.697589]]}},{"type":"Feature","properties":{"shape_id":"{}","direction_id":"{\"1\": 50}","headsign":"{}","duration_avg":120,"n_vehicles":50,"d":1200,"route_I_counts":"{\"3\": 50, \"4\": 50}","source":69,"target":15,"layer":"L","from":"哈尔滨征仪路(地铁站)","to":"哈尔滨医大二院(地铁站)"},"geometry":{"type":"LineString","coordinates":[[126.628492,45.697589],[126.609783,45.695557]]}},{"type":"Feature","properties":{"shape_id":"{}","direction_id":"{\"0\": 50}","headsign":"{}","duration_avg":120,"n_vehicles":50,"d":1200,"route_I_counts":"{\"3\": 50, \"4\": 50}","source":69,"target":69,"layer":"L","from":"哈尔滨征仪路(地铁站)","to":"哈尔滨征仪路(地铁站)"},"geometry":{"type":"LineString","coordinates":[[126.628492,45.697589],[126.628492,45.697589]]}},{"type":"Feature","properties":{"shape_id":"{}","direction_id":"{\"0\": 50}","headsign":"{}","duration_avg":120,"n_vehicles":50,"d":1200,"route_I_counts":"{\"3\": 50, \"4\": 50}","source":69,"target":70,"layer":"L","from":"哈尔滨征仪路(地铁站)","to":"哈尔滨肿瘤医院(地铁站)"},"geometry":{"type":"LineString","coordinates":[[126.628492,45.697589],[126.63719,45.698488]]}},{"type":"Feature","properties":{"shape_id":"{}","direction_id":"{\"1\": 50}","headsign":"{}","duration_avg":120,"n_vehicles":50,"d":1200,"route_I_counts":"{\"3\": 50, \"4\": 50}","source":70,"target":69,"layer":"L","from":"哈尔滨肿瘤医院(地铁站)","to":"哈尔滨征仪路(地铁站)"},"geometry":{"type":"LineString","coordinates":[[126.63719,45.698488],[126.628492,45.697589]]}},{"type":"Feature","properties":{"shape_id":"{}","direction_id":"{\"0\": 50}","headsign":"{}","duration_avg":120,"n_vehicles":50,"d":1200,"route_I_counts":"{\"3\": 50, \"4\": 50}","source":70,"target":70,"layer":"L","from":"哈尔滨肿瘤医院(地铁站)","to":"哈尔滨肿瘤医院(地铁站)"},"geometry":{"type":"LineString","coordinates":[[126.63719,45.698488],[126.63719,45.698488]]}},{"type":"Feature","properties":{"shape_id":"{}","direction_id":"{\"0\": 50}","headsign":"{}","duration_avg":120,"n_vehicles":50,"d":1200,"route_I_counts":"{\"3\": 50, \"4\": 50}","source":70,"target":71,"layer":"L","from":"哈尔滨肿瘤医院(地铁站)","to":"哈尔滨旭升街(地铁站)"},"geometry":{"type":"LineString","coordinates":[[126.63719,45.698488],[126.658075,45.700393]]}},{"type":"Feature","properties":{"shape_id":"{}","direction_id":"{\"1\": 50}","headsign":"{}","duration_avg":120,"n_vehicles":50,"d":1200,"route_I_counts":"{\"3\": 50, \"4\": 50}","source":71,"target":70,"layer":"L","from":"哈尔滨旭升街(地铁站)","to":"哈尔滨肿瘤医院(地铁站)"},"geometry":{"type":"LineString","coordinates":[[126.658075,45.700393],[126.63719,45.698488]]}},{"type":"Feature","properties":{"shape_id":"{}","direction_id":"{\"0\": 50}","headsign":"{}","duration_avg":120,"n_vehicles":50,"d":1200,"route_I_counts":"{\"3\": 50, \"4\": 50}","source":71,"target":71,"layer":"L","from":"哈尔滨旭升街(地铁站)","to":"哈尔滨旭升街(地铁站)"},"geometry":{"type":"LineString","coordinates":[[126.658075,45.700393],[126.658075,45.700393]]}},{"type":"Feature","properties":{"shape_id":"{}","direction_id":"{\"0\": 50}","headsign":"{}","duration_avg":120,"n_vehicles":50,"d":1200,"route_I_counts":"{\"3\": 50, \"4\": 50}","source":71,"target":72,"layer":"L","from":"哈尔滨旭升街(地铁站)","to":"哈尔滨劳动公园(地铁站)"},"geometry":{"type":"LineString","coordinates":[[126.658075,45.700393],[126.669122,45.698942]]}},{"type":"Feature","properties":{"shape_id":"{}","direction_id":"{\"1\": 50}","headsign":"{}","duration_avg":120,"n_vehicles":50,"d":1200,"route_I_counts":"{\"3\": 50, \"4\": 50}","source":72,"target":71,"layer":"L","from":"哈尔滨劳动公园(地铁站)","to":"哈尔滨旭升街(地铁站)"},"geometry":{"type":"LineString","coordinates":[[126.669122,45.698942],[126.658075,45.700393]]}},{"type":"Feature","properties":{"shape_id":"{}","direction_id":"{\"0\": 50}","headsign":"{}","duration_avg":120,"n_vehicles":50,"d":1200,"route_I_counts":"{\"3\": 50, \"4\": 50}","source":72,"target":72,"layer":"L","from":"哈尔滨劳动公园(地铁站)","to":"哈尔滨劳动公园(地铁站)"},"geometry":{"type":"LineString","coordinates":[[126.669122,45.698942],[126.669122,45.698942]]}},{"type":"Feature","properties":{"shape_id":"{}","direction_id":"{\"0\": 50}","headsign":"{}","duration_avg":120,"n_vehicles":50,"d":1200,"route_I_counts":"{\"3\": 50, \"4\": 50}","source":72,"target":41,"layer":"L","from":"哈尔滨劳动公园(地铁站)","to":"哈尔滨进乡街(地铁站)"},"geometry":{"type":"LineString","coordinates":[[126.669122,45.698942],[126.680204,45.70268]]}},{"type":"Feature","properties":{"shape_id":"{}","direction_id":"{\"1\": 50}","headsign":"{}","duration_avg":120,"n_vehicles":50,"d":1200,"route_I_counts":"{\"3\": 50, \"4\": 50}","source":41,"target":72,"layer":"L","from":"哈尔滨进乡街(地铁站)","to":"哈尔滨劳动公园(地铁站)"},"geometry":{"type":"LineString","coordinates":[[126.680204,45.70268],[126.669122,45.698942]]}}]}