{"type":"FeatureCollection","features":[{"type":"Feature","geometry":{"type":"Point","coordinates":[111.568354,40.783609]},"properties":{"name":"呼和浩特伊利健康谷(地铁站)","original_ids":"[1]","id":0,"layer":"stop"}},{"type":"Feature","geometry":{"type":"Point","coordinates":[111.58546,40.793814]},"properties":{"name":"呼和浩特西二环路(地铁站)","original_ids":"[2]","id":1,"layer":"stop"}},{"type":"Feature","geometry":{"type":"Point","coordinates":[111.597998,40.798683]},"properties":{"name":"呼和浩特孔家营(地铁站)","original_ids":"[3]","id":2,"layer":"stop"}},{"type":"Feature","geometry":{"type":"Point","coordinates":[111.610128,40.803731]},"properties":{"name":"呼和浩特呼钢南路(地铁站)","original_ids":"[4]","id":3,"layer":"stop"}},{"type":"Feature","geometry":{"type":"Point","coordinates":[111.625283,40.810044]},"properties":{"name":"呼和浩特西龙王庙(地铁站)","original_ids":"[5]","id":4,"layer":"stop"}},{"type":"Feature","geometry":{"type":"Point","coordinates":[111.634872,40.814115]},"properties":{"name":"呼和浩特乌兰夫纪念馆(地铁站)","original_ids":"[6]","id":5,"layer":"stop"}},{"type":"Feature","geometry":{"type":"Point","coordinates":[111.648824,40.81758]},"properties":{"name":"呼和浩特附属医院(地铁站)","original_ids":"[7]","id":6,"layer":"stop"}},{"type":"Feature","geometry":{"type":"Point","coordinates":[111.660932,40.820176]},"properties":{"name":"呼和浩特新华广场(地铁站)","original_ids":"[8]","id":7,"layer":"stop"}},{"type":"Feature","geometry":{"type":"Point","coordinates":[111.669447,40.822]},"properties":{"name":"呼和浩特人民会堂(地铁站)","original_ids":"[9]","id":8,"layer":"stop"}},{"type":"Feature","geometry":{"type":"Point","coordinates":[111.683177,40.824972]},"properties":{"name":"呼和浩特将军衙署(地铁站)","original_ids":"[10]","id":9,"layer":"stop"}},{"type":"Feature","geometry":{"type":"Point","coordinates":[111.692857,40.827513]},"properties":{"name":"呼和浩特艺术学院(地铁站)","original_ids":"[11]","id":10,"layer":"stop"}},{"type":"Feature","geometry":{"type":"Point","coordinates":[111.701996,40.829582]},"properties":{"name":"呼和浩特东影路(地铁站)","original_ids":"[12]","id":11,"layer":"stop"}},{"type":"Feature","geometry":{"type":"Point","coordinates":[111.7136,40.832143]},"properties":{"name":"呼和浩特内蒙古展览馆(地铁站)","original_ids":"[13]","id":12,"layer":"stop"}},{"type":"Feature","geometry":{"type":"Point","coordinates":[111.724959,40.834636]},"properties":{"name":"呼和浩特内蒙古博物院(地铁站)","original_ids":"[14]","id":13,"layer":"stop"}},{"type":"Feature","geometry":{"type":"Point","coordinates":[111.740347,40.838018]},"properties":{"name":"呼和浩特市政府(地铁站)","original_ids":"[15]","id":14,"layer":"stop"}},{"type":"Feature","geometry":{"type":"Point","coordinates":[111.760212,40.845956]},"properties":{"name":"呼和浩特呼和浩特东站(地铁站)","original_ids":"[16]","id":15,"layer":"stop"}},{"type":"Feature","geometry":{"type":"Point","coordinates":[111.774509,40.846868]},"properties":{"name":"呼和浩特后不塔气(地铁站)","original_ids":"[17]","id":16,"layer":"stop"}},{"type":"Feature","geometry":{"type":"Point","coordinates":[111.793813,40.850793]},"properties":{"name":"呼和浩特什兰岱(地铁站)","original_ids":"[18]","id":17,"layer":"stop"}},{"type":"Feature","geometry":{"type":"Point","coordinates":[111.804915,40.853377]},"properties":{"name":"呼和浩特白塔西(地铁站)","original_ids":"[19]","id":18,"layer":"stop"}},{"type":"Feature","geometry":{"type":"Point","coordinates":[111.817748,40.856354]},"properties":{"name":"呼和浩特坝堰(机场)(地铁站)","original_ids":"[20]","id":19,"layer":"stop"}},{"type":"Feature","geometry":{"type":"Point","coordinates":[111.770244,40.868006]},"properties":{"name":"呼和浩特塔利东路(地铁站)","original_ids":"[21]","id":20,"layer":"stop"}},{"type":"Feature","geometry":{"type":"Point","coordinates":[111.758958,40.865894]},"properties":{"name":"呼和浩特新店(地铁站)","original_ids":"[22]","id":21,"layer":"stop"}},{"type":"Feature","geometry":{"type":"Point","coordinates":[111.751725,40.863773]},"properties":{"name":"呼和浩特百合路(地铁站)","original_ids":"[23]","id":22,"layer":"stop"}},{"type":"Feature","geometry":{"type":"Point","coordinates":[111.740271,40.861143]},"properties":{"name":"呼和浩特北山公园(地铁站)","original_ids":"[24]","id":23,"layer":"stop"}},{"type":"Feature","geometry":{"type":"Point","coordinates":[111.725516,40.857598]},"properties":{"name":"呼和浩特丝绸之路大道(地铁站)","original_ids":"[25]","id":24,"layer":"stop"}},{"type":"Feature","geometry":{"type":"Point","coordinates":[111.711685,40.857985]},"properties":{"name":"呼和浩特一家村(地铁站)","original_ids":"[26]","id":25,"layer":"stop"}},{"type":"Feature","geometry":{"type":"Point","coordinates":[111.697884,40.86014]},"properties":{"name":"呼和浩特成吉思汗公园(地铁站)","original_ids":"[27]","id":26,"layer":"stop"}},{"type":"Feature","geometry":{"type":"Point","coordinates":[111.683852,40.857995]},"properties":{"name":"呼和浩特毫沁营(地铁站)","original_ids":"[28]","id":27,"layer":"stop"}},{"type":"Feature","geometry":{"type":"Point","coordinates":[111.669487,40.856151]},"properties":{"name":"呼和浩特成吉思汗广场(地铁站)","original_ids":"[29]","id":28,"layer":"stop"}},{"type":"Feature","geometry":{"type":"Point","coordinates":[111.657461,40.85464]},"properties":{"name":"呼和浩特内蒙古体育馆(地铁站)","original_ids":"[30]","id":29,"layer":"stop"}},{"type":"Feature","geometry":{"type":"Point","coordinates":[111.649297,40.848829]},"properties":{"name":"呼和浩特呼和浩特体育场(地铁站)","original_ids":"[31]","id":30,"layer":"stop"}},{"type":"Feature","geometry":{"type":"Point","coordinates":[111.655485,40.83444]},"properties":{"name":"呼和浩特公主府(地铁站)","original_ids":"[32]","id":31,"layer":"stop"}},{"type":"Feature","geometry":{"type":"Point","coordinates":[111.658901,40.828172]},"properties":{"name":"呼和浩特呼和浩特站(地铁站)","original_ids":"[33]","id":32,"layer":"stop"}},{"type":"Feature","geometry":{"type":"Point","coordinates":[111.664208,40.813974]},"properties":{"name":"呼和浩特中山路(地铁站)","original_ids":"[34]","id":33,"layer":"stop"}},{"type":"Feature","geometry":{"type":"Point","coordinates":[111.668866,40.804682]},"properties":{"name":"呼和浩特大学西街(地铁站)","original_ids":"[35]","id":34,"layer":"stop"}},{"type":"Feature","geometry":{"type":"Point","coordinates":[111.672773,40.797216]},"properties":{"name":"呼和浩特诺和木勒(地铁站)","original_ids":"[36]","id":35,"layer":"stop"}},{"type":"Feature","geometry":{"type":"Point","coordinates":[111.674539,40.785065]},"properties":{"name":"呼和浩特水上公园(地铁站)","original_ids":"[37]","id":36,"layer":"stop"}},{"type":"Feature","geometry":{"type":"Point","coordinates":[111.678102,40.776074]},"properties":{"name":"呼和浩特五里营(地铁站)","original_ids":"[38]","id":37,"layer":"stop"}},{"type":"Feature","geometry":{"type":"Point","coordinates":[111.680644,40.769558]},"properties":{"name":"呼和浩特锡林公园(地铁站)","original_ids":"[39]","id":38,"layer":"stop"}},{"type":"Feature","geometry":{"type":"Point","coordinates":[111.685634,40.757821]},"properties":{"name":"呼和浩特内大南校区(地铁站)","original_ids":"[40]","id":39,"layer":"stop"}},{"type":"Feature","geometry":{"type":"Point","coordinates":[111.700122,40.754259]},"properties":{"name":"呼和浩特帅家营(地铁站)","original_ids":"[41]","id":40,"layer":"stop"}},{"type":"Feature","geometry":{"type":"Point","coordinates":[111.724439,40.754311]},"properties":{"name":"呼和浩特喇嘛营(地铁站)","original_ids":"[42]","id":41,"layer":"stop"}},{"type":"Feature","geometry":{"type":"Point","coordinates":[111.740911,40.754086]},"properties":{"name":"呼和浩特阿尔山路(地铁站)","original_ids":"[43]","id":42,"layer":"stop"}},{"type":"Feature","properties":{"shape_id":"{}","direction_id":"{\"0\": 50}","headsign":"{}","duration_avg":240,"n_vehicles":50,"d":2400,"route_I_counts":"{\"1\": 50}","source":0,"target":1,"layer":"L","from":"呼和浩特伊利健康谷(地铁站)","to":"呼和浩特西二环路(地铁站)"},"geometry":{"type":"LineString","coordinates":[[111.568354,40.783609],[111.58546,40.793814]]}},{"type":"Feature","properties":{"shape_id":"{}","direction_id":"{\"1\": 50}","headsign":"{}","duration_avg":240,"n_vehicles":50,"d":2400,"route_I_counts":"{\"1\": 50}","source":1,"target":0,"layer":"L","from":"呼和浩特西二环路(地铁站)","to":"呼和浩特伊利健康谷(地铁站)"},"geometry":{"type":"LineString","coordinates":[[111.58546,40.793814],[111.568354,40.783609]]}},{"type":"Feature","properties":{"shape_id":"{}","direction_id":"{\"0\": 50}","headsign":"{}","duration_avg":120,"n_vehicles":50,"d":1200,"route_I_counts":"{\"1\": 50}","source":1,"target":2,"layer":"L","from":"呼和浩特西二环路(地铁站)","to":"呼和浩特孔家营(地铁站)"},"geometry":{"type":"LineString","coordinates":[[111.58546,40.793814],[111.597998,40.798683]]}},{"type":"Feature","properties":{"shape_id":"{}","direction_id":"{\"1\": 50}","headsign":"{}","duration_avg":120,"n_vehicles":50,"d":1200,"route_I_counts":"{\"1\": 50}","source":2,"target":1,"layer":"L","from":"呼和浩特孔家营(地铁站)","to":"呼和浩特西二环路(地铁站)"},"geometry":{"type":"LineString","coordinates":[[111.597998,40.798683],[111.58546,40.793814]]}},{"type":"Feature","properties":{"shape_id":"{}","direction_id":"{\"0\": 50}","headsign":"{}","duration_avg":120,"n_vehicles":50,"d":1200,"route_I_counts":"{\"1\": 50}","source":2,"target":3,"layer":"L","from":"呼和浩特孔家营(地铁站)","to":"呼和浩特呼钢南路(地铁站)"},"geometry":{"type":"LineString","coordinates":[[111.597998,40.798683],[111.610128,40.803731]]}},{"type":"Feature","properties":{"shape_id":"{}","direction_id":"{\"1\": 50}","headsign":"{}","duration_avg":120,"n_vehicles":50,"d":1200,"route_I_counts":"{\"1\": 50}","source":3,"target":2,"layer":"L","from":"呼和浩特呼钢南路(地铁站)","to":"呼和浩特孔家营(地铁站)"},"geometry":{"type":"LineString","coordinates":[[111.610128,40.803731],[111.597998,40.798683]]}},{"type":"Feature","properties":{"shape_id":"{}","direction_id":"{\"0\": 50}","headsign":"{}","duration_avg":120,"n_vehicles":50,"d":1200,"route_I_counts":"{\"1\": 50}","source":3,"target":4,"layer":"L","from":"呼和浩特呼钢南路(地铁站)","to":"呼和浩特西龙王庙(地铁站)"},"geometry":{"type":"LineString","coordinates":[[111.610128,40.803731],[111.625283,40.810044]]}},{"type":"Feature","properties":{"shape_id":"{}","direction_id":"{\"1\": 50}","headsign":"{}","duration_avg":120,"n_vehicles":50,"d":1200,"route_I_counts":"{\"1\": 50}","source":4,"target":3,"layer":"L","from":"呼和浩特西龙王庙(地铁站)","to":"呼和浩特呼钢南路(地铁站)"},"geometry":{"type":"LineString","coordinates":[[111.625283,40.810044],[111.610128,40.803731]]}},{"type":"Feature","properties":{"shape_id":"{}","direction_id":"{\"0\": 50}","headsign":"{}","duration_avg":120,"n_vehicles":50,"d":1200,"route_I_counts":"{\"1\": 50}","source":4,"target":5,"layer":"L","from":"呼和浩特西龙王庙(地铁站)","to":"呼和浩特乌兰夫纪念馆(地铁站)"},"geometry":{"type":"LineString","coordinates":[[111.625283,40.810044],[111.634872,40.814115]]}},{"type":"Feature","properties":{"shape_id":"{}","direction_id":"{\"1\": 50}","headsign":"{}","duration_avg":120,"n_vehicles":50,"d":1200,"route_I_counts":"{\"1\": 50}","source":5,"target":4,"layer":"L","from":"呼和浩特乌兰夫纪念馆(地铁站)","to":"呼和浩特西龙王庙(地铁站)"},"geometry":{"type":"LineString","coordinates":[[111.634872,40.814115],[111.625283,40.810044]]}},{"type":"Feature","properties":{"shape_id":"{}","direction_id":"{\"0\": 50}","headsign":"{}","duration_avg":120,"n_vehicles":50,"d":1200,"route_I_counts":"{\"1\": 50}","source":5,"target":6,"layer":"L","from":"呼和浩特乌兰夫纪念馆(地铁站)","to":"呼和浩特附属医院(地铁站)"},"geometry":{"type":"LineString","coordinates":[[111.634872,40.814115],[111.648824,40.81758]]}},{"type":"Feature","properties":{"shape_id":"{}","direction_id":"{\"1\": 50}","headsign":"{}","duration_avg":120,"n_vehicles":50,"d":1200,"route_I_counts":"{\"1\": 50}","source":6,"target":5,"layer":"L","from":"呼和浩特附属医院(地铁站)","to":"呼和浩特乌兰夫纪念馆(地铁站)"},"geometry":{"type":"LineString","coordinates":[[111.648824,40.81758],[111.634872,40.814115]]}},{"type":"Feature","properties":{"shape_id":"{}","direction_id":"{\"0\": 50}","headsign":"{}","duration_avg":180,"n_vehicles":50,"d":1800,"route_I_counts":"{\"1\": 50}","source":6,"target":7,"layer":"L","from":"呼和浩特附属医院(地铁站)","to":"呼和浩特新华广场(地铁站)"},"geometry":{"type":"LineString","coordinates":[[111.648824,40.81758],[111.660932,40.820176]]}},{"type":"Feature","properties":{"shape_id":"{}","direction_id":"{\"1\": 50}","headsign":"{}","duration_avg":180,"n_vehicles":50,"d":1800,"route_I_counts":"{\"1\": 50}","source":7,"target":6,"layer":"L","from":"呼和浩特新华广场(地铁站)","to":"呼和浩特附属医院(地铁站)"},"geometry":{"type":"LineString","coordinates":[[111.660932,40.820176],[111.648824,40.81758]]}},{"type":"Feature","properties":{"shape_id":"{}","direction_id":"{\"0\": 50}","headsign":"{}","duration_avg":60,"n_vehicles":50,"d":600,"route_I_counts":"{\"1\": 50}","source":7,"target":8,"layer":"L","from":"呼和浩特新华广场(地铁站)","to":"呼和浩特人民会堂(地铁站)"},"geometry":{"type":"LineString","coordinates":[[111.660932,40.820176],[111.669447,40.822]]}},{"type":"Feature","properties":{"shape_id":"{}","direction_id":"{\"1\": 50}","headsign":"{}","duration_avg":60,"n_vehicles":50,"d":600,"route_I_counts":"{\"1\": 50}","source":8,"target":7,"layer":"L","from":"呼和浩特人民会堂(地铁站)","to":"呼和浩特新华广场(地铁站)"},"geometry":{"type":"LineString","coordinates":[[111.669447,40.822],[111.660932,40.820176]]}},{"type":"Feature","properties":{"shape_id":"{}","direction_id":"{\"0\": 50}","headsign":"{}","duration_avg":120,"n_vehicles":50,"d":1200,"route_I_counts":"{\"1\": 50}","source":8,"target":9,"layer":"L","from":"呼和浩特人民会堂(地铁站)","to":"呼和浩特将军衙署(地铁站)"},"geometry":{"type":"LineString","coordinates":[[111.669447,40.822],[111.683177,40.824972]]}},{"type":"Feature","properties":{"shape_id":"{}","direction_id":"{\"1\": 50}","headsign":"{}","duration_avg":120,"n_vehicles":50,"d":1200,"route_I_counts":"{\"1\": 50}","source":9,"target":8,"layer":"L","from":"呼和浩特将军衙署(地铁站)","to":"呼和浩特人民会堂(地铁站)"},"geometry":{"type":"LineString","coordinates":[[111.683177,40.824972],[111.669447,40.822]]}},{"type":"Feature","properties":{"shape_id":"{}","direction_id":"{\"0\": 50}","headsign":"{}","duration_avg":120,"n_vehicles":50,"d":1200,"route_I_counts":"{\"1\": 50}","source":9,"target":10,"layer":"L","from":"呼和浩特将军衙署(地铁站)","to":"呼和浩特艺术学院(地铁站)"},"geometry":{"type":"LineString","coordinates":[[111.683177,40.824972],[111.692857,40.827513]]}},{"type":"Feature","properties":{"shape_id":"{}","direction_id":"{\"1\": 50}","headsign":"{}","duration_avg":120,"n_vehicles":50,"d":1200,"route_I_counts":"{\"1\": 50}","source":10,"target":9,"layer":"L","from":"呼和浩特艺术学院(地铁站)","to":"呼和浩特将军衙署(地铁站)"},"geometry":{"type":"LineString","coordinates":[[111.692857,40.827513],[111.683177,40.824972]]}},{"type":"Feature","properties":{"shape_id":"{}","direction_id":"{\"0\": 50}","headsign":"{}","duration_avg":120,"n_vehicles":50,"d":1200,"route_I_counts":"{\"1\": 50}","source":10,"target":11,"layer":"L","from":"呼和浩特艺术学院(地铁站)","to":"呼和浩特东影路(地铁站)"},"geometry":{"type":"LineString","coordinates":[[111.692857,40.827513],[111.701996,40.829582]]}},{"type":"Feature","properties":{"shape_id":"{}","direction_id":"{\"1\": 50}","headsign":"{}","duration_avg":120,"n_vehicles":50,"d":1200,"route_I_counts":"{\"1\": 50}","source":11,"target":10,"layer":"L","from":"呼和浩特东影路(地铁站)","to":"呼和浩特艺术学院(地铁站)"},"geometry":{"type":"LineString","coordinates":[[111.701996,40.829582],[111.692857,40.827513]]}},{"type":"Feature","properties":{"shape_id":"{}","direction_id":"{\"0\": 50}","headsign":"{}","duration_avg":120,"n_vehicles":50,"d":1200,"route_I_counts":"{\"1\": 50}","source":11,"target":12,"layer":"L","from":"呼和浩特东影路(地铁站)","to":"呼和浩特内蒙古展览馆(地铁站)"},"geometry":{"type":"LineString","coordinates":[[111.701996,40.829582],[111.7136,40.832143]]}},{"type":"Feature","properties":{"shape_id":"{}","direction_id":"{\"1\": 50}","headsign":"{}","duration_avg":120,"n_vehicles":50,"d":1200,"route_I_counts":"{\"1\": 50}","source":12,"target":11,"layer":"L","from":"呼和浩特内蒙古展览馆(地铁站)","to":"呼和浩特东影路(地铁站)"},"geometry":{"type":"LineString","coordinates":[[111.7136,40.832143],[111.701996,40.829582]]}},{"type":"Feature","properties":{"shape_id":"{}","direction_id":"{\"0\": 50}","headsign":"{}","duration_avg":120,"n_vehicles":50,"d":1200,"route_I_counts":"{\"1\": 50}","source":12,"target":13,"layer":"L","from":"呼和浩特内蒙古展览馆(地铁站)","to":"呼和浩特内蒙古博物院(地铁站)"},"geometry":{"type":"LineString","coordinates":[[111.7136,40.832143],[111.724959,40.834636]]}},{"type":"Feature","properties":{"shape_id":"{}","direction_id":"{\"1\": 50}","headsign":"{}","duration_avg":120,"n_vehicles":50,"d":1200,"route_I_counts":"{\"1\": 50}","source":13,"target":12,"layer":"L","from":"呼和浩特内蒙古博物院(地铁站)","to":"呼和浩特内蒙古展览馆(地铁站)"},"geometry":{"type":"LineString","coordinates":[[111.724959,40.834636],[111.7136,40.832143]]}},{"type":"Feature","properties":{"shape_id":"{}","direction_id":"{\"0\": 50}","headsign":"{}","duration_avg":120,"n_vehicles":50,"d":1200,"route_I_counts":"{\"1\": 50}","source":13,"target":14,"layer":"L","from":"呼和浩特内蒙古博物院(地铁站)","to":"呼和浩特市政府(地铁站)"},"geometry":{"type":"LineString","coordinates":[[111.724959,40.834636],[111.740347,40.838018]]}},{"type":"Feature","properties":{"shape_id":"{}","direction_id":"{\"1\": 50}","headsign":"{}","duration_avg":120,"n_vehicles":50,"d":1200,"route_I_counts":"{\"1\": 50}","source":14,"target":13,"layer":"L","from":"呼和浩特市政府(地铁站)","to":"呼和浩特内蒙古博物院(地铁站)"},"geometry":{"type":"LineString","coordinates":[[111.740347,40.838018],[111.724959,40.834636]]}},{"type":"Feature","properties":{"shape_id":"{}","direction_id":"{\"0\": 50}","headsign":"{}","duration_avg":180,"n_vehicles":50,"d":1800,"route_I_counts":"{\"1\": 50}","source":14,"target":15,"layer":"L","from":"呼和浩特市政府(地铁站)","to":"呼和浩特呼和浩特东站(地铁站)"},"geometry":{"type":"LineString","coordinates":[[111.740347,40.838018],[111.760212,40.845956]]}},{"type":"Feature","properties":{"shape_id":"{}","direction_id":"{\"1\": 50}","headsign":"{}","duration_avg":180,"n_vehicles":50,"d":1800,"route_I_counts":"{\"1\": 50}","source":15,"target":14,"layer":"L","from":"呼和浩特呼和浩特东站(地铁站)","to":"呼和浩特市政府(地铁站)"},"geometry":{"type":"LineString","coordinates":[[111.760212,40.845956],[111.740347,40.838018]]}},{"type":"Feature","properties":{"shape_id":"{}","direction_id":"{\"0\": 50}","headsign":"{}","duration_avg":120,"n_vehicles":50,"d":1200,"route_I_counts":"{\"1\": 50}","source":15,"target":16,"layer":"L","from":"呼和浩特呼和浩特东站(地铁站)","to":"呼和浩特后不塔气(地铁站)"},"geometry":{"type":"LineString","coordinates":[[111.760212,40.845956],[111.774509,40.846868]]}},{"type":"Feature","properties":{"shape_id":"{}","direction_id":"{\"1\": 50}","headsign":"{}","duration_avg":120,"n_vehicles":50,"d":1200,"route_I_counts":"{\"1\": 50}","source":16,"target":15,"layer":"L","from":"呼和浩特后不塔气(地铁站)","to":"呼和浩特呼和浩特东站(地铁站)"},"geometry":{"type":"LineString","coordinates":[[111.774509,40.846868],[111.760212,40.845956]]}},{"type":"Feature","properties":{"shape_id":"{}","direction_id":"{\"0\": 50}","headsign":"{}","duration_avg":180,"n_vehicles":50,"d":1800,"route_I_counts":"{\"1\": 50}","source":16,"target":17,"layer":"L","from":"呼和浩特后不塔气(地铁站)","to":"呼和浩特什兰岱(地铁站)"},"geometry":{"type":"LineString","coordinates":[[111.774509,40.846868],[111.793813,40.850793]]}},{"type":"Feature","properties":{"shape_id":"{}","direction_id":"{\"1\": 50}","headsign":"{}","duration_avg":180,"n_vehicles":50,"d":1800,"route_I_counts":"{\"1\": 50}","source":17,"target":16,"layer":"L","from":"呼和浩特什兰岱(地铁站)","to":"呼和浩特后不塔气(地铁站)"},"geometry":{"type":"LineString","coordinates":[[111.793813,40.850793],[111.774509,40.846868]]}},{"type":"Feature","properties":{"shape_id":"{}","direction_id":"{\"0\": 50}","headsign":"{}","duration_avg":120,"n_vehicles":50,"d":1200,"route_I_counts":"{\"1\": 50}","source":17,"target":18,"layer":"L","from":"呼和浩特什兰岱(地铁站)","to":"呼和浩特白塔西(地铁站)"},"geometry":{"type":"LineString","coordinates":[[111.793813,40.850793],[111.804915,40.853377]]}},{"type":"Feature","properties":{"shape_id":"{}","direction_id":"{\"1\": 50}","headsign":"{}","duration_avg":120,"n_vehicles":50,"d":1200,"route_I_counts":"{\"1\": 50}","source":18,"target":17,"layer":"L","from":"呼和浩特白塔西(地铁站)","to":"呼和浩特什兰岱(地铁站)"},"geometry":{"type":"LineString","coordinates":[[111.804915,40.853377],[111.793813,40.850793]]}},{"type":"Feature","properties":{"shape_id":"{}","direction_id":"{\"0\": 50}","headsign":"{}","duration_avg":120,"n_vehicles":50,"d":1200,"route_I_counts":"{\"1\": 50}","source":18,"target":19,"layer":"L","from":"呼和浩特白塔西(地铁站)","to":"呼和浩特坝堰(机场)(地铁站)"},"geometry":{"type":"LineString","coordinates":[[111.804915,40.853377],[111.817748,40.856354]]}},{"type":"Feature","properties":{"shape_id":"{}","direction_id":"{\"1\": 50}","headsign":"{}","duration_avg":120,"n_vehicles":50,"d":1200,"route_I_counts":"{\"1\": 50}","source":19,"target":18,"layer":"L","from":"呼和浩特坝堰(机场)(地铁站)","to":"呼和浩特白塔西(地铁站)"},"geometry":{"type":"LineString","coordinates":[[111.817748,40.856354],[111.804915,40.853377]]}},{"type":"Feature","properties":{"shape_id":"{}","direction_id":"{\"0\": 50}","headsign":"{}","duration_avg":60,"n_vehicles":50,"d":600,"route_I_counts":"{\"2\": 50}","source":20,"target":21,"layer":"L","from":"呼和浩特塔利东路(地铁站)","to":"呼和浩特新店(地铁站)"},"geometry":{"type":"LineString","coordinates":[[111.770244,40.868006],[111.758958,40.865894]]}},{"type":"Feature","properties":{"shape_id":"{}","direction_id":"{\"1\": 50}","headsign":"{}","duration_avg":60,"n_vehicles":50,"d":600,"route_I_counts":"{\"2\": 50}","source":21,"target":20,"layer":"L","from":"呼和浩特新店(地铁站)","to":"呼和浩特塔利东路(地铁站)"},"geometry":{"type":"LineString","coordinates":[[111.758958,40.865894],[111.770244,40.868006]]}},{"type":"Feature","properties":{"shape_id":"{}","direction_id":"{\"0\": 50}","headsign":"{}","duration_avg":120,"n_vehicles":50,"d":1200,"route_I_counts":"{\"2\": 50}","source":21,"target":22,"layer":"L","from":"呼和浩特新店(地铁站)","to":"呼和浩特百合路(地铁站)"},"geometry":{"type":"LineString","coordinates":[[111.758958,40.865894],[111.751725,40.863773]]}},{"type":"Feature","properties":{"shape_id":"{}","direction_id":"{\"1\": 50}","headsign":"{}","duration_avg":120,"n_vehicles":50,"d":1200,"route_I_counts":"{\"2\": 50}","source":22,"target":21,"layer":"L","from":"呼和浩特百合路(地铁站)","to":"呼和浩特新店(地铁站)"},"geometry":{"type":"LineString","coordinates":[[111.751725,40.863773],[111.758958,40.865894]]}},{"type":"Feature","properties":{"shape_id":"{}","direction_id":"{\"0\": 50}","headsign":"{}","duration_avg":120,"n_vehicles":50,"d":1200,"route_I_counts":"{\"2\": 50}","source":22,"target":23,"layer":"L","from":"呼和浩特百合路(地铁站)","to":"呼和浩特北山公园(地铁站)"},"geometry":{"type":"LineString","coordinates":[[111.751725,40.863773],[111.740271,40.861143]]}},{"type":"Feature","properties":{"shape_id":"{}","direction_id":"{\"1\": 50}","headsign":"{}","duration_avg":120,"n_vehicles":50,"d":1200,"route_I_counts":"{\"2\": 50}","source":23,"target":22,"layer":"L","from":"呼和浩特北山公园(地铁站)","to":"呼和浩特百合路(地铁站)"},"geometry":{"type":"LineString","coordinates":[[111.740271,40.861143],[111.751725,40.863773]]}},{"type":"Feature","properties":{"shape_id":"{}","direction_id":"{\"0\": 50}","headsign":"{}","duration_avg":120,"n_vehicles":50,"d":1200,"route_I_counts":"{\"2\": 50}","source":23,"target":24,"layer":"L","from":"呼和浩特北山公园(地铁站)","to":"呼和浩特丝绸之路大道(地铁站)"},"geometry":{"type":"LineString","coordinates":[[111.740271,40.861143],[111.725516,40.857598]]}},{"type":"Feature","properties":{"shape_id":"{}","direction_id":"{\"1\": 50}","headsign":"{}","duration_avg":120,"n_vehicles":50,"d":1200,"route_I_counts":"{\"2\": 50}","source":24,"target":23,"layer":"L","from":"呼和浩特丝绸之路大道(地铁站)","to":"呼和浩特北山公园(地铁站)"},"geometry":{"type":"LineString","coordinates":[[111.725516,40.857598],[111.740271,40.861143]]}},{"type":"Feature","properties":{"shape_id":"{}","direction_id":"{\"0\": 50}","headsign":"{}","duration_avg":120,"n_vehicles":50,"d":1200,"route_I_counts":"{\"2\": 50}","source":24,"target":25,"layer":"L","from":"呼和浩特丝绸之路大道(地铁站)","to":"呼和浩特一家村(地铁站)"},"geometry":{"type":"LineString","coordinates":[[111.725516,40.857598],[111.711685,40.857985]]}},{"type":"Feature","properties":{"shape_id":"{}","direction_id":"{\"1\": 50}","headsign":"{}","duration_avg":120,"n_vehicles":50,"d":1200,"route_I_counts":"{\"2\": 50}","source":25,"target":24,"layer":"L","from":"呼和浩特一家村(地铁站)","to":"呼和浩特丝绸之路大道(地铁站)"},"geometry":{"type":"LineString","coordinates":[[111.711685,40.857985],[111.725516,40.857598]]}},{"type":"Feature","properties":{"shape_id":"{}","direction_id":"{\"0\": 50}","headsign":"{}","duration_avg":120,"n_vehicles":50,"d":1200,"route_I_counts":"{\"2\": 50}","source":25,"target":26,"layer":"L","from":"呼和浩特一家村(地铁站)","to":"呼和浩特成吉思汗公园(地铁站)"},"geometry":{"type":"LineString","coordinates":[[111.711685,40.857985],[111.697884,40.86014]]}},{"type":"Feature","properties":{"shape_id":"{}","direction_id":"{\"1\": 50}","headsign":"{}","duration_avg":120,"n_vehicles":50,"d":1200,"route_I_counts":"{\"2\": 50}","source":26,"target":25,"layer":"L","from":"呼和浩特成吉思汗公园(地铁站)","to":"呼和浩特一家村(地铁站)"},"geometry":{"type":"LineString","coordinates":[[111.697884,40.86014],[111.711685,40.857985]]}},{"type":"Feature","properties":{"shape_id":"{}","direction_id":"{\"0\": 50}","headsign":"{}","duration_avg":120,"n_vehicles":50,"d":1200,"route_I_counts":"{\"2\": 50}","source":26,"target":27,"layer":"L","from":"呼和浩特成吉思汗公园(地铁站)","to":"呼和浩特毫沁营(地铁站)"},"geometry":{"type":"LineString","coordinates":[[111.697884,40.86014],[111.683852,40.857995]]}},{"type":"Feature","properties":{"shape_id":"{}","direction_id":"{\"1\": 50}","headsign":"{}","duration_avg":120,"n_vehicles":50,"d":1200,"route_I_counts":"{\"2\": 50}","source":27,"target":26,"layer":"L","from":"呼和浩特毫沁营(地铁站)","to":"呼和浩特成吉思汗公园(地铁站)"},"geometry":{"type":"LineString","coordinates":[[111.683852,40.857995],[111.697884,40.86014]]}},{"type":"Feature","properties":{"shape_id":"{}","direction_id":"{\"0\": 50}","headsign":"{}","duration_avg":120,"n_vehicles":50,"d":1200,"route_I_counts":"{\"2\": 50}","source":27,"target":28,"layer":"L","from":"呼和浩特毫沁营(地铁站)","to":"呼和浩特成吉思汗广场(地铁站)"},"geometry":{"type":"LineString","coordinates":[[111.683852,40.857995],[111.669487,40.856151]]}},{"type":"Feature","properties":{"shape_id":"{}","direction_id":"{\"1\": 50}","headsign":"{}","duration_avg":120,"n_vehicles":50,"d":1200,"route_I_counts":"{\"2\": 50}","source":28,"target":27,"layer":"L","from":"呼和浩特成吉思汗广场(地铁站)","to":"呼和浩特毫沁营(地铁站)"},"geometry":{"type":"LineString","coordinates":[[111.669487,40.856151],[111.683852,40.857995]]}},{"type":"Feature","properties":{"shape_id":"{}","direction_id":"{\"0\": 50}","headsign":"{}","duration_avg":120,"n_vehicles":50,"d":1200,"route_I_counts":"{\"2\": 50}","source":28,"target":29,"layer":"L","from":"呼和浩特成吉思汗广场(地铁站)","to":"呼和浩特内蒙古体育馆(地铁站)"},"geometry":{"type":"LineString","coordinates":[[111.669487,40.856151],[111.657461,40.85464]]}},{"type":"Feature","properties":{"shape_id":"{}","direction_id":"{\"1\": 50}","headsign":"{}","duration_avg":120,"n_vehicles":50,"d":1200,"route_I_counts":"{\"2\": 50}","source":29,"target":28,"layer":"L","from":"呼和浩特内蒙古体育馆(地铁站)","to":"呼和浩特成吉思汗广场(地铁站)"},"geometry":{"type":"LineString","coordinates":[[111.657461,40.85464],[111.669487,40.856151]]}},{"type":"Feature","properties":{"shape_id":"{}","direction_id":"{\"0\": 50}","headsign":"{}","duration_avg":120,"n_vehicles":50,"d":1200,"route_I_counts":"{\"2\": 50}","source":29,"target":30,"layer":"L","from":"呼和浩特内蒙古体育馆(地铁站)","to":"呼和浩特呼和浩特体育场(地铁站)"},"geometry":{"type":"LineString","coordinates":[[111.657461,40.85464],[111.649297,40.848829]]}},{"type":"Feature","properties":{"shape_id":"{}","direction_id":"{\"1\": 50}","headsign":"{}","duration_avg":120,"n_vehicles":50,"d":1200,"route_I_counts":"{\"2\": 50}","source":30,"target":29,"layer":"L","from":"呼和浩特呼和浩特体育场(地铁站)","to":"呼和浩特内蒙古体育馆(地铁站)"},"geometry":{"type":"LineString","coordinates":[[111.649297,40.848829],[111.657461,40.85464]]}},{"type":"Feature","properties":{"shape_id":"{}","direction_id":"{\"0\": 50}","headsign":"{}","duration_avg":180,"n_vehicles":50,"d":1800,"route_I_counts":"{\"2\": 50}","source":30,"target":31,"layer":"L","from":"呼和浩特呼和浩特体育场(地铁站)","to":"呼和浩特公主府(地铁站)"},"geometry":{"type":"LineString","coordinates":[[111.649297,40.848829],[111.655485,40.83444]]}},{"type":"Feature","properties":{"shape_id":"{}","direction_id":"{\"1\": 50}","headsign":"{}","duration_avg":180,"n_vehicles":50,"d":1800,"route_I_counts":"{\"2\": 50}","source":31,"target":30,"layer":"L","from":"呼和浩特公主府(地铁站)","to":"呼和浩特呼和浩特体育场(地铁站)"},"geometry":{"type":"LineString","coordinates":[[111.655485,40.83444],[111.649297,40.848829]]}},{"type":"Feature","properties":{"shape_id":"{}","direction_id":"{\"0\": 50}","headsign":"{}","duration_avg":120,"n_vehicles":50,"d":1200,"route_I_counts":"{\"2\": 50}","source":31,"target":32,"layer":"L","from":"呼和浩特公主府(地铁站)","to":"呼和浩特呼和浩特站(地铁站)"},"geometry":{"type":"LineString","coordinates":[[111.655485,40.83444],[111.658901,40.828172]]}},{"type":"Feature","properties":{"shape_id":"{}","direction_id":"{\"1\": 50}","headsign":"{}","duration_avg":120,"n_vehicles":50,"d":1200,"route_I_counts":"{\"2\": 50}","source":32,"target":31,"layer":"L","from":"呼和浩特呼和浩特站(地铁站)","to":"呼和浩特公主府(地铁站)"},"geometry":{"type":"LineString","coordinates":[[111.658901,40.828172],[111.655485,40.83444]]}},{"type":"Feature","properties":{"shape_id":"{}","direction_id":"{\"0\": 50}","headsign":"{}","duration_avg":120,"n_vehicles":50,"d":1200,"route_I_counts":"{\"2\": 50}","source":32,"target":7,"layer":"L","from":"呼和浩特呼和浩特站(地铁站)","to":"呼和浩特新华广场(地铁站)"},"geometry":{"type":"LineString","coordinates":[[111.658901,40.828172],[111.660932,40.820176]]}},{"type":"Feature","properties":{"shape_id":"{}","direction_id":"{\"1\": 50}","headsign":"{}","duration_avg":120,"n_vehicles":50,"d":1200,"route_I_counts":"{\"2\": 50}","source":7,"target":32,"layer":"L","from":"呼和浩特新华广场(地铁站)","to":"呼和浩特呼和浩特站(地铁站)"},"geometry":{"type":"LineString","coordinates":[[111.660932,40.820176],[111.658901,40.828172]]}},{"type":"Feature","properties":{"shape_id":"{}","direction_id":"{\"0\": 50}","headsign":"{}","duration_avg":120,"n_vehicles":50,"d":1200,"route_I_counts":"{\"2\": 50}","source":7,"target":33,"layer":"L","from":"呼和浩特新华广场(地铁站)","to":"呼和浩特中山路(地铁站)"},"geometry":{"type":"LineString","coordinates":[[111.660932,40.820176],[111.664208,40.813974]]}},{"type":"Feature","properties":{"shape_id":"{}","direction_id":"{\"1\": 50}","headsign":"{}","duration_avg":120,"n_vehicles":50,"d":1200,"route_I_counts":"{\"2\": 50}","source":33,"target":7,"layer":"L","from":"呼和浩特中山路(地铁站)","to":"呼和浩特新华广场(地铁站)"},"geometry":{"type":"LineString","coordinates":[[111.664208,40.813974],[111.660932,40.820176]]}},{"type":"Feature","properties":{"shape_id":"{}","direction_id":"{\"0\": 50}","headsign":"{}","duration_avg":120,"n_vehicles":50,"d":1200,"route_I_counts":"{\"2\": 50}","source":33,"target":34,"layer":"L","from":"呼和浩特中山路(地铁站)","to":"呼和浩特大学西街(地铁站)"},"geometry":{"type":"LineString","coordinates":[[111.664208,40.813974],[111.668866,40.804682]]}},{"type":"Feature","properties":{"shape_id":"{}","direction_id":"{\"1\": 50}","headsign":"{}","duration_avg":120,"n_vehicles":50,"d":1200,"route_I_counts":"{\"2\": 50}","source":34,"target":33,"layer":"L","from":"呼和浩特大学西街(地铁站)","to":"呼和浩特中山路(地铁站)"},"geometry":{"type":"LineString","coordinates":[[111.668866,40.804682],[111.664208,40.813974]]}},{"type":"Feature","properties":{"shape_id":"{}","direction_id":"{\"0\": 50}","headsign":"{}","duration_avg":60,"n_vehicles":50,"d":600,"route_I_counts":"{\"2\": 50}","source":34,"target":35,"layer":"L","from":"呼和浩特大学西街(地铁站)","to":"呼和浩特诺和木勒(地铁站)"},"geometry":{"type":"LineString","coordinates":[[111.668866,40.804682],[111.672773,40.797216]]}},{"type":"Feature","properties":{"shape_id":"{}","direction_id":"{\"1\": 50}","headsign":"{}","duration_avg":60,"n_vehicles":50,"d":600,"route_I_counts":"{\"2\": 50}","source":35,"target":34,"layer":"L","from":"呼和浩特诺和木勒(地铁站)","to":"呼和浩特大学西街(地铁站)"},"geometry":{"type":"LineString","coordinates":[[111.672773,40.797216],[111.668866,40.804682]]}},{"type":"Feature","properties":{"shape_id":"{}","direction_id":"{\"0\": 50}","headsign":"{}","duration_avg":180,"n_vehicles":50,"d":1800,"route_I_counts":"{\"2\": 50}","source":35,"target":36,"layer":"L","from":"呼和浩特诺和木勒(地铁站)","to":"呼和浩特水上公园(地铁站)"},"geometry":{"type":"LineString","coordinates":[[111.672773,40.797216],[111.674539,40.785065]]}},{"type":"Feature","properties":{"shape_id":"{}","direction_id":"{\"1\": 50}","headsign":"{}","duration_avg":180,"n_vehicles":50,"d":1800,"route_I_counts":"{\"2\": 50}","source":36,"target":35,"layer":"L","from":"呼和浩特水上公园(地铁站)","to":"呼和浩特诺和木勒(地铁站)"},"geometry":{"type":"LineString","coordinates":[[111.674539,40.785065],[111.672773,40.797216]]}},{"type":"Feature","properties":{"shape_id":"{}","direction_id":"{\"0\": 50}","headsign":"{}","duration_avg":120,"n_vehicles":50,"d":1200,"route_I_counts":"{\"2\": 50}","source":36,"target":37,"layer":"L","from":"呼和浩特水上公园(地铁站)","to":"呼和浩特五里营(地铁站)"},"geometry":{"type":"LineString","coordinates":[[111.674539,40.785065],[111.678102,40.776074]]}},{"type":"Feature","properties":{"shape_id":"{}","direction_id":"{\"1\": 50}","headsign":"{}","duration_avg":120,"n_vehicles":50,"d":1200,"route_I_counts":"{\"2\": 50}","source":37,"target":36,"layer":"L","from":"呼和浩特五里营(地铁站)","to":"呼和浩特水上公园(地铁站)"},"geometry":{"type":"LineString","coordinates":[[111.678102,40.776074],[111.674539,40.785065]]}},{"type":"Feature","properties":{"shape_id":"{}","direction_id":"{\"0\": 50}","headsign":"{}","duration_avg":60,"n_vehicles":50,"d":600,"route_I_counts":"{\"2\": 50}","source":37,"target":38,"layer":"L","from":"呼和浩特五里营(地铁站)","to":"呼和浩特锡林公园(地铁站)"},"geometry":{"type":"LineString","coordinates":[[111.678102,40.776074],[111.680644,40.769558]]}},{"type":"Feature","properties":{"shape_id":"{}","direction_id":"{\"1\": 50}","headsign":"{}","duration_avg":60,"n_vehicles":50,"d":600,"route_I_counts":"{\"2\": 50}","source":38,"target":37,"layer":"L","from":"呼和浩特锡林公园(地铁站)","to":"呼和浩特五里营(地铁站)"},"geometry":{"type":"LineString","coordinates":[[111.680644,40.769558],[111.678102,40.776074]]}},{"type":"Feature","properties":{"shape_id":"{}","direction_id":"{\"0\": 50}","headsign":"{}","duration_avg":180,"n_vehicles":50,"d":1800,"route_I_counts":"{\"2\": 50}","source":38,"target":39,"layer":"L","from":"呼和浩特锡林公园(地铁站)","to":"呼和浩特内大南校区(地铁站)"},"geometry":{"type":"LineString","coordinates":[[111.680644,40.769558],[111.685634,40.757821]]}},{"type":"Feature","properties":{"shape_id":"{}","direction_id":"{\"1\": 50}","headsign":"{}","duration_avg":180,"n_vehicles":50,"d":1800,"route_I_counts":"{\"2\": 50}","source":39,"target":38,"layer":"L","from":"呼和浩特内大南校区(地铁站)","to":"呼和浩特锡林公园(地铁站)"},"geometry":{"type":"LineString","coordinates":[[111.685634,40.757821],[111.680644,40.769558]]}},{"type":"Feature","properties":{"shape_id":"{}","direction_id":"{\"0\": 50}","headsign":"{}","duration_avg":120,"n_vehicles":50,"d":1200,"route_I_counts":"{\"2\": 50}","source":39,"target":40,"layer":"L","from":"呼和浩特内大南校区(地铁站)","to":"呼和浩特帅家营(地铁站)"},"geometry":{"type":"LineString","coordinates":[[111.685634,40.757821],[111.700122,40.754259]]}},{"type":"Feature","properties":{"shape_id":"{}","direction_id":"{\"1\": 50}","headsign":"{}","duration_avg":120,"n_vehicles":50,"d":1200,"route_I_counts":"{\"2\": 50}","source":40,"target":39,"layer":"L","from":"呼和浩特帅家营(地铁站)","to":"呼和浩特内大南校区(地铁站)"},"geometry":{"type":"LineString","coordinates":[[111.700122,40.754259],[111.685634,40.757821]]}},{"type":"Feature","properties":{"shape_id":"{}","direction_id":"{\"0\": 50}","headsign":"{}","duration_avg":180,"n_vehicles":50,"d":1800,"route_I_counts":"{\"2\": 50}","source":40,"target":41,"layer":"L","from":"呼和浩特帅家营(地铁站)","to":"呼和浩特喇嘛营(地铁站)"},"geometry":{"type":"LineString","coordinates":[[111.700122,40.754259],[111.724439,40.754311]]}},{"type":"Feature","properties":{"shape_id":"{}","direction_id":"{\"1\": 50}","headsign":"{}","duration_avg":180,"n_vehicles":50,"d":1800,"route_I_counts":"{\"2\": 50}","source":41,"target":40,"layer":"L","from":"呼和浩特喇嘛营(地铁站)","to":"呼和浩特帅家营(地铁站)"},"geometry":{"type":"LineString","coordinates":[[111.724439,40.754311],[111.700122,40.754259]]}},{"type":"Feature","properties":{"shape_id":"{}","direction_id":"{\"0\": 50}","headsign":"{}","duration_avg":120,"n_vehicles":50,"d":1200,"route_I_counts":"{\"2\": 50}","source":41,"target":42,"layer":"L","from":"呼和浩特喇嘛营(地铁站)","to":"呼和浩特阿尔山路(地铁站)"},"geometry":{"type":"LineString","coordinates":[[111.724439,40.754311],[111.740911,40.754086]]}},{"type":"Feature","properties":{"shape_id":"{}","direction_id":"{\"1\": 50}","headsign":"{}","duration_avg":120,"n_vehicles":50,"d":1200,"route_I_counts":"{\"2\": 50}","source":42,"target":41,"layer":"L","from":"呼和浩特阿尔山路(地铁站)","to":"呼和浩特喇嘛营(地铁站)"},"geometry":{"type":"LineString","coordinates":[[111.740911,40.754086],[111.724439,40.754311]]}}]}