{"type":"FeatureCollection","features":[{"type":"Feature","geometry":{"type":"Point","coordinates":[114.045163,22.315451]},"properties":{"name":"香港迪士尼(地铁站)","original_ids":"[1]","id":0,"layer":"stop"}},{"type":"Feature","geometry":{"type":"Point","coordinates":[114.02885,22.331773]},"properties":{"name":"香港欣澳(地铁站)","original_ids":"[2]","id":1,"layer":"stop"}},{"type":"Feature","geometry":{"type":"Point","coordinates":[114.166239,22.278347]},"properties":{"name":"香港金钟(地铁站)","original_ids":"[3]","id":2,"layer":"stop"}},{"type":"Feature","geometry":{"type":"Point","coordinates":[114.175484,22.281653]},"properties":{"name":"香港会展(地铁站)","original_ids":"[4]","id":3,"layer":"stop"}},{"type":"Feature","geometry":{"type":"Point","coordinates":[114.181778,22.302894]},"properties":{"name":"香港红磡(地铁站)","original_ids":"[5]","id":4,"layer":"stop"}},{"type":"Feature","geometry":{"type":"Point","coordinates":[114.172607,22.322171]},"properties":{"name":"香港旺角东(地铁站)","original_ids":"[6]","id":5,"layer":"stop"}},{"type":"Feature","geometry":{"type":"Point","coordinates":[114.175882,22.33698]},"properties":{"name":"香港九龙塘(地铁站)","original_ids":"[7]","id":6,"layer":"stop"}},{"type":"Feature","geometry":{"type":"Point","coordinates":[114.178509,22.372919]},"properties":{"name":"香港大围(地铁站)","original_ids":"[8]","id":7,"layer":"stop"}},{"type":"Feature","geometry":{"type":"Point","coordinates":[114.187546,22.382558]},"properties":{"name":"香港沙田(地铁站)","original_ids":"[9]","id":8,"layer":"stop"}},{"type":"Feature","geometry":{"type":"Point","coordinates":[114.19823,22.395256]},"properties":{"name":"香港火炭(地铁站)","original_ids":"[10]","id":9,"layer":"stop"}},{"type":"Feature","geometry":{"type":"Point","coordinates":[114.210139,22.41387]},"properties":{"name":"香港大学(地铁站)","original_ids":"[11]","id":10,"layer":"stop"}},{"type":"Feature","geometry":{"type":"Point","coordinates":[114.170258,22.444693]},"properties":{"name":"香港大埔墟(地铁站)","original_ids":"[12]","id":11,"layer":"stop"}},{"type":"Feature","geometry":{"type":"Point","coordinates":[114.161212,22.451]},"properties":{"name":"香港太和(地铁站)","original_ids":"[13]","id":12,"layer":"stop"}},{"type":"Feature","geometry":{"type":"Point","coordinates":[114.138602,22.492192]},"properties":{"name":"香港粉岭(地铁站)","original_ids":"[14]","id":13,"layer":"stop"}},{"type":"Feature","geometry":{"type":"Point","coordinates":[114.127708,22.501569]},"properties":{"name":"香港上水(地铁站)","original_ids":"[15]","id":14,"layer":"stop"}},{"type":"Feature","geometry":{"type":"Point","coordinates":[114.113232,22.528807]},"properties":{"name":"香港罗湖(地铁站)","original_ids":"[16]","id":15,"layer":"stop"}},{"type":"Feature","geometry":{"type":"Point","coordinates":[113.941378,22.289192]},"properties":{"name":"香港东涌(地铁站)","original_ids":"[17]","id":16,"layer":"stop"}},{"type":"Feature","geometry":{"type":"Point","coordinates":[114.107466,22.358439]},"properties":{"name":"香港青衣(地铁站)","original_ids":"[18]","id":17,"layer":"stop"}},{"type":"Feature","geometry":{"type":"Point","coordinates":[114.126041,22.34866]},"properties":{"name":"香港荔景(地铁站)","original_ids":"[19]","id":18,"layer":"stop"}},{"type":"Feature","geometry":{"type":"Point","coordinates":[114.15354,22.326644]},"properties":{"name":"香港南昌(地铁站)","original_ids":"[20]","id":19,"layer":"stop"}},{"type":"Feature","geometry":{"type":"Point","coordinates":[114.160239,22.317817]},"properties":{"name":"香港奥运(地铁站)","original_ids":"[21]","id":20,"layer":"stop"}},{"type":"Feature","geometry":{"type":"Point","coordinates":[114.161605,22.305076]},"properties":{"name":"香港九龙(地铁站)","original_ids":"[22]","id":21,"layer":"stop"}},{"type":"Feature","geometry":{"type":"Point","coordinates":[114.158281,22.284591]},"properties":{"name":"香港香港(地铁站)","original_ids":"[23]","id":22,"layer":"stop"}},{"type":"Feature","geometry":{"type":"Point","coordinates":[114.128816,22.281247]},"properties":{"name":"香港坚尼地城(地铁站)","original_ids":"[24]","id":23,"layer":"stop"}},{"type":"Feature","geometry":{"type":"Point","coordinates":[114.135765,22.284087]},"properties":{"name":"香港香港大学(地铁站)","original_ids":"[25]","id":24,"layer":"stop"}},{"type":"Feature","geometry":{"type":"Point","coordinates":[114.14255,22.285366]},"properties":{"name":"香港西营盘(地铁站)","original_ids":"[26]","id":25,"layer":"stop"}},{"type":"Feature","geometry":{"type":"Point","coordinates":[114.152741,22.286375]},"properties":{"name":"香港上环(地铁站)","original_ids":"[27]","id":26,"layer":"stop"}},{"type":"Feature","geometry":{"type":"Point","coordinates":[114.159083,22.281698]},"properties":{"name":"香港中环(地铁站)","original_ids":"[28]","id":27,"layer":"stop"}},{"type":"Feature","geometry":{"type":"Point","coordinates":[114.172963,22.277141]},"properties":{"name":"香港湾仔(地铁站)","original_ids":"[29]","id":28,"layer":"stop"}},{"type":"Feature","geometry":{"type":"Point","coordinates":[114.183634,22.280269]},"properties":{"name":"香港铜锣湾(地铁站)","original_ids":"[30]","id":29,"layer":"stop"}},{"type":"Feature","geometry":{"type":"Point","coordinates":[114.191876,22.282772]},"properties":{"name":"香港天后(地铁站)","original_ids":"[31]","id":30,"layer":"stop"}},{"type":"Feature","geometry":{"type":"Point","coordinates":[114.19406,22.288482]},"properties":{"name":"香港炮台山(地铁站)","original_ids":"[32]","id":31,"layer":"stop"}},{"type":"Feature","geometry":{"type":"Point","coordinates":[114.200594,22.291023]},"properties":{"name":"香港北角(地铁站)","original_ids":"[33]","id":32,"layer":"stop"}},{"type":"Feature","geometry":{"type":"Point","coordinates":[114.209827,22.28781]},"properties":{"name":"香港鲗鱼涌(地铁站)","original_ids":"[34]","id":33,"layer":"stop"}},{"type":"Feature","geometry":{"type":"Point","coordinates":[114.216152,22.284631]},"properties":{"name":"香港太古(地铁站)","original_ids":"[35]","id":34,"layer":"stop"}},{"type":"Feature","geometry":{"type":"Point","coordinates":[114.222392,22.282122]},"properties":{"name":"香港西湾河(地铁站)","original_ids":"[36]","id":35,"layer":"stop"}},{"type":"Feature","geometry":{"type":"Point","coordinates":[114.22913,22.279145]},"properties":{"name":"香港筲箕湾(地铁站)","original_ids":"[37]","id":36,"layer":"stop"}},{"type":"Feature","geometry":{"type":"Point","coordinates":[114.239734,22.276644]},"properties":{"name":"香港杏花邨(地铁站)","original_ids":"[38]","id":37,"layer":"stop"}},{"type":"Feature","geometry":{"type":"Point","coordinates":[114.23717,22.264597]},"properties":{"name":"香港柴湾(地铁站)","original_ids":"[39]","id":38,"layer":"stop"}},{"type":"Feature","geometry":{"type":"Point","coordinates":[114.189504,22.305134]},"properties":{"name":"香港黄埔(地铁站)","original_ids":"[40]","id":39,"layer":"stop"}},{"type":"Feature","geometry":{"type":"Point","coordinates":[114.182623,22.309323]},"properties":{"name":"香港何文田(地铁站)","original_ids":"[41]","id":40,"layer":"stop"}},{"type":"Feature","geometry":{"type":"Point","coordinates":[114.170708,22.313023]},"properties":{"name":"香港油麻地(地铁站)","original_ids":"[42]","id":41,"layer":"stop"}},{"type":"Feature","geometry":{"type":"Point","coordinates":[114.169367,22.319391]},"properties":{"name":"香港旺角(地铁站)","original_ids":"[43]","id":42,"layer":"stop"}},{"type":"Feature","geometry":{"type":"Point","coordinates":[114.168262,22.324694]},"properties":{"name":"香港太子(地铁站)","original_ids":"[44]","id":43,"layer":"stop"}},{"type":"Feature","geometry":{"type":"Point","coordinates":[114.168734,22.331905]},"properties":{"name":"香港石硖尾(地铁站)","original_ids":"[45]","id":44,"layer":"stop"}},{"type":"Feature","geometry":{"type":"Point","coordinates":[114.187272,22.337847]},"properties":{"name":"香港乐富(地铁站)","original_ids":"[46]","id":45,"layer":"stop"}},{"type":"Feature","geometry":{"type":"Point","coordinates":[114.194054,22.341709]},"properties":{"name":"香港黄大仙(地铁站)","original_ids":"[47]","id":46,"layer":"stop"}},{"type":"Feature","geometry":{"type":"Point","coordinates":[114.201425,22.340153]},"properties":{"name":"香港钻石山(地铁站)","original_ids":"[48]","id":47,"layer":"stop"}},{"type":"Feature","geometry":{"type":"Point","coordinates":[114.20894,22.334785]},"properties":{"name":"香港彩虹(地铁站)","original_ids":"[49]","id":48,"layer":"stop"}},{"type":"Feature","geometry":{"type":"Point","coordinates":[114.214031,22.32363]},"properties":{"name":"香港九龙湾(地铁站)","original_ids":"[50]","id":49,"layer":"stop"}},{"type":"Feature","geometry":{"type":"Point","coordinates":[114.219003,22.315491]},"properties":{"name":"香港牛头角(地铁站)","original_ids":"[51]","id":50,"layer":"stop"}},{"type":"Feature","geometry":{"type":"Point","coordinates":[114.226441,22.31227]},"properties":{"name":"香港观塘(地铁站)","original_ids":"[52]","id":51,"layer":"stop"}},{"type":"Feature","geometry":{"type":"Point","coordinates":[114.233038,22.306618]},"properties":{"name":"香港蓝田(地铁站)","original_ids":"[53]","id":52,"layer":"stop"}},{"type":"Feature","geometry":{"type":"Point","coordinates":[114.237122,22.297907]},"properties":{"name":"香港油塘(地铁站)","original_ids":"[54]","id":53,"layer":"stop"}},{"type":"Feature","geometry":{"type":"Point","coordinates":[114.252448,22.304233]},"properties":{"name":"香港调景岭(地铁站)","original_ids":"[55]","id":54,"layer":"stop"}},{"type":"Feature","geometry":{"type":"Point","coordinates":[113.941965,22.321967]},"properties":{"name":"香港博览馆(地铁站)","original_ids":"[56]","id":55,"layer":"stop"}},{"type":"Feature","geometry":{"type":"Point","coordinates":[113.936577,22.315951]},"properties":{"name":"香港机场(地铁站)","original_ids":"[57]","id":56,"layer":"stop"}},{"type":"Feature","geometry":{"type":"Point","coordinates":[114.259917,22.307423]},"properties":{"name":"香港将军澳(地铁站)","original_ids":"[58]","id":57,"layer":"stop"}},{"type":"Feature","geometry":{"type":"Point","coordinates":[114.269028,22.295966]},"properties":{"name":"香港康城(地铁站)","original_ids":"[59]","id":58,"layer":"stop"}},{"type":"Feature","geometry":{"type":"Point","coordinates":[114.148935,22.242733]},"properties":{"name":"香港海怡半岛(地铁站)","original_ids":"[60]","id":59,"layer":"stop"}},{"type":"Feature","geometry":{"type":"Point","coordinates":[114.156553,22.242671]},"properties":{"name":"香港利东(地铁站)","original_ids":"[61]","id":60,"layer":"stop"}},{"type":"Feature","geometry":{"type":"Point","coordinates":[114.167571,22.247925]},"properties":{"name":"香港黄竹坑(地铁站)","original_ids":"[62]","id":61,"layer":"stop"}},{"type":"Feature","geometry":{"type":"Point","coordinates":[114.174506,22.248738]},"properties":{"name":"香港海洋公园(地铁站)","original_ids":"[63]","id":62,"layer":"stop"}},{"type":"Feature","geometry":{"type":"Point","coordinates":[114.117746,22.373643]},"properties":{"name":"香港荃湾(地铁站)","original_ids":"[64]","id":63,"layer":"stop"}},{"type":"Feature","geometry":{"type":"Point","coordinates":[114.124934,22.370947]},"properties":{"name":"香港大窝口(地铁站)","original_ids":"[65]","id":64,"layer":"stop"}},{"type":"Feature","geometry":{"type":"Point","coordinates":[114.131213,22.363287]},"properties":{"name":"香港葵兴(地铁站)","original_ids":"[66]","id":65,"layer":"stop"}},{"type":"Feature","geometry":{"type":"Point","coordinates":[114.127867,22.356885]},"properties":{"name":"香港葵芳(地铁站)","original_ids":"[67]","id":66,"layer":"stop"}},{"type":"Feature","geometry":{"type":"Point","coordinates":[114.13778,22.337892]},"properties":{"name":"香港美孚(地铁站)","original_ids":"[68]","id":67,"layer":"stop"}},{"type":"Feature","geometry":{"type":"Point","coordinates":[114.148223,22.337378]},"properties":{"name":"香港荔枝角(地铁站)","original_ids":"[69]","id":68,"layer":"stop"}},{"type":"Feature","geometry":{"type":"Point","coordinates":[114.156337,22.335412]},"properties":{"name":"香港长沙湾(地铁站)","original_ids":"[70]","id":69,"layer":"stop"}},{"type":"Feature","geometry":{"type":"Point","coordinates":[114.16237,22.330821]},"properties":{"name":"香港深水埗(地铁站)","original_ids":"[71]","id":70,"layer":"stop"}},{"type":"Feature","geometry":{"type":"Point","coordinates":[114.171681,22.304882]},"properties":{"name":"香港佐敦(地铁站)","original_ids":"[72]","id":71,"layer":"stop"}},{"type":"Feature","geometry":{"type":"Point","coordinates":[114.172245,22.297436]},"properties":{"name":"香港尖沙咀(地铁站)","original_ids":"[73]","id":72,"layer":"stop"}},{"type":"Feature","geometry":{"type":"Point","coordinates":[114.243774,22.429124]},"properties":{"name":"香港乌溪沙(地铁站)","original_ids":"[74]","id":73,"layer":"stop"}},{"type":"Feature","geometry":{"type":"Point","coordinates":[114.231801,22.424881]},"properties":{"name":"香港马鞍山(地铁站)","original_ids":"[75]","id":74,"layer":"stop"}},{"type":"Feature","geometry":{"type":"Point","coordinates":[114.225962,22.418122]},"properties":{"name":"香港恒安(地铁站)","original_ids":"[76]","id":75,"layer":"stop"}},{"type":"Feature","geometry":{"type":"Point","coordinates":[114.222813,22.408631]},"properties":{"name":"香港大水坑(地铁站)","original_ids":"[77]","id":76,"layer":"stop"}},{"type":"Feature","geometry":{"type":"Point","coordinates":[114.208448,22.387781]},"properties":{"name":"香港石门(地铁站)","original_ids":"[78]","id":77,"layer":"stop"}},{"type":"Feature","geometry":{"type":"Point","coordinates":[114.203487,22.382753]},"properties":{"name":"香港第一城(地铁站)","original_ids":"[79]","id":78,"layer":"stop"}},{"type":"Feature","geometry":{"type":"Point","coordinates":[114.194937,22.377044]},"properties":{"name":"香港沙田围(地铁站)","original_ids":"[80]","id":79,"layer":"stop"}},{"type":"Feature","geometry":{"type":"Point","coordinates":[114.186444,22.374797]},"properties":{"name":"香港车公庙(地铁站)","original_ids":"[81]","id":80,"layer":"stop"}},{"type":"Feature","geometry":{"type":"Point","coordinates":[114.170807,22.364118]},"properties":{"name":"香港显径(地铁站)","original_ids":"[82]","id":81,"layer":"stop"}},{"type":"Feature","geometry":{"type":"Point","coordinates":[114.199421,22.330499]},"properties":{"name":"香港启德(地铁站)","original_ids":"[83]","id":82,"layer":"stop"}},{"type":"Feature","geometry":{"type":"Point","coordinates":[114.191239,22.325801]},"properties":{"name":"香港宋皇台(地铁站)","original_ids":"[84]","id":83,"layer":"stop"}},{"type":"Feature","geometry":{"type":"Point","coordinates":[114.187599,22.317113]},"properties":{"name":"香港土瓜湾(地铁站)","original_ids":"[85]","id":84,"layer":"stop"}},{"type":"Feature","geometry":{"type":"Point","coordinates":[114.174911,22.295451]},"properties":{"name":"香港尖东(地铁站)","original_ids":"[86]","id":85,"layer":"stop"}},{"type":"Feature","geometry":{"type":"Point","coordinates":[114.166527,22.304474]},"properties":{"name":"香港柯士甸(地铁站)","original_ids":"[87]","id":86,"layer":"stop"}},{"type":"Feature","geometry":{"type":"Point","coordinates":[114.109863,22.368159]},"properties":{"name":"香港荃湾西(地铁站)","original_ids":"[88]","id":87,"layer":"stop"}},{"type":"Feature","geometry":{"type":"Point","coordinates":[114.0633,22.43493]},"properties":{"name":"香港锦上路(地铁站)","original_ids":"[89]","id":88,"layer":"stop"}},{"type":"Feature","geometry":{"type":"Point","coordinates":[114.035047,22.446114]},"properties":{"name":"香港元朗(地铁站)","original_ids":"[90]","id":89,"layer":"stop"}},{"type":"Feature","geometry":{"type":"Point","coordinates":[114.025376,22.447704]},"properties":{"name":"香港朗屏(地铁站)","original_ids":"[91]","id":90,"layer":"stop"}},{"type":"Feature","geometry":{"type":"Point","coordinates":[114.004697,22.448176]},"properties":{"name":"香港天水围(地铁站)","original_ids":"[92]","id":91,"layer":"stop"}},{"type":"Feature","geometry":{"type":"Point","coordinates":[113.97898,22.411772]},"properties":{"name":"香港兆康(地铁站)","original_ids":"[93]","id":92,"layer":"stop"}},{"type":"Feature","geometry":{"type":"Point","coordinates":[113.973154,22.395292]},"properties":{"name":"香港屯门(地铁站)","original_ids":"[94]","id":93,"layer":"stop"}},{"type":"Feature","geometry":{"type":"Point","coordinates":[114.065783,22.514558]},"properties":{"name":"落马洲","original_ids":"[95]","id":94,"layer":"stop"}},{"type":"Feature","geometry":{"type":"Point","coordinates":[114.264278,22.3156]},"properties":{"name":"坑口","original_ids":"[96]","id":95,"layer":"stop"}},{"type":"Feature","geometry":{"type":"Point","coordinates":[114.257694,22.32277]},"properties":{"name":"宝琳","original_ids":"[97]","id":96,"layer":"stop"}},{"type":"Feature","properties":{"shape_id":"{}","direction_id":"{\"0\": 50}","headsign":"{}","duration_avg":300,"n_vehicles":50,"d":3000,"route_I_counts":"{\"1\": 50}","source":0,"target":1,"layer":"L","from":"香港迪士尼(地铁站)","to":"香港欣澳(地铁站)"},"geometry":{"type":"LineString","coordinates":[[114.045163,22.315451],[114.02885,22.331773]]}},{"type":"Feature","properties":{"shape_id":"{}","direction_id":"{\"1\": 50}","headsign":"{}","duration_avg":300,"n_vehicles":50,"d":3000,"route_I_counts":"{\"1\": 50}","source":1,"target":0,"layer":"L","from":"香港欣澳(地铁站)","to":"香港迪士尼(地铁站)"},"geometry":{"type":"LineString","coordinates":[[114.02885,22.331773],[114.045163,22.315451]]}},{"type":"Feature","properties":{"shape_id":"{}","direction_id":"{\"0\": 50}","headsign":"{}","duration_avg":120,"n_vehicles":50,"d":1200,"route_I_counts":"{\"2\": 50}","source":2,"target":3,"layer":"L","from":"香港金钟(地铁站)","to":"香港会展(地铁站)"},"geometry":{"type":"LineString","coordinates":[[114.166239,22.278347],[114.175484,22.281653]]}},{"type":"Feature","properties":{"shape_id":"{}","direction_id":"{\"1\": 50}","headsign":"{}","duration_avg":120,"n_vehicles":50,"d":1200,"route_I_counts":"{\"2\": 50}","source":3,"target":2,"layer":"L","from":"香港会展(地铁站)","to":"香港金钟(地铁站)"},"geometry":{"type":"LineString","coordinates":[[114.175484,22.281653],[114.166239,22.278347]]}},{"type":"Feature","properties":{"shape_id":"{}","direction_id":"{\"0\": 50}","headsign":"{}","duration_avg":300,"n_vehicles":50,"d":3000,"route_I_counts":"{\"2\": 50}","source":3,"target":4,"layer":"L","from":"香港会展(地铁站)","to":"香港红磡(地铁站)"},"geometry":{"type":"LineString","coordinates":[[114.175484,22.281653],[114.181778,22.302894]]}},{"type":"Feature","properties":{"shape_id":"{}","direction_id":"{\"1\": 50}","headsign":"{}","duration_avg":300,"n_vehicles":50,"d":3000,"route_I_counts":"{\"2\": 50}","source":4,"target":3,"layer":"L","from":"香港红磡(地铁站)","to":"香港会展(地铁站)"},"geometry":{"type":"LineString","coordinates":[[114.181778,22.302894],[114.175484,22.281653]]}},{"type":"Feature","properties":{"shape_id":"{}","direction_id":"{\"0\": 50}","headsign":"{}","duration_avg":180,"n_vehicles":50,"d":1800,"route_I_counts":"{\"2\": 50}","source":4,"target":5,"layer":"L","from":"香港红磡(地铁站)","to":"香港旺角东(地铁站)"},"geometry":{"type":"LineString","coordinates":[[114.181778,22.302894],[114.172607,22.322171]]}},{"type":"Feature","properties":{"shape_id":"{}","direction_id":"{\"1\": 50}","headsign":"{}","duration_avg":180,"n_vehicles":50,"d":1800,"route_I_counts":"{\"2\": 50}","source":5,"target":4,"layer":"L","from":"香港旺角东(地铁站)","to":"香港红磡(地铁站)"},"geometry":{"type":"LineString","coordinates":[[114.172607,22.322171],[114.181778,22.302894]]}},{"type":"Feature","properties":{"shape_id":"{}","direction_id":"{\"0\": 50}","headsign":"{}","duration_avg":120,"n_vehicles":50,"d":1200,"route_I_counts":"{\"2\": 50}","source":5,"target":6,"layer":"L","from":"香港旺角东(地铁站)","to":"香港九龙塘(地铁站)"},"geometry":{"type":"LineString","coordinates":[[114.172607,22.322171],[114.175882,22.33698]]}},{"type":"Feature","properties":{"shape_id":"{}","direction_id":"{\"1\": 50}","headsign":"{}","duration_avg":120,"n_vehicles":50,"d":1200,"route_I_counts":"{\"2\": 50}","source":6,"target":5,"layer":"L","from":"香港九龙塘(地铁站)","to":"香港旺角东(地铁站)"},"geometry":{"type":"LineString","coordinates":[[114.175882,22.33698],[114.172607,22.322171]]}},{"type":"Feature","properties":{"shape_id":"{}","direction_id":"{\"0\": 50}","headsign":"{}","duration_avg":300,"n_vehicles":50,"d":3000,"route_I_counts":"{\"2\": 50}","source":6,"target":7,"layer":"L","from":"香港九龙塘(地铁站)","to":"香港大围(地铁站)"},"geometry":{"type":"LineString","coordinates":[[114.175882,22.33698],[114.178509,22.372919]]}},{"type":"Feature","properties":{"shape_id":"{}","direction_id":"{\"1\": 50}","headsign":"{}","duration_avg":300,"n_vehicles":50,"d":3000,"route_I_counts":"{\"2\": 50}","source":7,"target":6,"layer":"L","from":"香港大围(地铁站)","to":"香港九龙塘(地铁站)"},"geometry":{"type":"LineString","coordinates":[[114.178509,22.372919],[114.175882,22.33698]]}},{"type":"Feature","properties":{"shape_id":"{}","direction_id":"{\"0\": 50}","headsign":"{}","duration_avg":120,"n_vehicles":50,"d":1200,"route_I_counts":"{\"2\": 50}","source":7,"target":8,"layer":"L","from":"香港大围(地铁站)","to":"香港沙田(地铁站)"},"geometry":{"type":"LineString","coordinates":[[114.178509,22.372919],[114.187546,22.382558]]}},{"type":"Feature","properties":{"shape_id":"{}","direction_id":"{\"1\": 50}","headsign":"{}","duration_avg":120,"n_vehicles":50,"d":1200,"route_I_counts":"{\"2\": 50}","source":8,"target":7,"layer":"L","from":"香港沙田(地铁站)","to":"香港大围(地铁站)"},"geometry":{"type":"LineString","coordinates":[[114.187546,22.382558],[114.178509,22.372919]]}},{"type":"Feature","properties":{"shape_id":"{}","direction_id":"{\"0\": 50}","headsign":"{}","duration_avg":120,"n_vehicles":50,"d":1200,"route_I_counts":"{\"2\": 50}","source":8,"target":9,"layer":"L","from":"香港沙田(地铁站)","to":"香港火炭(地铁站)"},"geometry":{"type":"LineString","coordinates":[[114.187546,22.382558],[114.19823,22.395256]]}},{"type":"Feature","properties":{"shape_id":"{}","direction_id":"{\"1\": 50}","headsign":"{}","duration_avg":120,"n_vehicles":50,"d":1200,"route_I_counts":"{\"2\": 50}","source":9,"target":8,"layer":"L","from":"香港火炭(地铁站)","to":"香港沙田(地铁站)"},"geometry":{"type":"LineString","coordinates":[[114.19823,22.395256],[114.187546,22.382558]]}},{"type":"Feature","properties":{"shape_id":"{}","direction_id":"{\"0\": 50}","headsign":"{}","duration_avg":180,"n_vehicles":50,"d":1800,"route_I_counts":"{\"2\": 50}","source":9,"target":10,"layer":"L","from":"香港火炭(地铁站)","to":"香港大学(地铁站)"},"geometry":{"type":"LineString","coordinates":[[114.19823,22.395256],[114.210139,22.41387]]}},{"type":"Feature","properties":{"shape_id":"{}","direction_id":"{\"1\": 50}","headsign":"{}","duration_avg":180,"n_vehicles":50,"d":1800,"route_I_counts":"{\"2\": 50}","source":10,"target":9,"layer":"L","from":"香港大学(地铁站)","to":"香港火炭(地铁站)"},"geometry":{"type":"LineString","coordinates":[[114.210139,22.41387],[114.19823,22.395256]]}},{"type":"Feature","properties":{"shape_id":"{}","direction_id":"{\"0\": 50}","headsign":"{}","duration_avg":300,"n_vehicles":50,"d":3000,"route_I_counts":"{\"2\": 50}","source":10,"target":11,"layer":"L","from":"香港大学(地铁站)","to":"香港大埔墟(地铁站)"},"geometry":{"type":"LineString","coordinates":[[114.210139,22.41387],[114.170258,22.444693]]}},{"type":"Feature","properties":{"shape_id":"{}","direction_id":"{\"1\": 50}","headsign":"{}","duration_avg":300,"n_vehicles":50,"d":3000,"route_I_counts":"{\"2\": 50}","source":11,"target":10,"layer":"L","from":"香港大埔墟(地铁站)","to":"香港大学(地铁站)"},"geometry":{"type":"LineString","coordinates":[[114.170258,22.444693],[114.210139,22.41387]]}},{"type":"Feature","properties":{"shape_id":"{}","direction_id":"{\"0\": 50}","headsign":"{}","duration_avg":120,"n_vehicles":50,"d":1200,"route_I_counts":"{\"2\": 50}","source":11,"target":12,"layer":"L","from":"香港大埔墟(地铁站)","to":"香港太和(地铁站)"},"geometry":{"type":"LineString","coordinates":[[114.170258,22.444693],[114.161212,22.451]]}},{"type":"Feature","properties":{"shape_id":"{}","direction_id":"{\"1\": 50}","headsign":"{}","duration_avg":120,"n_vehicles":50,"d":1200,"route_I_counts":"{\"2\": 50}","source":12,"target":11,"layer":"L","from":"香港太和(地铁站)","to":"香港大埔墟(地铁站)"},"geometry":{"type":"LineString","coordinates":[[114.161212,22.451],[114.170258,22.444693]]}},{"type":"Feature","properties":{"shape_id":"{}","direction_id":"{\"0\": 50}","headsign":"{}","duration_avg":300,"n_vehicles":50,"d":3000,"route_I_counts":"{\"2\": 50}","source":12,"target":13,"layer":"L","from":"香港太和(地铁站)","to":"香港粉岭(地铁站)"},"geometry":{"type":"LineString","coordinates":[[114.161212,22.451],[114.138602,22.492192]]}},{"type":"Feature","properties":{"shape_id":"{}","direction_id":"{\"1\": 50}","headsign":"{}","duration_avg":300,"n_vehicles":50,"d":3000,"route_I_counts":"{\"2\": 50}","source":13,"target":12,"layer":"L","from":"香港粉岭(地铁站)","to":"香港太和(地铁站)"},"geometry":{"type":"LineString","coordinates":[[114.138602,22.492192],[114.161212,22.451]]}},{"type":"Feature","properties":{"shape_id":"{}","direction_id":"{\"0\": 50}","headsign":"{}","duration_avg":120,"n_vehicles":50,"d":1200,"route_I_counts":"{\"2\": 50}","source":13,"target":14,"layer":"L","from":"香港粉岭(地铁站)","to":"香港上水(地铁站)"},"geometry":{"type":"LineString","coordinates":[[114.138602,22.492192],[114.127708,22.501569]]}},{"type":"Feature","properties":{"shape_id":"{}","direction_id":"{\"1\": 50}","headsign":"{}","duration_avg":120,"n_vehicles":50,"d":1200,"route_I_counts":"{\"2\": 50}","source":14,"target":13,"layer":"L","from":"香港上水(地铁站)","to":"香港粉岭(地铁站)"},"geometry":{"type":"LineString","coordinates":[[114.127708,22.501569],[114.138602,22.492192]]}},{"type":"Feature","properties":{"shape_id":"{}","direction_id":"{\"0\": 50}","headsign":"{}","duration_avg":300,"n_vehicles":50,"d":3000,"route_I_counts":"{\"2\": 50}","source":14,"target":15,"layer":"L","from":"香港上水(地铁站)","to":"香港罗湖(地铁站)"},"geometry":{"type":"LineString","coordinates":[[114.127708,22.501569],[114.113232,22.528807]]}},{"type":"Feature","properties":{"shape_id":"{}","direction_id":"{\"1\": 50}","headsign":"{}","duration_avg":300,"n_vehicles":50,"d":3000,"route_I_counts":"{\"2\": 50}","source":15,"target":14,"layer":"L","from":"香港罗湖(地铁站)","to":"香港上水(地铁站)"},"geometry":{"type":"LineString","coordinates":[[114.113232,22.528807],[114.127708,22.501569]]}},{"type":"Feature","properties":{"shape_id":"{}","direction_id":"{\"0\": 50}","headsign":"{}","duration_avg":600,"n_vehicles":50,"d":6000,"route_I_counts":"{\"3\": 50}","source":16,"target":1,"layer":"L","from":"香港东涌(地铁站)","to":"香港欣澳(地铁站)"},"geometry":{"type":"LineString","coordinates":[[113.941378,22.289192],[114.02885,22.331773]]}},{"type":"Feature","properties":{"shape_id":"{}","direction_id":"{\"1\": 50}","headsign":"{}","duration_avg":600,"n_vehicles":50,"d":6000,"route_I_counts":"{\"3\": 50}","source":1,"target":16,"layer":"L","from":"香港欣澳(地铁站)","to":"香港东涌(地铁站)"},"geometry":{"type":"LineString","coordinates":[[114.02885,22.331773],[113.941378,22.289192]]}},{"type":"Feature","properties":{"shape_id":"{}","direction_id":"{\"0\": 50}","headsign":"{}","duration_avg":480,"n_vehicles":50,"d":4800,"route_I_counts":"{\"3\": 50}","source":1,"target":17,"layer":"L","from":"香港欣澳(地铁站)","to":"香港青衣(地铁站)"},"geometry":{"type":"LineString","coordinates":[[114.02885,22.331773],[114.107466,22.358439]]}},{"type":"Feature","properties":{"shape_id":"{}","direction_id":"{\"1\": 50}","headsign":"{}","duration_avg":480,"n_vehicles":50,"d":4800,"route_I_counts":"{\"3\": 50}","source":17,"target":1,"layer":"L","from":"香港青衣(地铁站)","to":"香港欣澳(地铁站)"},"geometry":{"type":"LineString","coordinates":[[114.107466,22.358439],[114.02885,22.331773]]}},{"type":"Feature","properties":{"shape_id":"{}","direction_id":"{\"0\": 50}","headsign":"{}","duration_avg":180,"n_vehicles":50,"d":1800,"route_I_counts":"{\"3\": 50}","source":17,"target":18,"layer":"L","from":"香港青衣(地铁站)","to":"香港荔景(地铁站)"},"geometry":{"type":"LineString","coordinates":[[114.107466,22.358439],[114.126041,22.34866]]}},{"type":"Feature","properties":{"shape_id":"{}","direction_id":"{\"1\": 50}","headsign":"{}","duration_avg":180,"n_vehicles":50,"d":1800,"route_I_counts":"{\"3\": 50}","source":18,"target":17,"layer":"L","from":"香港荔景(地铁站)","to":"香港青衣(地铁站)"},"geometry":{"type":"LineString","coordinates":[[114.126041,22.34866],[114.107466,22.358439]]}},{"type":"Feature","properties":{"shape_id":"{}","direction_id":"{\"0\": 50}","headsign":"{}","duration_avg":300,"n_vehicles":50,"d":3000,"route_I_counts":"{\"3\": 50}","source":18,"target":19,"layer":"L","from":"香港荔景(地铁站)","to":"香港南昌(地铁站)"},"geometry":{"type":"LineString","coordinates":[[114.126041,22.34866],[114.15354,22.326644]]}},{"type":"Feature","properties":{"shape_id":"{}","direction_id":"{\"1\": 50}","headsign":"{}","duration_avg":300,"n_vehicles":50,"d":3000,"route_I_counts":"{\"3\": 50}","source":19,"target":18,"layer":"L","from":"香港南昌(地铁站)","to":"香港荔景(地铁站)"},"geometry":{"type":"LineString","coordinates":[[114.15354,22.326644],[114.126041,22.34866]]}},{"type":"Feature","properties":{"shape_id":"{}","direction_id":"{\"0\": 50}","headsign":"{}","duration_avg":120,"n_vehicles":50,"d":1200,"route_I_counts":"{\"3\": 50}","source":19,"target":20,"layer":"L","from":"香港南昌(地铁站)","to":"香港奥运(地铁站)"},"geometry":{"type":"LineString","coordinates":[[114.15354,22.326644],[114.160239,22.317817]]}},{"type":"Feature","properties":{"shape_id":"{}","direction_id":"{\"1\": 50}","headsign":"{}","duration_avg":120,"n_vehicles":50,"d":1200,"route_I_counts":"{\"3\": 50}","source":20,"target":19,"layer":"L","from":"香港奥运(地铁站)","to":"香港南昌(地铁站)"},"geometry":{"type":"LineString","coordinates":[[114.160239,22.317817],[114.15354,22.326644]]}},{"type":"Feature","properties":{"shape_id":"{}","direction_id":"{\"0\": 50}","headsign":"{}","duration_avg":120,"n_vehicles":50,"d":1200,"route_I_counts":"{\"3\": 50}","source":20,"target":21,"layer":"L","from":"香港奥运(地铁站)","to":"香港九龙(地铁站)"},"geometry":{"type":"LineString","coordinates":[[114.160239,22.317817],[114.161605,22.305076]]}},{"type":"Feature","properties":{"shape_id":"{}","direction_id":"{\"1\": 50}","headsign":"{}","duration_avg":120,"n_vehicles":50,"d":1200,"route_I_counts":"{\"3\": 50}","source":21,"target":20,"layer":"L","from":"香港九龙(地铁站)","to":"香港奥运(地铁站)"},"geometry":{"type":"LineString","coordinates":[[114.161605,22.305076],[114.160239,22.317817]]}},{"type":"Feature","properties":{"shape_id":"{}","direction_id":"{\"0\": 50}","headsign":"{}","duration_avg":180,"n_vehicles":50,"d":1800,"route_I_counts":"{\"3\": 50, \"6\": 50}","source":21,"target":22,"layer":"L","from":"香港九龙(地铁站)","to":"香港香港(地铁站)"},"geometry":{"type":"LineString","coordinates":[[114.161605,22.305076],[114.158281,22.284591]]}},{"type":"Feature","properties":{"shape_id":"{}","direction_id":"{\"1\": 50}","headsign":"{}","duration_avg":180,"n_vehicles":50,"d":1800,"route_I_counts":"{\"3\": 50, \"6\": 50}","source":22,"target":21,"layer":"L","from":"香港香港(地铁站)","to":"香港九龙(地铁站)"},"geometry":{"type":"LineString","coordinates":[[114.158281,22.284591],[114.161605,22.305076]]}},{"type":"Feature","properties":{"shape_id":"{}","direction_id":"{\"0\": 50}","headsign":"{}","duration_avg":120,"n_vehicles":50,"d":1200,"route_I_counts":"{\"4\": 50}","source":23,"target":24,"layer":"L","from":"香港坚尼地城(地铁站)","to":"香港香港大学(地铁站)"},"geometry":{"type":"LineString","coordinates":[[114.128816,22.281247],[114.135765,22.284087]]}},{"type":"Feature","properties":{"shape_id":"{}","direction_id":"{\"1\": 50}","headsign":"{}","duration_avg":120,"n_vehicles":50,"d":1200,"route_I_counts":"{\"4\": 50}","source":24,"target":23,"layer":"L","from":"香港香港大学(地铁站)","to":"香港坚尼地城(地铁站)"},"geometry":{"type":"LineString","coordinates":[[114.135765,22.284087],[114.128816,22.281247]]}},{"type":"Feature","properties":{"shape_id":"{}","direction_id":"{\"0\": 50}","headsign":"{}","duration_avg":60,"n_vehicles":50,"d":600,"route_I_counts":"{\"4\": 50}","source":24,"target":25,"layer":"L","from":"香港香港大学(地铁站)","to":"香港西营盘(地铁站)"},"geometry":{"type":"LineString","coordinates":[[114.135765,22.284087],[114.14255,22.285366]]}},{"type":"Feature","properties":{"shape_id":"{}","direction_id":"{\"1\": 50}","headsign":"{}","duration_avg":60,"n_vehicles":50,"d":600,"route_I_counts":"{\"4\": 50}","source":25,"target":24,"layer":"L","from":"香港西营盘(地铁站)","to":"香港香港大学(地铁站)"},"geometry":{"type":"LineString","coordinates":[[114.14255,22.285366],[114.135765,22.284087]]}},{"type":"Feature","properties":{"shape_id":"{}","direction_id":"{\"0\": 50}","headsign":"{}","duration_avg":120,"n_vehicles":50,"d":1200,"route_I_counts":"{\"4\": 50}","source":25,"target":26,"layer":"L","from":"香港西营盘(地铁站)","to":"香港上环(地铁站)"},"geometry":{"type":"LineString","coordinates":[[114.14255,22.285366],[114.152741,22.286375]]}},{"type":"Feature","properties":{"shape_id":"{}","direction_id":"{\"1\": 50}","headsign":"{}","duration_avg":120,"n_vehicles":50,"d":1200,"route_I_counts":"{\"4\": 50}","source":26,"target":25,"layer":"L","from":"香港上环(地铁站)","to":"香港西营盘(地铁站)"},"geometry":{"type":"LineString","coordinates":[[114.152741,22.286375],[114.14255,22.285366]]}},{"type":"Feature","properties":{"shape_id":"{}","direction_id":"{\"0\": 50}","headsign":"{}","duration_avg":120,"n_vehicles":50,"d":1200,"route_I_counts":"{\"4\": 50}","source":26,"target":27,"layer":"L","from":"香港上环(地铁站)","to":"香港中环(地铁站)"},"geometry":{"type":"LineString","coordinates":[[114.152741,22.286375],[114.159083,22.281698]]}},{"type":"Feature","properties":{"shape_id":"{}","direction_id":"{\"1\": 50}","headsign":"{}","duration_avg":120,"n_vehicles":50,"d":1200,"route_I_counts":"{\"4\": 50}","source":27,"target":26,"layer":"L","from":"香港中环(地铁站)","to":"香港上环(地铁站)"},"geometry":{"type":"LineString","coordinates":[[114.159083,22.281698],[114.152741,22.286375]]}},{"type":"Feature","properties":{"shape_id":"{}","direction_id":"{\"0\": 50}","headsign":"{}","duration_avg":120,"n_vehicles":50,"d":1200,"route_I_counts":"{\"9\": 50, \"4\": 50}","source":27,"target":2,"layer":"L","from":"香港中环(地铁站)","to":"香港金钟(地铁站)"},"geometry":{"type":"LineString","coordinates":[[114.159083,22.281698],[114.166239,22.278347]]}},{"type":"Feature","properties":{"shape_id":"{}","direction_id":"{\"1\": 50}","headsign":"{}","duration_avg":120,"n_vehicles":50,"d":1200,"route_I_counts":"{\"9\": 50, \"4\": 50}","source":2,"target":27,"layer":"L","from":"香港金钟(地铁站)","to":"香港中环(地铁站)"},"geometry":{"type":"LineString","coordinates":[[114.166239,22.278347],[114.159083,22.281698]]}},{"type":"Feature","properties":{"shape_id":"{}","direction_id":"{\"0\": 50}","headsign":"{}","duration_avg":120,"n_vehicles":50,"d":1200,"route_I_counts":"{\"4\": 50}","source":2,"target":28,"layer":"L","from":"香港金钟(地铁站)","to":"香港湾仔(地铁站)"},"geometry":{"type":"LineString","coordinates":[[114.166239,22.278347],[114.172963,22.277141]]}},{"type":"Feature","properties":{"shape_id":"{}","direction_id":"{\"1\": 50}","headsign":"{}","duration_avg":120,"n_vehicles":50,"d":1200,"route_I_counts":"{\"4\": 50}","source":28,"target":2,"layer":"L","from":"香港湾仔(地铁站)","to":"香港金钟(地铁站)"},"geometry":{"type":"LineString","coordinates":[[114.172963,22.277141],[114.166239,22.278347]]}},{"type":"Feature","properties":{"shape_id":"{}","direction_id":"{\"0\": 50}","headsign":"{}","duration_avg":180,"n_vehicles":50,"d":1800,"route_I_counts":"{\"4\": 50}","source":28,"target":29,"layer":"L","from":"香港湾仔(地铁站)","to":"香港铜锣湾(地铁站)"},"geometry":{"type":"LineString","coordinates":[[114.172963,22.277141],[114.183634,22.280269]]}},{"type":"Feature","properties":{"shape_id":"{}","direction_id":"{\"1\": 50}","headsign":"{}","duration_avg":180,"n_vehicles":50,"d":1800,"route_I_counts":"{\"4\": 50}","source":29,"target":28,"layer":"L","from":"香港铜锣湾(地铁站)","to":"香港湾仔(地铁站)"},"geometry":{"type":"LineString","coordinates":[[114.183634,22.280269],[114.172963,22.277141]]}},{"type":"Feature","properties":{"shape_id":"{}","direction_id":"{\"0\": 50}","headsign":"{}","duration_avg":120,"n_vehicles":50,"d":1200,"route_I_counts":"{\"4\": 50}","source":29,"target":30,"layer":"L","from":"香港铜锣湾(地铁站)","to":"香港天后(地铁站)"},"geometry":{"type":"LineString","coordinates":[[114.183634,22.280269],[114.191876,22.282772]]}},{"type":"Feature","properties":{"shape_id":"{}","direction_id":"{\"1\": 50}","headsign":"{}","duration_avg":120,"n_vehicles":50,"d":1200,"route_I_counts":"{\"4\": 50}","source":30,"target":29,"layer":"L","from":"香港天后(地铁站)","to":"香港铜锣湾(地铁站)"},"geometry":{"type":"LineString","coordinates":[[114.191876,22.282772],[114.183634,22.280269]]}},{"type":"Feature","properties":{"shape_id":"{}","direction_id":"{\"0\": 50}","headsign":"{}","duration_avg":60,"n_vehicles":50,"d":600,"route_I_counts":"{\"4\": 50}","source":30,"target":31,"layer":"L","from":"香港天后(地铁站)","to":"香港炮台山(地铁站)"},"geometry":{"type":"LineString","coordinates":[[114.191876,22.282772],[114.19406,22.288482]]}},{"type":"Feature","properties":{"shape_id":"{}","direction_id":"{\"1\": 50}","headsign":"{}","duration_avg":60,"n_vehicles":50,"d":600,"route_I_counts":"{\"4\": 50}","source":31,"target":30,"layer":"L","from":"香港炮台山(地铁站)","to":"香港天后(地铁站)"},"geometry":{"type":"LineString","coordinates":[[114.19406,22.288482],[114.191876,22.282772]]}},{"type":"Feature","properties":{"shape_id":"{}","direction_id":"{\"0\": 50}","headsign":"{}","duration_avg":120,"n_vehicles":50,"d":1200,"route_I_counts":"{\"4\": 50}","source":31,"target":32,"layer":"L","from":"香港炮台山(地铁站)","to":"香港北角(地铁站)"},"geometry":{"type":"LineString","coordinates":[[114.19406,22.288482],[114.200594,22.291023]]}},{"type":"Feature","properties":{"shape_id":"{}","direction_id":"{\"1\": 50}","headsign":"{}","duration_avg":120,"n_vehicles":50,"d":1200,"route_I_counts":"{\"4\": 50}","source":32,"target":31,"layer":"L","from":"香港北角(地铁站)","to":"香港炮台山(地铁站)"},"geometry":{"type":"LineString","coordinates":[[114.200594,22.291023],[114.19406,22.288482]]}},{"type":"Feature","properties":{"shape_id":"{}","direction_id":"{\"0\": 50}","headsign":"{}","duration_avg":120,"n_vehicles":50,"d":1200,"route_I_counts":"{\"4\": 50, \"7\": 50}","source":32,"target":33,"layer":"L","from":"香港北角(地铁站)","to":"香港鲗鱼涌(地铁站)"},"geometry":{"type":"LineString","coordinates":[[114.200594,22.291023],[114.209827,22.28781]]}},{"type":"Feature","properties":{"shape_id":"{}","direction_id":"{\"1\": 50}","headsign":"{}","duration_avg":120,"n_vehicles":50,"d":1200,"route_I_counts":"{\"4\": 50, \"7\": 50}","source":33,"target":32,"layer":"L","from":"香港鲗鱼涌(地铁站)","to":"香港北角(地铁站)"},"geometry":{"type":"LineString","coordinates":[[114.209827,22.28781],[114.200594,22.291023]]}},{"type":"Feature","properties":{"shape_id":"{}","direction_id":"{\"0\": 50}","headsign":"{}","duration_avg":120,"n_vehicles":50,"d":1200,"route_I_counts":"{\"4\": 50}","source":33,"target":34,"layer":"L","from":"香港鲗鱼涌(地铁站)","to":"香港太古(地铁站)"},"geometry":{"type":"LineString","coordinates":[[114.209827,22.28781],[114.216152,22.284631]]}},{"type":"Feature","properties":{"shape_id":"{}","direction_id":"{\"1\": 50}","headsign":"{}","duration_avg":120,"n_vehicles":50,"d":1200,"route_I_counts":"{\"4\": 50}","source":34,"target":33,"layer":"L","from":"香港太古(地铁站)","to":"香港鲗鱼涌(地铁站)"},"geometry":{"type":"LineString","coordinates":[[114.216152,22.284631],[114.209827,22.28781]]}},{"type":"Feature","properties":{"shape_id":"{}","direction_id":"{\"0\": 50}","headsign":"{}","duration_avg":60,"n_vehicles":50,"d":600,"route_I_counts":"{\"4\": 50}","source":34,"target":35,"layer":"L","from":"香港太古(地铁站)","to":"香港西湾河(地铁站)"},"geometry":{"type":"LineString","coordinates":[[114.216152,22.284631],[114.222392,22.282122]]}},{"type":"Feature","properties":{"shape_id":"{}","direction_id":"{\"1\": 50}","headsign":"{}","duration_avg":60,"n_vehicles":50,"d":600,"route_I_counts":"{\"4\": 50}","source":35,"target":34,"layer":"L","from":"香港西湾河(地铁站)","to":"香港太古(地铁站)"},"geometry":{"type":"LineString","coordinates":[[114.222392,22.282122],[114.216152,22.284631]]}},{"type":"Feature","properties":{"shape_id":"{}","direction_id":"{\"0\": 50}","headsign":"{}","duration_avg":120,"n_vehicles":50,"d":1200,"route_I_counts":"{\"4\": 50}","source":35,"target":36,"layer":"L","from":"香港西湾河(地铁站)","to":"香港筲箕湾(地铁站)"},"geometry":{"type":"LineString","coordinates":[[114.222392,22.282122],[114.22913,22.279145]]}},{"type":"Feature","properties":{"shape_id":"{}","direction_id":"{\"1\": 50}","headsign":"{}","duration_avg":120,"n_vehicles":50,"d":1200,"route_I_counts":"{\"4\": 50}","source":36,"target":35,"layer":"L","from":"香港筲箕湾(地铁站)","to":"香港西湾河(地铁站)"},"geometry":{"type":"LineString","coordinates":[[114.22913,22.279145],[114.222392,22.282122]]}},{"type":"Feature","properties":{"shape_id":"{}","direction_id":"{\"0\": 50}","headsign":"{}","duration_avg":180,"n_vehicles":50,"d":1800,"route_I_counts":"{\"4\": 50}","source":36,"target":37,"layer":"L","from":"香港筲箕湾(地铁站)","to":"香港杏花邨(地铁站)"},"geometry":{"type":"LineString","coordinates":[[114.22913,22.279145],[114.239734,22.276644]]}},{"type":"Feature","properties":{"shape_id":"{}","direction_id":"{\"1\": 50}","headsign":"{}","duration_avg":180,"n_vehicles":50,"d":1800,"route_I_counts":"{\"4\": 50}","source":37,"target":36,"layer":"L","from":"香港杏花邨(地铁站)","to":"香港筲箕湾(地铁站)"},"geometry":{"type":"LineString","coordinates":[[114.239734,22.276644],[114.22913,22.279145]]}},{"type":"Feature","properties":{"shape_id":"{}","direction_id":"{\"0\": 50}","headsign":"{}","duration_avg":180,"n_vehicles":50,"d":1800,"route_I_counts":"{\"4\": 50}","source":37,"target":38,"layer":"L","from":"香港杏花邨(地铁站)","to":"香港柴湾(地铁站)"},"geometry":{"type":"LineString","coordinates":[[114.239734,22.276644],[114.23717,22.264597]]}},{"type":"Feature","properties":{"shape_id":"{}","direction_id":"{\"1\": 50}","headsign":"{}","duration_avg":180,"n_vehicles":50,"d":1800,"route_I_counts":"{\"4\": 50}","source":38,"target":37,"layer":"L","from":"香港柴湾(地铁站)","to":"香港杏花邨(地铁站)"},"geometry":{"type":"LineString","coordinates":[[114.23717,22.264597],[114.239734,22.276644]]}},{"type":"Feature","properties":{"shape_id":"{}","direction_id":"{\"0\": 50}","headsign":"{}","duration_avg":120,"n_vehicles":50,"d":1200,"route_I_counts":"{\"5\": 50}","source":39,"target":40,"layer":"L","from":"香港黄埔(地铁站)","to":"香港何文田(地铁站)"},"geometry":{"type":"LineString","coordinates":[[114.189504,22.305134],[114.182623,22.309323]]}},{"type":"Feature","properties":{"shape_id":"{}","direction_id":"{\"1\": 50}","headsign":"{}","duration_avg":120,"n_vehicles":50,"d":1200,"route_I_counts":"{\"5\": 50}","source":40,"target":39,"layer":"L","from":"香港何文田(地铁站)","to":"香港黄埔(地铁站)"},"geometry":{"type":"LineString","coordinates":[[114.182623,22.309323],[114.189504,22.305134]]}},{"type":"Feature","properties":{"shape_id":"{}","direction_id":"{\"0\": 50}","headsign":"{}","duration_avg":180,"n_vehicles":50,"d":1800,"route_I_counts":"{\"5\": 50}","source":40,"target":41,"layer":"L","from":"香港何文田(地铁站)","to":"香港油麻地(地铁站)"},"geometry":{"type":"LineString","coordinates":[[114.182623,22.309323],[114.170708,22.313023]]}},{"type":"Feature","properties":{"shape_id":"{}","direction_id":"{\"1\": 50}","headsign":"{}","duration_avg":180,"n_vehicles":50,"d":1800,"route_I_counts":"{\"5\": 50}","source":41,"target":40,"layer":"L","from":"香港油麻地(地铁站)","to":"香港何文田(地铁站)"},"geometry":{"type":"LineString","coordinates":[[114.170708,22.313023],[114.182623,22.309323]]}},{"type":"Feature","properties":{"shape_id":"{}","direction_id":"{\"0\": 50}","headsign":"{}","duration_avg":120,"n_vehicles":50,"d":1200,"route_I_counts":"{\"9\": 50, \"5\": 50}","source":41,"target":42,"layer":"L","from":"香港油麻地(地铁站)","to":"香港旺角(地铁站)"},"geometry":{"type":"LineString","coordinates":[[114.170708,22.313023],[114.169367,22.319391]]}},{"type":"Feature","properties":{"shape_id":"{}","direction_id":"{\"1\": 50}","headsign":"{}","duration_avg":120,"n_vehicles":50,"d":1200,"route_I_counts":"{\"9\": 50, \"5\": 50}","source":42,"target":41,"layer":"L","from":"香港旺角(地铁站)","to":"香港油麻地(地铁站)"},"geometry":{"type":"LineString","coordinates":[[114.169367,22.319391],[114.170708,22.313023]]}},{"type":"Feature","properties":{"shape_id":"{}","direction_id":"{\"0\": 50}","headsign":"{}","duration_avg":120,"n_vehicles":50,"d":1200,"route_I_counts":"{\"9\": 50, \"5\": 50}","source":42,"target":43,"layer":"L","from":"香港旺角(地铁站)","to":"香港太子(地铁站)"},"geometry":{"type":"LineString","coordinates":[[114.169367,22.319391],[114.168262,22.324694]]}},{"type":"Feature","properties":{"shape_id":"{}","direction_id":"{\"1\": 50}","headsign":"{}","duration_avg":120,"n_vehicles":50,"d":1200,"route_I_counts":"{\"9\": 50, \"5\": 50}","source":43,"target":42,"layer":"L","from":"香港太子(地铁站)","to":"香港旺角(地铁站)"},"geometry":{"type":"LineString","coordinates":[[114.168262,22.324694],[114.169367,22.319391]]}},{"type":"Feature","properties":{"shape_id":"{}","direction_id":"{\"0\": 50}","headsign":"{}","duration_avg":120,"n_vehicles":50,"d":1200,"route_I_counts":"{\"5\": 50}","source":43,"target":44,"layer":"L","from":"香港太子(地铁站)","to":"香港石硖尾(地铁站)"},"geometry":{"type":"LineString","coordinates":[[114.168262,22.324694],[114.168734,22.331905]]}},{"type":"Feature","properties":{"shape_id":"{}","direction_id":"{\"1\": 50}","headsign":"{}","duration_avg":120,"n_vehicles":50,"d":1200,"route_I_counts":"{\"5\": 50}","source":44,"target":43,"layer":"L","from":"香港石硖尾(地铁站)","to":"香港太子(地铁站)"},"geometry":{"type":"LineString","coordinates":[[114.168734,22.331905],[114.168262,22.324694]]}},{"type":"Feature","properties":{"shape_id":"{}","direction_id":"{\"0\": 50}","headsign":"{}","duration_avg":120,"n_vehicles":50,"d":1200,"route_I_counts":"{\"5\": 50}","source":44,"target":6,"layer":"L","from":"香港石硖尾(地铁站)","to":"香港九龙塘(地铁站)"},"geometry":{"type":"LineString","coordinates":[[114.168734,22.331905],[114.175882,22.33698]]}},{"type":"Feature","properties":{"shape_id":"{}","direction_id":"{\"1\": 50}","headsign":"{}","duration_avg":120,"n_vehicles":50,"d":1200,"route_I_counts":"{\"5\": 50}","source":6,"target":44,"layer":"L","from":"香港九龙塘(地铁站)","to":"香港石硖尾(地铁站)"},"geometry":{"type":"LineString","coordinates":[[114.175882,22.33698],[114.168734,22.331905]]}},{"type":"Feature","properties":{"shape_id":"{}","direction_id":"{\"0\": 50}","headsign":"{}","duration_avg":120,"n_vehicles":50,"d":1200,"route_I_counts":"{\"5\": 50}","source":6,"target":45,"layer":"L","from":"香港九龙塘(地铁站)","to":"香港乐富(地铁站)"},"geometry":{"type":"LineString","coordinates":[[114.175882,22.33698],[114.187272,22.337847]]}},{"type":"Feature","properties":{"shape_id":"{}","direction_id":"{\"1\": 50}","headsign":"{}","duration_avg":120,"n_vehicles":50,"d":1200,"route_I_counts":"{\"5\": 50}","source":45,"target":6,"layer":"L","from":"香港乐富(地铁站)","to":"香港九龙塘(地铁站)"},"geometry":{"type":"LineString","coordinates":[[114.187272,22.337847],[114.175882,22.33698]]}},{"type":"Feature","properties":{"shape_id":"{}","direction_id":"{\"0\": 50}","headsign":"{}","duration_avg":120,"n_vehicles":50,"d":1200,"route_I_counts":"{\"5\": 50}","source":45,"target":46,"layer":"L","from":"香港乐富(地铁站)","to":"香港黄大仙(地铁站)"},"geometry":{"type":"LineString","coordinates":[[114.187272,22.337847],[114.194054,22.341709]]}},{"type":"Feature","properties":{"shape_id":"{}","direction_id":"{\"1\": 50}","headsign":"{}","duration_avg":120,"n_vehicles":50,"d":1200,"route_I_counts":"{\"5\": 50}","source":46,"target":45,"layer":"L","from":"香港黄大仙(地铁站)","to":"香港乐富(地铁站)"},"geometry":{"type":"LineString","coordinates":[[114.194054,22.341709],[114.187272,22.337847]]}},{"type":"Feature","properties":{"shape_id":"{}","direction_id":"{\"0\": 50}","headsign":"{}","duration_avg":120,"n_vehicles":50,"d":1200,"route_I_counts":"{\"5\": 50}","source":46,"target":47,"layer":"L","from":"香港黄大仙(地铁站)","to":"香港钻石山(地铁站)"},"geometry":{"type":"LineString","coordinates":[[114.194054,22.341709],[114.201425,22.340153]]}},{"type":"Feature","properties":{"shape_id":"{}","direction_id":"{\"1\": 50}","headsign":"{}","duration_avg":120,"n_vehicles":50,"d":1200,"route_I_counts":"{\"5\": 50}","source":47,"target":46,"layer":"L","from":"香港钻石山(地铁站)","to":"香港黄大仙(地铁站)"},"geometry":{"type":"LineString","coordinates":[[114.201425,22.340153],[114.194054,22.341709]]}},{"type":"Feature","properties":{"shape_id":"{}","direction_id":"{\"0\": 50}","headsign":"{}","duration_avg":120,"n_vehicles":50,"d":1200,"route_I_counts":"{\"5\": 50}","source":47,"target":48,"layer":"L","from":"香港钻石山(地铁站)","to":"香港彩虹(地铁站)"},"geometry":{"type":"LineString","coordinates":[[114.201425,22.340153],[114.20894,22.334785]]}},{"type":"Feature","properties":{"shape_id":"{}","direction_id":"{\"1\": 50}","headsign":"{}","duration_avg":120,"n_vehicles":50,"d":1200,"route_I_counts":"{\"5\": 50}","source":48,"target":47,"layer":"L","from":"香港彩虹(地铁站)","to":"香港钻石山(地铁站)"},"geometry":{"type":"LineString","coordinates":[[114.20894,22.334785],[114.201425,22.340153]]}},{"type":"Feature","properties":{"shape_id":"{}","direction_id":"{\"0\": 50}","headsign":"{}","duration_avg":180,"n_vehicles":50,"d":1800,"route_I_counts":"{\"5\": 50}","source":48,"target":49,"layer":"L","from":"香港彩虹(地铁站)","to":"香港九龙湾(地铁站)"},"geometry":{"type":"LineString","coordinates":[[114.20894,22.334785],[114.214031,22.32363]]}},{"type":"Feature","properties":{"shape_id":"{}","direction_id":"{\"1\": 50}","headsign":"{}","duration_avg":180,"n_vehicles":50,"d":1800,"route_I_counts":"{\"5\": 50}","source":49,"target":48,"layer":"L","from":"香港九龙湾(地铁站)","to":"香港彩虹(地铁站)"},"geometry":{"type":"LineString","coordinates":[[114.214031,22.32363],[114.20894,22.334785]]}},{"type":"Feature","properties":{"shape_id":"{}","direction_id":"{\"0\": 50}","headsign":"{}","duration_avg":120,"n_vehicles":50,"d":1200,"route_I_counts":"{\"5\": 50}","source":49,"target":50,"layer":"L","from":"香港九龙湾(地铁站)","to":"香港牛头角(地铁站)"},"geometry":{"type":"LineString","coordinates":[[114.214031,22.32363],[114.219003,22.315491]]}},{"type":"Feature","properties":{"shape_id":"{}","direction_id":"{\"1\": 50}","headsign":"{}","duration_avg":120,"n_vehicles":50,"d":1200,"route_I_counts":"{\"5\": 50}","source":50,"target":49,"layer":"L","from":"香港牛头角(地铁站)","to":"香港九龙湾(地铁站)"},"geometry":{"type":"LineString","coordinates":[[114.219003,22.315491],[114.214031,22.32363]]}},{"type":"Feature","properties":{"shape_id":"{}","direction_id":"{\"0\": 50}","headsign":"{}","duration_avg":120,"n_vehicles":50,"d":1200,"route_I_counts":"{\"5\": 50}","source":50,"target":51,"layer":"L","from":"香港牛头角(地铁站)","to":"香港观塘(地铁站)"},"geometry":{"type":"LineString","coordinates":[[114.219003,22.315491],[114.226441,22.31227]]}},{"type":"Feature","properties":{"shape_id":"{}","direction_id":"{\"1\": 50}","headsign":"{}","duration_avg":120,"n_vehicles":50,"d":1200,"route_I_counts":"{\"5\": 50}","source":51,"target":50,"layer":"L","from":"香港观塘(地铁站)","to":"香港牛头角(地铁站)"},"geometry":{"type":"LineString","coordinates":[[114.226441,22.31227],[114.219003,22.315491]]}},{"type":"Feature","properties":{"shape_id":"{}","direction_id":"{\"0\": 50}","headsign":"{}","duration_avg":120,"n_vehicles":50,"d":1200,"route_I_counts":"{\"5\": 50}","source":51,"target":52,"layer":"L","from":"香港观塘(地铁站)","to":"香港蓝田(地铁站)"},"geometry":{"type":"LineString","coordinates":[[114.226441,22.31227],[114.233038,22.306618]]}},{"type":"Feature","properties":{"shape_id":"{}","direction_id":"{\"1\": 50}","headsign":"{}","duration_avg":120,"n_vehicles":50,"d":1200,"route_I_counts":"{\"5\": 50}","source":52,"target":51,"layer":"L","from":"香港蓝田(地铁站)","to":"香港观塘(地铁站)"},"geometry":{"type":"LineString","coordinates":[[114.233038,22.306618],[114.226441,22.31227]]}},{"type":"Feature","properties":{"shape_id":"{}","direction_id":"{\"0\": 50}","headsign":"{}","duration_avg":120,"n_vehicles":50,"d":1200,"route_I_counts":"{\"5\": 50}","source":52,"target":53,"layer":"L","from":"香港蓝田(地铁站)","to":"香港油塘(地铁站)"},"geometry":{"type":"LineString","coordinates":[[114.233038,22.306618],[114.237122,22.297907]]}},{"type":"Feature","properties":{"shape_id":"{}","direction_id":"{\"1\": 50}","headsign":"{}","duration_avg":120,"n_vehicles":50,"d":1200,"route_I_counts":"{\"5\": 50}","source":53,"target":52,"layer":"L","from":"香港油塘(地铁站)","to":"香港蓝田(地铁站)"},"geometry":{"type":"LineString","coordinates":[[114.237122,22.297907],[114.233038,22.306618]]}},{"type":"Feature","properties":{"shape_id":"{}","direction_id":"{\"0\": 50}","headsign":"{}","duration_avg":240,"n_vehicles":50,"d":2400,"route_I_counts":"{\"5\": 50, \"7\": 50}","source":53,"target":54,"layer":"L","from":"香港油塘(地铁站)","to":"香港调景岭(地铁站)"},"geometry":{"type":"LineString","coordinates":[[114.237122,22.297907],[114.252448,22.304233]]}},{"type":"Feature","properties":{"shape_id":"{}","direction_id":"{\"1\": 50}","headsign":"{}","duration_avg":240,"n_vehicles":50,"d":2400,"route_I_counts":"{\"5\": 50, \"7\": 50}","source":54,"target":53,"layer":"L","from":"香港调景岭(地铁站)","to":"香港油塘(地铁站)"},"geometry":{"type":"LineString","coordinates":[[114.252448,22.304233],[114.237122,22.297907]]}},{"type":"Feature","properties":{"shape_id":"{}","direction_id":"{\"0\": 50}","headsign":"{}","duration_avg":60,"n_vehicles":50,"d":600,"route_I_counts":"{\"6\": 50}","source":55,"target":56,"layer":"L","from":"香港博览馆(地铁站)","to":"香港机场(地铁站)"},"geometry":{"type":"LineString","coordinates":[[113.941965,22.321967],[113.936577,22.315951]]}},{"type":"Feature","properties":{"shape_id":"{}","direction_id":"{\"1\": 50}","headsign":"{}","duration_avg":60,"n_vehicles":50,"d":600,"route_I_counts":"{\"6\": 50}","source":56,"target":55,"layer":"L","from":"香港机场(地铁站)","to":"香港博览馆(地铁站)"},"geometry":{"type":"LineString","coordinates":[[113.936577,22.315951],[113.941965,22.321967]]}},{"type":"Feature","properties":{"shape_id":"{}","direction_id":"{\"0\": 50}","headsign":"{}","duration_avg":1020,"n_vehicles":50,"d":10200,"route_I_counts":"{\"6\": 50}","source":56,"target":17,"layer":"L","from":"香港机场(地铁站)","to":"香港青衣(地铁站)"},"geometry":{"type":"LineString","coordinates":[[113.936577,22.315951],[114.107466,22.358439]]}},{"type":"Feature","properties":{"shape_id":"{}","direction_id":"{\"1\": 50}","headsign":"{}","duration_avg":1020,"n_vehicles":50,"d":10200,"route_I_counts":"{\"6\": 50}","source":17,"target":56,"layer":"L","from":"香港青衣(地铁站)","to":"香港机场(地铁站)"},"geometry":{"type":"LineString","coordinates":[[114.107466,22.358439],[113.936577,22.315951]]}},{"type":"Feature","properties":{"shape_id":"{}","direction_id":"{\"0\": 50}","headsign":"{}","duration_avg":720,"n_vehicles":50,"d":7200,"route_I_counts":"{\"6\": 50}","source":17,"target":21,"layer":"L","from":"香港青衣(地铁站)","to":"香港九龙(地铁站)"},"geometry":{"type":"LineString","coordinates":[[114.107466,22.358439],[114.161605,22.305076]]}},{"type":"Feature","properties":{"shape_id":"{}","direction_id":"{\"1\": 50}","headsign":"{}","duration_avg":720,"n_vehicles":50,"d":7200,"route_I_counts":"{\"6\": 50}","source":21,"target":17,"layer":"L","from":"香港九龙(地铁站)","to":"香港青衣(地铁站)"},"geometry":{"type":"LineString","coordinates":[[114.161605,22.305076],[114.107466,22.358439]]}},{"type":"Feature","properties":{"shape_id":"{}","direction_id":"{\"0\": 50}","headsign":"{}","duration_avg":300,"n_vehicles":50,"d":3000,"route_I_counts":"{\"7\": 50}","source":33,"target":53,"layer":"L","from":"香港鲗鱼涌(地铁站)","to":"香港油塘(地铁站)"},"geometry":{"type":"LineString","coordinates":[[114.209827,22.28781],[114.237122,22.297907]]}},{"type":"Feature","properties":{"shape_id":"{}","direction_id":"{\"1\": 50}","headsign":"{}","duration_avg":300,"n_vehicles":50,"d":3000,"route_I_counts":"{\"7\": 50}","source":53,"target":33,"layer":"L","from":"香港油塘(地铁站)","to":"香港鲗鱼涌(地铁站)"},"geometry":{"type":"LineString","coordinates":[[114.237122,22.297907],[114.209827,22.28781]]}},{"type":"Feature","properties":{"shape_id":"{}","direction_id":"{\"0\": 50}","headsign":"{}","duration_avg":240,"n_vehicles":50,"d":2400,"route_I_counts":"{\"7\": 50}","source":54,"target":57,"layer":"L","from":"香港调景岭(地铁站)","to":"香港将军澳(地铁站)"},"geometry":{"type":"LineString","coordinates":[[114.252448,22.304233],[114.259917,22.307423]]}},{"type":"Feature","properties":{"shape_id":"{}","direction_id":"{\"1\": 50}","headsign":"{}","duration_avg":240,"n_vehicles":50,"d":2400,"route_I_counts":"{\"7\": 50}","source":57,"target":54,"layer":"L","from":"香港将军澳(地铁站)","to":"香港调景岭(地铁站)"},"geometry":{"type":"LineString","coordinates":[[114.259917,22.307423],[114.252448,22.304233]]}},{"type":"Feature","properties":{"shape_id":"{}","direction_id":"{\"0\": 50}","headsign":"{}","duration_avg":420,"n_vehicles":50,"d":4200,"route_I_counts":"{\"7\": 50}","source":57,"target":58,"layer":"L","from":"香港将军澳(地铁站)","to":"香港康城(地铁站)"},"geometry":{"type":"LineString","coordinates":[[114.259917,22.307423],[114.269028,22.295966]]}},{"type":"Feature","properties":{"shape_id":"{}","direction_id":"{\"1\": 50}","headsign":"{}","duration_avg":420,"n_vehicles":50,"d":4200,"route_I_counts":"{\"7\": 50}","source":58,"target":57,"layer":"L","from":"香港康城(地铁站)","to":"香港将军澳(地铁站)"},"geometry":{"type":"LineString","coordinates":[[114.269028,22.295966],[114.259917,22.307423]]}},{"type":"Feature","properties":{"shape_id":"{}","direction_id":"{\"0\": 50}","headsign":"{}","duration_avg":120,"n_vehicles":50,"d":1200,"route_I_counts":"{\"8\": 50}","source":59,"target":60,"layer":"L","from":"香港海怡半岛(地铁站)","to":"香港利东(地铁站)"},"geometry":{"type":"LineString","coordinates":[[114.148935,22.242733],[114.156553,22.242671]]}},{"type":"Feature","properties":{"shape_id":"{}","direction_id":"{\"1\": 50}","headsign":"{}","duration_avg":120,"n_vehicles":50,"d":1200,"route_I_counts":"{\"8\": 50}","source":60,"target":59,"layer":"L","from":"香港利东(地铁站)","to":"香港海怡半岛(地铁站)"},"geometry":{"type":"LineString","coordinates":[[114.156553,22.242671],[114.148935,22.242733]]}},{"type":"Feature","properties":{"shape_id":"{}","direction_id":"{\"0\": 50}","headsign":"{}","duration_avg":240,"n_vehicles":50,"d":2400,"route_I_counts":"{\"8\": 50}","source":60,"target":61,"layer":"L","from":"香港利东(地铁站)","to":"香港黄竹坑(地铁站)"},"geometry":{"type":"LineString","coordinates":[[114.156553,22.242671],[114.167571,22.247925]]}},{"type":"Feature","properties":{"shape_id":"{}","direction_id":"{\"1\": 50}","headsign":"{}","duration_avg":240,"n_vehicles":50,"d":2400,"route_I_counts":"{\"8\": 50}","source":61,"target":60,"layer":"L","from":"香港黄竹坑(地铁站)","to":"香港利东(地铁站)"},"geometry":{"type":"LineString","coordinates":[[114.167571,22.247925],[114.156553,22.242671]]}},{"type":"Feature","properties":{"shape_id":"{}","direction_id":"{\"0\": 50}","headsign":"{}","duration_avg":60,"n_vehicles":50,"d":600,"route_I_counts":"{\"8\": 50}","source":61,"target":62,"layer":"L","from":"香港黄竹坑(地铁站)","to":"香港海洋公园(地铁站)"},"geometry":{"type":"LineString","coordinates":[[114.167571,22.247925],[114.174506,22.248738]]}},{"type":"Feature","properties":{"shape_id":"{}","direction_id":"{\"1\": 50}","headsign":"{}","duration_avg":60,"n_vehicles":50,"d":600,"route_I_counts":"{\"8\": 50}","source":62,"target":61,"layer":"L","from":"香港海洋公园(地铁站)","to":"香港黄竹坑(地铁站)"},"geometry":{"type":"LineString","coordinates":[[114.174506,22.248738],[114.167571,22.247925]]}},{"type":"Feature","properties":{"shape_id":"{}","direction_id":"{\"0\": 50}","headsign":"{}","duration_avg":240,"n_vehicles":50,"d":2400,"route_I_counts":"{\"8\": 50}","source":62,"target":2,"layer":"L","from":"香港海洋公园(地铁站)","to":"香港金钟(地铁站)"},"geometry":{"type":"LineString","coordinates":[[114.174506,22.248738],[114.166239,22.278347]]}},{"type":"Feature","properties":{"shape_id":"{}","direction_id":"{\"1\": 50}","headsign":"{}","duration_avg":240,"n_vehicles":50,"d":2400,"route_I_counts":"{\"8\": 50}","source":2,"target":62,"layer":"L","from":"香港金钟(地铁站)","to":"香港海洋公园(地铁站)"},"geometry":{"type":"LineString","coordinates":[[114.166239,22.278347],[114.174506,22.248738]]}},{"type":"Feature","properties":{"shape_id":"{}","direction_id":"{\"0\": 50}","headsign":"{}","duration_avg":120,"n_vehicles":50,"d":1200,"route_I_counts":"{\"9\": 50}","source":63,"target":64,"layer":"L","from":"香港荃湾(地铁站)","to":"香港大窝口(地铁站)"},"geometry":{"type":"LineString","coordinates":[[114.117746,22.373643],[114.124934,22.370947]]}},{"type":"Feature","properties":{"shape_id":"{}","direction_id":"{\"1\": 50}","headsign":"{}","duration_avg":120,"n_vehicles":50,"d":1200,"route_I_counts":"{\"9\": 50}","source":64,"target":63,"layer":"L","from":"香港大窝口(地铁站)","to":"香港荃湾(地铁站)"},"geometry":{"type":"LineString","coordinates":[[114.124934,22.370947],[114.117746,22.373643]]}},{"type":"Feature","properties":{"shape_id":"{}","direction_id":"{\"0\": 50}","headsign":"{}","duration_avg":120,"n_vehicles":50,"d":1200,"route_I_counts":"{\"9\": 50}","source":64,"target":65,"layer":"L","from":"香港大窝口(地铁站)","to":"香港葵兴(地铁站)"},"geometry":{"type":"LineString","coordinates":[[114.124934,22.370947],[114.131213,22.363287]]}},{"type":"Feature","properties":{"shape_id":"{}","direction_id":"{\"1\": 50}","headsign":"{}","duration_avg":120,"n_vehicles":50,"d":1200,"route_I_counts":"{\"9\": 50}","source":65,"target":64,"layer":"L","from":"香港葵兴(地铁站)","to":"香港大窝口(地铁站)"},"geometry":{"type":"LineString","coordinates":[[114.131213,22.363287],[114.124934,22.370947]]}},{"type":"Feature","properties":{"shape_id":"{}","direction_id":"{\"0\": 50}","headsign":"{}","duration_avg":60,"n_vehicles":50,"d":600,"route_I_counts":"{\"9\": 50}","source":65,"target":66,"layer":"L","from":"香港葵兴(地铁站)","to":"香港葵芳(地铁站)"},"geometry":{"type":"LineString","coordinates":[[114.131213,22.363287],[114.127867,22.356885]]}},{"type":"Feature","properties":{"shape_id":"{}","direction_id":"{\"1\": 50}","headsign":"{}","duration_avg":60,"n_vehicles":50,"d":600,"route_I_counts":"{\"9\": 50}","source":66,"target":65,"layer":"L","from":"香港葵芳(地铁站)","to":"香港葵兴(地铁站)"},"geometry":{"type":"LineString","coordinates":[[114.127867,22.356885],[114.131213,22.363287]]}},{"type":"Feature","properties":{"shape_id":"{}","direction_id":"{\"0\": 50}","headsign":"{}","duration_avg":120,"n_vehicles":50,"d":1200,"route_I_counts":"{\"9\": 50}","source":66,"target":18,"layer":"L","from":"香港葵芳(地铁站)","to":"香港荔景(地铁站)"},"geometry":{"type":"LineString","coordinates":[[114.127867,22.356885],[114.126041,22.34866]]}},{"type":"Feature","properties":{"shape_id":"{}","direction_id":"{\"1\": 50}","headsign":"{}","duration_avg":120,"n_vehicles":50,"d":1200,"route_I_counts":"{\"9\": 50}","source":18,"target":66,"layer":"L","from":"香港荔景(地铁站)","to":"香港葵芳(地铁站)"},"geometry":{"type":"LineString","coordinates":[[114.126041,22.34866],[114.127867,22.356885]]}},{"type":"Feature","properties":{"shape_id":"{}","direction_id":"{\"0\": 50}","headsign":"{}","duration_avg":180,"n_vehicles":50,"d":1800,"route_I_counts":"{\"9\": 50}","source":18,"target":67,"layer":"L","from":"香港荔景(地铁站)","to":"香港美孚(地铁站)"},"geometry":{"type":"LineString","coordinates":[[114.126041,22.34866],[114.13778,22.337892]]}},{"type":"Feature","properties":{"shape_id":"{}","direction_id":"{\"1\": 50}","headsign":"{}","duration_avg":180,"n_vehicles":50,"d":1800,"route_I_counts":"{\"9\": 50}","source":67,"target":18,"layer":"L","from":"香港美孚(地铁站)","to":"香港荔景(地铁站)"},"geometry":{"type":"LineString","coordinates":[[114.13778,22.337892],[114.126041,22.34866]]}},{"type":"Feature","properties":{"shape_id":"{}","direction_id":"{\"0\": 50}","headsign":"{}","duration_avg":120,"n_vehicles":50,"d":1200,"route_I_counts":"{\"9\": 50}","source":67,"target":68,"layer":"L","from":"香港美孚(地铁站)","to":"香港荔枝角(地铁站)"},"geometry":{"type":"LineString","coordinates":[[114.13778,22.337892],[114.148223,22.337378]]}},{"type":"Feature","properties":{"shape_id":"{}","direction_id":"{\"1\": 50}","headsign":"{}","duration_avg":120,"n_vehicles":50,"d":1200,"route_I_counts":"{\"9\": 50}","source":68,"target":67,"layer":"L","from":"香港荔枝角(地铁站)","to":"香港美孚(地铁站)"},"geometry":{"type":"LineString","coordinates":[[114.148223,22.337378],[114.13778,22.337892]]}},{"type":"Feature","properties":{"shape_id":"{}","direction_id":"{\"0\": 50}","headsign":"{}","duration_avg":120,"n_vehicles":50,"d":1200,"route_I_counts":"{\"9\": 50}","source":68,"target":69,"layer":"L","from":"香港荔枝角(地铁站)","to":"香港长沙湾(地铁站)"},"geometry":{"type":"LineString","coordinates":[[114.148223,22.337378],[114.156337,22.335412]]}},{"type":"Feature","properties":{"shape_id":"{}","direction_id":"{\"1\": 50}","headsign":"{}","duration_avg":120,"n_vehicles":50,"d":1200,"route_I_counts":"{\"9\": 50}","source":69,"target":68,"layer":"L","from":"香港长沙湾(地铁站)","to":"香港荔枝角(地铁站)"},"geometry":{"type":"LineString","coordinates":[[114.156337,22.335412],[114.148223,22.337378]]}},{"type":"Feature","properties":{"shape_id":"{}","direction_id":"{\"0\": 50}","headsign":"{}","duration_avg":60,"n_vehicles":50,"d":600,"route_I_counts":"{\"9\": 50}","source":69,"target":70,"layer":"L","from":"香港长沙湾(地铁站)","to":"香港深水埗(地铁站)"},"geometry":{"type":"LineString","coordinates":[[114.156337,22.335412],[114.16237,22.330821]]}},{"type":"Feature","properties":{"shape_id":"{}","direction_id":"{\"1\": 50}","headsign":"{}","duration_avg":60,"n_vehicles":50,"d":600,"route_I_counts":"{\"9\": 50}","source":70,"target":69,"layer":"L","from":"香港深水埗(地铁站)","to":"香港长沙湾(地铁站)"},"geometry":{"type":"LineString","coordinates":[[114.16237,22.330821],[114.156337,22.335412]]}},{"type":"Feature","properties":{"shape_id":"{}","direction_id":"{\"0\": 50}","headsign":"{}","duration_avg":120,"n_vehicles":50,"d":1200,"route_I_counts":"{\"9\": 50}","source":70,"target":43,"layer":"L","from":"香港深水埗(地铁站)","to":"香港太子(地铁站)"},"geometry":{"type":"LineString","coordinates":[[114.16237,22.330821],[114.168262,22.324694]]}},{"type":"Feature","properties":{"shape_id":"{}","direction_id":"{\"1\": 50}","headsign":"{}","duration_avg":120,"n_vehicles":50,"d":1200,"route_I_counts":"{\"9\": 50}","source":43,"target":70,"layer":"L","from":"香港太子(地铁站)","to":"香港深水埗(地铁站)"},"geometry":{"type":"LineString","coordinates":[[114.168262,22.324694],[114.16237,22.330821]]}},{"type":"Feature","properties":{"shape_id":"{}","direction_id":"{\"0\": 50}","headsign":"{}","duration_avg":120,"n_vehicles":50,"d":1200,"route_I_counts":"{\"9\": 50}","source":41,"target":71,"layer":"L","from":"香港油麻地(地铁站)","to":"香港佐敦(地铁站)"},"geometry":{"type":"LineString","coordinates":[[114.170708,22.313023],[114.171681,22.304882]]}},{"type":"Feature","properties":{"shape_id":"{}","direction_id":"{\"1\": 50}","headsign":"{}","duration_avg":120,"n_vehicles":50,"d":1200,"route_I_counts":"{\"9\": 50}","source":71,"target":41,"layer":"L","from":"香港佐敦(地铁站)","to":"香港油麻地(地铁站)"},"geometry":{"type":"LineString","coordinates":[[114.171681,22.304882],[114.170708,22.313023]]}},{"type":"Feature","properties":{"shape_id":"{}","direction_id":"{\"0\": 50}","headsign":"{}","duration_avg":60,"n_vehicles":50,"d":600,"route_I_counts":"{\"9\": 50}","source":71,"target":72,"layer":"L","from":"香港佐敦(地铁站)","to":"香港尖沙咀(地铁站)"},"geometry":{"type":"LineString","coordinates":[[114.171681,22.304882],[114.172245,22.297436]]}},{"type":"Feature","properties":{"shape_id":"{}","direction_id":"{\"1\": 50}","headsign":"{}","duration_avg":60,"n_vehicles":50,"d":600,"route_I_counts":"{\"9\": 50}","source":72,"target":71,"layer":"L","from":"香港尖沙咀(地铁站)","to":"香港佐敦(地铁站)"},"geometry":{"type":"LineString","coordinates":[[114.172245,22.297436],[114.171681,22.304882]]}},{"type":"Feature","properties":{"shape_id":"{}","direction_id":"{\"0\": 50}","headsign":"{}","duration_avg":240,"n_vehicles":50,"d":2400,"route_I_counts":"{\"9\": 50}","source":72,"target":2,"layer":"L","from":"香港尖沙咀(地铁站)","to":"香港金钟(地铁站)"},"geometry":{"type":"LineString","coordinates":[[114.172245,22.297436],[114.166239,22.278347]]}},{"type":"Feature","properties":{"shape_id":"{}","direction_id":"{\"1\": 50}","headsign":"{}","duration_avg":240,"n_vehicles":50,"d":2400,"route_I_counts":"{\"9\": 50}","source":2,"target":72,"layer":"L","from":"香港金钟(地铁站)","to":"香港尖沙咀(地铁站)"},"geometry":{"type":"LineString","coordinates":[[114.166239,22.278347],[114.172245,22.297436]]}},{"type":"Feature","properties":{"shape_id":"{}","direction_id":"{\"0\": 50}","headsign":"{}","duration_avg":120,"n_vehicles":50,"d":1200,"route_I_counts":"{\"10\": 50}","source":73,"target":74,"layer":"L","from":"香港乌溪沙(地铁站)","to":"香港马鞍山(地铁站)"},"geometry":{"type":"LineString","coordinates":[[114.243774,22.429124],[114.231801,22.424881]]}},{"type":"Feature","properties":{"shape_id":"{}","direction_id":"{\"1\": 50}","headsign":"{}","duration_avg":120,"n_vehicles":50,"d":1200,"route_I_counts":"{\"10\": 50}","source":74,"target":73,"layer":"L","from":"香港马鞍山(地铁站)","to":"香港乌溪沙(地铁站)"},"geometry":{"type":"LineString","coordinates":[[114.231801,22.424881],[114.243774,22.429124]]}},{"type":"Feature","properties":{"shape_id":"{}","direction_id":"{\"0\": 50}","headsign":"{}","duration_avg":120,"n_vehicles":50,"d":1200,"route_I_counts":"{\"10\": 50}","source":74,"target":75,"layer":"L","from":"香港马鞍山(地铁站)","to":"香港恒安(地铁站)"},"geometry":{"type":"LineString","coordinates":[[114.231801,22.424881],[114.225962,22.418122]]}},{"type":"Feature","properties":{"shape_id":"{}","direction_id":"{\"1\": 50}","headsign":"{}","duration_avg":120,"n_vehicles":50,"d":1200,"route_I_counts":"{\"10\": 50}","source":75,"target":74,"layer":"L","from":"香港恒安(地铁站)","to":"香港马鞍山(地铁站)"},"geometry":{"type":"LineString","coordinates":[[114.225962,22.418122],[114.231801,22.424881]]}},{"type":"Feature","properties":{"shape_id":"{}","direction_id":"{\"0\": 50}","headsign":"{}","duration_avg":120,"n_vehicles":50,"d":1200,"route_I_counts":"{\"10\": 50}","source":75,"target":76,"layer":"L","from":"香港恒安(地铁站)","to":"香港大水坑(地铁站)"},"geometry":{"type":"LineString","coordinates":[[114.225962,22.418122],[114.222813,22.408631]]}},{"type":"Feature","properties":{"shape_id":"{}","direction_id":"{\"1\": 50}","headsign":"{}","duration_avg":120,"n_vehicles":50,"d":1200,"route_I_counts":"{\"10\": 50}","source":76,"target":75,"layer":"L","from":"香港大水坑(地铁站)","to":"香港恒安(地铁站)"},"geometry":{"type":"LineString","coordinates":[[114.222813,22.408631],[114.225962,22.418122]]}},{"type":"Feature","properties":{"shape_id":"{}","direction_id":"{\"0\": 50}","headsign":"{}","duration_avg":240,"n_vehicles":50,"d":2400,"route_I_counts":"{\"10\": 50}","source":76,"target":77,"layer":"L","from":"香港大水坑(地铁站)","to":"香港石门(地铁站)"},"geometry":{"type":"LineString","coordinates":[[114.222813,22.408631],[114.208448,22.387781]]}},{"type":"Feature","properties":{"shape_id":"{}","direction_id":"{\"1\": 50}","headsign":"{}","duration_avg":240,"n_vehicles":50,"d":2400,"route_I_counts":"{\"10\": 50}","source":77,"target":76,"layer":"L","from":"香港石门(地铁站)","to":"香港大水坑(地铁站)"},"geometry":{"type":"LineString","coordinates":[[114.208448,22.387781],[114.222813,22.408631]]}},{"type":"Feature","properties":{"shape_id":"{}","direction_id":"{\"0\": 50}","headsign":"{}","duration_avg":120,"n_vehicles":50,"d":1200,"route_I_counts":"{\"10\": 50}","source":77,"target":78,"layer":"L","from":"香港石门(地铁站)","to":"香港第一城(地铁站)"},"geometry":{"type":"LineString","coordinates":[[114.208448,22.387781],[114.203487,22.382753]]}},{"type":"Feature","properties":{"shape_id":"{}","direction_id":"{\"1\": 50}","headsign":"{}","duration_avg":120,"n_vehicles":50,"d":1200,"route_I_counts":"{\"10\": 50}","source":78,"target":77,"layer":"L","from":"香港第一城(地铁站)","to":"香港石门(地铁站)"},"geometry":{"type":"LineString","coordinates":[[114.203487,22.382753],[114.208448,22.387781]]}},{"type":"Feature","properties":{"shape_id":"{}","direction_id":"{\"0\": 50}","headsign":"{}","duration_avg":120,"n_vehicles":50,"d":1200,"route_I_counts":"{\"10\": 50}","source":78,"target":79,"layer":"L","from":"香港第一城(地铁站)","to":"香港沙田围(地铁站)"},"geometry":{"type":"LineString","coordinates":[[114.203487,22.382753],[114.194937,22.377044]]}},{"type":"Feature","properties":{"shape_id":"{}","direction_id":"{\"1\": 50}","headsign":"{}","duration_avg":120,"n_vehicles":50,"d":1200,"route_I_counts":"{\"10\": 50}","source":79,"target":78,"layer":"L","from":"香港沙田围(地铁站)","to":"香港第一城(地铁站)"},"geometry":{"type":"LineString","coordinates":[[114.194937,22.377044],[114.203487,22.382753]]}},{"type":"Feature","properties":{"shape_id":"{}","direction_id":"{\"0\": 50}","headsign":"{}","duration_avg":120,"n_vehicles":50,"d":1200,"route_I_counts":"{\"10\": 50}","source":79,"target":80,"layer":"L","from":"香港沙田围(地铁站)","to":"香港车公庙(地铁站)"},"geometry":{"type":"LineString","coordinates":[[114.194937,22.377044],[114.186444,22.374797]]}},{"type":"Feature","properties":{"shape_id":"{}","direction_id":"{\"1\": 50}","headsign":"{}","duration_avg":120,"n_vehicles":50,"d":1200,"route_I_counts":"{\"10\": 50}","source":80,"target":79,"layer":"L","from":"香港车公庙(地铁站)","to":"香港沙田围(地铁站)"},"geometry":{"type":"LineString","coordinates":[[114.186444,22.374797],[114.194937,22.377044]]}},{"type":"Feature","properties":{"shape_id":"{}","direction_id":"{\"0\": 50}","headsign":"{}","duration_avg":120,"n_vehicles":50,"d":1200,"route_I_counts":"{\"10\": 50}","source":80,"target":7,"layer":"L","from":"香港车公庙(地铁站)","to":"香港大围(地铁站)"},"geometry":{"type":"LineString","coordinates":[[114.186444,22.374797],[114.178509,22.372919]]}},{"type":"Feature","properties":{"shape_id":"{}","direction_id":"{\"1\": 50}","headsign":"{}","duration_avg":120,"n_vehicles":50,"d":1200,"route_I_counts":"{\"10\": 50}","source":7,"target":80,"layer":"L","from":"香港大围(地铁站)","to":"香港车公庙(地铁站)"},"geometry":{"type":"LineString","coordinates":[[114.178509,22.372919],[114.186444,22.374797]]}},{"type":"Feature","properties":{"shape_id":"{}","direction_id":"{\"0\": 50}","headsign":"{}","duration_avg":120,"n_vehicles":50,"d":1200,"route_I_counts":"{\"10\": 50}","source":7,"target":81,"layer":"L","from":"香港大围(地铁站)","to":"香港显径(地铁站)"},"geometry":{"type":"LineString","coordinates":[[114.178509,22.372919],[114.170807,22.364118]]}},{"type":"Feature","properties":{"shape_id":"{}","direction_id":"{\"1\": 50}","headsign":"{}","duration_avg":120,"n_vehicles":50,"d":1200,"route_I_counts":"{\"10\": 50}","source":81,"target":7,"layer":"L","from":"香港显径(地铁站)","to":"香港大围(地铁站)"},"geometry":{"type":"LineString","coordinates":[[114.170807,22.364118],[114.178509,22.372919]]}},{"type":"Feature","properties":{"shape_id":"{}","direction_id":"{\"0\": 50}","headsign":"{}","duration_avg":300,"n_vehicles":50,"d":3000,"route_I_counts":"{\"10\": 50}","source":81,"target":47,"layer":"L","from":"香港显径(地铁站)","to":"香港钻石山(地铁站)"},"geometry":{"type":"LineString","coordinates":[[114.170807,22.364118],[114.201425,22.340153]]}},{"type":"Feature","properties":{"shape_id":"{}","direction_id":"{\"1\": 50}","headsign":"{}","duration_avg":300,"n_vehicles":50,"d":3000,"route_I_counts":"{\"10\": 50}","source":47,"target":81,"layer":"L","from":"香港钻石山(地铁站)","to":"香港显径(地铁站)"},"geometry":{"type":"LineString","coordinates":[[114.201425,22.340153],[114.170807,22.364118]]}},{"type":"Feature","properties":{"shape_id":"{}","direction_id":"{\"0\": 50}","headsign":"{}","duration_avg":120,"n_vehicles":50,"d":1200,"route_I_counts":"{\"10\": 50}","source":47,"target":82,"layer":"L","from":"香港钻石山(地铁站)","to":"香港启德(地铁站)"},"geometry":{"type":"LineString","coordinates":[[114.201425,22.340153],[114.199421,22.330499]]}},{"type":"Feature","properties":{"shape_id":"{}","direction_id":"{\"1\": 50}","headsign":"{}","duration_avg":120,"n_vehicles":50,"d":1200,"route_I_counts":"{\"10\": 50}","source":82,"target":47,"layer":"L","from":"香港启德(地铁站)","to":"香港钻石山(地铁站)"},"geometry":{"type":"LineString","coordinates":[[114.199421,22.330499],[114.201425,22.340153]]}},{"type":"Feature","properties":{"shape_id":"{}","direction_id":"{\"0\": 50}","headsign":"{}","duration_avg":120,"n_vehicles":50,"d":1200,"route_I_counts":"{\"10\": 50}","source":82,"target":83,"layer":"L","from":"香港启德(地铁站)","to":"香港宋皇台(地铁站)"},"geometry":{"type":"LineString","coordinates":[[114.199421,22.330499],[114.191239,22.325801]]}},{"type":"Feature","properties":{"shape_id":"{}","direction_id":"{\"1\": 50}","headsign":"{}","duration_avg":120,"n_vehicles":50,"d":1200,"route_I_counts":"{\"10\": 50}","source":83,"target":82,"layer":"L","from":"香港宋皇台(地铁站)","to":"香港启德(地铁站)"},"geometry":{"type":"LineString","coordinates":[[114.191239,22.325801],[114.199421,22.330499]]}},{"type":"Feature","properties":{"shape_id":"{}","direction_id":"{\"0\": 50}","headsign":"{}","duration_avg":120,"n_vehicles":50,"d":1200,"route_I_counts":"{\"10\": 50}","source":83,"target":84,"layer":"L","from":"香港宋皇台(地铁站)","to":"香港土瓜湾(地铁站)"},"geometry":{"type":"LineString","coordinates":[[114.191239,22.325801],[114.187599,22.317113]]}},{"type":"Feature","properties":{"shape_id":"{}","direction_id":"{\"1\": 50}","headsign":"{}","duration_avg":120,"n_vehicles":50,"d":1200,"route_I_counts":"{\"10\": 50}","source":84,"target":83,"layer":"L","from":"香港土瓜湾(地铁站)","to":"香港宋皇台(地铁站)"},"geometry":{"type":"LineString","coordinates":[[114.187599,22.317113],[114.191239,22.325801]]}},{"type":"Feature","properties":{"shape_id":"{}","direction_id":"{\"0\": 50}","headsign":"{}","duration_avg":240,"n_vehicles":50,"d":2400,"route_I_counts":"{\"10\": 50}","source":84,"target":40,"layer":"L","from":"香港土瓜湾(地铁站)","to":"香港何文田(地铁站)"},"geometry":{"type":"LineString","coordinates":[[114.187599,22.317113],[114.182623,22.309323]]}},{"type":"Feature","properties":{"shape_id":"{}","direction_id":"{\"1\": 50}","headsign":"{}","duration_avg":240,"n_vehicles":50,"d":2400,"route_I_counts":"{\"10\": 50}","source":40,"target":84,"layer":"L","from":"香港何文田(地铁站)","to":"香港土瓜湾(地铁站)"},"geometry":{"type":"LineString","coordinates":[[114.182623,22.309323],[114.187599,22.317113]]}},{"type":"Feature","properties":{"shape_id":"{}","direction_id":"{\"0\": 50}","headsign":"{}","duration_avg":120,"n_vehicles":50,"d":1200,"route_I_counts":"{\"10\": 50}","source":40,"target":4,"layer":"L","from":"香港何文田(地铁站)","to":"香港红磡(地铁站)"},"geometry":{"type":"LineString","coordinates":[[114.182623,22.309323],[114.181778,22.302894]]}},{"type":"Feature","properties":{"shape_id":"{}","direction_id":"{\"1\": 50}","headsign":"{}","duration_avg":120,"n_vehicles":50,"d":1200,"route_I_counts":"{\"10\": 50}","source":4,"target":40,"layer":"L","from":"香港红磡(地铁站)","to":"香港何文田(地铁站)"},"geometry":{"type":"LineString","coordinates":[[114.181778,22.302894],[114.182623,22.309323]]}},{"type":"Feature","properties":{"shape_id":"{}","direction_id":"{\"0\": 50}","headsign":"{}","duration_avg":120,"n_vehicles":50,"d":1200,"route_I_counts":"{\"10\": 50}","source":4,"target":85,"layer":"L","from":"香港红磡(地铁站)","to":"香港尖东(地铁站)"},"geometry":{"type":"LineString","coordinates":[[114.181778,22.302894],[114.174911,22.295451]]}},{"type":"Feature","properties":{"shape_id":"{}","direction_id":"{\"1\": 50}","headsign":"{}","duration_avg":120,"n_vehicles":50,"d":1200,"route_I_counts":"{\"10\": 50}","source":85,"target":4,"layer":"L","from":"香港尖东(地铁站)","to":"香港红磡(地铁站)"},"geometry":{"type":"LineString","coordinates":[[114.174911,22.295451],[114.181778,22.302894]]}},{"type":"Feature","properties":{"shape_id":"{}","direction_id":"{\"0\": 50}","headsign":"{}","duration_avg":120,"n_vehicles":50,"d":1200,"route_I_counts":"{\"10\": 50}","source":85,"target":86,"layer":"L","from":"香港尖东(地铁站)","to":"香港柯士甸(地铁站)"},"geometry":{"type":"LineString","coordinates":[[114.174911,22.295451],[114.166527,22.304474]]}},{"type":"Feature","properties":{"shape_id":"{}","direction_id":"{\"1\": 50}","headsign":"{}","duration_avg":120,"n_vehicles":50,"d":1200,"route_I_counts":"{\"10\": 50}","source":86,"target":85,"layer":"L","from":"香港柯士甸(地铁站)","to":"香港尖东(地铁站)"},"geometry":{"type":"LineString","coordinates":[[114.166527,22.304474],[114.174911,22.295451]]}},{"type":"Feature","properties":{"shape_id":"{}","direction_id":"{\"0\": 50}","headsign":"{}","duration_avg":240,"n_vehicles":50,"d":2400,"route_I_counts":"{\"10\": 50}","source":86,"target":19,"layer":"L","from":"香港柯士甸(地铁站)","to":"香港南昌(地铁站)"},"geometry":{"type":"LineString","coordinates":[[114.166527,22.304474],[114.15354,22.326644]]}},{"type":"Feature","properties":{"shape_id":"{}","direction_id":"{\"1\": 50}","headsign":"{}","duration_avg":240,"n_vehicles":50,"d":2400,"route_I_counts":"{\"10\": 50}","source":19,"target":86,"layer":"L","from":"香港南昌(地铁站)","to":"香港柯士甸(地铁站)"},"geometry":{"type":"LineString","coordinates":[[114.15354,22.326644],[114.166527,22.304474]]}},{"type":"Feature","properties":{"shape_id":"{}","direction_id":"{\"0\": 50}","headsign":"{}","duration_avg":300,"n_vehicles":50,"d":3000,"route_I_counts":"{\"10\": 50}","source":19,"target":67,"layer":"L","from":"香港南昌(地铁站)","to":"香港美孚(地铁站)"},"geometry":{"type":"LineString","coordinates":[[114.15354,22.326644],[114.13778,22.337892]]}},{"type":"Feature","properties":{"shape_id":"{}","direction_id":"{\"1\": 50}","headsign":"{}","duration_avg":300,"n_vehicles":50,"d":3000,"route_I_counts":"{\"10\": 50}","source":67,"target":19,"layer":"L","from":"香港美孚(地铁站)","to":"香港南昌(地铁站)"},"geometry":{"type":"LineString","coordinates":[[114.13778,22.337892],[114.15354,22.326644]]}},{"type":"Feature","properties":{"shape_id":"{}","direction_id":"{\"0\": 50}","headsign":"{}","duration_avg":360,"n_vehicles":50,"d":3600,"route_I_counts":"{\"10\": 50}","source":67,"target":87,"layer":"L","from":"香港美孚(地铁站)","to":"香港荃湾西(地铁站)"},"geometry":{"type":"LineString","coordinates":[[114.13778,22.337892],[114.109863,22.368159]]}},{"type":"Feature","properties":{"shape_id":"{}","direction_id":"{\"1\": 50}","headsign":"{}","duration_avg":360,"n_vehicles":50,"d":3600,"route_I_counts":"{\"10\": 50}","source":87,"target":67,"layer":"L","from":"香港荃湾西(地铁站)","to":"香港美孚(地铁站)"},"geometry":{"type":"LineString","coordinates":[[114.109863,22.368159],[114.13778,22.337892]]}},{"type":"Feature","properties":{"shape_id":"{}","direction_id":"{\"0\": 50}","headsign":"{}","duration_avg":600,"n_vehicles":50,"d":6000,"route_I_counts":"{\"10\": 50}","source":87,"target":88,"layer":"L","from":"香港荃湾西(地铁站)","to":"香港锦上路(地铁站)"},"geometry":{"type":"LineString","coordinates":[[114.109863,22.368159],[114.0633,22.43493]]}},{"type":"Feature","properties":{"shape_id":"{}","direction_id":"{\"1\": 50}","headsign":"{}","duration_avg":600,"n_vehicles":50,"d":6000,"route_I_counts":"{\"10\": 50}","source":88,"target":87,"layer":"L","from":"香港锦上路(地铁站)","to":"香港荃湾西(地铁站)"},"geometry":{"type":"LineString","coordinates":[[114.0633,22.43493],[114.109863,22.368159]]}},{"type":"Feature","properties":{"shape_id":"{}","direction_id":"{\"0\": 50}","headsign":"{}","duration_avg":120,"n_vehicles":50,"d":1200,"route_I_counts":"{\"10\": 50}","source":88,"target":89,"layer":"L","from":"香港锦上路(地铁站)","to":"香港元朗(地铁站)"},"geometry":{"type":"LineString","coordinates":[[114.0633,22.43493],[114.035047,22.446114]]}},{"type":"Feature","properties":{"shape_id":"{}","direction_id":"{\"1\": 50}","headsign":"{}","duration_avg":120,"n_vehicles":50,"d":1200,"route_I_counts":"{\"10\": 50}","source":89,"target":88,"layer":"L","from":"香港元朗(地铁站)","to":"香港锦上路(地铁站)"},"geometry":{"type":"LineString","coordinates":[[114.035047,22.446114],[114.0633,22.43493]]}},{"type":"Feature","properties":{"shape_id":"{}","direction_id":"{\"0\": 50}","headsign":"{}","duration_avg":120,"n_vehicles":50,"d":1200,"route_I_counts":"{\"10\": 50}","source":89,"target":90,"layer":"L","from":"香港元朗(地铁站)","to":"香港朗屏(地铁站)"},"geometry":{"type":"LineString","coordinates":[[114.035047,22.446114],[114.025376,22.447704]]}},{"type":"Feature","properties":{"shape_id":"{}","direction_id":"{\"1\": 50}","headsign":"{}","duration_avg":120,"n_vehicles":50,"d":1200,"route_I_counts":"{\"10\": 50}","source":90,"target":89,"layer":"L","from":"香港朗屏(地铁站)","to":"香港元朗(地铁站)"},"geometry":{"type":"LineString","coordinates":[[114.025376,22.447704],[114.035047,22.446114]]}},{"type":"Feature","properties":{"shape_id":"{}","direction_id":"{\"0\": 50}","headsign":"{}","duration_avg":180,"n_vehicles":50,"d":1800,"route_I_counts":"{\"10\": 50}","source":90,"target":91,"layer":"L","from":"香港朗屏(地铁站)","to":"香港天水围(地铁站)"},"geometry":{"type":"LineString","coordinates":[[114.025376,22.447704],[114.004697,22.448176]]}},{"type":"Feature","properties":{"shape_id":"{}","direction_id":"{\"1\": 50}","headsign":"{}","duration_avg":180,"n_vehicles":50,"d":1800,"route_I_counts":"{\"10\": 50}","source":91,"target":90,"layer":"L","from":"香港天水围(地铁站)","to":"香港朗屏(地铁站)"},"geometry":{"type":"LineString","coordinates":[[114.004697,22.448176],[114.025376,22.447704]]}},{"type":"Feature","properties":{"shape_id":"{}","direction_id":"{\"0\": 50}","headsign":"{}","duration_avg":420,"n_vehicles":50,"d":4200,"route_I_counts":"{\"10\": 50}","source":91,"target":92,"layer":"L","from":"香港天水围(地铁站)","to":"香港兆康(地铁站)"},"geometry":{"type":"LineString","coordinates":[[114.004697,22.448176],[113.97898,22.411772]]}},{"type":"Feature","properties":{"shape_id":"{}","direction_id":"{\"1\": 50}","headsign":"{}","duration_avg":420,"n_vehicles":50,"d":4200,"route_I_counts":"{\"10\": 50}","source":92,"target":91,"layer":"L","from":"香港兆康(地铁站)","to":"香港天水围(地铁站)"},"geometry":{"type":"LineString","coordinates":[[113.97898,22.411772],[114.004697,22.448176]]}},{"type":"Feature","properties":{"shape_id":"{}","direction_id":"{\"0\": 50}","headsign":"{}","duration_avg":120,"n_vehicles":50,"d":1200,"route_I_counts":"{\"10\": 50}","source":92,"target":93,"layer":"L","from":"香港兆康(地铁站)","to":"香港屯门(地铁站)"},"geometry":{"type":"LineString","coordinates":[[113.97898,22.411772],[113.973154,22.395292]]}},{"type":"Feature","properties":{"shape_id":"{}","direction_id":"{\"1\": 50}","headsign":"{}","duration_avg":120,"n_vehicles":50,"d":1200,"route_I_counts":"{\"10\": 50}","source":93,"target":92,"layer":"L","from":"香港屯门(地铁站)","to":"香港兆康(地铁站)"},"geometry":{"type":"LineString","coordinates":[[113.973154,22.395292],[113.97898,22.411772]]}},{"type":"Feature","properties":{"shape_id":"{}","direction_id":"{\"0\": 50}","headsign":"{}","duration_avg":600,"n_vehicles":50,"d":6000,"route_I_counts":"{\"11\": 50}","source":14,"target":94,"layer":"L","from":"香港上水(地铁站)","to":"落马洲"},"geometry":{"type":"LineString","coordinates":[[114.127708,22.501569],[114.065783,22.514558]]}},{"type":"Feature","properties":{"shape_id":"{}","direction_id":"{\"1\": 50}","headsign":"{}","duration_avg":600,"n_vehicles":50,"d":6000,"route_I_counts":"{\"11\": 50}","source":94,"target":14,"layer":"L","from":"落马洲","to":"香港上水(地铁站)"},"geometry":{"type":"LineString","coordinates":[[114.065783,22.514558],[114.127708,22.501569]]}},{"type":"Feature","properties":{"shape_id":"{}","direction_id":"{\"0\": 50}","headsign":"{}","duration_avg":120,"n_vehicles":50,"d":1200,"route_I_counts":"{\"12\": 50}","source":57,"target":95,"layer":"L","from":"香港将军澳(地铁站)","to":"坑口"},"geometry":{"type":"LineString","coordinates":[[114.259917,22.307423],[114.264278,22.3156]]}},{"type":"Feature","properties":{"shape_id":"{}","direction_id":"{\"1\": 50}","headsign":"{}","duration_avg":120,"n_vehicles":50,"d":1200,"route_I_counts":"{\"12\": 50}","source":95,"target":57,"layer":"L","from":"坑口","to":"香港将军澳(地铁站)"},"geometry":{"type":"LineString","coordinates":[[114.264278,22.3156],[114.259917,22.307423]]}},{"type":"Feature","properties":{"shape_id":"{}","direction_id":"{\"0\": 50}","headsign":"{}","duration_avg":120,"n_vehicles":50,"d":1200,"route_I_counts":"{\"12\": 50}","source":95,"target":96,"layer":"L","from":"坑口","to":"宝琳"},"geometry":{"type":"LineString","coordinates":[[114.264278,22.3156],[114.257694,22.32277]]}},{"type":"Feature","properties":{"shape_id":"{}","direction_id":"{\"1\": 50}","headsign":"{}","duration_avg":120,"n_vehicles":50,"d":1200,"route_I_counts":"{\"12\": 50}","source":96,"target":95,"layer":"L","from":"宝琳","to":"坑口"},"geometry":{"type":"LineString","coordinates":[[114.257694,22.32277],[114.264278,22.3156]]}}]}