{"type":"FeatureCollection","features":[{"type":"Feature","geometry":{"type":"Point","coordinates":[126.81094,37.50621]},"properties":{"name":"까치울","original_ids":"[1]","id":0,"layer":"stop"}},{"type":"Feature","geometry":{"type":"Point","coordinates":[126.79734,37.50538]},"properties":{"name":"부천종합운동장","original_ids":"[2]","id":1,"layer":"stop"}},{"type":"Feature","geometry":{"type":"Point","coordinates":[126.78704,37.50366]},"properties":{"name":"춘의","original_ids":"[3]","id":2,"layer":"stop"}},{"type":"Feature","geometry":{"type":"Point","coordinates":[126.77596,37.50305]},"properties":{"name":"신중동","original_ids":"[4]","id":3,"layer":"stop"}},{"type":"Feature","geometry":{"type":"Point","coordinates":[126.76354,37.50463]},"properties":{"name":"부천시청","original_ids":"[5]","id":4,"layer":"stop"}},{"type":"Feature","geometry":{"type":"Point","coordinates":[126.75308,37.50578]},"properties":{"name":"상동","original_ids":"[6]","id":5,"layer":"stop"}},{"type":"Feature","geometry":{"type":"Point","coordinates":[126.74215,37.50641]},"properties":{"name":"삼산체육관","original_ids":"[7]","id":6,"layer":"stop"}},{"type":"Feature","geometry":{"type":"Point","coordinates":[126.73128,37.507]},"properties":{"name":"굴포천","original_ids":"[8]","id":7,"layer":"stop"}},{"type":"Feature","geometry":{"type":"Point","coordinates":[126.72105,37.50742]},"properties":{"name":"부평구청","original_ids":"[9]","id":8,"layer":"stop"}},{"type":"Feature","geometry":{"type":"Point","coordinates":[126.70355,37.5086]},"properties":{"name":"신곡","original_ids":"[10]","id":9,"layer":"stop"}},{"type":"Feature","geometry":{"type":"Point","coordinates":[126.67609,37.50623]},"properties":{"name":"석남","original_ids":"[11]","id":10,"layer":"stop"}},{"type":"Feature","geometry":{"type":"Point","coordinates":[126.68806,37.6025]},"properties":{"name":"검단호수공원","original_ids":"[12]","id":11,"layer":"stop"}},{"type":"Feature","geometry":{"type":"Point","coordinates":[126.69861,37.6025]},"properties":{"name":"신검단중앙","original_ids":"[13]","id":12,"layer":"stop"}},{"type":"Feature","geometry":{"type":"Point","coordinates":[126.71333,37.59222]},"properties":{"name":"아라","original_ids":"[14]","id":13,"layer":"stop"}},{"type":"Feature","geometry":{"type":"Point","coordinates":[126.73609,37.57148]},"properties":{"name":"계양","original_ids":"[15]","id":14,"layer":"stop"}},{"type":"Feature","geometry":{"type":"Point","coordinates":[126.74265,37.56638]},"properties":{"name":"귤현","original_ids":"[16]","id":15,"layer":"stop"}},{"type":"Feature","geometry":{"type":"Point","coordinates":[126.74508,37.5537]},"properties":{"name":"박촌","original_ids":"[17]","id":16,"layer":"stop"}},{"type":"Feature","geometry":{"type":"Point","coordinates":[126.73868,37.54508]},"properties":{"name":"임학","original_ids":"[18]","id":17,"layer":"stop"}},{"type":"Feature","geometry":{"type":"Point","coordinates":[126.7286,37.54318]},"properties":{"name":"계산","original_ids":"[19]","id":18,"layer":"stop"}},{"type":"Feature","geometry":{"type":"Point","coordinates":[126.72294,37.53822]},"properties":{"name":"경인교대입구","original_ids":"[20]","id":19,"layer":"stop"}},{"type":"Feature","geometry":{"type":"Point","coordinates":[126.72235,37.53033]},"properties":{"name":"작전","original_ids":"[21]","id":20,"layer":"stop"}},{"type":"Feature","geometry":{"type":"Point","coordinates":[126.72174,37.51746]},"properties":{"name":"갈산","original_ids":"[22]","id":21,"layer":"stop"}},{"type":"Feature","geometry":{"type":"Point","coordinates":[126.72241,37.49807]},"properties":{"name":"부평시장","original_ids":"[23]","id":22,"layer":"stop"}},{"type":"Feature","geometry":{"type":"Point","coordinates":[126.72431,37.48942]},"properties":{"name":"부평","original_ids":"[24]","id":23,"layer":"stop"}},{"type":"Feature","geometry":{"type":"Point","coordinates":[126.71838,37.48464]},"properties":{"name":"동수","original_ids":"[25]","id":24,"layer":"stop"}},{"type":"Feature","geometry":{"type":"Point","coordinates":[126.71079,37.4762]},"properties":{"name":"부평삼거리","original_ids":"[26]","id":25,"layer":"stop"}},{"type":"Feature","geometry":{"type":"Point","coordinates":[126.69222,37.4649]},"properties":{"name":"간석오거리","original_ids":"[27]","id":26,"layer":"stop"}},{"type":"Feature","geometry":{"type":"Point","coordinates":[126.70102,37.45687]},"properties":{"name":"인천시청","original_ids":"[28]","id":27,"layer":"stop"}},{"type":"Feature","geometry":{"type":"Point","coordinates":[126.70112,37.44939]},"properties":{"name":"예술회관","original_ids":"[29]","id":28,"layer":"stop"}},{"type":"Feature","geometry":{"type":"Point","coordinates":[126.69964,37.44215]},"properties":{"name":"인천터미널","original_ids":"[30]","id":29,"layer":"stop"}},{"type":"Feature","geometry":{"type":"Point","coordinates":[126.69868,37.43489]},"properties":{"name":"문학경기장","original_ids":"[31]","id":30,"layer":"stop"}},{"type":"Feature","geometry":{"type":"Point","coordinates":[126.69886,37.42604]},"properties":{"name":"선학","original_ids":"[32]","id":31,"layer":"stop"}},{"type":"Feature","geometry":{"type":"Point","coordinates":[126.69386,37.41804]},"properties":{"name":"신연수","original_ids":"[33]","id":32,"layer":"stop"}},{"type":"Feature","geometry":{"type":"Point","coordinates":[126.68786,37.41236]},"properties":{"name":"원인재","original_ids":"[34]","id":33,"layer":"stop"}},{"type":"Feature","geometry":{"type":"Point","coordinates":[126.68102,37.40474]},"properties":{"name":"동춘","original_ids":"[35]","id":34,"layer":"stop"}},{"type":"Feature","geometry":{"type":"Point","coordinates":[126.65637,37.39788]},"properties":{"name":"동막","original_ids":"[36]","id":35,"layer":"stop"}},{"type":"Feature","geometry":{"type":"Point","coordinates":[126.66167,37.38686]},"properties":{"name":"캠퍼스타운","original_ids":"[37]","id":36,"layer":"stop"}},{"type":"Feature","geometry":{"type":"Point","coordinates":[126.65661,37.3821]},"properties":{"name":"테크노파크","original_ids":"[38]","id":37,"layer":"stop"}},{"type":"Feature","geometry":{"type":"Point","coordinates":[126.65091,37.37838]},"properties":{"name":"지식정보단지","original_ids":"[39]","id":38,"layer":"stop"}},{"type":"Feature","geometry":{"type":"Point","coordinates":[126.63939,37.38607]},"properties":{"name":"인천대입구","original_ids":"[40]","id":39,"layer":"stop"}},{"type":"Feature","geometry":{"type":"Point","coordinates":[126.63473,37.39305]},"properties":{"name":"센트럴파크","original_ids":"[41]","id":40,"layer":"stop"}},{"type":"Feature","geometry":{"type":"Point","coordinates":[126.63035,37.39991]},"properties":{"name":"국제업무지구","original_ids":"[42]","id":41,"layer":"stop"}},{"type":"Feature","geometry":{"type":"Point","coordinates":[126.62609,37.40677]},"properties":{"name":"송도달빛축제공원","original_ids":"[43]","id":42,"layer":"stop"}},{"type":"Feature","geometry":{"type":"Point","coordinates":[126.62718,37.59488]},"properties":{"name":"검단오류","original_ids":"[44]","id":43,"layer":"stop"}},{"type":"Feature","geometry":{"type":"Point","coordinates":[126.6427,37.59518]},"properties":{"name":"왕길","original_ids":"[45]","id":44,"layer":"stop"}},{"type":"Feature","geometry":{"type":"Point","coordinates":[126.65711,37.60185]},"properties":{"name":"검단사거리","original_ids":"[46]","id":45,"layer":"stop"}},{"type":"Feature","geometry":{"type":"Point","coordinates":[126.667,37.59757]},"properties":{"name":"마전","original_ids":"[47]","id":46,"layer":"stop"}},{"type":"Feature","geometry":{"type":"Point","coordinates":[126.6732,37.59293]},"properties":{"name":"완정","original_ids":"[48]","id":47,"layer":"stop"}},{"type":"Feature","geometry":{"type":"Point","coordinates":[126.67584,37.58521]},"properties":{"name":"독정","original_ids":"[49]","id":48,"layer":"stop"}},{"type":"Feature","geometry":{"type":"Point","coordinates":[126.67558,37.56873]},"properties":{"name":"검암","original_ids":"[50]","id":49,"layer":"stop"}},{"type":"Feature","geometry":{"type":"Point","coordinates":[126.67757,37.56141]},"properties":{"name":"검바위","original_ids":"[51]","id":50,"layer":"stop"}},{"type":"Feature","geometry":{"type":"Point","coordinates":[126.67712,37.5517]},"properties":{"name":"아시아드경기장","original_ids":"[52]","id":51,"layer":"stop"}},{"type":"Feature","geometry":{"type":"Point","coordinates":[126.67679,37.54374]},"properties":{"name":"서구청","original_ids":"[53]","id":52,"layer":"stop"}},{"type":"Feature","geometry":{"type":"Point","coordinates":[126.67523,37.52458]},"properties":{"name":"가정","original_ids":"[54]","id":53,"layer":"stop"}},{"type":"Feature","geometry":{"type":"Point","coordinates":[126.67629,37.51744]},"properties":{"name":"가정중앙시장","original_ids":"[55]","id":54,"layer":"stop"}},{"type":"Feature","geometry":{"type":"Point","coordinates":[126.67744,37.50145]},"properties":{"name":"서부여성회관","original_ids":"[56]","id":55,"layer":"stop"}},{"type":"Feature","geometry":{"type":"Point","coordinates":[126.68232,37.48909]},"properties":{"name":"인천가좌","original_ids":"[57]","id":56,"layer":"stop"}},{"type":"Feature","geometry":{"type":"Point","coordinates":[126.68261,37.48439]},"properties":{"name":"가재울","original_ids":"[58]","id":57,"layer":"stop"}},{"type":"Feature","geometry":{"type":"Point","coordinates":[126.67912,37.47718]},"properties":{"name":"주안국가산단","original_ids":"[59]","id":58,"layer":"stop"}},{"type":"Feature","geometry":{"type":"Point","coordinates":[126.67882,37.46514]},"properties":{"name":"주안","original_ids":"[60]","id":59,"layer":"stop"}},{"type":"Feature","geometry":{"type":"Point","coordinates":[126.68119,37.45834]},"properties":{"name":"시민공원","original_ids":"[61]","id":60,"layer":"stop"}},{"type":"Feature","geometry":{"type":"Point","coordinates":[126.69258,37.45761]},"properties":{"name":"석바위시장","original_ids":"[62]","id":61,"layer":"stop"}},{"type":"Feature","geometry":{"type":"Point","coordinates":[126.70999,37.45681]},"properties":{"name":"석천사거리","original_ids":"[63]","id":62,"layer":"stop"}},{"type":"Feature","geometry":{"type":"Point","coordinates":[126.7193,37.45583]},"properties":{"name":"모래내시장","original_ids":"[64]","id":63,"layer":"stop"}},{"type":"Feature","geometry":{"type":"Point","coordinates":[126.73209,37.45491]},"properties":{"name":"만수","original_ids":"[65]","id":64,"layer":"stop"}},{"type":"Feature","geometry":{"type":"Point","coordinates":[126.73694,37.44816]},"properties":{"name":"남동구청","original_ids":"[66]","id":65,"layer":"stop"}},{"type":"Feature","geometry":{"type":"Point","coordinates":[126.75262,37.44877]},"properties":{"name":"인천대공원","original_ids":"[67]","id":66,"layer":"stop"}},{"type":"Feature","geometry":{"type":"Point","coordinates":[126.75997,37.44013]},"properties":{"name":"운연","original_ids":"[68]","id":67,"layer":"stop"}},{"type":"Feature","properties":{"shape_id":"{}","direction_id":"{\"0\": 50}","headsign":"{}","duration_avg":90,"n_vehicles":50,"d":900,"route_I_counts":"{\"7\": 50}","source":0,"target":1,"layer":"L","from":"까치울","to":"부천종합운동장"},"geometry":{"type":"LineString","coordinates":[[126.81094,37.50621],[126.79734,37.50538]]}},{"type":"Feature","properties":{"shape_id":"{}","direction_id":"{\"1\": 50}","headsign":"{}","duration_avg":90,"n_vehicles":50,"d":900,"route_I_counts":"{\"7\": 50}","source":1,"target":0,"layer":"L","from":"부천종합운동장","to":"까치울"},"geometry":{"type":"LineString","coordinates":[[126.79734,37.50538],[126.81094,37.50621]]}},{"type":"Feature","properties":{"shape_id":"{}","direction_id":"{\"0\": 50}","headsign":"{}","duration_avg":80,"n_vehicles":50,"d":800,"route_I_counts":"{\"7\": 50}","source":1,"target":2,"layer":"L","from":"부천종합운동장","to":"춘의"},"geometry":{"type":"LineString","coordinates":[[126.79734,37.50538],[126.78704,37.50366]]}},{"type":"Feature","properties":{"shape_id":"{}","direction_id":"{\"1\": 50}","headsign":"{}","duration_avg":80,"n_vehicles":50,"d":800,"route_I_counts":"{\"7\": 50}","source":2,"target":1,"layer":"L","from":"춘의","to":"부천종합운동장"},"geometry":{"type":"LineString","coordinates":[[126.78704,37.50366],[126.79734,37.50538]]}},{"type":"Feature","properties":{"shape_id":"{}","direction_id":"{\"0\": 50}","headsign":"{}","duration_avg":80,"n_vehicles":50,"d":800,"route_I_counts":"{\"7\": 50}","source":2,"target":3,"layer":"L","from":"춘의","to":"신중동"},"geometry":{"type":"LineString","coordinates":[[126.78704,37.50366],[126.77596,37.50305]]}},{"type":"Feature","properties":{"shape_id":"{}","direction_id":"{\"1\": 50}","headsign":"{}","duration_avg":80,"n_vehicles":50,"d":800,"route_I_counts":"{\"7\": 50}","source":3,"target":2,"layer":"L","from":"신중동","to":"춘의"},"geometry":{"type":"LineString","coordinates":[[126.77596,37.50305],[126.78704,37.50366]]}},{"type":"Feature","properties":{"shape_id":"{}","direction_id":"{\"0\": 50}","headsign":"{}","duration_avg":80,"n_vehicles":50,"d":800,"route_I_counts":"{\"7\": 50}","source":3,"target":4,"layer":"L","from":"신중동","to":"부천시청"},"geometry":{"type":"LineString","coordinates":[[126.77596,37.50305],[126.76354,37.50463]]}},{"type":"Feature","properties":{"shape_id":"{}","direction_id":"{\"1\": 50}","headsign":"{}","duration_avg":80,"n_vehicles":50,"d":800,"route_I_counts":"{\"7\": 50}","source":4,"target":3,"layer":"L","from":"부천시청","to":"신중동"},"geometry":{"type":"LineString","coordinates":[[126.76354,37.50463],[126.77596,37.50305]]}},{"type":"Feature","properties":{"shape_id":"{}","direction_id":"{\"0\": 50}","headsign":"{}","duration_avg":70,"n_vehicles":50,"d":700,"route_I_counts":"{\"7\": 50}","source":4,"target":5,"layer":"L","from":"부천시청","to":"상동"},"geometry":{"type":"LineString","coordinates":[[126.76354,37.50463],[126.75308,37.50578]]}},{"type":"Feature","properties":{"shape_id":"{}","direction_id":"{\"1\": 50}","headsign":"{}","duration_avg":70,"n_vehicles":50,"d":700,"route_I_counts":"{\"7\": 50}","source":5,"target":4,"layer":"L","from":"상동","to":"부천시청"},"geometry":{"type":"LineString","coordinates":[[126.75308,37.50578],[126.76354,37.50463]]}},{"type":"Feature","properties":{"shape_id":"{}","direction_id":"{\"0\": 50}","headsign":"{}","duration_avg":80,"n_vehicles":50,"d":800,"route_I_counts":"{\"7\": 50}","source":5,"target":6,"layer":"L","from":"상동","to":"삼산체육관"},"geometry":{"type":"LineString","coordinates":[[126.75308,37.50578],[126.74215,37.50641]]}},{"type":"Feature","properties":{"shape_id":"{}","direction_id":"{\"1\": 50}","headsign":"{}","duration_avg":80,"n_vehicles":50,"d":800,"route_I_counts":"{\"7\": 50}","source":6,"target":5,"layer":"L","from":"삼산체육관","to":"상동"},"geometry":{"type":"LineString","coordinates":[[126.74215,37.50641],[126.75308,37.50578]]}},{"type":"Feature","properties":{"shape_id":"{}","direction_id":"{\"0\": 50}","headsign":"{}","duration_avg":70,"n_vehicles":50,"d":700,"route_I_counts":"{\"7\": 50}","source":6,"target":7,"layer":"L","from":"삼산체육관","to":"굴포천"},"geometry":{"type":"LineString","coordinates":[[126.74215,37.50641],[126.73128,37.507]]}},{"type":"Feature","properties":{"shape_id":"{}","direction_id":"{\"1\": 50}","headsign":"{}","duration_avg":70,"n_vehicles":50,"d":700,"route_I_counts":"{\"7\": 50}","source":7,"target":6,"layer":"L","from":"굴포천","to":"삼산체육관"},"geometry":{"type":"LineString","coordinates":[[126.73128,37.507],[126.74215,37.50641]]}},{"type":"Feature","properties":{"shape_id":"{}","direction_id":"{\"0\": 50}","headsign":"{}","duration_avg":80,"n_vehicles":50,"d":800,"route_I_counts":"{\"7\": 50}","source":7,"target":8,"layer":"L","from":"굴포천","to":"부평구청"},"geometry":{"type":"LineString","coordinates":[[126.73128,37.507],[126.72105,37.50742]]}},{"type":"Feature","properties":{"shape_id":"{}","direction_id":"{\"1\": 50}","headsign":"{}","duration_avg":80,"n_vehicles":50,"d":800,"route_I_counts":"{\"7\": 50}","source":8,"target":7,"layer":"L","from":"부평구청","to":"굴포천"},"geometry":{"type":"LineString","coordinates":[[126.72105,37.50742],[126.73128,37.507]]}},{"type":"Feature","properties":{"shape_id":"{}","direction_id":"{\"0\": 50}","headsign":"{}","duration_avg":120,"n_vehicles":50,"d":1200,"route_I_counts":"{\"7\": 50}","source":8,"target":9,"layer":"L","from":"부평구청","to":"신곡"},"geometry":{"type":"LineString","coordinates":[[126.72105,37.50742],[126.70355,37.5086]]}},{"type":"Feature","properties":{"shape_id":"{}","direction_id":"{\"1\": 50}","headsign":"{}","duration_avg":120,"n_vehicles":50,"d":1200,"route_I_counts":"{\"7\": 50}","source":9,"target":8,"layer":"L","from":"신곡","to":"부평구청"},"geometry":{"type":"LineString","coordinates":[[126.70355,37.5086],[126.72105,37.50742]]}},{"type":"Feature","properties":{"shape_id":"{}","direction_id":"{\"0\": 50}","headsign":"{}","duration_avg":180,"n_vehicles":50,"d":1800,"route_I_counts":"{\"7\": 50}","source":9,"target":10,"layer":"L","from":"신곡","to":"석남"},"geometry":{"type":"LineString","coordinates":[[126.70355,37.5086],[126.67609,37.50623]]}},{"type":"Feature","properties":{"shape_id":"{}","direction_id":"{\"1\": 50}","headsign":"{}","duration_avg":180,"n_vehicles":50,"d":1800,"route_I_counts":"{\"7\": 50}","source":10,"target":9,"layer":"L","from":"석남","to":"신곡"},"geometry":{"type":"LineString","coordinates":[[126.67609,37.50623],[126.70355,37.5086]]}},{"type":"Feature","properties":{"shape_id":"{}","direction_id":"{\"0\": 50}","headsign":"{}","duration_avg":90,"n_vehicles":50,"d":900,"route_I_counts":"{\"2\": 50}","source":11,"target":12,"layer":"L","from":"검단호수공원","to":"신검단중앙"},"geometry":{"type":"LineString","coordinates":[[126.68806,37.6025],[126.69861,37.6025]]}},{"type":"Feature","properties":{"shape_id":"{}","direction_id":"{\"1\": 50}","headsign":"{}","duration_avg":90,"n_vehicles":50,"d":900,"route_I_counts":"{\"2\": 50}","source":12,"target":11,"layer":"L","from":"신검단중앙","to":"검단호수공원"},"geometry":{"type":"LineString","coordinates":[[126.69861,37.6025],[126.68806,37.6025]]}},{"type":"Feature","properties":{"shape_id":"{}","direction_id":"{\"0\": 50}","headsign":"{}","duration_avg":120,"n_vehicles":50,"d":1200,"route_I_counts":"{\"2\": 50}","source":12,"target":13,"layer":"L","from":"신검단중앙","to":"아라"},"geometry":{"type":"LineString","coordinates":[[126.69861,37.6025],[126.71333,37.59222]]}},{"type":"Feature","properties":{"shape_id":"{}","direction_id":"{\"1\": 50}","headsign":"{}","duration_avg":120,"n_vehicles":50,"d":1200,"route_I_counts":"{\"2\": 50}","source":13,"target":12,"layer":"L","from":"아라","to":"신검단중앙"},"geometry":{"type":"LineString","coordinates":[[126.71333,37.59222],[126.69861,37.6025]]}},{"type":"Feature","properties":{"shape_id":"{}","direction_id":"{\"0\": 50}","headsign":"{}","duration_avg":240,"n_vehicles":50,"d":2400,"route_I_counts":"{\"2\": 50}","source":13,"target":14,"layer":"L","from":"아라","to":"계양"},"geometry":{"type":"LineString","coordinates":[[126.71333,37.59222],[126.73609,37.57148]]}},{"type":"Feature","properties":{"shape_id":"{}","direction_id":"{\"1\": 50}","headsign":"{}","duration_avg":240,"n_vehicles":50,"d":2400,"route_I_counts":"{\"2\": 50}","source":14,"target":13,"layer":"L","from":"계양","to":"아라"},"geometry":{"type":"LineString","coordinates":[[126.73609,37.57148],[126.71333,37.59222]]}},{"type":"Feature","properties":{"shape_id":"{}","direction_id":"{\"0\": 50}","headsign":"{}","duration_avg":90,"n_vehicles":50,"d":900,"route_I_counts":"{\"2\": 50}","source":14,"target":15,"layer":"L","from":"계양","to":"귤현"},"geometry":{"type":"LineString","coordinates":[[126.73609,37.57148],[126.74265,37.56638]]}},{"type":"Feature","properties":{"shape_id":"{}","direction_id":"{\"1\": 50}","headsign":"{}","duration_avg":90,"n_vehicles":50,"d":900,"route_I_counts":"{\"2\": 50}","source":15,"target":14,"layer":"L","from":"귤현","to":"계양"},"geometry":{"type":"LineString","coordinates":[[126.74265,37.56638],[126.73609,37.57148]]}},{"type":"Feature","properties":{"shape_id":"{}","direction_id":"{\"0\": 50}","headsign":"{}","duration_avg":150,"n_vehicles":50,"d":1500,"route_I_counts":"{\"2\": 50}","source":15,"target":16,"layer":"L","from":"귤현","to":"박촌"},"geometry":{"type":"LineString","coordinates":[[126.74265,37.56638],[126.74508,37.5537]]}},{"type":"Feature","properties":{"shape_id":"{}","direction_id":"{\"1\": 50}","headsign":"{}","duration_avg":150,"n_vehicles":50,"d":1500,"route_I_counts":"{\"2\": 50}","source":16,"target":15,"layer":"L","from":"박촌","to":"귤현"},"geometry":{"type":"LineString","coordinates":[[126.74508,37.5537],[126.74265,37.56638]]}},{"type":"Feature","properties":{"shape_id":"{}","direction_id":"{\"0\": 50}","headsign":"{}","duration_avg":90,"n_vehicles":50,"d":900,"route_I_counts":"{\"2\": 50}","source":16,"target":17,"layer":"L","from":"박촌","to":"임학"},"geometry":{"type":"LineString","coordinates":[[126.74508,37.5537],[126.73868,37.54508]]}},{"type":"Feature","properties":{"shape_id":"{}","direction_id":"{\"1\": 50}","headsign":"{}","duration_avg":90,"n_vehicles":50,"d":900,"route_I_counts":"{\"2\": 50}","source":17,"target":16,"layer":"L","from":"임학","to":"박촌"},"geometry":{"type":"LineString","coordinates":[[126.73868,37.54508],[126.74508,37.5537]]}},{"type":"Feature","properties":{"shape_id":"{}","direction_id":"{\"0\": 50}","headsign":"{}","duration_avg":90,"n_vehicles":50,"d":900,"route_I_counts":"{\"2\": 50}","source":17,"target":18,"layer":"L","from":"임학","to":"계산"},"geometry":{"type":"LineString","coordinates":[[126.73868,37.54508],[126.7286,37.54318]]}},{"type":"Feature","properties":{"shape_id":"{}","direction_id":"{\"1\": 50}","headsign":"{}","duration_avg":90,"n_vehicles":50,"d":900,"route_I_counts":"{\"2\": 50}","source":18,"target":17,"layer":"L","from":"계산","to":"임학"},"geometry":{"type":"LineString","coordinates":[[126.7286,37.54318],[126.73868,37.54508]]}},{"type":"Feature","properties":{"shape_id":"{}","direction_id":"{\"0\": 50}","headsign":"{}","duration_avg":90,"n_vehicles":50,"d":900,"route_I_counts":"{\"2\": 50}","source":18,"target":19,"layer":"L","from":"계산","to":"경인교대입구"},"geometry":{"type":"LineString","coordinates":[[126.7286,37.54318],[126.72294,37.53822]]}},{"type":"Feature","properties":{"shape_id":"{}","direction_id":"{\"1\": 50}","headsign":"{}","duration_avg":90,"n_vehicles":50,"d":900,"route_I_counts":"{\"2\": 50}","source":19,"target":18,"layer":"L","from":"경인교대입구","to":"계산"},"geometry":{"type":"LineString","coordinates":[[126.72294,37.53822],[126.7286,37.54318]]}},{"type":"Feature","properties":{"shape_id":"{}","direction_id":"{\"0\": 50}","headsign":"{}","duration_avg":60,"n_vehicles":50,"d":600,"route_I_counts":"{\"2\": 50}","source":19,"target":20,"layer":"L","from":"경인교대입구","to":"작전"},"geometry":{"type":"LineString","coordinates":[[126.72294,37.53822],[126.72235,37.53033]]}},{"type":"Feature","properties":{"shape_id":"{}","direction_id":"{\"1\": 50}","headsign":"{}","duration_avg":60,"n_vehicles":50,"d":600,"route_I_counts":"{\"2\": 50}","source":20,"target":19,"layer":"L","from":"작전","to":"경인교대입구"},"geometry":{"type":"LineString","coordinates":[[126.72235,37.53033],[126.72294,37.53822]]}},{"type":"Feature","properties":{"shape_id":"{}","direction_id":"{\"0\": 50}","headsign":"{}","duration_avg":90,"n_vehicles":50,"d":900,"route_I_counts":"{\"2\": 50}","source":20,"target":21,"layer":"L","from":"작전","to":"갈산"},"geometry":{"type":"LineString","coordinates":[[126.72235,37.53033],[126.72174,37.51746]]}},{"type":"Feature","properties":{"shape_id":"{}","direction_id":"{\"1\": 50}","headsign":"{}","duration_avg":90,"n_vehicles":50,"d":900,"route_I_counts":"{\"2\": 50}","source":21,"target":20,"layer":"L","from":"갈산","to":"작전"},"geometry":{"type":"LineString","coordinates":[[126.72174,37.51746],[126.72235,37.53033]]}},{"type":"Feature","properties":{"shape_id":"{}","direction_id":"{\"0\": 50}","headsign":"{}","duration_avg":90,"n_vehicles":50,"d":900,"route_I_counts":"{\"2\": 50}","source":21,"target":8,"layer":"L","from":"갈산","to":"부평구청"},"geometry":{"type":"LineString","coordinates":[[126.72174,37.51746],[126.72105,37.50742]]}},{"type":"Feature","properties":{"shape_id":"{}","direction_id":"{\"1\": 50}","headsign":"{}","duration_avg":90,"n_vehicles":50,"d":900,"route_I_counts":"{\"2\": 50}","source":8,"target":21,"layer":"L","from":"부평구청","to":"갈산"},"geometry":{"type":"LineString","coordinates":[[126.72105,37.50742],[126.72174,37.51746]]}},{"type":"Feature","properties":{"shape_id":"{}","direction_id":"{\"0\": 50}","headsign":"{}","duration_avg":90,"n_vehicles":50,"d":900,"route_I_counts":"{\"2\": 50}","source":8,"target":22,"layer":"L","from":"부평구청","to":"부평시장"},"geometry":{"type":"LineString","coordinates":[[126.72105,37.50742],[126.72241,37.49807]]}},{"type":"Feature","properties":{"shape_id":"{}","direction_id":"{\"1\": 50}","headsign":"{}","duration_avg":90,"n_vehicles":50,"d":900,"route_I_counts":"{\"2\": 50}","source":22,"target":8,"layer":"L","from":"부평시장","to":"부평구청"},"geometry":{"type":"LineString","coordinates":[[126.72241,37.49807],[126.72105,37.50742]]}},{"type":"Feature","properties":{"shape_id":"{}","direction_id":"{\"0\": 50}","headsign":"{}","duration_avg":60,"n_vehicles":50,"d":600,"route_I_counts":"{\"2\": 50}","source":22,"target":23,"layer":"L","from":"부평시장","to":"부평"},"geometry":{"type":"LineString","coordinates":[[126.72241,37.49807],[126.72431,37.48942]]}},{"type":"Feature","properties":{"shape_id":"{}","direction_id":"{\"1\": 50}","headsign":"{}","duration_avg":60,"n_vehicles":50,"d":600,"route_I_counts":"{\"2\": 50}","source":23,"target":22,"layer":"L","from":"부평","to":"부평시장"},"geometry":{"type":"LineString","coordinates":[[126.72431,37.48942],[126.72241,37.49807]]}},{"type":"Feature","properties":{"shape_id":"{}","direction_id":"{\"0\": 50}","headsign":"{}","duration_avg":90,"n_vehicles":50,"d":900,"route_I_counts":"{\"2\": 50}","source":23,"target":24,"layer":"L","from":"부평","to":"동수"},"geometry":{"type":"LineString","coordinates":[[126.72431,37.48942],[126.71838,37.48464]]}},{"type":"Feature","properties":{"shape_id":"{}","direction_id":"{\"1\": 50}","headsign":"{}","duration_avg":90,"n_vehicles":50,"d":900,"route_I_counts":"{\"2\": 50}","source":24,"target":23,"layer":"L","from":"동수","to":"부평"},"geometry":{"type":"LineString","coordinates":[[126.71838,37.48464],[126.72431,37.48942]]}},{"type":"Feature","properties":{"shape_id":"{}","direction_id":"{\"0\": 50}","headsign":"{}","duration_avg":90,"n_vehicles":50,"d":900,"route_I_counts":"{\"2\": 50}","source":24,"target":25,"layer":"L","from":"동수","to":"부평삼거리"},"geometry":{"type":"LineString","coordinates":[[126.71838,37.48464],[126.71079,37.4762]]}},{"type":"Feature","properties":{"shape_id":"{}","direction_id":"{\"1\": 50}","headsign":"{}","duration_avg":90,"n_vehicles":50,"d":900,"route_I_counts":"{\"2\": 50}","source":25,"target":24,"layer":"L","from":"부평삼거리","to":"동수"},"geometry":{"type":"LineString","coordinates":[[126.71079,37.4762],[126.71838,37.48464]]}},{"type":"Feature","properties":{"shape_id":"{}","direction_id":"{\"0\": 50}","headsign":"{}","duration_avg":90,"n_vehicles":50,"d":900,"route_I_counts":"{\"2\": 50}","source":25,"target":26,"layer":"L","from":"부평삼거리","to":"간석오거리"},"geometry":{"type":"LineString","coordinates":[[126.71079,37.4762],[126.69222,37.4649]]}},{"type":"Feature","properties":{"shape_id":"{}","direction_id":"{\"1\": 50}","headsign":"{}","duration_avg":90,"n_vehicles":50,"d":900,"route_I_counts":"{\"2\": 50}","source":26,"target":25,"layer":"L","from":"간석오거리","to":"부평삼거리"},"geometry":{"type":"LineString","coordinates":[[126.69222,37.4649],[126.71079,37.4762]]}},{"type":"Feature","properties":{"shape_id":"{}","direction_id":"{\"0\": 50}","headsign":"{}","duration_avg":150,"n_vehicles":50,"d":1500,"route_I_counts":"{\"2\": 50}","source":26,"target":27,"layer":"L","from":"간석오거리","to":"인천시청"},"geometry":{"type":"LineString","coordinates":[[126.69222,37.4649],[126.70102,37.45687]]}},{"type":"Feature","properties":{"shape_id":"{}","direction_id":"{\"1\": 50}","headsign":"{}","duration_avg":150,"n_vehicles":50,"d":1500,"route_I_counts":"{\"2\": 50}","source":27,"target":26,"layer":"L","from":"인천시청","to":"간석오거리"},"geometry":{"type":"LineString","coordinates":[[126.70102,37.45687],[126.69222,37.4649]]}},{"type":"Feature","properties":{"shape_id":"{}","direction_id":"{\"0\": 50}","headsign":"{}","duration_avg":90,"n_vehicles":50,"d":900,"route_I_counts":"{\"2\": 50}","source":27,"target":28,"layer":"L","from":"인천시청","to":"예술회관"},"geometry":{"type":"LineString","coordinates":[[126.70102,37.45687],[126.70112,37.44939]]}},{"type":"Feature","properties":{"shape_id":"{}","direction_id":"{\"1\": 50}","headsign":"{}","duration_avg":90,"n_vehicles":50,"d":900,"route_I_counts":"{\"2\": 50}","source":28,"target":27,"layer":"L","from":"예술회관","to":"인천시청"},"geometry":{"type":"LineString","coordinates":[[126.70112,37.44939],[126.70102,37.45687]]}},{"type":"Feature","properties":{"shape_id":"{}","direction_id":"{\"0\": 50}","headsign":"{}","duration_avg":60,"n_vehicles":50,"d":600,"route_I_counts":"{\"2\": 50}","source":28,"target":29,"layer":"L","from":"예술회관","to":"인천터미널"},"geometry":{"type":"LineString","coordinates":[[126.70112,37.44939],[126.69964,37.44215]]}},{"type":"Feature","properties":{"shape_id":"{}","direction_id":"{\"1\": 50}","headsign":"{}","duration_avg":60,"n_vehicles":50,"d":600,"route_I_counts":"{\"2\": 50}","source":29,"target":28,"layer":"L","from":"인천터미널","to":"예술회관"},"geometry":{"type":"LineString","coordinates":[[126.69964,37.44215],[126.70112,37.44939]]}},{"type":"Feature","properties":{"shape_id":"{}","direction_id":"{\"0\": 50}","headsign":"{}","duration_avg":60,"n_vehicles":50,"d":600,"route_I_counts":"{\"2\": 50}","source":29,"target":30,"layer":"L","from":"인천터미널","to":"문학경기장"},"geometry":{"type":"LineString","coordinates":[[126.69964,37.44215],[126.69868,37.43489]]}},{"type":"Feature","properties":{"shape_id":"{}","direction_id":"{\"1\": 50}","headsign":"{}","duration_avg":60,"n_vehicles":50,"d":600,"route_I_counts":"{\"2\": 50}","source":30,"target":29,"layer":"L","from":"문학경기장","to":"인천터미널"},"geometry":{"type":"LineString","coordinates":[[126.69868,37.43489],[126.69964,37.44215]]}},{"type":"Feature","properties":{"shape_id":"{}","direction_id":"{\"0\": 50}","headsign":"{}","duration_avg":60,"n_vehicles":50,"d":600,"route_I_counts":"{\"2\": 50}","source":30,"target":31,"layer":"L","from":"문학경기장","to":"선학"},"geometry":{"type":"LineString","coordinates":[[126.69868,37.43489],[126.69886,37.42604]]}},{"type":"Feature","properties":{"shape_id":"{}","direction_id":"{\"1\": 50}","headsign":"{}","duration_avg":60,"n_vehicles":50,"d":600,"route_I_counts":"{\"2\": 50}","source":31,"target":30,"layer":"L","from":"선학","to":"문학경기장"},"geometry":{"type":"LineString","coordinates":[[126.69886,37.42604],[126.69868,37.43489]]}},{"type":"Feature","properties":{"shape_id":"{}","direction_id":"{\"0\": 50}","headsign":"{}","duration_avg":90,"n_vehicles":50,"d":900,"route_I_counts":"{\"2\": 50}","source":31,"target":32,"layer":"L","from":"선학","to":"신연수"},"geometry":{"type":"LineString","coordinates":[[126.69886,37.42604],[126.69386,37.41804]]}},{"type":"Feature","properties":{"shape_id":"{}","direction_id":"{\"1\": 50}","headsign":"{}","duration_avg":90,"n_vehicles":50,"d":900,"route_I_counts":"{\"2\": 50}","source":32,"target":31,"layer":"L","from":"신연수","to":"선학"},"geometry":{"type":"LineString","coordinates":[[126.69386,37.41804],[126.69886,37.42604]]}},{"type":"Feature","properties":{"shape_id":"{}","direction_id":"{\"0\": 50}","headsign":"{}","duration_avg":60,"n_vehicles":50,"d":600,"route_I_counts":"{\"2\": 50}","source":32,"target":33,"layer":"L","from":"신연수","to":"원인재"},"geometry":{"type":"LineString","coordinates":[[126.69386,37.41804],[126.68786,37.41236]]}},{"type":"Feature","properties":{"shape_id":"{}","direction_id":"{\"1\": 50}","headsign":"{}","duration_avg":60,"n_vehicles":50,"d":600,"route_I_counts":"{\"2\": 50}","source":33,"target":32,"layer":"L","from":"원인재","to":"신연수"},"geometry":{"type":"LineString","coordinates":[[126.68786,37.41236],[126.69386,37.41804]]}},{"type":"Feature","properties":{"shape_id":"{}","direction_id":"{\"0\": 50}","headsign":"{}","duration_avg":90,"n_vehicles":50,"d":900,"route_I_counts":"{\"2\": 50}","source":33,"target":34,"layer":"L","from":"원인재","to":"동춘"},"geometry":{"type":"LineString","coordinates":[[126.68786,37.41236],[126.68102,37.40474]]}},{"type":"Feature","properties":{"shape_id":"{}","direction_id":"{\"1\": 50}","headsign":"{}","duration_avg":90,"n_vehicles":50,"d":900,"route_I_counts":"{\"2\": 50}","source":34,"target":33,"layer":"L","from":"동춘","to":"원인재"},"geometry":{"type":"LineString","coordinates":[[126.68102,37.40474],[126.68786,37.41236]]}},{"type":"Feature","properties":{"shape_id":"{}","direction_id":"{\"0\": 50}","headsign":"{}","duration_avg":90,"n_vehicles":50,"d":900,"route_I_counts":"{\"2\": 50}","source":34,"target":35,"layer":"L","from":"동춘","to":"동막"},"geometry":{"type":"LineString","coordinates":[[126.68102,37.40474],[126.65637,37.39788]]}},{"type":"Feature","properties":{"shape_id":"{}","direction_id":"{\"1\": 50}","headsign":"{}","duration_avg":90,"n_vehicles":50,"d":900,"route_I_counts":"{\"2\": 50}","source":35,"target":34,"layer":"L","from":"동막","to":"동춘"},"geometry":{"type":"LineString","coordinates":[[126.65637,37.39788],[126.68102,37.40474]]}},{"type":"Feature","properties":{"shape_id":"{}","direction_id":"{\"0\": 50}","headsign":"{}","duration_avg":120,"n_vehicles":50,"d":1200,"route_I_counts":"{\"2\": 50}","source":35,"target":36,"layer":"L","from":"동막","to":"캠퍼스타운"},"geometry":{"type":"LineString","coordinates":[[126.65637,37.39788],[126.66167,37.38686]]}},{"type":"Feature","properties":{"shape_id":"{}","direction_id":"{\"1\": 50}","headsign":"{}","duration_avg":120,"n_vehicles":50,"d":1200,"route_I_counts":"{\"2\": 50}","source":36,"target":35,"layer":"L","from":"캠퍼스타운","to":"동막"},"geometry":{"type":"LineString","coordinates":[[126.66167,37.38686],[126.65637,37.39788]]}},{"type":"Feature","properties":{"shape_id":"{}","direction_id":"{\"0\": 50}","headsign":"{}","duration_avg":60,"n_vehicles":50,"d":600,"route_I_counts":"{\"2\": 50}","source":36,"target":37,"layer":"L","from":"캠퍼스타운","to":"테크노파크"},"geometry":{"type":"LineString","coordinates":[[126.66167,37.38686],[126.65661,37.3821]]}},{"type":"Feature","properties":{"shape_id":"{}","direction_id":"{\"1\": 50}","headsign":"{}","duration_avg":60,"n_vehicles":50,"d":600,"route_I_counts":"{\"2\": 50}","source":37,"target":36,"layer":"L","from":"테크노파크","to":"캠퍼스타운"},"geometry":{"type":"LineString","coordinates":[[126.65661,37.3821],[126.66167,37.38686]]}},{"type":"Feature","properties":{"shape_id":"{}","direction_id":"{\"0\": 50}","headsign":"{}","duration_avg":120,"n_vehicles":50,"d":1200,"route_I_counts":"{\"2\": 50}","source":37,"target":38,"layer":"L","from":"테크노파크","to":"지식정보단지"},"geometry":{"type":"LineString","coordinates":[[126.65661,37.3821],[126.65091,37.37838]]}},{"type":"Feature","properties":{"shape_id":"{}","direction_id":"{\"1\": 50}","headsign":"{}","duration_avg":120,"n_vehicles":50,"d":1200,"route_I_counts":"{\"2\": 50}","source":38,"target":37,"layer":"L","from":"지식정보단지","to":"테크노파크"},"geometry":{"type":"LineString","coordinates":[[126.65091,37.37838],[126.65661,37.3821]]}},{"type":"Feature","properties":{"shape_id":"{}","direction_id":"{\"0\": 50}","headsign":"{}","duration_avg":60,"n_vehicles":50,"d":600,"route_I_counts":"{\"2\": 50}","source":38,"target":39,"layer":"L","from":"지식정보단지","to":"인천대입구"},"geometry":{"type":"LineString","coordinates":[[126.65091,37.37838],[126.63939,37.38607]]}},{"type":"Feature","properties":{"shape_id":"{}","direction_id":"{\"1\": 50}","headsign":"{}","duration_avg":60,"n_vehicles":50,"d":600,"route_I_counts":"{\"2\": 50}","source":39,"target":38,"layer":"L","from":"인천대입구","to":"지식정보단지"},"geometry":{"type":"LineString","coordinates":[[126.63939,37.38607],[126.65091,37.37838]]}},{"type":"Feature","properties":{"shape_id":"{}","direction_id":"{\"0\": 50}","headsign":"{}","duration_avg":60,"n_vehicles":50,"d":600,"route_I_counts":"{\"2\": 50}","source":39,"target":40,"layer":"L","from":"인천대입구","to":"센트럴파크"},"geometry":{"type":"LineString","coordinates":[[126.63939,37.38607],[126.63473,37.39305]]}},{"type":"Feature","properties":{"shape_id":"{}","direction_id":"{\"1\": 50}","headsign":"{}","duration_avg":60,"n_vehicles":50,"d":600,"route_I_counts":"{\"2\": 50}","source":40,"target":39,"layer":"L","from":"센트럴파크","to":"인천대입구"},"geometry":{"type":"LineString","coordinates":[[126.63473,37.39305],[126.63939,37.38607]]}},{"type":"Feature","properties":{"shape_id":"{}","direction_id":"{\"0\": 50}","headsign":"{}","duration_avg":90,"n_vehicles":50,"d":900,"route_I_counts":"{\"2\": 50}","source":40,"target":41,"layer":"L","from":"센트럴파크","to":"국제업무지구"},"geometry":{"type":"LineString","coordinates":[[126.63473,37.39305],[126.63035,37.39991]]}},{"type":"Feature","properties":{"shape_id":"{}","direction_id":"{\"1\": 50}","headsign":"{}","duration_avg":90,"n_vehicles":50,"d":900,"route_I_counts":"{\"2\": 50}","source":41,"target":40,"layer":"L","from":"국제업무지구","to":"센트럴파크"},"geometry":{"type":"LineString","coordinates":[[126.63035,37.39991],[126.63473,37.39305]]}},{"type":"Feature","properties":{"shape_id":"{}","direction_id":"{\"0\": 50}","headsign":"{}","duration_avg":90,"n_vehicles":50,"d":900,"route_I_counts":"{\"2\": 50}","source":41,"target":42,"layer":"L","from":"국제업무지구","to":"송도달빛축제공원"},"geometry":{"type":"LineString","coordinates":[[126.63035,37.39991],[126.62609,37.40677]]}},{"type":"Feature","properties":{"shape_id":"{}","direction_id":"{\"1\": 50}","headsign":"{}","duration_avg":90,"n_vehicles":50,"d":900,"route_I_counts":"{\"2\": 50}","source":42,"target":41,"layer":"L","from":"송도달빛축제공원","to":"국제업무지구"},"geometry":{"type":"LineString","coordinates":[[126.62609,37.40677],[126.63035,37.39991]]}},{"type":"Feature","properties":{"shape_id":"{}","direction_id":"{\"0\": 50}","headsign":"{}","duration_avg":97,"n_vehicles":50,"d":970,"route_I_counts":"{\"3\": 50}","source":43,"target":44,"layer":"L","from":"검단오류","to":"왕길"},"geometry":{"type":"LineString","coordinates":[[126.62718,37.59488],[126.6427,37.59518]]}},{"type":"Feature","properties":{"shape_id":"{}","direction_id":"{\"1\": 50}","headsign":"{}","duration_avg":97,"n_vehicles":50,"d":970,"route_I_counts":"{\"3\": 50}","source":44,"target":43,"layer":"L","from":"왕길","to":"검단오류"},"geometry":{"type":"LineString","coordinates":[[126.6427,37.59518],[126.62718,37.59488]]}},{"type":"Feature","properties":{"shape_id":"{}","direction_id":"{\"0\": 50}","headsign":"{}","duration_avg":127,"n_vehicles":50,"d":1270,"route_I_counts":"{\"3\": 50}","source":44,"target":45,"layer":"L","from":"왕길","to":"검단사거리"},"geometry":{"type":"LineString","coordinates":[[126.6427,37.59518],[126.65711,37.60185]]}},{"type":"Feature","properties":{"shape_id":"{}","direction_id":"{\"1\": 50}","headsign":"{}","duration_avg":127,"n_vehicles":50,"d":1270,"route_I_counts":"{\"3\": 50}","source":45,"target":44,"layer":"L","from":"검단사거리","to":"왕길"},"geometry":{"type":"LineString","coordinates":[[126.65711,37.60185],[126.6427,37.59518]]}},{"type":"Feature","properties":{"shape_id":"{}","direction_id":"{\"0\": 50}","headsign":"{}","duration_avg":103,"n_vehicles":50,"d":1030,"route_I_counts":"{\"3\": 50}","source":45,"target":46,"layer":"L","from":"검단사거리","to":"마전"},"geometry":{"type":"LineString","coordinates":[[126.65711,37.60185],[126.667,37.59757]]}},{"type":"Feature","properties":{"shape_id":"{}","direction_id":"{\"1\": 50}","headsign":"{}","duration_avg":103,"n_vehicles":50,"d":1030,"route_I_counts":"{\"3\": 50}","source":46,"target":45,"layer":"L","from":"마전","to":"검단사거리"},"geometry":{"type":"LineString","coordinates":[[126.667,37.59757],[126.65711,37.60185]]}},{"type":"Feature","properties":{"shape_id":"{}","direction_id":"{\"0\": 50}","headsign":"{}","duration_avg":77,"n_vehicles":50,"d":770,"route_I_counts":"{\"3\": 50}","source":46,"target":47,"layer":"L","from":"마전","to":"완정"},"geometry":{"type":"LineString","coordinates":[[126.667,37.59757],[126.6732,37.59293]]}},{"type":"Feature","properties":{"shape_id":"{}","direction_id":"{\"1\": 50}","headsign":"{}","duration_avg":77,"n_vehicles":50,"d":770,"route_I_counts":"{\"3\": 50}","source":47,"target":46,"layer":"L","from":"완정","to":"마전"},"geometry":{"type":"LineString","coordinates":[[126.6732,37.59293],[126.667,37.59757]]}},{"type":"Feature","properties":{"shape_id":"{}","direction_id":"{\"0\": 50}","headsign":"{}","duration_avg":72,"n_vehicles":50,"d":720,"route_I_counts":"{\"3\": 50}","source":47,"target":48,"layer":"L","from":"완정","to":"독정"},"geometry":{"type":"LineString","coordinates":[[126.6732,37.59293],[126.67584,37.58521]]}},{"type":"Feature","properties":{"shape_id":"{}","direction_id":"{\"1\": 50}","headsign":"{}","duration_avg":72,"n_vehicles":50,"d":720,"route_I_counts":"{\"3\": 50}","source":48,"target":47,"layer":"L","from":"독정","to":"완정"},"geometry":{"type":"LineString","coordinates":[[126.67584,37.58521],[126.6732,37.59293]]}},{"type":"Feature","properties":{"shape_id":"{}","direction_id":"{\"0\": 50}","headsign":"{}","duration_avg":116,"n_vehicles":50,"d":1160,"route_I_counts":"{\"3\": 50}","source":48,"target":49,"layer":"L","from":"독정","to":"검암"},"geometry":{"type":"LineString","coordinates":[[126.67584,37.58521],[126.67558,37.56873]]}},{"type":"Feature","properties":{"shape_id":"{}","direction_id":"{\"1\": 50}","headsign":"{}","duration_avg":116,"n_vehicles":50,"d":1160,"route_I_counts":"{\"3\": 50}","source":49,"target":48,"layer":"L","from":"검암","to":"독정"},"geometry":{"type":"LineString","coordinates":[[126.67558,37.56873],[126.67584,37.58521]]}},{"type":"Feature","properties":{"shape_id":"{}","direction_id":"{\"0\": 50}","headsign":"{}","duration_avg":86,"n_vehicles":50,"d":860,"route_I_counts":"{\"3\": 50}","source":49,"target":50,"layer":"L","from":"검암","to":"검바위"},"geometry":{"type":"LineString","coordinates":[[126.67558,37.56873],[126.67757,37.56141]]}},{"type":"Feature","properties":{"shape_id":"{}","direction_id":"{\"1\": 50}","headsign":"{}","duration_avg":86,"n_vehicles":50,"d":860,"route_I_counts":"{\"3\": 50}","source":50,"target":49,"layer":"L","from":"검바위","to":"검암"},"geometry":{"type":"LineString","coordinates":[[126.67757,37.56141],[126.67558,37.56873]]}},{"type":"Feature","properties":{"shape_id":"{}","direction_id":"{\"0\": 50}","headsign":"{}","duration_avg":119,"n_vehicles":50,"d":1190,"route_I_counts":"{\"3\": 50}","source":50,"target":51,"layer":"L","from":"검바위","to":"아시아드경기장"},"geometry":{"type":"LineString","coordinates":[[126.67757,37.56141],[126.67712,37.5517]]}},{"type":"Feature","properties":{"shape_id":"{}","direction_id":"{\"1\": 50}","headsign":"{}","duration_avg":119,"n_vehicles":50,"d":1190,"route_I_counts":"{\"3\": 50}","source":51,"target":50,"layer":"L","from":"아시아드경기장","to":"검바위"},"geometry":{"type":"LineString","coordinates":[[126.67712,37.5517],[126.67757,37.56141]]}},{"type":"Feature","properties":{"shape_id":"{}","direction_id":"{\"0\": 50}","headsign":"{}","duration_avg":67,"n_vehicles":50,"d":670,"route_I_counts":"{\"3\": 50}","source":51,"target":52,"layer":"L","from":"아시아드경기장","to":"서구청"},"geometry":{"type":"LineString","coordinates":[[126.67712,37.5517],[126.67679,37.54374]]}},{"type":"Feature","properties":{"shape_id":"{}","direction_id":"{\"1\": 50}","headsign":"{}","duration_avg":67,"n_vehicles":50,"d":670,"route_I_counts":"{\"3\": 50}","source":52,"target":51,"layer":"L","from":"서구청","to":"아시아드경기장"},"geometry":{"type":"LineString","coordinates":[[126.67679,37.54374],[126.67712,37.5517]]}},{"type":"Feature","properties":{"shape_id":"{}","direction_id":"{\"0\": 50}","headsign":"{}","duration_avg":136,"n_vehicles":50,"d":1360,"route_I_counts":"{\"3\": 50}","source":52,"target":53,"layer":"L","from":"서구청","to":"가정"},"geometry":{"type":"LineString","coordinates":[[126.67679,37.54374],[126.67523,37.52458]]}},{"type":"Feature","properties":{"shape_id":"{}","direction_id":"{\"1\": 50}","headsign":"{}","duration_avg":136,"n_vehicles":50,"d":1360,"route_I_counts":"{\"3\": 50}","source":53,"target":52,"layer":"L","from":"가정","to":"서구청"},"geometry":{"type":"LineString","coordinates":[[126.67523,37.52458],[126.67679,37.54374]]}},{"type":"Feature","properties":{"shape_id":"{}","direction_id":"{\"0\": 50}","headsign":"{}","duration_avg":99,"n_vehicles":50,"d":990,"route_I_counts":"{\"3\": 50}","source":53,"target":54,"layer":"L","from":"가정","to":"가정중앙시장"},"geometry":{"type":"LineString","coordinates":[[126.67523,37.52458],[126.67629,37.51744]]}},{"type":"Feature","properties":{"shape_id":"{}","direction_id":"{\"1\": 50}","headsign":"{}","duration_avg":99,"n_vehicles":50,"d":990,"route_I_counts":"{\"3\": 50}","source":54,"target":53,"layer":"L","from":"가정중앙시장","to":"가정"},"geometry":{"type":"LineString","coordinates":[[126.67629,37.51744],[126.67523,37.52458]]}},{"type":"Feature","properties":{"shape_id":"{}","direction_id":"{\"0\": 50}","headsign":"{}","duration_avg":83,"n_vehicles":50,"d":830,"route_I_counts":"{\"3\": 50}","source":54,"target":10,"layer":"L","from":"가정중앙시장","to":"석남"},"geometry":{"type":"LineString","coordinates":[[126.67629,37.51744],[126.67609,37.50623]]}},{"type":"Feature","properties":{"shape_id":"{}","direction_id":"{\"1\": 50}","headsign":"{}","duration_avg":83,"n_vehicles":50,"d":830,"route_I_counts":"{\"3\": 50}","source":10,"target":54,"layer":"L","from":"석남","to":"가정중앙시장"},"geometry":{"type":"LineString","coordinates":[[126.67609,37.50623],[126.67629,37.51744]]}},{"type":"Feature","properties":{"shape_id":"{}","direction_id":"{\"0\": 50}","headsign":"{}","duration_avg":72,"n_vehicles":50,"d":720,"route_I_counts":"{\"3\": 50}","source":10,"target":55,"layer":"L","from":"석남","to":"서부여성회관"},"geometry":{"type":"LineString","coordinates":[[126.67609,37.50623],[126.67744,37.50145]]}},{"type":"Feature","properties":{"shape_id":"{}","direction_id":"{\"1\": 50}","headsign":"{}","duration_avg":72,"n_vehicles":50,"d":720,"route_I_counts":"{\"3\": 50}","source":55,"target":10,"layer":"L","from":"서부여성회관","to":"석남"},"geometry":{"type":"LineString","coordinates":[[126.67744,37.50145],[126.67609,37.50623]]}},{"type":"Feature","properties":{"shape_id":"{}","direction_id":"{\"0\": 50}","headsign":"{}","duration_avg":89,"n_vehicles":50,"d":890,"route_I_counts":"{\"3\": 50}","source":55,"target":56,"layer":"L","from":"서부여성회관","to":"인천가좌"},"geometry":{"type":"LineString","coordinates":[[126.67744,37.50145],[126.68232,37.48909]]}},{"type":"Feature","properties":{"shape_id":"{}","direction_id":"{\"1\": 50}","headsign":"{}","duration_avg":89,"n_vehicles":50,"d":890,"route_I_counts":"{\"3\": 50}","source":56,"target":55,"layer":"L","from":"인천가좌","to":"서부여성회관"},"geometry":{"type":"LineString","coordinates":[[126.68232,37.48909],[126.67744,37.50145]]}},{"type":"Feature","properties":{"shape_id":"{}","direction_id":"{\"0\": 50}","headsign":"{}","duration_avg":121,"n_vehicles":50,"d":1210,"route_I_counts":"{\"3\": 50}","source":56,"target":57,"layer":"L","from":"인천가좌","to":"가재울"},"geometry":{"type":"LineString","coordinates":[[126.68232,37.48909],[126.68261,37.48439]]}},{"type":"Feature","properties":{"shape_id":"{}","direction_id":"{\"1\": 50}","headsign":"{}","duration_avg":121,"n_vehicles":50,"d":1210,"route_I_counts":"{\"3\": 50}","source":57,"target":56,"layer":"L","from":"가재울","to":"인천가좌"},"geometry":{"type":"LineString","coordinates":[[126.68261,37.48439],[126.68232,37.48909]]}},{"type":"Feature","properties":{"shape_id":"{}","direction_id":"{\"0\": 50}","headsign":"{}","duration_avg":110,"n_vehicles":50,"d":1100,"route_I_counts":"{\"3\": 50}","source":57,"target":58,"layer":"L","from":"가재울","to":"주안국가산단"},"geometry":{"type":"LineString","coordinates":[[126.68261,37.48439],[126.67912,37.47718]]}},{"type":"Feature","properties":{"shape_id":"{}","direction_id":"{\"1\": 50}","headsign":"{}","duration_avg":110,"n_vehicles":50,"d":1100,"route_I_counts":"{\"3\": 50}","source":58,"target":57,"layer":"L","from":"주안국가산단","to":"가재울"},"geometry":{"type":"LineString","coordinates":[[126.67912,37.47718],[126.68261,37.48439]]}},{"type":"Feature","properties":{"shape_id":"{}","direction_id":"{\"0\": 50}","headsign":"{}","duration_avg":76,"n_vehicles":50,"d":760,"route_I_counts":"{\"3\": 50}","source":58,"target":59,"layer":"L","from":"주안국가산단","to":"주안"},"geometry":{"type":"LineString","coordinates":[[126.67912,37.47718],[126.67882,37.46514]]}},{"type":"Feature","properties":{"shape_id":"{}","direction_id":"{\"1\": 50}","headsign":"{}","duration_avg":76,"n_vehicles":50,"d":760,"route_I_counts":"{\"3\": 50}","source":59,"target":58,"layer":"L","from":"주안","to":"주안국가산단"},"geometry":{"type":"LineString","coordinates":[[126.67882,37.46514],[126.67912,37.47718]]}},{"type":"Feature","properties":{"shape_id":"{}","direction_id":"{\"0\": 50}","headsign":"{}","duration_avg":104,"n_vehicles":50,"d":1040,"route_I_counts":"{\"3\": 50}","source":59,"target":60,"layer":"L","from":"주안","to":"시민공원"},"geometry":{"type":"LineString","coordinates":[[126.67882,37.46514],[126.68119,37.45834]]}},{"type":"Feature","properties":{"shape_id":"{}","direction_id":"{\"1\": 50}","headsign":"{}","duration_avg":104,"n_vehicles":50,"d":1040,"route_I_counts":"{\"3\": 50}","source":60,"target":59,"layer":"L","from":"시민공원","to":"주안"},"geometry":{"type":"LineString","coordinates":[[126.68119,37.45834],[126.67882,37.46514]]}},{"type":"Feature","properties":{"shape_id":"{}","direction_id":"{\"0\": 50}","headsign":"{}","duration_avg":75,"n_vehicles":50,"d":750,"route_I_counts":"{\"3\": 50}","source":60,"target":61,"layer":"L","from":"시민공원","to":"석바위시장"},"geometry":{"type":"LineString","coordinates":[[126.68119,37.45834],[126.69258,37.45761]]}},{"type":"Feature","properties":{"shape_id":"{}","direction_id":"{\"1\": 50}","headsign":"{}","duration_avg":75,"n_vehicles":50,"d":750,"route_I_counts":"{\"3\": 50}","source":61,"target":60,"layer":"L","from":"석바위시장","to":"시민공원"},"geometry":{"type":"LineString","coordinates":[[126.69258,37.45761],[126.68119,37.45834]]}},{"type":"Feature","properties":{"shape_id":"{}","direction_id":"{\"0\": 50}","headsign":"{}","duration_avg":64,"n_vehicles":50,"d":640,"route_I_counts":"{\"3\": 50}","source":61,"target":27,"layer":"L","from":"석바위시장","to":"인천시청"},"geometry":{"type":"LineString","coordinates":[[126.69258,37.45761],[126.70102,37.45687]]}},{"type":"Feature","properties":{"shape_id":"{}","direction_id":"{\"1\": 50}","headsign":"{}","duration_avg":64,"n_vehicles":50,"d":640,"route_I_counts":"{\"3\": 50}","source":27,"target":61,"layer":"L","from":"인천시청","to":"석바위시장"},"geometry":{"type":"LineString","coordinates":[[126.70102,37.45687],[126.69258,37.45761]]}},{"type":"Feature","properties":{"shape_id":"{}","direction_id":"{\"0\": 50}","headsign":"{}","duration_avg":76,"n_vehicles":50,"d":760,"route_I_counts":"{\"3\": 50}","source":27,"target":62,"layer":"L","from":"인천시청","to":"석천사거리"},"geometry":{"type":"LineString","coordinates":[[126.70102,37.45687],[126.70999,37.45681]]}},{"type":"Feature","properties":{"shape_id":"{}","direction_id":"{\"1\": 50}","headsign":"{}","duration_avg":76,"n_vehicles":50,"d":760,"route_I_counts":"{\"3\": 50}","source":62,"target":27,"layer":"L","from":"석천사거리","to":"인천시청"},"geometry":{"type":"LineString","coordinates":[[126.70999,37.45681],[126.70102,37.45687]]}},{"type":"Feature","properties":{"shape_id":"{}","direction_id":"{\"0\": 50}","headsign":"{}","duration_avg":67,"n_vehicles":50,"d":670,"route_I_counts":"{\"3\": 50}","source":62,"target":63,"layer":"L","from":"석천사거리","to":"모래내시장"},"geometry":{"type":"LineString","coordinates":[[126.70999,37.45681],[126.7193,37.45583]]}},{"type":"Feature","properties":{"shape_id":"{}","direction_id":"{\"1\": 50}","headsign":"{}","duration_avg":67,"n_vehicles":50,"d":670,"route_I_counts":"{\"3\": 50}","source":63,"target":62,"layer":"L","from":"모래내시장","to":"석천사거리"},"geometry":{"type":"LineString","coordinates":[[126.7193,37.45583],[126.70999,37.45681]]}},{"type":"Feature","properties":{"shape_id":"{}","direction_id":"{\"0\": 50}","headsign":"{}","duration_avg":78,"n_vehicles":50,"d":780,"route_I_counts":"{\"3\": 50}","source":63,"target":64,"layer":"L","from":"모래내시장","to":"만수"},"geometry":{"type":"LineString","coordinates":[[126.7193,37.45583],[126.73209,37.45491]]}},{"type":"Feature","properties":{"shape_id":"{}","direction_id":"{\"1\": 50}","headsign":"{}","duration_avg":78,"n_vehicles":50,"d":780,"route_I_counts":"{\"3\": 50}","source":64,"target":63,"layer":"L","from":"만수","to":"모래내시장"},"geometry":{"type":"LineString","coordinates":[[126.73209,37.45491],[126.7193,37.45583]]}},{"type":"Feature","properties":{"shape_id":"{}","direction_id":"{\"0\": 50}","headsign":"{}","duration_avg":137,"n_vehicles":50,"d":1370,"route_I_counts":"{\"3\": 50}","source":64,"target":65,"layer":"L","from":"만수","to":"남동구청"},"geometry":{"type":"LineString","coordinates":[[126.73209,37.45491],[126.73694,37.44816]]}},{"type":"Feature","properties":{"shape_id":"{}","direction_id":"{\"1\": 50}","headsign":"{}","duration_avg":137,"n_vehicles":50,"d":1370,"route_I_counts":"{\"3\": 50}","source":65,"target":64,"layer":"L","from":"남동구청","to":"만수"},"geometry":{"type":"LineString","coordinates":[[126.73694,37.44816],[126.73209,37.45491]]}},{"type":"Feature","properties":{"shape_id":"{}","direction_id":"{\"0\": 50}","headsign":"{}","duration_avg":120,"n_vehicles":50,"d":1200,"route_I_counts":"{\"3\": 50}","source":65,"target":66,"layer":"L","from":"남동구청","to":"인천대공원"},"geometry":{"type":"LineString","coordinates":[[126.73694,37.44816],[126.75262,37.44877]]}},{"type":"Feature","properties":{"shape_id":"{}","direction_id":"{\"1\": 50}","headsign":"{}","duration_avg":120,"n_vehicles":50,"d":1200,"route_I_counts":"{\"3\": 50}","source":66,"target":65,"layer":"L","from":"인천대공원","to":"남동구청"},"geometry":{"type":"LineString","coordinates":[[126.75262,37.44877],[126.73694,37.44816]]}},{"type":"Feature","properties":{"shape_id":"{}","direction_id":"{\"0\": 50}","headsign":"{}","duration_avg":112,"n_vehicles":50,"d":1120,"route_I_counts":"{\"3\": 50}","source":66,"target":67,"layer":"L","from":"인천대공원","to":"운연"},"geometry":{"type":"LineString","coordinates":[[126.75262,37.44877],[126.75997,37.44013]]}},{"type":"Feature","properties":{"shape_id":"{}","direction_id":"{\"1\": 50}","headsign":"{}","duration_avg":112,"n_vehicles":50,"d":1120,"route_I_counts":"{\"3\": 50}","source":67,"target":66,"layer":"L","from":"운연","to":"인천대공원"},"geometry":{"type":"LineString","coordinates":[[126.75997,37.44013],[126.75262,37.44877]]}}]}