{"type":"FeatureCollection","features":[{"type":"Feature","geometry":{"type":"Point","coordinates":[116.88933,36.682494]},"properties":{"name":"济南方特(地铁站)","original_ids":"[1]","id":0,"layer":"stop"}},{"type":"Feature","geometry":{"type":"Point","coordinates":[116.888101,36.668843]},"properties":{"name":"济南济南西站(地铁站)","original_ids":"[2]","id":1,"layer":"stop"}},{"type":"Feature","geometry":{"type":"Point","coordinates":[116.888973,36.651337]},"properties":{"name":"济南大杨(地铁站)","original_ids":"[3]","id":2,"layer":"stop"}},{"type":"Feature","geometry":{"type":"Point","coordinates":[116.876037,36.623744]},"properties":{"name":"济南王府庄(地铁站)","original_ids":"[4]","id":3,"layer":"stop"}},{"type":"Feature","geometry":{"type":"Point","coordinates":[116.851981,36.610123]},"properties":{"name":"济南玉符河(地铁站)","original_ids":"[5]","id":4,"layer":"stop"}},{"type":"Feature","geometry":{"type":"Point","coordinates":[116.82902,36.590663]},"properties":{"name":"济南赵营(地铁站)","original_ids":"[6]","id":5,"layer":"stop"}},{"type":"Feature","geometry":{"type":"Point","coordinates":[116.804446,36.568469]},"properties":{"name":"济南紫薇路(地铁站)","original_ids":"[7]","id":6,"layer":"stop"}},{"type":"Feature","geometry":{"type":"Point","coordinates":[116.797957,36.55217]},"properties":{"name":"济南大学城(地铁站)","original_ids":"[8]","id":7,"layer":"stop"}},{"type":"Feature","geometry":{"type":"Point","coordinates":[116.794156,36.535945]},"properties":{"name":"济南园博园(地铁站)","original_ids":"[9]","id":8,"layer":"stop"}},{"type":"Feature","geometry":{"type":"Point","coordinates":[116.799279,36.509996]},"properties":{"name":"济南创新谷(地铁站)","original_ids":"[10]","id":9,"layer":"stop"}},{"type":"Feature","geometry":{"type":"Point","coordinates":[116.789531,36.498314]},"properties":{"name":"济南工研院(地铁站)","original_ids":"[11]","id":10,"layer":"stop"}},{"type":"Feature","geometry":{"type":"Point","coordinates":[117.223878,36.709309]},"properties":{"name":"济南彭家庄(地铁站)","original_ids":"[12]","id":11,"layer":"stop"}},{"type":"Feature","geometry":{"type":"Point","coordinates":[117.182093,36.708851]},"properties":{"name":"济南鲍山(地铁站)","original_ids":"[13]","id":12,"layer":"stop"}},{"type":"Feature","geometry":{"type":"Point","coordinates":[117.139464,36.707988]},"properties":{"name":"济南凤凰路(地铁站)","original_ids":"[14]","id":13,"layer":"stop"}},{"type":"Feature","geometry":{"type":"Point","coordinates":[117.121421,36.705929]},"properties":{"name":"济南姜家庄(地铁站)","original_ids":"[15]","id":14,"layer":"stop"}},{"type":"Feature","geometry":{"type":"Point","coordinates":[117.097795,36.705412]},"properties":{"name":"济南八涧堡(地铁站)","original_ids":"[16]","id":15,"layer":"stop"}},{"type":"Feature","geometry":{"type":"Point","coordinates":[117.076264,36.696901]},"properties":{"name":"济南祝甸(地铁站)","original_ids":"[17]","id":16,"layer":"stop"}},{"type":"Feature","geometry":{"type":"Point","coordinates":[117.061699,36.690243]},"properties":{"name":"济南七里堡(地铁站)","original_ids":"[18]","id":17,"layer":"stop"}},{"type":"Feature","geometry":{"type":"Point","coordinates":[117.035828,36.688162]},"properties":{"name":"济南历山路(地铁站)","original_ids":"[19]","id":18,"layer":"stop"}},{"type":"Feature","geometry":{"type":"Point","coordinates":[117.028269,36.685713]},"properties":{"name":"济南北园(地铁站)","original_ids":"[20]","id":19,"layer":"stop"}},{"type":"Feature","geometry":{"type":"Point","coordinates":[117.010882,36.683879]},"properties":{"name":"济南生产路(地铁站)","original_ids":"[21]","id":20,"layer":"stop"}},{"type":"Feature","geometry":{"type":"Point","coordinates":[116.988653,36.684151]},"properties":{"name":"济南济泺路(地铁站)","original_ids":"[22]","id":21,"layer":"stop"}},{"type":"Feature","geometry":{"type":"Point","coordinates":[116.979606,36.676736]},"properties":{"name":"济南济南站北(地铁站)","original_ids":"[23]","id":22,"layer":"stop"}},{"type":"Feature","geometry":{"type":"Point","coordinates":[116.966759,36.673205]},"properties":{"name":"济南益康路(地铁站)","original_ids":"[24]","id":23,"layer":"stop"}},{"type":"Feature","geometry":{"type":"Point","coordinates":[116.956454,36.670095]},"properties":{"name":"济南八里桥(地铁站)","original_ids":"[25]","id":24,"layer":"stop"}},{"type":"Feature","geometry":{"type":"Point","coordinates":[116.948433,36.665932]},"properties":{"name":"济南老屯(地铁站)","original_ids":"[26]","id":25,"layer":"stop"}},{"type":"Feature","geometry":{"type":"Point","coordinates":[116.926738,36.663303]},"properties":{"name":"济南二环西路(地铁站)","original_ids":"[27]","id":26,"layer":"stop"}},{"type":"Feature","geometry":{"type":"Point","coordinates":[116.913394,36.652398]},"properties":{"name":"济南腊山(地铁站)","original_ids":"[28]","id":27,"layer":"stop"}},{"type":"Feature","geometry":{"type":"Point","coordinates":[116.896508,36.624797]},"properties":{"name":"济南腊山南(地铁站)","original_ids":"[29]","id":28,"layer":"stop"}},{"type":"Feature","geometry":{"type":"Point","coordinates":[117.204741,36.851192]},"properties":{"name":"济南机场南(地铁站)","original_ids":"[30]","id":29,"layer":"stop"}},{"type":"Feature","geometry":{"type":"Point","coordinates":[117.203649,36.829113]},"properties":{"name":"济南临空(地铁站)","original_ids":"[31]","id":30,"layer":"stop"}},{"type":"Feature","geometry":{"type":"Point","coordinates":[117.20114,36.798101]},"properties":{"name":"济南临港北路(地铁站)","original_ids":"[32]","id":31,"layer":"stop"}},{"type":"Feature","geometry":{"type":"Point","coordinates":[117.187686,36.775124]},"properties":{"name":"济南川流(地铁站)","original_ids":"[33]","id":32,"layer":"stop"}},{"type":"Feature","geometry":{"type":"Point","coordinates":[117.172116,36.768343]},"properties":{"name":"济南曲家庄(地铁站)","original_ids":"[34]","id":33,"layer":"stop"}},{"type":"Feature","geometry":{"type":"Point","coordinates":[117.159118,36.766423]},"properties":{"name":"济南滩头(地铁站)","original_ids":"[35]","id":34,"layer":"stop"}},{"type":"Feature","geometry":{"type":"Point","coordinates":[117.153661,36.746849]},"properties":{"name":"济南济南东站(地铁站)","original_ids":"[36]","id":35,"layer":"stop"}},{"type":"Feature","geometry":{"type":"Point","coordinates":[117.153372,36.734322]},"properties":{"name":"济南裴家营(地铁站)","original_ids":"[37]","id":36,"layer":"stop"}},{"type":"Feature","geometry":{"type":"Point","coordinates":[117.132252,36.719794]},"properties":{"name":"济南王舍人(地铁站)","original_ids":"[38]","id":37,"layer":"stop"}},{"type":"Feature","geometry":{"type":"Point","coordinates":[117.108993,36.718293]},"properties":{"name":"济南张马屯(地铁站)","original_ids":"[39]","id":38,"layer":"stop"}},{"type":"Feature","geometry":{"type":"Point","coordinates":[117.100352,36.691891]},"properties":{"name":"济南花园东路(地铁站)","original_ids":"[40]","id":39,"layer":"stop"}},{"type":"Feature","geometry":{"type":"Point","coordinates":[117.103659,36.677195]},"properties":{"name":"济南丁家庄(地铁站)","original_ids":"[41]","id":40,"layer":"stop"}},{"type":"Feature","geometry":{"type":"Point","coordinates":[117.104886,36.667897]},"properties":{"name":"济南安成街(地铁站)","original_ids":"[42]","id":41,"layer":"stop"}},{"type":"Feature","geometry":{"type":"Point","coordinates":[117.105233,36.660757]},"properties":{"name":"济南奥体中心(地铁站)","original_ids":"[43]","id":42,"layer":"stop"}},{"type":"Feature","geometry":{"type":"Point","coordinates":[117.108305,36.650304]},"properties":{"name":"济南龙奥大厦(地铁站)","original_ids":"[44]","id":43,"layer":"stop"}},{"type":"Feature","geometry":{"type":"Point","coordinates":[117.11395,36.632906]},"properties":{"name":"济南孟家庄(地铁站)","original_ids":"[45]","id":44,"layer":"stop"}},{"type":"Feature","geometry":{"type":"Point","coordinates":[117.111752,36.61781]},"properties":{"name":"济南龙洞(地铁站)","original_ids":"[46]","id":45,"layer":"stop"}},{"type":"Feature","properties":{"shape_id":"{}","direction_id":"{\"0\": 50}","headsign":"{}","duration_avg":120,"n_vehicles":50,"d":1200,"route_I_counts":"{\"1\": 50}","source":0,"target":1,"layer":"L","from":"济南方特(地铁站)","to":"济南济南西站(地铁站)"},"geometry":{"type":"LineString","coordinates":[[116.88933,36.682494],[116.888101,36.668843]]}},{"type":"Feature","properties":{"shape_id":"{}","direction_id":"{\"1\": 50}","headsign":"{}","duration_avg":120,"n_vehicles":50,"d":1200,"route_I_counts":"{\"1\": 50}","source":1,"target":0,"layer":"L","from":"济南济南西站(地铁站)","to":"济南方特(地铁站)"},"geometry":{"type":"LineString","coordinates":[[116.888101,36.668843],[116.88933,36.682494]]}},{"type":"Feature","properties":{"shape_id":"{}","direction_id":"{\"0\": 50}","headsign":"{}","duration_avg":180,"n_vehicles":50,"d":1800,"route_I_counts":"{\"1\": 50}","source":1,"target":2,"layer":"L","from":"济南济南西站(地铁站)","to":"济南大杨(地铁站)"},"geometry":{"type":"LineString","coordinates":[[116.888101,36.668843],[116.888973,36.651337]]}},{"type":"Feature","properties":{"shape_id":"{}","direction_id":"{\"1\": 50}","headsign":"{}","duration_avg":180,"n_vehicles":50,"d":1800,"route_I_counts":"{\"1\": 50}","source":2,"target":1,"layer":"L","from":"济南大杨(地铁站)","to":"济南济南西站(地铁站)"},"geometry":{"type":"LineString","coordinates":[[116.888973,36.651337],[116.888101,36.668843]]}},{"type":"Feature","properties":{"shape_id":"{}","direction_id":"{\"0\": 50}","headsign":"{}","duration_avg":300,"n_vehicles":50,"d":3000,"route_I_counts":"{\"1\": 50}","source":2,"target":3,"layer":"L","from":"济南大杨(地铁站)","to":"济南王府庄(地铁站)"},"geometry":{"type":"LineString","coordinates":[[116.888973,36.651337],[116.876037,36.623744]]}},{"type":"Feature","properties":{"shape_id":"{}","direction_id":"{\"1\": 50}","headsign":"{}","duration_avg":300,"n_vehicles":50,"d":3000,"route_I_counts":"{\"1\": 50}","source":3,"target":2,"layer":"L","from":"济南王府庄(地铁站)","to":"济南大杨(地铁站)"},"geometry":{"type":"LineString","coordinates":[[116.876037,36.623744],[116.888973,36.651337]]}},{"type":"Feature","properties":{"shape_id":"{}","direction_id":"{\"0\": 50}","headsign":"{}","duration_avg":180,"n_vehicles":50,"d":1800,"route_I_counts":"{\"1\": 50}","source":3,"target":4,"layer":"L","from":"济南王府庄(地铁站)","to":"济南玉符河(地铁站)"},"geometry":{"type":"LineString","coordinates":[[116.876037,36.623744],[116.851981,36.610123]]}},{"type":"Feature","properties":{"shape_id":"{}","direction_id":"{\"1\": 50}","headsign":"{}","duration_avg":180,"n_vehicles":50,"d":1800,"route_I_counts":"{\"1\": 50}","source":4,"target":3,"layer":"L","from":"济南玉符河(地铁站)","to":"济南王府庄(地铁站)"},"geometry":{"type":"LineString","coordinates":[[116.851981,36.610123],[116.876037,36.623744]]}},{"type":"Feature","properties":{"shape_id":"{}","direction_id":"{\"0\": 50}","headsign":"{}","duration_avg":240,"n_vehicles":50,"d":2400,"route_I_counts":"{\"1\": 50}","source":4,"target":5,"layer":"L","from":"济南玉符河(地铁站)","to":"济南赵营(地铁站)"},"geometry":{"type":"LineString","coordinates":[[116.851981,36.610123],[116.82902,36.590663]]}},{"type":"Feature","properties":{"shape_id":"{}","direction_id":"{\"1\": 50}","headsign":"{}","duration_avg":240,"n_vehicles":50,"d":2400,"route_I_counts":"{\"1\": 50}","source":5,"target":4,"layer":"L","from":"济南赵营(地铁站)","to":"济南玉符河(地铁站)"},"geometry":{"type":"LineString","coordinates":[[116.82902,36.590663],[116.851981,36.610123]]}},{"type":"Feature","properties":{"shape_id":"{}","direction_id":"{\"0\": 50}","headsign":"{}","duration_avg":240,"n_vehicles":50,"d":2400,"route_I_counts":"{\"1\": 50}","source":5,"target":6,"layer":"L","from":"济南赵营(地铁站)","to":"济南紫薇路(地铁站)"},"geometry":{"type":"LineString","coordinates":[[116.82902,36.590663],[116.804446,36.568469]]}},{"type":"Feature","properties":{"shape_id":"{}","direction_id":"{\"1\": 50}","headsign":"{}","duration_avg":240,"n_vehicles":50,"d":2400,"route_I_counts":"{\"1\": 50}","source":6,"target":5,"layer":"L","from":"济南紫薇路(地铁站)","to":"济南赵营(地铁站)"},"geometry":{"type":"LineString","coordinates":[[116.804446,36.568469],[116.82902,36.590663]]}},{"type":"Feature","properties":{"shape_id":"{}","direction_id":"{\"0\": 50}","headsign":"{}","duration_avg":180,"n_vehicles":50,"d":1800,"route_I_counts":"{\"1\": 50}","source":6,"target":7,"layer":"L","from":"济南紫薇路(地铁站)","to":"济南大学城(地铁站)"},"geometry":{"type":"LineString","coordinates":[[116.804446,36.568469],[116.797957,36.55217]]}},{"type":"Feature","properties":{"shape_id":"{}","direction_id":"{\"1\": 50}","headsign":"{}","duration_avg":180,"n_vehicles":50,"d":1800,"route_I_counts":"{\"1\": 50}","source":7,"target":6,"layer":"L","from":"济南大学城(地铁站)","to":"济南紫薇路(地铁站)"},"geometry":{"type":"LineString","coordinates":[[116.797957,36.55217],[116.804446,36.568469]]}},{"type":"Feature","properties":{"shape_id":"{}","direction_id":"{\"0\": 50}","headsign":"{}","duration_avg":180,"n_vehicles":50,"d":1800,"route_I_counts":"{\"1\": 50}","source":7,"target":8,"layer":"L","from":"济南大学城(地铁站)","to":"济南园博园(地铁站)"},"geometry":{"type":"LineString","coordinates":[[116.797957,36.55217],[116.794156,36.535945]]}},{"type":"Feature","properties":{"shape_id":"{}","direction_id":"{\"1\": 50}","headsign":"{}","duration_avg":180,"n_vehicles":50,"d":1800,"route_I_counts":"{\"1\": 50}","source":8,"target":7,"layer":"L","from":"济南园博园(地铁站)","to":"济南大学城(地铁站)"},"geometry":{"type":"LineString","coordinates":[[116.794156,36.535945],[116.797957,36.55217]]}},{"type":"Feature","properties":{"shape_id":"{}","direction_id":"{\"0\": 50}","headsign":"{}","duration_avg":180,"n_vehicles":50,"d":1800,"route_I_counts":"{\"1\": 50}","source":8,"target":9,"layer":"L","from":"济南园博园(地铁站)","to":"济南创新谷(地铁站)"},"geometry":{"type":"LineString","coordinates":[[116.794156,36.535945],[116.799279,36.509996]]}},{"type":"Feature","properties":{"shape_id":"{}","direction_id":"{\"1\": 50}","headsign":"{}","duration_avg":180,"n_vehicles":50,"d":1800,"route_I_counts":"{\"1\": 50}","source":9,"target":8,"layer":"L","from":"济南创新谷(地铁站)","to":"济南园博园(地铁站)"},"geometry":{"type":"LineString","coordinates":[[116.799279,36.509996],[116.794156,36.535945]]}},{"type":"Feature","properties":{"shape_id":"{}","direction_id":"{\"0\": 50}","headsign":"{}","duration_avg":180,"n_vehicles":50,"d":1800,"route_I_counts":"{\"1\": 50}","source":9,"target":10,"layer":"L","from":"济南创新谷(地铁站)","to":"济南工研院(地铁站)"},"geometry":{"type":"LineString","coordinates":[[116.799279,36.509996],[116.789531,36.498314]]}},{"type":"Feature","properties":{"shape_id":"{}","direction_id":"{\"1\": 50}","headsign":"{}","duration_avg":180,"n_vehicles":50,"d":1800,"route_I_counts":"{\"1\": 50}","source":10,"target":9,"layer":"L","from":"济南工研院(地铁站)","to":"济南创新谷(地铁站)"},"geometry":{"type":"LineString","coordinates":[[116.789531,36.498314],[116.799279,36.509996]]}},{"type":"Feature","properties":{"shape_id":"{}","direction_id":"{\"0\": 50}","headsign":"{}","duration_avg":240,"n_vehicles":50,"d":2400,"route_I_counts":"{\"2\": 50}","source":11,"target":12,"layer":"L","from":"济南彭家庄(地铁站)","to":"济南鲍山(地铁站)"},"geometry":{"type":"LineString","coordinates":[[117.223878,36.709309],[117.182093,36.708851]]}},{"type":"Feature","properties":{"shape_id":"{}","direction_id":"{\"1\": 50}","headsign":"{}","duration_avg":240,"n_vehicles":50,"d":2400,"route_I_counts":"{\"2\": 50}","source":12,"target":11,"layer":"L","from":"济南鲍山(地铁站)","to":"济南彭家庄(地铁站)"},"geometry":{"type":"LineString","coordinates":[[117.182093,36.708851],[117.223878,36.709309]]}},{"type":"Feature","properties":{"shape_id":"{}","direction_id":"{\"0\": 50}","headsign":"{}","duration_avg":240,"n_vehicles":50,"d":2400,"route_I_counts":"{\"2\": 50}","source":12,"target":13,"layer":"L","from":"济南鲍山(地铁站)","to":"济南凤凰路(地铁站)"},"geometry":{"type":"LineString","coordinates":[[117.182093,36.708851],[117.139464,36.707988]]}},{"type":"Feature","properties":{"shape_id":"{}","direction_id":"{\"1\": 50}","headsign":"{}","duration_avg":240,"n_vehicles":50,"d":2400,"route_I_counts":"{\"2\": 50}","source":13,"target":12,"layer":"L","from":"济南凤凰路(地铁站)","to":"济南鲍山(地铁站)"},"geometry":{"type":"LineString","coordinates":[[117.139464,36.707988],[117.182093,36.708851]]}},{"type":"Feature","properties":{"shape_id":"{}","direction_id":"{\"0\": 50}","headsign":"{}","duration_avg":120,"n_vehicles":50,"d":1200,"route_I_counts":"{\"2\": 50}","source":13,"target":14,"layer":"L","from":"济南凤凰路(地铁站)","to":"济南姜家庄(地铁站)"},"geometry":{"type":"LineString","coordinates":[[117.139464,36.707988],[117.121421,36.705929]]}},{"type":"Feature","properties":{"shape_id":"{}","direction_id":"{\"1\": 50}","headsign":"{}","duration_avg":120,"n_vehicles":50,"d":1200,"route_I_counts":"{\"2\": 50}","source":14,"target":13,"layer":"L","from":"济南姜家庄(地铁站)","to":"济南凤凰路(地铁站)"},"geometry":{"type":"LineString","coordinates":[[117.121421,36.705929],[117.139464,36.707988]]}},{"type":"Feature","properties":{"shape_id":"{}","direction_id":"{\"0\": 50}","headsign":"{}","duration_avg":420,"n_vehicles":50,"d":4200,"route_I_counts":"{\"2\": 50}","source":14,"target":15,"layer":"L","from":"济南姜家庄(地铁站)","to":"济南八涧堡(地铁站)"},"geometry":{"type":"LineString","coordinates":[[117.121421,36.705929],[117.097795,36.705412]]}},{"type":"Feature","properties":{"shape_id":"{}","direction_id":"{\"1\": 50}","headsign":"{}","duration_avg":420,"n_vehicles":50,"d":4200,"route_I_counts":"{\"2\": 50}","source":15,"target":14,"layer":"L","from":"济南八涧堡(地铁站)","to":"济南姜家庄(地铁站)"},"geometry":{"type":"LineString","coordinates":[[117.097795,36.705412],[117.121421,36.705929]]}},{"type":"Feature","properties":{"shape_id":"{}","direction_id":"{\"0\": 50}","headsign":"{}","duration_avg":180,"n_vehicles":50,"d":1800,"route_I_counts":"{\"2\": 50}","source":15,"target":16,"layer":"L","from":"济南八涧堡(地铁站)","to":"济南祝甸(地铁站)"},"geometry":{"type":"LineString","coordinates":[[117.097795,36.705412],[117.076264,36.696901]]}},{"type":"Feature","properties":{"shape_id":"{}","direction_id":"{\"1\": 50}","headsign":"{}","duration_avg":180,"n_vehicles":50,"d":1800,"route_I_counts":"{\"2\": 50}","source":16,"target":15,"layer":"L","from":"济南祝甸(地铁站)","to":"济南八涧堡(地铁站)"},"geometry":{"type":"LineString","coordinates":[[117.076264,36.696901],[117.097795,36.705412]]}},{"type":"Feature","properties":{"shape_id":"{}","direction_id":"{\"0\": 50}","headsign":"{}","duration_avg":120,"n_vehicles":50,"d":1200,"route_I_counts":"{\"2\": 50}","source":16,"target":17,"layer":"L","from":"济南祝甸(地铁站)","to":"济南七里堡(地铁站)"},"geometry":{"type":"LineString","coordinates":[[117.076264,36.696901],[117.061699,36.690243]]}},{"type":"Feature","properties":{"shape_id":"{}","direction_id":"{\"1\": 50}","headsign":"{}","duration_avg":120,"n_vehicles":50,"d":1200,"route_I_counts":"{\"2\": 50}","source":17,"target":16,"layer":"L","from":"济南七里堡(地铁站)","to":"济南祝甸(地铁站)"},"geometry":{"type":"LineString","coordinates":[[117.061699,36.690243],[117.076264,36.696901]]}},{"type":"Feature","properties":{"shape_id":"{}","direction_id":"{\"0\": 50}","headsign":"{}","duration_avg":240,"n_vehicles":50,"d":2400,"route_I_counts":"{\"2\": 50}","source":17,"target":18,"layer":"L","from":"济南七里堡(地铁站)","to":"济南历山路(地铁站)"},"geometry":{"type":"LineString","coordinates":[[117.061699,36.690243],[117.035828,36.688162]]}},{"type":"Feature","properties":{"shape_id":"{}","direction_id":"{\"1\": 50}","headsign":"{}","duration_avg":240,"n_vehicles":50,"d":2400,"route_I_counts":"{\"2\": 50}","source":18,"target":17,"layer":"L","from":"济南历山路(地铁站)","to":"济南七里堡(地铁站)"},"geometry":{"type":"LineString","coordinates":[[117.035828,36.688162],[117.061699,36.690243]]}},{"type":"Feature","properties":{"shape_id":"{}","direction_id":"{\"0\": 50}","headsign":"{}","duration_avg":60,"n_vehicles":50,"d":600,"route_I_counts":"{\"2\": 50}","source":18,"target":19,"layer":"L","from":"济南历山路(地铁站)","to":"济南北园(地铁站)"},"geometry":{"type":"LineString","coordinates":[[117.035828,36.688162],[117.028269,36.685713]]}},{"type":"Feature","properties":{"shape_id":"{}","direction_id":"{\"1\": 50}","headsign":"{}","duration_avg":60,"n_vehicles":50,"d":600,"route_I_counts":"{\"2\": 50}","source":19,"target":18,"layer":"L","from":"济南北园(地铁站)","to":"济南历山路(地铁站)"},"geometry":{"type":"LineString","coordinates":[[117.028269,36.685713],[117.035828,36.688162]]}},{"type":"Feature","properties":{"shape_id":"{}","direction_id":"{\"0\": 50}","headsign":"{}","duration_avg":180,"n_vehicles":50,"d":1800,"route_I_counts":"{\"2\": 50}","source":19,"target":20,"layer":"L","from":"济南北园(地铁站)","to":"济南生产路(地铁站)"},"geometry":{"type":"LineString","coordinates":[[117.028269,36.685713],[117.010882,36.683879]]}},{"type":"Feature","properties":{"shape_id":"{}","direction_id":"{\"1\": 50}","headsign":"{}","duration_avg":180,"n_vehicles":50,"d":1800,"route_I_counts":"{\"2\": 50}","source":20,"target":19,"layer":"L","from":"济南生产路(地铁站)","to":"济南北园(地铁站)"},"geometry":{"type":"LineString","coordinates":[[117.010882,36.683879],[117.028269,36.685713]]}},{"type":"Feature","properties":{"shape_id":"{}","direction_id":"{\"0\": 50}","headsign":"{}","duration_avg":180,"n_vehicles":50,"d":1800,"route_I_counts":"{\"2\": 50}","source":20,"target":21,"layer":"L","from":"济南生产路(地铁站)","to":"济南济泺路(地铁站)"},"geometry":{"type":"LineString","coordinates":[[117.010882,36.683879],[116.988653,36.684151]]}},{"type":"Feature","properties":{"shape_id":"{}","direction_id":"{\"1\": 50}","headsign":"{}","duration_avg":180,"n_vehicles":50,"d":1800,"route_I_counts":"{\"2\": 50}","source":21,"target":20,"layer":"L","from":"济南济泺路(地铁站)","to":"济南生产路(地铁站)"},"geometry":{"type":"LineString","coordinates":[[116.988653,36.684151],[117.010882,36.683879]]}},{"type":"Feature","properties":{"shape_id":"{}","direction_id":"{\"0\": 50}","headsign":"{}","duration_avg":180,"n_vehicles":50,"d":1800,"route_I_counts":"{\"2\": 50}","source":21,"target":22,"layer":"L","from":"济南济泺路(地铁站)","to":"济南济南站北(地铁站)"},"geometry":{"type":"LineString","coordinates":[[116.988653,36.684151],[116.979606,36.676736]]}},{"type":"Feature","properties":{"shape_id":"{}","direction_id":"{\"1\": 50}","headsign":"{}","duration_avg":180,"n_vehicles":50,"d":1800,"route_I_counts":"{\"2\": 50}","source":22,"target":21,"layer":"L","from":"济南济南站北(地铁站)","to":"济南济泺路(地铁站)"},"geometry":{"type":"LineString","coordinates":[[116.979606,36.676736],[116.988653,36.684151]]}},{"type":"Feature","properties":{"shape_id":"{}","direction_id":"{\"0\": 50}","headsign":"{}","duration_avg":120,"n_vehicles":50,"d":1200,"route_I_counts":"{\"2\": 50}","source":22,"target":23,"layer":"L","from":"济南济南站北(地铁站)","to":"济南益康路(地铁站)"},"geometry":{"type":"LineString","coordinates":[[116.979606,36.676736],[116.966759,36.673205]]}},{"type":"Feature","properties":{"shape_id":"{}","direction_id":"{\"1\": 50}","headsign":"{}","duration_avg":120,"n_vehicles":50,"d":1200,"route_I_counts":"{\"2\": 50}","source":23,"target":22,"layer":"L","from":"济南益康路(地铁站)","to":"济南济南站北(地铁站)"},"geometry":{"type":"LineString","coordinates":[[116.966759,36.673205],[116.979606,36.676736]]}},{"type":"Feature","properties":{"shape_id":"{}","direction_id":"{\"0\": 50}","headsign":"{}","duration_avg":120,"n_vehicles":50,"d":1200,"route_I_counts":"{\"2\": 50}","source":23,"target":24,"layer":"L","from":"济南益康路(地铁站)","to":"济南八里桥(地铁站)"},"geometry":{"type":"LineString","coordinates":[[116.966759,36.673205],[116.956454,36.670095]]}},{"type":"Feature","properties":{"shape_id":"{}","direction_id":"{\"1\": 50}","headsign":"{}","duration_avg":120,"n_vehicles":50,"d":1200,"route_I_counts":"{\"2\": 50}","source":24,"target":23,"layer":"L","from":"济南八里桥(地铁站)","to":"济南益康路(地铁站)"},"geometry":{"type":"LineString","coordinates":[[116.956454,36.670095],[116.966759,36.673205]]}},{"type":"Feature","properties":{"shape_id":"{}","direction_id":"{\"0\": 50}","headsign":"{}","duration_avg":60,"n_vehicles":50,"d":600,"route_I_counts":"{\"2\": 50}","source":24,"target":25,"layer":"L","from":"济南八里桥(地铁站)","to":"济南老屯(地铁站)"},"geometry":{"type":"LineString","coordinates":[[116.956454,36.670095],[116.948433,36.665932]]}},{"type":"Feature","properties":{"shape_id":"{}","direction_id":"{\"1\": 50}","headsign":"{}","duration_avg":60,"n_vehicles":50,"d":600,"route_I_counts":"{\"2\": 50}","source":25,"target":24,"layer":"L","from":"济南老屯(地铁站)","to":"济南八里桥(地铁站)"},"geometry":{"type":"LineString","coordinates":[[116.948433,36.665932],[116.956454,36.670095]]}},{"type":"Feature","properties":{"shape_id":"{}","direction_id":"{\"0\": 50}","headsign":"{}","duration_avg":180,"n_vehicles":50,"d":1800,"route_I_counts":"{\"2\": 50}","source":25,"target":26,"layer":"L","from":"济南老屯(地铁站)","to":"济南二环西路(地铁站)"},"geometry":{"type":"LineString","coordinates":[[116.948433,36.665932],[116.926738,36.663303]]}},{"type":"Feature","properties":{"shape_id":"{}","direction_id":"{\"1\": 50}","headsign":"{}","duration_avg":180,"n_vehicles":50,"d":1800,"route_I_counts":"{\"2\": 50}","source":26,"target":25,"layer":"L","from":"济南二环西路(地铁站)","to":"济南老屯(地铁站)"},"geometry":{"type":"LineString","coordinates":[[116.926738,36.663303],[116.948433,36.665932]]}},{"type":"Feature","properties":{"shape_id":"{}","direction_id":"{\"0\": 50}","headsign":"{}","duration_avg":180,"n_vehicles":50,"d":1800,"route_I_counts":"{\"2\": 50}","source":26,"target":27,"layer":"L","from":"济南二环西路(地铁站)","to":"济南腊山(地铁站)"},"geometry":{"type":"LineString","coordinates":[[116.926738,36.663303],[116.913394,36.652398]]}},{"type":"Feature","properties":{"shape_id":"{}","direction_id":"{\"1\": 50}","headsign":"{}","duration_avg":180,"n_vehicles":50,"d":1800,"route_I_counts":"{\"2\": 50}","source":27,"target":26,"layer":"L","from":"济南腊山(地铁站)","to":"济南二环西路(地铁站)"},"geometry":{"type":"LineString","coordinates":[[116.913394,36.652398],[116.926738,36.663303]]}},{"type":"Feature","properties":{"shape_id":"{}","direction_id":"{\"0\": 50}","headsign":"{}","duration_avg":300,"n_vehicles":50,"d":3000,"route_I_counts":"{\"2\": 50}","source":27,"target":28,"layer":"L","from":"济南腊山(地铁站)","to":"济南腊山南(地铁站)"},"geometry":{"type":"LineString","coordinates":[[116.913394,36.652398],[116.896508,36.624797]]}},{"type":"Feature","properties":{"shape_id":"{}","direction_id":"{\"1\": 50}","headsign":"{}","duration_avg":300,"n_vehicles":50,"d":3000,"route_I_counts":"{\"2\": 50}","source":28,"target":27,"layer":"L","from":"济南腊山南(地铁站)","to":"济南腊山(地铁站)"},"geometry":{"type":"LineString","coordinates":[[116.896508,36.624797],[116.913394,36.652398]]}},{"type":"Feature","properties":{"shape_id":"{}","direction_id":"{\"0\": 50}","headsign":"{}","duration_avg":120,"n_vehicles":50,"d":1200,"route_I_counts":"{\"2\": 50}","source":28,"target":3,"layer":"L","from":"济南腊山南(地铁站)","to":"济南王府庄(地铁站)"},"geometry":{"type":"LineString","coordinates":[[116.896508,36.624797],[116.876037,36.623744]]}},{"type":"Feature","properties":{"shape_id":"{}","direction_id":"{\"1\": 50}","headsign":"{}","duration_avg":120,"n_vehicles":50,"d":1200,"route_I_counts":"{\"2\": 50}","source":3,"target":28,"layer":"L","from":"济南王府庄(地铁站)","to":"济南腊山南(地铁站)"},"geometry":{"type":"LineString","coordinates":[[116.876037,36.623744],[116.896508,36.624797]]}},{"type":"Feature","properties":{"shape_id":"{}","direction_id":"{\"0\": 50}","headsign":"{}","duration_avg":180,"n_vehicles":50,"d":1800,"route_I_counts":"{\"3\": 50}","source":29,"target":30,"layer":"L","from":"济南机场南(地铁站)","to":"济南临空(地铁站)"},"geometry":{"type":"LineString","coordinates":[[117.204741,36.851192],[117.203649,36.829113]]}},{"type":"Feature","properties":{"shape_id":"{}","direction_id":"{\"1\": 50}","headsign":"{}","duration_avg":180,"n_vehicles":50,"d":1800,"route_I_counts":"{\"3\": 50}","source":30,"target":29,"layer":"L","from":"济南临空(地铁站)","to":"济南机场南(地铁站)"},"geometry":{"type":"LineString","coordinates":[[117.203649,36.829113],[117.204741,36.851192]]}},{"type":"Feature","properties":{"shape_id":"{}","direction_id":"{\"0\": 50}","headsign":"{}","duration_avg":240,"n_vehicles":50,"d":2400,"route_I_counts":"{\"3\": 50}","source":30,"target":31,"layer":"L","from":"济南临空(地铁站)","to":"济南临港北路(地铁站)"},"geometry":{"type":"LineString","coordinates":[[117.203649,36.829113],[117.20114,36.798101]]}},{"type":"Feature","properties":{"shape_id":"{}","direction_id":"{\"1\": 50}","headsign":"{}","duration_avg":240,"n_vehicles":50,"d":2400,"route_I_counts":"{\"3\": 50}","source":31,"target":30,"layer":"L","from":"济南临港北路(地铁站)","to":"济南临空(地铁站)"},"geometry":{"type":"LineString","coordinates":[[117.20114,36.798101],[117.203649,36.829113]]}},{"type":"Feature","properties":{"shape_id":"{}","direction_id":"{\"0\": 50}","headsign":"{}","duration_avg":240,"n_vehicles":50,"d":2400,"route_I_counts":"{\"3\": 50}","source":31,"target":32,"layer":"L","from":"济南临港北路(地铁站)","to":"济南川流(地铁站)"},"geometry":{"type":"LineString","coordinates":[[117.20114,36.798101],[117.187686,36.775124]]}},{"type":"Feature","properties":{"shape_id":"{}","direction_id":"{\"1\": 50}","headsign":"{}","duration_avg":240,"n_vehicles":50,"d":2400,"route_I_counts":"{\"3\": 50}","source":32,"target":31,"layer":"L","from":"济南川流(地铁站)","to":"济南临港北路(地铁站)"},"geometry":{"type":"LineString","coordinates":[[117.187686,36.775124],[117.20114,36.798101]]}},{"type":"Feature","properties":{"shape_id":"{}","direction_id":"{\"0\": 50}","headsign":"{}","duration_avg":180,"n_vehicles":50,"d":1800,"route_I_counts":"{\"3\": 50}","source":32,"target":33,"layer":"L","from":"济南川流(地铁站)","to":"济南曲家庄(地铁站)"},"geometry":{"type":"LineString","coordinates":[[117.187686,36.775124],[117.172116,36.768343]]}},{"type":"Feature","properties":{"shape_id":"{}","direction_id":"{\"1\": 50}","headsign":"{}","duration_avg":180,"n_vehicles":50,"d":1800,"route_I_counts":"{\"3\": 50}","source":33,"target":32,"layer":"L","from":"济南曲家庄(地铁站)","to":"济南川流(地铁站)"},"geometry":{"type":"LineString","coordinates":[[117.172116,36.768343],[117.187686,36.775124]]}},{"type":"Feature","properties":{"shape_id":"{}","direction_id":"{\"0\": 50}","headsign":"{}","duration_avg":120,"n_vehicles":50,"d":1200,"route_I_counts":"{\"3\": 50}","source":33,"target":34,"layer":"L","from":"济南曲家庄(地铁站)","to":"济南滩头(地铁站)"},"geometry":{"type":"LineString","coordinates":[[117.172116,36.768343],[117.159118,36.766423]]}},{"type":"Feature","properties":{"shape_id":"{}","direction_id":"{\"1\": 50}","headsign":"{}","duration_avg":120,"n_vehicles":50,"d":1200,"route_I_counts":"{\"3\": 50}","source":34,"target":33,"layer":"L","from":"济南滩头(地铁站)","to":"济南曲家庄(地铁站)"},"geometry":{"type":"LineString","coordinates":[[117.159118,36.766423],[117.172116,36.768343]]}},{"type":"Feature","properties":{"shape_id":"{}","direction_id":"{\"0\": 50}","headsign":"{}","duration_avg":240,"n_vehicles":50,"d":2400,"route_I_counts":"{\"3\": 50}","source":34,"target":35,"layer":"L","from":"济南滩头(地铁站)","to":"济南济南东站(地铁站)"},"geometry":{"type":"LineString","coordinates":[[117.159118,36.766423],[117.153661,36.746849]]}},{"type":"Feature","properties":{"shape_id":"{}","direction_id":"{\"1\": 50}","headsign":"{}","duration_avg":240,"n_vehicles":50,"d":2400,"route_I_counts":"{\"3\": 50}","source":35,"target":34,"layer":"L","from":"济南济南东站(地铁站)","to":"济南滩头(地铁站)"},"geometry":{"type":"LineString","coordinates":[[117.153661,36.746849],[117.159118,36.766423]]}},{"type":"Feature","properties":{"shape_id":"{}","direction_id":"{\"0\": 50}","headsign":"{}","duration_avg":120,"n_vehicles":50,"d":1200,"route_I_counts":"{\"3\": 50}","source":35,"target":36,"layer":"L","from":"济南济南东站(地铁站)","to":"济南裴家营(地铁站)"},"geometry":{"type":"LineString","coordinates":[[117.153661,36.746849],[117.153372,36.734322]]}},{"type":"Feature","properties":{"shape_id":"{}","direction_id":"{\"1\": 50}","headsign":"{}","duration_avg":120,"n_vehicles":50,"d":1200,"route_I_counts":"{\"3\": 50}","source":36,"target":35,"layer":"L","from":"济南裴家营(地铁站)","to":"济南济南东站(地铁站)"},"geometry":{"type":"LineString","coordinates":[[117.153372,36.734322],[117.153661,36.746849]]}},{"type":"Feature","properties":{"shape_id":"{}","direction_id":"{\"0\": 50}","headsign":"{}","duration_avg":240,"n_vehicles":50,"d":2400,"route_I_counts":"{\"3\": 50}","source":36,"target":37,"layer":"L","from":"济南裴家营(地铁站)","to":"济南王舍人(地铁站)"},"geometry":{"type":"LineString","coordinates":[[117.153372,36.734322],[117.132252,36.719794]]}},{"type":"Feature","properties":{"shape_id":"{}","direction_id":"{\"1\": 50}","headsign":"{}","duration_avg":240,"n_vehicles":50,"d":2400,"route_I_counts":"{\"3\": 50}","source":37,"target":36,"layer":"L","from":"济南王舍人(地铁站)","to":"济南裴家营(地铁站)"},"geometry":{"type":"LineString","coordinates":[[117.132252,36.719794],[117.153372,36.734322]]}},{"type":"Feature","properties":{"shape_id":"{}","direction_id":"{\"0\": 50}","headsign":"{}","duration_avg":180,"n_vehicles":50,"d":1800,"route_I_counts":"{\"3\": 50}","source":37,"target":38,"layer":"L","from":"济南王舍人(地铁站)","to":"济南张马屯(地铁站)"},"geometry":{"type":"LineString","coordinates":[[117.132252,36.719794],[117.108993,36.718293]]}},{"type":"Feature","properties":{"shape_id":"{}","direction_id":"{\"1\": 50}","headsign":"{}","duration_avg":180,"n_vehicles":50,"d":1800,"route_I_counts":"{\"3\": 50}","source":38,"target":37,"layer":"L","from":"济南张马屯(地铁站)","to":"济南王舍人(地铁站)"},"geometry":{"type":"LineString","coordinates":[[117.108993,36.718293],[117.132252,36.719794]]}},{"type":"Feature","properties":{"shape_id":"{}","direction_id":"{\"0\": 50}","headsign":"{}","duration_avg":420,"n_vehicles":50,"d":4200,"route_I_counts":"{\"3\": 50}","source":38,"target":15,"layer":"L","from":"济南张马屯(地铁站)","to":"济南八涧堡(地铁站)"},"geometry":{"type":"LineString","coordinates":[[117.108993,36.718293],[117.097795,36.705412]]}},{"type":"Feature","properties":{"shape_id":"{}","direction_id":"{\"1\": 50}","headsign":"{}","duration_avg":420,"n_vehicles":50,"d":4200,"route_I_counts":"{\"3\": 50}","source":15,"target":38,"layer":"L","from":"济南八涧堡(地铁站)","to":"济南张马屯(地铁站)"},"geometry":{"type":"LineString","coordinates":[[117.097795,36.705412],[117.108993,36.718293]]}},{"type":"Feature","properties":{"shape_id":"{}","direction_id":"{\"0\": 50}","headsign":"{}","duration_avg":120,"n_vehicles":50,"d":1200,"route_I_counts":"{\"3\": 50}","source":15,"target":39,"layer":"L","from":"济南八涧堡(地铁站)","to":"济南花园东路(地铁站)"},"geometry":{"type":"LineString","coordinates":[[117.097795,36.705412],[117.100352,36.691891]]}},{"type":"Feature","properties":{"shape_id":"{}","direction_id":"{\"1\": 50}","headsign":"{}","duration_avg":120,"n_vehicles":50,"d":1200,"route_I_counts":"{\"3\": 50}","source":39,"target":15,"layer":"L","from":"济南花园东路(地铁站)","to":"济南八涧堡(地铁站)"},"geometry":{"type":"LineString","coordinates":[[117.100352,36.691891],[117.097795,36.705412]]}},{"type":"Feature","properties":{"shape_id":"{}","direction_id":"{\"0\": 50}","headsign":"{}","duration_avg":180,"n_vehicles":50,"d":1800,"route_I_counts":"{\"3\": 50}","source":39,"target":40,"layer":"L","from":"济南花园东路(地铁站)","to":"济南丁家庄(地铁站)"},"geometry":{"type":"LineString","coordinates":[[117.100352,36.691891],[117.103659,36.677195]]}},{"type":"Feature","properties":{"shape_id":"{}","direction_id":"{\"1\": 50}","headsign":"{}","duration_avg":180,"n_vehicles":50,"d":1800,"route_I_counts":"{\"3\": 50}","source":40,"target":39,"layer":"L","from":"济南丁家庄(地铁站)","to":"济南花园东路(地铁站)"},"geometry":{"type":"LineString","coordinates":[[117.103659,36.677195],[117.100352,36.691891]]}},{"type":"Feature","properties":{"shape_id":"{}","direction_id":"{\"0\": 50}","headsign":"{}","duration_avg":120,"n_vehicles":50,"d":1200,"route_I_counts":"{\"3\": 50}","source":40,"target":41,"layer":"L","from":"济南丁家庄(地铁站)","to":"济南安成街(地铁站)"},"geometry":{"type":"LineString","coordinates":[[117.103659,36.677195],[117.104886,36.667897]]}},{"type":"Feature","properties":{"shape_id":"{}","direction_id":"{\"1\": 50}","headsign":"{}","duration_avg":120,"n_vehicles":50,"d":1200,"route_I_counts":"{\"3\": 50}","source":41,"target":40,"layer":"L","from":"济南安成街(地铁站)","to":"济南丁家庄(地铁站)"},"geometry":{"type":"LineString","coordinates":[[117.104886,36.667897],[117.103659,36.677195]]}},{"type":"Feature","properties":{"shape_id":"{}","direction_id":"{\"0\": 50}","headsign":"{}","duration_avg":120,"n_vehicles":50,"d":1200,"route_I_counts":"{\"3\": 50}","source":41,"target":42,"layer":"L","from":"济南安成街(地铁站)","to":"济南奥体中心(地铁站)"},"geometry":{"type":"LineString","coordinates":[[117.104886,36.667897],[117.105233,36.660757]]}},{"type":"Feature","properties":{"shape_id":"{}","direction_id":"{\"1\": 50}","headsign":"{}","duration_avg":120,"n_vehicles":50,"d":1200,"route_I_counts":"{\"3\": 50}","source":42,"target":41,"layer":"L","from":"济南奥体中心(地铁站)","to":"济南安成街(地铁站)"},"geometry":{"type":"LineString","coordinates":[[117.105233,36.660757],[117.104886,36.667897]]}},{"type":"Feature","properties":{"shape_id":"{}","direction_id":"{\"0\": 50}","headsign":"{}","duration_avg":180,"n_vehicles":50,"d":1800,"route_I_counts":"{\"3\": 50}","source":42,"target":43,"layer":"L","from":"济南奥体中心(地铁站)","to":"济南龙奥大厦(地铁站)"},"geometry":{"type":"LineString","coordinates":[[117.105233,36.660757],[117.108305,36.650304]]}},{"type":"Feature","properties":{"shape_id":"{}","direction_id":"{\"1\": 50}","headsign":"{}","duration_avg":180,"n_vehicles":50,"d":1800,"route_I_counts":"{\"3\": 50}","source":43,"target":42,"layer":"L","from":"济南龙奥大厦(地铁站)","to":"济南奥体中心(地铁站)"},"geometry":{"type":"LineString","coordinates":[[117.108305,36.650304],[117.105233,36.660757]]}},{"type":"Feature","properties":{"shape_id":"{}","direction_id":"{\"0\": 50}","headsign":"{}","duration_avg":120,"n_vehicles":50,"d":1200,"route_I_counts":"{\"3\": 50}","source":43,"target":44,"layer":"L","from":"济南龙奥大厦(地铁站)","to":"济南孟家庄(地铁站)"},"geometry":{"type":"LineString","coordinates":[[117.108305,36.650304],[117.11395,36.632906]]}},{"type":"Feature","properties":{"shape_id":"{}","direction_id":"{\"1\": 50}","headsign":"{}","duration_avg":120,"n_vehicles":50,"d":1200,"route_I_counts":"{\"3\": 50}","source":44,"target":43,"layer":"L","from":"济南孟家庄(地铁站)","to":"济南龙奥大厦(地铁站)"},"geometry":{"type":"LineString","coordinates":[[117.11395,36.632906],[117.108305,36.650304]]}},{"type":"Feature","properties":{"shape_id":"{}","direction_id":"{\"0\": 50}","headsign":"{}","duration_avg":120,"n_vehicles":50,"d":1200,"route_I_counts":"{\"3\": 50}","source":44,"target":45,"layer":"L","from":"济南孟家庄(地铁站)","to":"济南龙洞(地铁站)"},"geometry":{"type":"LineString","coordinates":[[117.11395,36.632906],[117.111752,36.61781]]}},{"type":"Feature","properties":{"shape_id":"{}","direction_id":"{\"1\": 50}","headsign":"{}","duration_avg":120,"n_vehicles":50,"d":1200,"route_I_counts":"{\"3\": 50}","source":45,"target":44,"layer":"L","from":"济南龙洞(地铁站)","to":"济南孟家庄(地铁站)"},"geometry":{"type":"LineString","coordinates":[[117.111752,36.61781],[117.11395,36.632906]]}}]}