{"type":"FeatureCollection","features":[{"type":"Feature","geometry":{"type":"Point","coordinates":[119.631631,29.110338]},"properties":{"name":"金华金华站(地铁站)","original_ids":"[1]","id":0,"layer":"stop"}},{"type":"Feature","geometry":{"type":"Point","coordinates":[119.639041,29.090982]},"properties":{"name":"金华双溪西路(地铁站)","original_ids":"[2]","id":1,"layer":"stop"}},{"type":"Feature","geometry":{"type":"Point","coordinates":[119.650028,29.084572]},"properties":{"name":"金华八一南街(地铁站)","original_ids":"[3]","id":2,"layer":"stop"}},{"type":"Feature","geometry":{"type":"Point","coordinates":[119.670969,29.09137]},"properties":{"name":"金华万达广场(地铁站)","original_ids":"[4]","id":3,"layer":"stop"}},{"type":"Feature","geometry":{"type":"Point","coordinates":[119.69783,29.100357]},"properties":{"name":"金华大堰河街(地铁站)","original_ids":"[5]","id":4,"layer":"stop"}},{"type":"Feature","geometry":{"type":"Point","coordinates":[119.716452,29.100368]},"properties":{"name":"金华轨道大厦(地铁站)","original_ids":"[6]","id":5,"layer":"stop"}},{"type":"Feature","geometry":{"type":"Point","coordinates":[119.732249,29.117129]},"properties":{"name":"金华金华南站(地铁站)","original_ids":"[7]","id":6,"layer":"stop"}},{"type":"Feature","geometry":{"type":"Point","coordinates":[119.801589,29.170018]},"properties":{"name":"金华塘雅(地铁站)","original_ids":"[8]","id":7,"layer":"stop"}},{"type":"Feature","geometry":{"type":"Point","coordinates":[119.816612,29.174415]},"properties":{"name":"金华车辆段(地铁站)","original_ids":"[9]","id":8,"layer":"stop"}},{"type":"Feature","geometry":{"type":"Point","coordinates":[119.848739,29.185499]},"properties":{"name":"金华综保区(地铁站)","original_ids":"[10]","id":9,"layer":"stop"}},{"type":"Feature","geometry":{"type":"Point","coordinates":[119.869136,29.195725]},"properties":{"name":"金华新区(地铁站)","original_ids":"[11]","id":10,"layer":"stop"}},{"type":"Feature","geometry":{"type":"Point","coordinates":[119.889555,29.201545]},"properties":{"name":"金华东华街(地铁站)","original_ids":"[12]","id":11,"layer":"stop"}},{"type":"Feature","geometry":{"type":"Point","coordinates":[119.96827,29.239547]},"properties":{"name":"金华义亭(地铁站)","original_ids":"[13]","id":12,"layer":"stop"}},{"type":"Feature","geometry":{"type":"Point","coordinates":[120.014642,29.272135]},"properties":{"name":"金华官塘(地铁站)","original_ids":"[14]","id":13,"layer":"stop"}},{"type":"Feature","geometry":{"type":"Point","coordinates":[120.032365,29.283396]},"properties":{"name":"金华稠江(地铁站)","original_ids":"[15]","id":14,"layer":"stop"}},{"type":"Feature","geometry":{"type":"Point","coordinates":[120.058247,29.308256]},"properties":{"name":"金华绣湖(地铁站)","original_ids":"[16]","id":15,"layer":"stop"}},{"type":"Feature","geometry":{"type":"Point","coordinates":[120.083516,29.331922]},"properties":{"name":"金华秦塘(地铁站)","original_ids":"[17]","id":16,"layer":"stop"}},{"type":"Feature","geometry":{"type":"Point","coordinates":[120.040318,29.379534]},"properties":{"name":"金华义乌高铁站(地铁站)","original_ids":"[18]","id":17,"layer":"stop"}},{"type":"Feature","geometry":{"type":"Point","coordinates":[120.052723,29.353762]},"properties":{"name":"金华凌云(地铁站)","original_ids":"[19]","id":18,"layer":"stop"}},{"type":"Feature","geometry":{"type":"Point","coordinates":[120.065323,29.339533]},"properties":{"name":"金华春晗(地铁站)","original_ids":"[20]","id":19,"layer":"stop"}},{"type":"Feature","geometry":{"type":"Point","coordinates":[120.097874,29.333912]},"properties":{"name":"金华国际商贸城(地铁站)","original_ids":"[21]","id":20,"layer":"stop"}},{"type":"Feature","geometry":{"type":"Point","coordinates":[120.118301,29.332781]},"properties":{"name":"金华浙医四院(地铁站)","original_ids":"[22]","id":21,"layer":"stop"}},{"type":"Feature","geometry":{"type":"Point","coordinates":[120.141867,29.324504]},"properties":{"name":"金华江东(地铁站)","original_ids":"[23]","id":22,"layer":"stop"}},{"type":"Feature","geometry":{"type":"Point","coordinates":[120.181367,29.300049]},"properties":{"name":"金华木雕城(地铁站)","original_ids":"[24]","id":23,"layer":"stop"}},{"type":"Feature","geometry":{"type":"Point","coordinates":[120.209517,29.284039]},"properties":{"name":"金华歌山路(地铁站)","original_ids":"[25]","id":24,"layer":"stop"}},{"type":"Feature","geometry":{"type":"Point","coordinates":[120.234857,29.280109]},"properties":{"name":"金华人民路(地铁站)","original_ids":"[26]","id":25,"layer":"stop"}},{"type":"Feature","geometry":{"type":"Point","coordinates":[120.255002,29.273954]},"properties":{"name":"金华会展中心(地铁站)","original_ids":"[27]","id":26,"layer":"stop"}},{"type":"Feature","geometry":{"type":"Point","coordinates":[120.275483,29.269329]},"properties":{"name":"金华体育馆(地铁站)","original_ids":"[28]","id":27,"layer":"stop"}},{"type":"Feature","geometry":{"type":"Point","coordinates":[120.259903,29.217189]},"properties":{"name":"金华横店高铁站(地铁站)","original_ids":"[29]","id":28,"layer":"stop"}},{"type":"Feature","geometry":{"type":"Point","coordinates":[120.302665,29.177831]},"properties":{"name":"金华明清宫(地铁站)","original_ids":"[30]","id":29,"layer":"stop"}},{"type":"Feature","properties":{"shape_id":"{}","direction_id":"{\"0\": 50}","headsign":"{}","duration_avg":120,"n_vehicles":50,"d":1200,"route_I_counts":"{\"1\": 50}","source":0,"target":1,"layer":"L","from":"金华金华站(地铁站)","to":"金华双溪西路(地铁站)"},"geometry":{"type":"LineString","coordinates":[[119.631631,29.110338],[119.639041,29.090982]]}},{"type":"Feature","properties":{"shape_id":"{}","direction_id":"{\"1\": 50}","headsign":"{}","duration_avg":120,"n_vehicles":50,"d":1200,"route_I_counts":"{\"1\": 50}","source":1,"target":0,"layer":"L","from":"金华双溪西路(地铁站)","to":"金华金华站(地铁站)"},"geometry":{"type":"LineString","coordinates":[[119.639041,29.090982],[119.631631,29.110338]]}},{"type":"Feature","properties":{"shape_id":"{}","direction_id":"{\"0\": 50}","headsign":"{}","duration_avg":180,"n_vehicles":50,"d":1800,"route_I_counts":"{\"1\": 50}","source":1,"target":2,"layer":"L","from":"金华双溪西路(地铁站)","to":"金华八一南街(地铁站)"},"geometry":{"type":"LineString","coordinates":[[119.639041,29.090982],[119.650028,29.084572]]}},{"type":"Feature","properties":{"shape_id":"{}","direction_id":"{\"1\": 50}","headsign":"{}","duration_avg":180,"n_vehicles":50,"d":1800,"route_I_counts":"{\"1\": 50}","source":2,"target":1,"layer":"L","from":"金华八一南街(地铁站)","to":"金华双溪西路(地铁站)"},"geometry":{"type":"LineString","coordinates":[[119.650028,29.084572],[119.639041,29.090982]]}},{"type":"Feature","properties":{"shape_id":"{}","direction_id":"{\"0\": 50}","headsign":"{}","duration_avg":120,"n_vehicles":50,"d":1200,"route_I_counts":"{\"1\": 50}","source":2,"target":3,"layer":"L","from":"金华八一南街(地铁站)","to":"金华万达广场(地铁站)"},"geometry":{"type":"LineString","coordinates":[[119.650028,29.084572],[119.670969,29.09137]]}},{"type":"Feature","properties":{"shape_id":"{}","direction_id":"{\"1\": 50}","headsign":"{}","duration_avg":120,"n_vehicles":50,"d":1200,"route_I_counts":"{\"1\": 50}","source":3,"target":2,"layer":"L","from":"金华万达广场(地铁站)","to":"金华八一南街(地铁站)"},"geometry":{"type":"LineString","coordinates":[[119.670969,29.09137],[119.650028,29.084572]]}},{"type":"Feature","properties":{"shape_id":"{}","direction_id":"{\"0\": 50}","headsign":"{}","duration_avg":180,"n_vehicles":50,"d":1800,"route_I_counts":"{\"1\": 50}","source":3,"target":4,"layer":"L","from":"金华万达广场(地铁站)","to":"金华大堰河街(地铁站)"},"geometry":{"type":"LineString","coordinates":[[119.670969,29.09137],[119.69783,29.100357]]}},{"type":"Feature","properties":{"shape_id":"{}","direction_id":"{\"1\": 50}","headsign":"{}","duration_avg":180,"n_vehicles":50,"d":1800,"route_I_counts":"{\"1\": 50}","source":4,"target":3,"layer":"L","from":"金华大堰河街(地铁站)","to":"金华万达广场(地铁站)"},"geometry":{"type":"LineString","coordinates":[[119.69783,29.100357],[119.670969,29.09137]]}},{"type":"Feature","properties":{"shape_id":"{}","direction_id":"{\"0\": 50}","headsign":"{}","duration_avg":180,"n_vehicles":50,"d":1800,"route_I_counts":"{\"1\": 50}","source":4,"target":5,"layer":"L","from":"金华大堰河街(地铁站)","to":"金华轨道大厦(地铁站)"},"geometry":{"type":"LineString","coordinates":[[119.69783,29.100357],[119.716452,29.100368]]}},{"type":"Feature","properties":{"shape_id":"{}","direction_id":"{\"1\": 50}","headsign":"{}","duration_avg":180,"n_vehicles":50,"d":1800,"route_I_counts":"{\"1\": 50}","source":5,"target":4,"layer":"L","from":"金华轨道大厦(地铁站)","to":"金华大堰河街(地铁站)"},"geometry":{"type":"LineString","coordinates":[[119.716452,29.100368],[119.69783,29.100357]]}},{"type":"Feature","properties":{"shape_id":"{}","direction_id":"{\"0\": 50}","headsign":"{}","duration_avg":180,"n_vehicles":50,"d":1800,"route_I_counts":"{\"1\": 50}","source":5,"target":6,"layer":"L","from":"金华轨道大厦(地铁站)","to":"金华金华南站(地铁站)"},"geometry":{"type":"LineString","coordinates":[[119.716452,29.100368],[119.732249,29.117129]]}},{"type":"Feature","properties":{"shape_id":"{}","direction_id":"{\"1\": 50}","headsign":"{}","duration_avg":180,"n_vehicles":50,"d":1800,"route_I_counts":"{\"1\": 50}","source":6,"target":5,"layer":"L","from":"金华金华南站(地铁站)","to":"金华轨道大厦(地铁站)"},"geometry":{"type":"LineString","coordinates":[[119.732249,29.117129],[119.716452,29.100368]]}},{"type":"Feature","properties":{"shape_id":"{}","direction_id":"{\"0\": 50}","headsign":"{}","duration_avg":420,"n_vehicles":50,"d":4200,"route_I_counts":"{\"1\": 50}","source":6,"target":7,"layer":"L","from":"金华金华南站(地铁站)","to":"金华塘雅(地铁站)"},"geometry":{"type":"LineString","coordinates":[[119.732249,29.117129],[119.801589,29.170018]]}},{"type":"Feature","properties":{"shape_id":"{}","direction_id":"{\"1\": 50}","headsign":"{}","duration_avg":420,"n_vehicles":50,"d":4200,"route_I_counts":"{\"1\": 50}","source":7,"target":6,"layer":"L","from":"金华塘雅(地铁站)","to":"金华金华南站(地铁站)"},"geometry":{"type":"LineString","coordinates":[[119.801589,29.170018],[119.732249,29.117129]]}},{"type":"Feature","properties":{"shape_id":"{}","direction_id":"{\"0\": 50}","headsign":"{}","duration_avg":180,"n_vehicles":50,"d":1800,"route_I_counts":"{\"1\": 50}","source":7,"target":8,"layer":"L","from":"金华塘雅(地铁站)","to":"金华车辆段(地铁站)"},"geometry":{"type":"LineString","coordinates":[[119.801589,29.170018],[119.816612,29.174415]]}},{"type":"Feature","properties":{"shape_id":"{}","direction_id":"{\"1\": 50}","headsign":"{}","duration_avg":180,"n_vehicles":50,"d":1800,"route_I_counts":"{\"1\": 50}","source":8,"target":7,"layer":"L","from":"金华车辆段(地铁站)","to":"金华塘雅(地铁站)"},"geometry":{"type":"LineString","coordinates":[[119.816612,29.174415],[119.801589,29.170018]]}},{"type":"Feature","properties":{"shape_id":"{}","direction_id":"{\"0\": 50}","headsign":"{}","duration_avg":180,"n_vehicles":50,"d":1800,"route_I_counts":"{\"1\": 50}","source":8,"target":9,"layer":"L","from":"金华车辆段(地铁站)","to":"金华综保区(地铁站)"},"geometry":{"type":"LineString","coordinates":[[119.816612,29.174415],[119.848739,29.185499]]}},{"type":"Feature","properties":{"shape_id":"{}","direction_id":"{\"1\": 50}","headsign":"{}","duration_avg":180,"n_vehicles":50,"d":1800,"route_I_counts":"{\"1\": 50}","source":9,"target":8,"layer":"L","from":"金华综保区(地铁站)","to":"金华车辆段(地铁站)"},"geometry":{"type":"LineString","coordinates":[[119.848739,29.185499],[119.816612,29.174415]]}},{"type":"Feature","properties":{"shape_id":"{}","direction_id":"{\"0\": 50}","headsign":"{}","duration_avg":120,"n_vehicles":50,"d":1200,"route_I_counts":"{\"1\": 50}","source":9,"target":10,"layer":"L","from":"金华综保区(地铁站)","to":"金华新区(地铁站)"},"geometry":{"type":"LineString","coordinates":[[119.848739,29.185499],[119.869136,29.195725]]}},{"type":"Feature","properties":{"shape_id":"{}","direction_id":"{\"1\": 50}","headsign":"{}","duration_avg":120,"n_vehicles":50,"d":1200,"route_I_counts":"{\"1\": 50}","source":10,"target":9,"layer":"L","from":"金华新区(地铁站)","to":"金华综保区(地铁站)"},"geometry":{"type":"LineString","coordinates":[[119.869136,29.195725],[119.848739,29.185499]]}},{"type":"Feature","properties":{"shape_id":"{}","direction_id":"{\"0\": 50}","headsign":"{}","duration_avg":180,"n_vehicles":50,"d":1800,"route_I_counts":"{\"1\": 50}","source":10,"target":11,"layer":"L","from":"金华新区(地铁站)","to":"金华东华街(地铁站)"},"geometry":{"type":"LineString","coordinates":[[119.869136,29.195725],[119.889555,29.201545]]}},{"type":"Feature","properties":{"shape_id":"{}","direction_id":"{\"1\": 50}","headsign":"{}","duration_avg":180,"n_vehicles":50,"d":1800,"route_I_counts":"{\"1\": 50}","source":11,"target":10,"layer":"L","from":"金华东华街(地铁站)","to":"金华新区(地铁站)"},"geometry":{"type":"LineString","coordinates":[[119.889555,29.201545],[119.869136,29.195725]]}},{"type":"Feature","properties":{"shape_id":"{}","direction_id":"{\"0\": 50}","headsign":"{}","duration_avg":420,"n_vehicles":50,"d":4200,"route_I_counts":"{\"1\": 50}","source":11,"target":12,"layer":"L","from":"金华东华街(地铁站)","to":"金华义亭(地铁站)"},"geometry":{"type":"LineString","coordinates":[[119.889555,29.201545],[119.96827,29.239547]]}},{"type":"Feature","properties":{"shape_id":"{}","direction_id":"{\"1\": 50}","headsign":"{}","duration_avg":420,"n_vehicles":50,"d":4200,"route_I_counts":"{\"1\": 50}","source":12,"target":11,"layer":"L","from":"金华义亭(地铁站)","to":"金华东华街(地铁站)"},"geometry":{"type":"LineString","coordinates":[[119.96827,29.239547],[119.889555,29.201545]]}},{"type":"Feature","properties":{"shape_id":"{}","direction_id":"{\"0\": 50}","headsign":"{}","duration_avg":240,"n_vehicles":50,"d":2400,"route_I_counts":"{\"1\": 50}","source":12,"target":13,"layer":"L","from":"金华义亭(地铁站)","to":"金华官塘(地铁站)"},"geometry":{"type":"LineString","coordinates":[[119.96827,29.239547],[120.014642,29.272135]]}},{"type":"Feature","properties":{"shape_id":"{}","direction_id":"{\"1\": 50}","headsign":"{}","duration_avg":240,"n_vehicles":50,"d":2400,"route_I_counts":"{\"1\": 50}","source":13,"target":12,"layer":"L","from":"金华官塘(地铁站)","to":"金华义亭(地铁站)"},"geometry":{"type":"LineString","coordinates":[[120.014642,29.272135],[119.96827,29.239547]]}},{"type":"Feature","properties":{"shape_id":"{}","direction_id":"{\"0\": 50}","headsign":"{}","duration_avg":180,"n_vehicles":50,"d":1800,"route_I_counts":"{\"1\": 50}","source":13,"target":14,"layer":"L","from":"金华官塘(地铁站)","to":"金华稠江(地铁站)"},"geometry":{"type":"LineString","coordinates":[[120.014642,29.272135],[120.032365,29.283396]]}},{"type":"Feature","properties":{"shape_id":"{}","direction_id":"{\"1\": 50}","headsign":"{}","duration_avg":180,"n_vehicles":50,"d":1800,"route_I_counts":"{\"1\": 50}","source":14,"target":13,"layer":"L","from":"金华稠江(地铁站)","to":"金华官塘(地铁站)"},"geometry":{"type":"LineString","coordinates":[[120.032365,29.283396],[120.014642,29.272135]]}},{"type":"Feature","properties":{"shape_id":"{}","direction_id":"{\"0\": 50}","headsign":"{}","duration_avg":240,"n_vehicles":50,"d":2400,"route_I_counts":"{\"1\": 50}","source":14,"target":15,"layer":"L","from":"金华稠江(地铁站)","to":"金华绣湖(地铁站)"},"geometry":{"type":"LineString","coordinates":[[120.032365,29.283396],[120.058247,29.308256]]}},{"type":"Feature","properties":{"shape_id":"{}","direction_id":"{\"1\": 50}","headsign":"{}","duration_avg":240,"n_vehicles":50,"d":2400,"route_I_counts":"{\"1\": 50}","source":15,"target":14,"layer":"L","from":"金华绣湖(地铁站)","to":"金华稠江(地铁站)"},"geometry":{"type":"LineString","coordinates":[[120.058247,29.308256],[120.032365,29.283396]]}},{"type":"Feature","properties":{"shape_id":"{}","direction_id":"{\"0\": 50}","headsign":"{}","duration_avg":120,"n_vehicles":50,"d":1200,"route_I_counts":"{\"1\": 50}","source":15,"target":16,"layer":"L","from":"金华绣湖(地铁站)","to":"金华秦塘(地铁站)"},"geometry":{"type":"LineString","coordinates":[[120.058247,29.308256],[120.083516,29.331922]]}},{"type":"Feature","properties":{"shape_id":"{}","direction_id":"{\"1\": 50}","headsign":"{}","duration_avg":120,"n_vehicles":50,"d":1200,"route_I_counts":"{\"1\": 50}","source":16,"target":15,"layer":"L","from":"金华秦塘(地铁站)","to":"金华绣湖(地铁站)"},"geometry":{"type":"LineString","coordinates":[[120.083516,29.331922],[120.058247,29.308256]]}},{"type":"Feature","properties":{"shape_id":"{}","direction_id":"{\"0\": 50}","headsign":"{}","duration_avg":120,"n_vehicles":50,"d":1200,"route_I_counts":"{\"2\": 50}","source":17,"target":18,"layer":"L","from":"金华义乌高铁站(地铁站)","to":"金华凌云(地铁站)"},"geometry":{"type":"LineString","coordinates":[[120.040318,29.379534],[120.052723,29.353762]]}},{"type":"Feature","properties":{"shape_id":"{}","direction_id":"{\"1\": 50}","headsign":"{}","duration_avg":120,"n_vehicles":50,"d":1200,"route_I_counts":"{\"2\": 50}","source":18,"target":17,"layer":"L","from":"金华凌云(地铁站)","to":"金华义乌高铁站(地铁站)"},"geometry":{"type":"LineString","coordinates":[[120.052723,29.353762],[120.040318,29.379534]]}},{"type":"Feature","properties":{"shape_id":"{}","direction_id":"{\"0\": 50}","headsign":"{}","duration_avg":120,"n_vehicles":50,"d":1200,"route_I_counts":"{\"2\": 50}","source":18,"target":19,"layer":"L","from":"金华凌云(地铁站)","to":"金华春晗(地铁站)"},"geometry":{"type":"LineString","coordinates":[[120.052723,29.353762],[120.065323,29.339533]]}},{"type":"Feature","properties":{"shape_id":"{}","direction_id":"{\"1\": 50}","headsign":"{}","duration_avg":120,"n_vehicles":50,"d":1200,"route_I_counts":"{\"2\": 50}","source":19,"target":18,"layer":"L","from":"金华春晗(地铁站)","to":"金华凌云(地铁站)"},"geometry":{"type":"LineString","coordinates":[[120.065323,29.339533],[120.052723,29.353762]]}},{"type":"Feature","properties":{"shape_id":"{}","direction_id":"{\"0\": 50}","headsign":"{}","duration_avg":300,"n_vehicles":50,"d":3000,"route_I_counts":"{\"2\": 50}","source":19,"target":16,"layer":"L","from":"金华春晗(地铁站)","to":"金华秦塘(地铁站)"},"geometry":{"type":"LineString","coordinates":[[120.065323,29.339533],[120.083516,29.331922]]}},{"type":"Feature","properties":{"shape_id":"{}","direction_id":"{\"1\": 50}","headsign":"{}","duration_avg":300,"n_vehicles":50,"d":3000,"route_I_counts":"{\"2\": 50}","source":16,"target":19,"layer":"L","from":"金华秦塘(地铁站)","to":"金华春晗(地铁站)"},"geometry":{"type":"LineString","coordinates":[[120.083516,29.331922],[120.065323,29.339533]]}},{"type":"Feature","properties":{"shape_id":"{}","direction_id":"{\"0\": 50}","headsign":"{}","duration_avg":180,"n_vehicles":50,"d":1800,"route_I_counts":"{\"2\": 50}","source":16,"target":20,"layer":"L","from":"金华秦塘(地铁站)","to":"金华国际商贸城(地铁站)"},"geometry":{"type":"LineString","coordinates":[[120.083516,29.331922],[120.097874,29.333912]]}},{"type":"Feature","properties":{"shape_id":"{}","direction_id":"{\"1\": 50}","headsign":"{}","duration_avg":180,"n_vehicles":50,"d":1800,"route_I_counts":"{\"2\": 50}","source":20,"target":16,"layer":"L","from":"金华国际商贸城(地铁站)","to":"金华秦塘(地铁站)"},"geometry":{"type":"LineString","coordinates":[[120.097874,29.333912],[120.083516,29.331922]]}},{"type":"Feature","properties":{"shape_id":"{}","direction_id":"{\"0\": 50}","headsign":"{}","duration_avg":120,"n_vehicles":50,"d":1200,"route_I_counts":"{\"2\": 50}","source":20,"target":21,"layer":"L","from":"金华国际商贸城(地铁站)","to":"金华浙医四院(地铁站)"},"geometry":{"type":"LineString","coordinates":[[120.097874,29.333912],[120.118301,29.332781]]}},{"type":"Feature","properties":{"shape_id":"{}","direction_id":"{\"1\": 50}","headsign":"{}","duration_avg":120,"n_vehicles":50,"d":1200,"route_I_counts":"{\"2\": 50}","source":21,"target":20,"layer":"L","from":"金华浙医四院(地铁站)","to":"金华国际商贸城(地铁站)"},"geometry":{"type":"LineString","coordinates":[[120.118301,29.332781],[120.097874,29.333912]]}},{"type":"Feature","properties":{"shape_id":"{}","direction_id":"{\"0\": 50}","headsign":"{}","duration_avg":240,"n_vehicles":50,"d":2400,"route_I_counts":"{\"2\": 50}","source":21,"target":22,"layer":"L","from":"金华浙医四院(地铁站)","to":"金华江东(地铁站)"},"geometry":{"type":"LineString","coordinates":[[120.118301,29.332781],[120.141867,29.324504]]}},{"type":"Feature","properties":{"shape_id":"{}","direction_id":"{\"1\": 50}","headsign":"{}","duration_avg":240,"n_vehicles":50,"d":2400,"route_I_counts":"{\"2\": 50}","source":22,"target":21,"layer":"L","from":"金华江东(地铁站)","to":"金华浙医四院(地铁站)"},"geometry":{"type":"LineString","coordinates":[[120.141867,29.324504],[120.118301,29.332781]]}},{"type":"Feature","properties":{"shape_id":"{}","direction_id":"{\"0\": 50}","headsign":"{}","duration_avg":300,"n_vehicles":50,"d":3000,"route_I_counts":"{\"2\": 50}","source":22,"target":23,"layer":"L","from":"金华江东(地铁站)","to":"金华木雕城(地铁站)"},"geometry":{"type":"LineString","coordinates":[[120.141867,29.324504],[120.181367,29.300049]]}},{"type":"Feature","properties":{"shape_id":"{}","direction_id":"{\"1\": 50}","headsign":"{}","duration_avg":300,"n_vehicles":50,"d":3000,"route_I_counts":"{\"2\": 50}","source":23,"target":22,"layer":"L","from":"金华木雕城(地铁站)","to":"金华江东(地铁站)"},"geometry":{"type":"LineString","coordinates":[[120.181367,29.300049],[120.141867,29.324504]]}},{"type":"Feature","properties":{"shape_id":"{}","direction_id":"{\"0\": 50}","headsign":"{}","duration_avg":240,"n_vehicles":50,"d":2400,"route_I_counts":"{\"2\": 50}","source":23,"target":24,"layer":"L","from":"金华木雕城(地铁站)","to":"金华歌山路(地铁站)"},"geometry":{"type":"LineString","coordinates":[[120.181367,29.300049],[120.209517,29.284039]]}},{"type":"Feature","properties":{"shape_id":"{}","direction_id":"{\"1\": 50}","headsign":"{}","duration_avg":240,"n_vehicles":50,"d":2400,"route_I_counts":"{\"2\": 50}","source":24,"target":23,"layer":"L","from":"金华歌山路(地铁站)","to":"金华木雕城(地铁站)"},"geometry":{"type":"LineString","coordinates":[[120.209517,29.284039],[120.181367,29.300049]]}},{"type":"Feature","properties":{"shape_id":"{}","direction_id":"{\"0\": 50}","headsign":"{}","duration_avg":180,"n_vehicles":50,"d":1800,"route_I_counts":"{\"2\": 50}","source":24,"target":25,"layer":"L","from":"金华歌山路(地铁站)","to":"金华人民路(地铁站)"},"geometry":{"type":"LineString","coordinates":[[120.209517,29.284039],[120.234857,29.280109]]}},{"type":"Feature","properties":{"shape_id":"{}","direction_id":"{\"1\": 50}","headsign":"{}","duration_avg":180,"n_vehicles":50,"d":1800,"route_I_counts":"{\"2\": 50}","source":25,"target":24,"layer":"L","from":"金华人民路(地铁站)","to":"金华歌山路(地铁站)"},"geometry":{"type":"LineString","coordinates":[[120.234857,29.280109],[120.209517,29.284039]]}},{"type":"Feature","properties":{"shape_id":"{}","direction_id":"{\"0\": 50}","headsign":"{}","duration_avg":120,"n_vehicles":50,"d":1200,"route_I_counts":"{\"2\": 50}","source":25,"target":26,"layer":"L","from":"金华人民路(地铁站)","to":"金华会展中心(地铁站)"},"geometry":{"type":"LineString","coordinates":[[120.234857,29.280109],[120.255002,29.273954]]}},{"type":"Feature","properties":{"shape_id":"{}","direction_id":"{\"1\": 50}","headsign":"{}","duration_avg":120,"n_vehicles":50,"d":1200,"route_I_counts":"{\"2\": 50}","source":26,"target":25,"layer":"L","from":"金华会展中心(地铁站)","to":"金华人民路(地铁站)"},"geometry":{"type":"LineString","coordinates":[[120.255002,29.273954],[120.234857,29.280109]]}},{"type":"Feature","properties":{"shape_id":"{}","direction_id":"{\"0\": 50}","headsign":"{}","duration_avg":180,"n_vehicles":50,"d":1800,"route_I_counts":"{\"2\": 50}","source":26,"target":27,"layer":"L","from":"金华会展中心(地铁站)","to":"金华体育馆(地铁站)"},"geometry":{"type":"LineString","coordinates":[[120.255002,29.273954],[120.275483,29.269329]]}},{"type":"Feature","properties":{"shape_id":"{}","direction_id":"{\"1\": 50}","headsign":"{}","duration_avg":180,"n_vehicles":50,"d":1800,"route_I_counts":"{\"2\": 50}","source":27,"target":26,"layer":"L","from":"金华体育馆(地铁站)","to":"金华会展中心(地铁站)"},"geometry":{"type":"LineString","coordinates":[[120.275483,29.269329],[120.255002,29.273954]]}},{"type":"Feature","properties":{"shape_id":"{}","direction_id":"{\"0\": 50}","headsign":"{}","duration_avg":300,"n_vehicles":50,"d":3000,"route_I_counts":"{\"2\": 50}","source":27,"target":28,"layer":"L","from":"金华体育馆(地铁站)","to":"金华横店高铁站(地铁站)"},"geometry":{"type":"LineString","coordinates":[[120.275483,29.269329],[120.259903,29.217189]]}},{"type":"Feature","properties":{"shape_id":"{}","direction_id":"{\"1\": 50}","headsign":"{}","duration_avg":300,"n_vehicles":50,"d":3000,"route_I_counts":"{\"2\": 50}","source":28,"target":27,"layer":"L","from":"金华横店高铁站(地铁站)","to":"金华体育馆(地铁站)"},"geometry":{"type":"LineString","coordinates":[[120.259903,29.217189],[120.275483,29.269329]]}},{"type":"Feature","properties":{"shape_id":"{}","direction_id":"{\"0\": 50}","headsign":"{}","duration_avg":300,"n_vehicles":50,"d":3000,"route_I_counts":"{\"2\": 50}","source":28,"target":29,"layer":"L","from":"金华横店高铁站(地铁站)","to":"金华明清宫(地铁站)"},"geometry":{"type":"LineString","coordinates":[[120.259903,29.217189],[120.302665,29.177831]]}},{"type":"Feature","properties":{"shape_id":"{}","direction_id":"{\"1\": 50}","headsign":"{}","duration_avg":300,"n_vehicles":50,"d":3000,"route_I_counts":"{\"2\": 50}","source":29,"target":28,"layer":"L","from":"金华明清宫(地铁站)","to":"金华横店高铁站(地铁站)"},"geometry":{"type":"LineString","coordinates":[[120.302665,29.177831],[120.259903,29.217189]]}}]}