{"type":"FeatureCollection","features":[{"type":"Feature","geometry":{"type":"Point","coordinates":[120.353808,22.56478]},"properties":{"name":"Siaogang","original_ids":"[1]","id":0,"layer":"stop"}},{"type":"Feature","geometry":{"type":"Point","coordinates":[120.341772,22.570166]},"properties":{"name":"Kaohsiung International Airport","original_ids":"[2]","id":1,"layer":"stop"}},{"type":"Feature","geometry":{"type":"Point","coordinates":[120.328569,22.580354]},"properties":{"name":"Caoya","original_ids":"[3]","id":2,"layer":"stop"}},{"type":"Feature","geometry":{"type":"Point","coordinates":[120.321686,22.588482]},"properties":{"name":"Cianjhen Senior High School","original_ids":"[4]","id":3,"layer":"stop"}},{"type":"Feature","geometry":{"type":"Point","coordinates":[120.315119,22.596764]},"properties":{"name":"Kaisyuan","original_ids":"[5]","id":4,"layer":"stop"}},{"type":"Feature","geometry":{"type":"Point","coordinates":[120.308079,22.606047]},"properties":{"name":"Shihjia","original_ids":"[6]","id":5,"layer":"stop"}},{"type":"Feature","geometry":{"type":"Point","coordinates":[120.304588,22.61398]},"properties":{"name":"Sanduo Shopping District","original_ids":"[7]","id":6,"layer":"stop"}},{"type":"Feature","geometry":{"type":"Point","coordinates":[120.301212,22.624839]},"properties":{"name":"Central Park","original_ids":"[8]","id":7,"layer":"stop"}},{"type":"Feature","geometry":{"type":"Point","coordinates":[120.301994,22.631393]},"properties":{"name":"Formosa Boulevard","original_ids":"[9]","id":8,"layer":"stop"}},{"type":"Feature","geometry":{"type":"Point","coordinates":[120.302703,22.639694]},"properties":{"name":"Kaohsiung Main Station","original_ids":"[10]","id":9,"layer":"stop"}},{"type":"Feature","geometry":{"type":"Point","coordinates":[120.303413,22.648495]},"properties":{"name":"Houyi","original_ids":"[11]","id":10,"layer":"stop"}},{"type":"Feature","geometry":{"type":"Point","coordinates":[120.303239,22.657268]},"properties":{"name":"Aozihdi","original_ids":"[12]","id":11,"layer":"stop"}},{"type":"Feature","geometry":{"type":"Point","coordinates":[120.30336,22.666158]},"properties":{"name":"Kaohsiung Arena","original_ids":"[13]","id":12,"layer":"stop"}},{"type":"Feature","geometry":{"type":"Point","coordinates":[120.306619,22.676686]},"properties":{"name":"Ecological District","original_ids":"[14]","id":13,"layer":"stop"}},{"type":"Feature","geometry":{"type":"Point","coordinates":[120.308887,22.688376]},"properties":{"name":"Zuoying","original_ids":"[15]","id":14,"layer":"stop"}},{"type":"Feature","geometry":{"type":"Point","coordinates":[120.302531,22.701841]},"properties":{"name":"World Game","original_ids":"[16]","id":15,"layer":"stop"}},{"type":"Feature","geometry":{"type":"Point","coordinates":[120.302323,22.708872]},"properties":{"name":"Oil Refinery Elementary School","original_ids":"[17]","id":16,"layer":"stop"}},{"type":"Feature","geometry":{"type":"Point","coordinates":[120.307242,22.718651]},"properties":{"name":"Nanzih Technology Industrial Park","original_ids":"[18]","id":17,"layer":"stop"}},{"type":"Feature","geometry":{"type":"Point","coordinates":[120.31637,22.722324]},"properties":{"name":"Houjing","original_ids":"[19]","id":18,"layer":"stop"}},{"type":"Feature","geometry":{"type":"Point","coordinates":[120.321014,22.729529]},"properties":{"name":"Metropolitan Park","original_ids":"[20]","id":19,"layer":"stop"}},{"type":"Feature","geometry":{"type":"Point","coordinates":[120.317795,22.744345]},"properties":{"name":"Cingpu","original_ids":"[21]","id":20,"layer":"stop"}},{"type":"Feature","geometry":{"type":"Point","coordinates":[120.314698,22.75316]},"properties":{"name":"Ciaotou Sugar Refinery","original_ids":"[22]","id":21,"layer":"stop"}},{"type":"Feature","geometry":{"type":"Point","coordinates":[120.310976,22.760249]},"properties":{"name":"Ciaotou Station","original_ids":"[23]","id":22,"layer":"stop"}},{"type":"Feature","geometry":{"type":"Point","coordinates":[120.30188,22.780642]},"properties":{"name":"Kaohsiung Medical University Gangshan Hospital","original_ids":"[24]","id":23,"layer":"stop"}},{"type":"Feature","geometry":{"type":"Point","coordinates":[120.29923,22.79245]},"properties":{"name":"Gangshan Station","original_ids":"[25]","id":24,"layer":"stop"}},{"type":"Feature","geometry":{"type":"Point","coordinates":[120.274508,22.621492]},"properties":{"name":"Hamasen","original_ids":"[26]","id":25,"layer":"stop"}},{"type":"Feature","geometry":{"type":"Point","coordinates":[120.283777,22.623501]},"properties":{"name":"Yanchengpu","original_ids":"[27]","id":26,"layer":"stop"}},{"type":"Feature","geometry":{"type":"Point","coordinates":[120.294766,22.628933]},"properties":{"name":"Cianjin","original_ids":"[28]","id":27,"layer":"stop"}},{"type":"Feature","geometry":{"type":"Point","coordinates":[120.311391,22.630675]},"properties":{"name":"Sinyi Elementary School","original_ids":"[29]","id":28,"layer":"stop"}},{"type":"Feature","geometry":{"type":"Point","coordinates":[120.317632,22.630224]},"properties":{"name":"Cultural Center","original_ids":"[30]","id":29,"layer":"stop"}},{"type":"Feature","geometry":{"type":"Point","coordinates":[120.327731,22.629413]},"properties":{"name":"Wukuaicuo","original_ids":"[31]","id":30,"layer":"stop"}},{"type":"Feature","geometry":{"type":"Point","coordinates":[120.334651,22.6272]},"properties":{"name":"Lingya Sports Park","original_ids":"[32]","id":31,"layer":"stop"}},{"type":"Feature","geometry":{"type":"Point","coordinates":[120.341045,22.625055]},"properties":{"name":"Weiwuying","original_ids":"[33]","id":32,"layer":"stop"}},{"type":"Feature","geometry":{"type":"Point","coordinates":[120.348118,22.625273]},"properties":{"name":"Fongshan West","original_ids":"[34]","id":33,"layer":"stop"}},{"type":"Feature","geometry":{"type":"Point","coordinates":[120.355166,22.625953]},"properties":{"name":"Fongshan","original_ids":"[35]","id":34,"layer":"stop"}},{"type":"Feature","geometry":{"type":"Point","coordinates":[120.363497,22.625178]},"properties":{"name":"Dadong","original_ids":"[36]","id":35,"layer":"stop"}},{"type":"Feature","geometry":{"type":"Point","coordinates":[120.371331,22.62466]},"properties":{"name":"Fongshan Junior High School","original_ids":"[37]","id":36,"layer":"stop"}},{"type":"Feature","geometry":{"type":"Point","coordinates":[120.390528,22.622122]},"properties":{"name":"Daliao","original_ids":"[38]","id":37,"layer":"stop"}},{"type":"Feature","properties":{"shape_id":"{}","direction_id":"{\"0\": 50}","headsign":"{}","duration_avg":120,"n_vehicles":50,"d":1200,"route_I_counts":"{\"1\": 50}","source":0,"target":1,"layer":"L","from":"Siaogang","to":"Kaohsiung International Airport"},"geometry":{"type":"LineString","coordinates":[[120.353808,22.56478],[120.341772,22.570166]]}},{"type":"Feature","properties":{"shape_id":"{}","direction_id":"{\"1\": 50}","headsign":"{}","duration_avg":120,"n_vehicles":50,"d":1200,"route_I_counts":"{\"1\": 50}","source":1,"target":0,"layer":"L","from":"Kaohsiung International Airport","to":"Siaogang"},"geometry":{"type":"LineString","coordinates":[[120.341772,22.570166],[120.353808,22.56478]]}},{"type":"Feature","properties":{"shape_id":"{}","direction_id":"{\"0\": 50}","headsign":"{}","duration_avg":180,"n_vehicles":50,"d":1800,"route_I_counts":"{\"1\": 50}","source":1,"target":2,"layer":"L","from":"Kaohsiung International Airport","to":"Caoya"},"geometry":{"type":"LineString","coordinates":[[120.341772,22.570166],[120.328569,22.580354]]}},{"type":"Feature","properties":{"shape_id":"{}","direction_id":"{\"1\": 50}","headsign":"{}","duration_avg":180,"n_vehicles":50,"d":1800,"route_I_counts":"{\"1\": 50}","source":2,"target":1,"layer":"L","from":"Caoya","to":"Kaohsiung International Airport"},"geometry":{"type":"LineString","coordinates":[[120.328569,22.580354],[120.341772,22.570166]]}},{"type":"Feature","properties":{"shape_id":"{}","direction_id":"{\"0\": 50}","headsign":"{}","duration_avg":180,"n_vehicles":50,"d":1800,"route_I_counts":"{\"1\": 50}","source":2,"target":3,"layer":"L","from":"Caoya","to":"Cianjhen Senior High School"},"geometry":{"type":"LineString","coordinates":[[120.328569,22.580354],[120.321686,22.588482]]}},{"type":"Feature","properties":{"shape_id":"{}","direction_id":"{\"1\": 50}","headsign":"{}","duration_avg":180,"n_vehicles":50,"d":1800,"route_I_counts":"{\"1\": 50}","source":3,"target":2,"layer":"L","from":"Cianjhen Senior High School","to":"Caoya"},"geometry":{"type":"LineString","coordinates":[[120.321686,22.588482],[120.328569,22.580354]]}},{"type":"Feature","properties":{"shape_id":"{}","direction_id":"{\"0\": 50}","headsign":"{}","duration_avg":180,"n_vehicles":50,"d":1800,"route_I_counts":"{\"1\": 50}","source":3,"target":4,"layer":"L","from":"Cianjhen Senior High School","to":"Kaisyuan"},"geometry":{"type":"LineString","coordinates":[[120.321686,22.588482],[120.315119,22.596764]]}},{"type":"Feature","properties":{"shape_id":"{}","direction_id":"{\"1\": 50}","headsign":"{}","duration_avg":180,"n_vehicles":50,"d":1800,"route_I_counts":"{\"1\": 50}","source":4,"target":3,"layer":"L","from":"Kaisyuan","to":"Cianjhen Senior High School"},"geometry":{"type":"LineString","coordinates":[[120.315119,22.596764],[120.321686,22.588482]]}},{"type":"Feature","properties":{"shape_id":"{}","direction_id":"{\"0\": 50}","headsign":"{}","duration_avg":180,"n_vehicles":50,"d":1800,"route_I_counts":"{\"1\": 50}","source":4,"target":5,"layer":"L","from":"Kaisyuan","to":"Shihjia"},"geometry":{"type":"LineString","coordinates":[[120.315119,22.596764],[120.308079,22.606047]]}},{"type":"Feature","properties":{"shape_id":"{}","direction_id":"{\"1\": 50}","headsign":"{}","duration_avg":180,"n_vehicles":50,"d":1800,"route_I_counts":"{\"1\": 50}","source":5,"target":4,"layer":"L","from":"Shihjia","to":"Kaisyuan"},"geometry":{"type":"LineString","coordinates":[[120.308079,22.606047],[120.315119,22.596764]]}},{"type":"Feature","properties":{"shape_id":"{}","direction_id":"{\"0\": 50}","headsign":"{}","duration_avg":120,"n_vehicles":50,"d":1200,"route_I_counts":"{\"1\": 50}","source":5,"target":6,"layer":"L","from":"Shihjia","to":"Sanduo Shopping District"},"geometry":{"type":"LineString","coordinates":[[120.308079,22.606047],[120.304588,22.61398]]}},{"type":"Feature","properties":{"shape_id":"{}","direction_id":"{\"1\": 50}","headsign":"{}","duration_avg":120,"n_vehicles":50,"d":1200,"route_I_counts":"{\"1\": 50}","source":6,"target":5,"layer":"L","from":"Sanduo Shopping District","to":"Shihjia"},"geometry":{"type":"LineString","coordinates":[[120.304588,22.61398],[120.308079,22.606047]]}},{"type":"Feature","properties":{"shape_id":"{}","direction_id":"{\"0\": 50}","headsign":"{}","duration_avg":120,"n_vehicles":50,"d":1200,"route_I_counts":"{\"1\": 50}","source":6,"target":7,"layer":"L","from":"Sanduo Shopping District","to":"Central Park"},"geometry":{"type":"LineString","coordinates":[[120.304588,22.61398],[120.301212,22.624839]]}},{"type":"Feature","properties":{"shape_id":"{}","direction_id":"{\"1\": 50}","headsign":"{}","duration_avg":120,"n_vehicles":50,"d":1200,"route_I_counts":"{\"1\": 50}","source":7,"target":6,"layer":"L","from":"Central Park","to":"Sanduo Shopping District"},"geometry":{"type":"LineString","coordinates":[[120.301212,22.624839],[120.304588,22.61398]]}},{"type":"Feature","properties":{"shape_id":"{}","direction_id":"{\"0\": 50}","headsign":"{}","duration_avg":120,"n_vehicles":50,"d":1200,"route_I_counts":"{\"1\": 50}","source":7,"target":8,"layer":"L","from":"Central Park","to":"Formosa Boulevard"},"geometry":{"type":"LineString","coordinates":[[120.301212,22.624839],[120.301994,22.631393]]}},{"type":"Feature","properties":{"shape_id":"{}","direction_id":"{\"1\": 50}","headsign":"{}","duration_avg":120,"n_vehicles":50,"d":1200,"route_I_counts":"{\"1\": 50}","source":8,"target":7,"layer":"L","from":"Formosa Boulevard","to":"Central Park"},"geometry":{"type":"LineString","coordinates":[[120.301994,22.631393],[120.301212,22.624839]]}},{"type":"Feature","properties":{"shape_id":"{}","direction_id":"{\"0\": 50}","headsign":"{}","duration_avg":120,"n_vehicles":50,"d":1200,"route_I_counts":"{\"1\": 50}","source":8,"target":9,"layer":"L","from":"Formosa Boulevard","to":"Kaohsiung Main Station"},"geometry":{"type":"LineString","coordinates":[[120.301994,22.631393],[120.302703,22.639694]]}},{"type":"Feature","properties":{"shape_id":"{}","direction_id":"{\"1\": 50}","headsign":"{}","duration_avg":120,"n_vehicles":50,"d":1200,"route_I_counts":"{\"1\": 50}","source":9,"target":8,"layer":"L","from":"Kaohsiung Main Station","to":"Formosa Boulevard"},"geometry":{"type":"LineString","coordinates":[[120.302703,22.639694],[120.301994,22.631393]]}},{"type":"Feature","properties":{"shape_id":"{}","direction_id":"{\"0\": 50}","headsign":"{}","duration_avg":180,"n_vehicles":50,"d":1800,"route_I_counts":"{\"1\": 50}","source":9,"target":10,"layer":"L","from":"Kaohsiung Main Station","to":"Houyi"},"geometry":{"type":"LineString","coordinates":[[120.302703,22.639694],[120.303413,22.648495]]}},{"type":"Feature","properties":{"shape_id":"{}","direction_id":"{\"1\": 50}","headsign":"{}","duration_avg":180,"n_vehicles":50,"d":1800,"route_I_counts":"{\"1\": 50}","source":10,"target":9,"layer":"L","from":"Houyi","to":"Kaohsiung Main Station"},"geometry":{"type":"LineString","coordinates":[[120.303413,22.648495],[120.302703,22.639694]]}},{"type":"Feature","properties":{"shape_id":"{}","direction_id":"{\"0\": 50}","headsign":"{}","duration_avg":120,"n_vehicles":50,"d":1200,"route_I_counts":"{\"1\": 50}","source":10,"target":11,"layer":"L","from":"Houyi","to":"Aozihdi"},"geometry":{"type":"LineString","coordinates":[[120.303413,22.648495],[120.303239,22.657268]]}},{"type":"Feature","properties":{"shape_id":"{}","direction_id":"{\"1\": 50}","headsign":"{}","duration_avg":120,"n_vehicles":50,"d":1200,"route_I_counts":"{\"1\": 50}","source":11,"target":10,"layer":"L","from":"Aozihdi","to":"Houyi"},"geometry":{"type":"LineString","coordinates":[[120.303239,22.657268],[120.303413,22.648495]]}},{"type":"Feature","properties":{"shape_id":"{}","direction_id":"{\"0\": 50}","headsign":"{}","duration_avg":120,"n_vehicles":50,"d":1200,"route_I_counts":"{\"1\": 50}","source":11,"target":12,"layer":"L","from":"Aozihdi","to":"Kaohsiung Arena"},"geometry":{"type":"LineString","coordinates":[[120.303239,22.657268],[120.30336,22.666158]]}},{"type":"Feature","properties":{"shape_id":"{}","direction_id":"{\"1\": 50}","headsign":"{}","duration_avg":120,"n_vehicles":50,"d":1200,"route_I_counts":"{\"1\": 50}","source":12,"target":11,"layer":"L","from":"Kaohsiung Arena","to":"Aozihdi"},"geometry":{"type":"LineString","coordinates":[[120.30336,22.666158],[120.303239,22.657268]]}},{"type":"Feature","properties":{"shape_id":"{}","direction_id":"{\"0\": 50}","headsign":"{}","duration_avg":180,"n_vehicles":50,"d":1800,"route_I_counts":"{\"1\": 50}","source":12,"target":13,"layer":"L","from":"Kaohsiung Arena","to":"Ecological District"},"geometry":{"type":"LineString","coordinates":[[120.30336,22.666158],[120.306619,22.676686]]}},{"type":"Feature","properties":{"shape_id":"{}","direction_id":"{\"1\": 50}","headsign":"{}","duration_avg":180,"n_vehicles":50,"d":1800,"route_I_counts":"{\"1\": 50}","source":13,"target":12,"layer":"L","from":"Ecological District","to":"Kaohsiung Arena"},"geometry":{"type":"LineString","coordinates":[[120.306619,22.676686],[120.30336,22.666158]]}},{"type":"Feature","properties":{"shape_id":"{}","direction_id":"{\"0\": 50}","headsign":"{}","duration_avg":180,"n_vehicles":50,"d":1800,"route_I_counts":"{\"1\": 50}","source":13,"target":14,"layer":"L","from":"Ecological District","to":"Zuoying"},"geometry":{"type":"LineString","coordinates":[[120.306619,22.676686],[120.308887,22.688376]]}},{"type":"Feature","properties":{"shape_id":"{}","direction_id":"{\"1\": 50}","headsign":"{}","duration_avg":180,"n_vehicles":50,"d":1800,"route_I_counts":"{\"1\": 50}","source":14,"target":13,"layer":"L","from":"Zuoying","to":"Ecological District"},"geometry":{"type":"LineString","coordinates":[[120.308887,22.688376],[120.306619,22.676686]]}},{"type":"Feature","properties":{"shape_id":"{}","direction_id":"{\"0\": 50}","headsign":"{}","duration_avg":180,"n_vehicles":50,"d":1800,"route_I_counts":"{\"1\": 50}","source":14,"target":15,"layer":"L","from":"Zuoying","to":"World Game"},"geometry":{"type":"LineString","coordinates":[[120.308887,22.688376],[120.302531,22.701841]]}},{"type":"Feature","properties":{"shape_id":"{}","direction_id":"{\"1\": 50}","headsign":"{}","duration_avg":180,"n_vehicles":50,"d":1800,"route_I_counts":"{\"1\": 50}","source":15,"target":14,"layer":"L","from":"World Game","to":"Zuoying"},"geometry":{"type":"LineString","coordinates":[[120.302531,22.701841],[120.308887,22.688376]]}},{"type":"Feature","properties":{"shape_id":"{}","direction_id":"{\"0\": 50}","headsign":"{}","duration_avg":120,"n_vehicles":50,"d":1200,"route_I_counts":"{\"1\": 50}","source":15,"target":16,"layer":"L","from":"World Game","to":"Oil Refinery Elementary School"},"geometry":{"type":"LineString","coordinates":[[120.302531,22.701841],[120.302323,22.708872]]}},{"type":"Feature","properties":{"shape_id":"{}","direction_id":"{\"1\": 50}","headsign":"{}","duration_avg":120,"n_vehicles":50,"d":1200,"route_I_counts":"{\"1\": 50}","source":16,"target":15,"layer":"L","from":"Oil Refinery Elementary School","to":"World Game"},"geometry":{"type":"LineString","coordinates":[[120.302323,22.708872],[120.302531,22.701841]]}},{"type":"Feature","properties":{"shape_id":"{}","direction_id":"{\"0\": 50}","headsign":"{}","duration_avg":180,"n_vehicles":50,"d":1800,"route_I_counts":"{\"1\": 50}","source":16,"target":17,"layer":"L","from":"Oil Refinery Elementary School","to":"Nanzih Technology Industrial Park"},"geometry":{"type":"LineString","coordinates":[[120.302323,22.708872],[120.307242,22.718651]]}},{"type":"Feature","properties":{"shape_id":"{}","direction_id":"{\"1\": 50}","headsign":"{}","duration_avg":180,"n_vehicles":50,"d":1800,"route_I_counts":"{\"1\": 50}","source":17,"target":16,"layer":"L","from":"Nanzih Technology Industrial Park","to":"Oil Refinery Elementary School"},"geometry":{"type":"LineString","coordinates":[[120.307242,22.718651],[120.302323,22.708872]]}},{"type":"Feature","properties":{"shape_id":"{}","direction_id":"{\"0\": 50}","headsign":"{}","duration_avg":120,"n_vehicles":50,"d":1200,"route_I_counts":"{\"1\": 50}","source":17,"target":18,"layer":"L","from":"Nanzih Technology Industrial Park","to":"Houjing"},"geometry":{"type":"LineString","coordinates":[[120.307242,22.718651],[120.31637,22.722324]]}},{"type":"Feature","properties":{"shape_id":"{}","direction_id":"{\"1\": 50}","headsign":"{}","duration_avg":120,"n_vehicles":50,"d":1200,"route_I_counts":"{\"1\": 50}","source":18,"target":17,"layer":"L","from":"Houjing","to":"Nanzih Technology Industrial Park"},"geometry":{"type":"LineString","coordinates":[[120.31637,22.722324],[120.307242,22.718651]]}},{"type":"Feature","properties":{"shape_id":"{}","direction_id":"{\"0\": 50}","headsign":"{}","duration_avg":120,"n_vehicles":50,"d":1200,"route_I_counts":"{\"1\": 50}","source":18,"target":19,"layer":"L","from":"Houjing","to":"Metropolitan Park"},"geometry":{"type":"LineString","coordinates":[[120.31637,22.722324],[120.321014,22.729529]]}},{"type":"Feature","properties":{"shape_id":"{}","direction_id":"{\"1\": 50}","headsign":"{}","duration_avg":120,"n_vehicles":50,"d":1200,"route_I_counts":"{\"1\": 50}","source":19,"target":18,"layer":"L","from":"Metropolitan Park","to":"Houjing"},"geometry":{"type":"LineString","coordinates":[[120.321014,22.729529],[120.31637,22.722324]]}},{"type":"Feature","properties":{"shape_id":"{}","direction_id":"{\"0\": 50}","headsign":"{}","duration_avg":180,"n_vehicles":50,"d":1800,"route_I_counts":"{\"1\": 50}","source":19,"target":20,"layer":"L","from":"Metropolitan Park","to":"Cingpu"},"geometry":{"type":"LineString","coordinates":[[120.321014,22.729529],[120.317795,22.744345]]}},{"type":"Feature","properties":{"shape_id":"{}","direction_id":"{\"1\": 50}","headsign":"{}","duration_avg":180,"n_vehicles":50,"d":1800,"route_I_counts":"{\"1\": 50}","source":20,"target":19,"layer":"L","from":"Cingpu","to":"Metropolitan Park"},"geometry":{"type":"LineString","coordinates":[[120.317795,22.744345],[120.321014,22.729529]]}},{"type":"Feature","properties":{"shape_id":"{}","direction_id":"{\"0\": 50}","headsign":"{}","duration_avg":120,"n_vehicles":50,"d":1200,"route_I_counts":"{\"1\": 50}","source":20,"target":21,"layer":"L","from":"Cingpu","to":"Ciaotou Sugar Refinery"},"geometry":{"type":"LineString","coordinates":[[120.317795,22.744345],[120.314698,22.75316]]}},{"type":"Feature","properties":{"shape_id":"{}","direction_id":"{\"1\": 50}","headsign":"{}","duration_avg":120,"n_vehicles":50,"d":1200,"route_I_counts":"{\"1\": 50}","source":21,"target":20,"layer":"L","from":"Ciaotou Sugar Refinery","to":"Cingpu"},"geometry":{"type":"LineString","coordinates":[[120.314698,22.75316],[120.317795,22.744345]]}},{"type":"Feature","properties":{"shape_id":"{}","direction_id":"{\"0\": 50}","headsign":"{}","duration_avg":120,"n_vehicles":50,"d":1200,"route_I_counts":"{\"1\": 50}","source":21,"target":22,"layer":"L","from":"Ciaotou Sugar Refinery","to":"Ciaotou Station"},"geometry":{"type":"LineString","coordinates":[[120.314698,22.75316],[120.310976,22.760249]]}},{"type":"Feature","properties":{"shape_id":"{}","direction_id":"{\"1\": 50}","headsign":"{}","duration_avg":120,"n_vehicles":50,"d":1200,"route_I_counts":"{\"1\": 50}","source":22,"target":21,"layer":"L","from":"Ciaotou Station","to":"Ciaotou Sugar Refinery"},"geometry":{"type":"LineString","coordinates":[[120.310976,22.760249],[120.314698,22.75316]]}},{"type":"Feature","properties":{"shape_id":"{}","direction_id":"{\"0\": 50}","headsign":"{}","duration_avg":180,"n_vehicles":50,"d":1800,"route_I_counts":"{\"1\": 50}","source":22,"target":23,"layer":"L","from":"Ciaotou Station","to":"Kaohsiung Medical University Gangshan Hospital"},"geometry":{"type":"LineString","coordinates":[[120.310976,22.760249],[120.30188,22.780642]]}},{"type":"Feature","properties":{"shape_id":"{}","direction_id":"{\"1\": 50}","headsign":"{}","duration_avg":180,"n_vehicles":50,"d":1800,"route_I_counts":"{\"1\": 50}","source":23,"target":22,"layer":"L","from":"Kaohsiung Medical University Gangshan Hospital","to":"Ciaotou Station"},"geometry":{"type":"LineString","coordinates":[[120.30188,22.780642],[120.310976,22.760249]]}},{"type":"Feature","properties":{"shape_id":"{}","direction_id":"{\"0\": 50}","headsign":"{}","duration_avg":120,"n_vehicles":50,"d":1200,"route_I_counts":"{\"1\": 50}","source":23,"target":24,"layer":"L","from":"Kaohsiung Medical University Gangshan Hospital","to":"Gangshan Station"},"geometry":{"type":"LineString","coordinates":[[120.30188,22.780642],[120.29923,22.79245]]}},{"type":"Feature","properties":{"shape_id":"{}","direction_id":"{\"1\": 50}","headsign":"{}","duration_avg":120,"n_vehicles":50,"d":1200,"route_I_counts":"{\"1\": 50}","source":24,"target":23,"layer":"L","from":"Gangshan Station","to":"Kaohsiung Medical University Gangshan Hospital"},"geometry":{"type":"LineString","coordinates":[[120.29923,22.79245],[120.30188,22.780642]]}},{"type":"Feature","properties":{"shape_id":"{}","direction_id":"{\"0\": 50}","headsign":"{}","duration_avg":120,"n_vehicles":50,"d":1200,"route_I_counts":"{\"2\": 50}","source":25,"target":26,"layer":"L","from":"Hamasen","to":"Yanchengpu"},"geometry":{"type":"LineString","coordinates":[[120.274508,22.621492],[120.283777,22.623501]]}},{"type":"Feature","properties":{"shape_id":"{}","direction_id":"{\"1\": 50}","headsign":"{}","duration_avg":120,"n_vehicles":50,"d":1200,"route_I_counts":"{\"2\": 50}","source":26,"target":25,"layer":"L","from":"Yanchengpu","to":"Hamasen"},"geometry":{"type":"LineString","coordinates":[[120.283777,22.623501],[120.274508,22.621492]]}},{"type":"Feature","properties":{"shape_id":"{}","direction_id":"{\"0\": 50}","headsign":"{}","duration_avg":120,"n_vehicles":50,"d":1200,"route_I_counts":"{\"2\": 50}","source":26,"target":27,"layer":"L","from":"Yanchengpu","to":"Cianjin"},"geometry":{"type":"LineString","coordinates":[[120.283777,22.623501],[120.294766,22.628933]]}},{"type":"Feature","properties":{"shape_id":"{}","direction_id":"{\"1\": 50}","headsign":"{}","duration_avg":120,"n_vehicles":50,"d":1200,"route_I_counts":"{\"2\": 50}","source":27,"target":26,"layer":"L","from":"Cianjin","to":"Yanchengpu"},"geometry":{"type":"LineString","coordinates":[[120.294766,22.628933],[120.283777,22.623501]]}},{"type":"Feature","properties":{"shape_id":"{}","direction_id":"{\"0\": 50}","headsign":"{}","duration_avg":120,"n_vehicles":50,"d":1200,"route_I_counts":"{\"2\": 50}","source":27,"target":8,"layer":"L","from":"Cianjin","to":"Formosa Boulevard"},"geometry":{"type":"LineString","coordinates":[[120.294766,22.628933],[120.301994,22.631393]]}},{"type":"Feature","properties":{"shape_id":"{}","direction_id":"{\"1\": 50}","headsign":"{}","duration_avg":120,"n_vehicles":50,"d":1200,"route_I_counts":"{\"2\": 50}","source":8,"target":27,"layer":"L","from":"Formosa Boulevard","to":"Cianjin"},"geometry":{"type":"LineString","coordinates":[[120.301994,22.631393],[120.294766,22.628933]]}},{"type":"Feature","properties":{"shape_id":"{}","direction_id":"{\"0\": 50}","headsign":"{}","duration_avg":120,"n_vehicles":50,"d":1200,"route_I_counts":"{\"2\": 50}","source":8,"target":28,"layer":"L","from":"Formosa Boulevard","to":"Sinyi Elementary School"},"geometry":{"type":"LineString","coordinates":[[120.301994,22.631393],[120.311391,22.630675]]}},{"type":"Feature","properties":{"shape_id":"{}","direction_id":"{\"1\": 50}","headsign":"{}","duration_avg":120,"n_vehicles":50,"d":1200,"route_I_counts":"{\"2\": 50}","source":28,"target":8,"layer":"L","from":"Sinyi Elementary School","to":"Formosa Boulevard"},"geometry":{"type":"LineString","coordinates":[[120.311391,22.630675],[120.301994,22.631393]]}},{"type":"Feature","properties":{"shape_id":"{}","direction_id":"{\"0\": 50}","headsign":"{}","duration_avg":120,"n_vehicles":50,"d":1200,"route_I_counts":"{\"2\": 50}","source":28,"target":29,"layer":"L","from":"Sinyi Elementary School","to":"Cultural Center"},"geometry":{"type":"LineString","coordinates":[[120.311391,22.630675],[120.317632,22.630224]]}},{"type":"Feature","properties":{"shape_id":"{}","direction_id":"{\"1\": 50}","headsign":"{}","duration_avg":120,"n_vehicles":50,"d":1200,"route_I_counts":"{\"2\": 50}","source":29,"target":28,"layer":"L","from":"Cultural Center","to":"Sinyi Elementary School"},"geometry":{"type":"LineString","coordinates":[[120.317632,22.630224],[120.311391,22.630675]]}},{"type":"Feature","properties":{"shape_id":"{}","direction_id":"{\"0\": 50}","headsign":"{}","duration_avg":120,"n_vehicles":50,"d":1200,"route_I_counts":"{\"2\": 50}","source":29,"target":30,"layer":"L","from":"Cultural Center","to":"Wukuaicuo"},"geometry":{"type":"LineString","coordinates":[[120.317632,22.630224],[120.327731,22.629413]]}},{"type":"Feature","properties":{"shape_id":"{}","direction_id":"{\"1\": 50}","headsign":"{}","duration_avg":120,"n_vehicles":50,"d":1200,"route_I_counts":"{\"2\": 50}","source":30,"target":29,"layer":"L","from":"Wukuaicuo","to":"Cultural Center"},"geometry":{"type":"LineString","coordinates":[[120.327731,22.629413],[120.317632,22.630224]]}},{"type":"Feature","properties":{"shape_id":"{}","direction_id":"{\"0\": 50}","headsign":"{}","duration_avg":120,"n_vehicles":50,"d":1200,"route_I_counts":"{\"2\": 50}","source":30,"target":31,"layer":"L","from":"Wukuaicuo","to":"Lingya Sports Park"},"geometry":{"type":"LineString","coordinates":[[120.327731,22.629413],[120.334651,22.6272]]}},{"type":"Feature","properties":{"shape_id":"{}","direction_id":"{\"1\": 50}","headsign":"{}","duration_avg":120,"n_vehicles":50,"d":1200,"route_I_counts":"{\"2\": 50}","source":31,"target":30,"layer":"L","from":"Lingya Sports Park","to":"Wukuaicuo"},"geometry":{"type":"LineString","coordinates":[[120.334651,22.6272],[120.327731,22.629413]]}},{"type":"Feature","properties":{"shape_id":"{}","direction_id":"{\"0\": 50}","headsign":"{}","duration_avg":120,"n_vehicles":50,"d":1200,"route_I_counts":"{\"2\": 50}","source":31,"target":32,"layer":"L","from":"Lingya Sports Park","to":"Weiwuying"},"geometry":{"type":"LineString","coordinates":[[120.334651,22.6272],[120.341045,22.625055]]}},{"type":"Feature","properties":{"shape_id":"{}","direction_id":"{\"1\": 50}","headsign":"{}","duration_avg":120,"n_vehicles":50,"d":1200,"route_I_counts":"{\"2\": 50}","source":32,"target":31,"layer":"L","from":"Weiwuying","to":"Lingya Sports Park"},"geometry":{"type":"LineString","coordinates":[[120.341045,22.625055],[120.334651,22.6272]]}},{"type":"Feature","properties":{"shape_id":"{}","direction_id":"{\"0\": 50}","headsign":"{}","duration_avg":120,"n_vehicles":50,"d":1200,"route_I_counts":"{\"2\": 50}","source":32,"target":33,"layer":"L","from":"Weiwuying","to":"Fongshan West"},"geometry":{"type":"LineString","coordinates":[[120.341045,22.625055],[120.348118,22.625273]]}},{"type":"Feature","properties":{"shape_id":"{}","direction_id":"{\"1\": 50}","headsign":"{}","duration_avg":120,"n_vehicles":50,"d":1200,"route_I_counts":"{\"2\": 50}","source":33,"target":32,"layer":"L","from":"Fongshan West","to":"Weiwuying"},"geometry":{"type":"LineString","coordinates":[[120.348118,22.625273],[120.341045,22.625055]]}},{"type":"Feature","properties":{"shape_id":"{}","direction_id":"{\"0\": 50}","headsign":"{}","duration_avg":120,"n_vehicles":50,"d":1200,"route_I_counts":"{\"2\": 50}","source":33,"target":34,"layer":"L","from":"Fongshan West","to":"Fongshan"},"geometry":{"type":"LineString","coordinates":[[120.348118,22.625273],[120.355166,22.625953]]}},{"type":"Feature","properties":{"shape_id":"{}","direction_id":"{\"1\": 50}","headsign":"{}","duration_avg":120,"n_vehicles":50,"d":1200,"route_I_counts":"{\"2\": 50}","source":34,"target":33,"layer":"L","from":"Fongshan","to":"Fongshan West"},"geometry":{"type":"LineString","coordinates":[[120.355166,22.625953],[120.348118,22.625273]]}},{"type":"Feature","properties":{"shape_id":"{}","direction_id":"{\"0\": 50}","headsign":"{}","duration_avg":120,"n_vehicles":50,"d":1200,"route_I_counts":"{\"2\": 50}","source":34,"target":35,"layer":"L","from":"Fongshan","to":"Dadong"},"geometry":{"type":"LineString","coordinates":[[120.355166,22.625953],[120.363497,22.625178]]}},{"type":"Feature","properties":{"shape_id":"{}","direction_id":"{\"1\": 50}","headsign":"{}","duration_avg":120,"n_vehicles":50,"d":1200,"route_I_counts":"{\"2\": 50}","source":35,"target":34,"layer":"L","from":"Dadong","to":"Fongshan"},"geometry":{"type":"LineString","coordinates":[[120.363497,22.625178],[120.355166,22.625953]]}},{"type":"Feature","properties":{"shape_id":"{}","direction_id":"{\"0\": 50}","headsign":"{}","duration_avg":120,"n_vehicles":50,"d":1200,"route_I_counts":"{\"2\": 50}","source":35,"target":36,"layer":"L","from":"Dadong","to":"Fongshan Junior High School"},"geometry":{"type":"LineString","coordinates":[[120.363497,22.625178],[120.371331,22.62466]]}},{"type":"Feature","properties":{"shape_id":"{}","direction_id":"{\"1\": 50}","headsign":"{}","duration_avg":120,"n_vehicles":50,"d":1200,"route_I_counts":"{\"2\": 50}","source":36,"target":35,"layer":"L","from":"Fongshan Junior High School","to":"Dadong"},"geometry":{"type":"LineString","coordinates":[[120.371331,22.62466],[120.363497,22.625178]]}},{"type":"Feature","properties":{"shape_id":"{}","direction_id":"{\"0\": 50}","headsign":"{}","duration_avg":240,"n_vehicles":50,"d":2400,"route_I_counts":"{\"2\": 50}","source":36,"target":37,"layer":"L","from":"Fongshan Junior High School","to":"Daliao"},"geometry":{"type":"LineString","coordinates":[[120.371331,22.62466],[120.390528,22.622122]]}},{"type":"Feature","properties":{"shape_id":"{}","direction_id":"{\"1\": 50}","headsign":"{}","duration_avg":240,"n_vehicles":50,"d":2400,"route_I_counts":"{\"2\": 50}","source":37,"target":36,"layer":"L","from":"Daliao","to":"Fongshan Junior High School"},"geometry":{"type":"LineString","coordinates":[[120.390528,22.622122],[120.371331,22.62466]]}}]}