{"type":"FeatureCollection","features":[{"type":"Feature","geometry":{"type":"Point","coordinates":[102.824752,24.825261]},"properties":{"name":"昆明大学城南(地铁站)","original_ids":"[1]","id":0,"layer":"stop"}},{"type":"Feature","geometry":{"type":"Point","coordinates":[102.841017,24.839032]},"properties":{"name":"昆明大学城(地铁站)","original_ids":"[2]","id":1,"layer":"stop"}},{"type":"Feature","geometry":{"type":"Point","coordinates":[102.836851,24.850712]},"properties":{"name":"昆明谊康南路(地铁站)","original_ids":"[3]","id":2,"layer":"stop"}},{"type":"Feature","geometry":{"type":"Point","coordinates":[102.832536,24.862746]},"properties":{"name":"昆明联大街(地铁站)","original_ids":"[4]","id":3,"layer":"stop"}},{"type":"Feature","geometry":{"type":"Point","coordinates":[102.828005,24.875511]},"properties":{"name":"昆明驼峰街(地铁站)","original_ids":"[5]","id":4,"layer":"stop"}},{"type":"Feature","geometry":{"type":"Point","coordinates":[102.823875,24.887089]},"properties":{"name":"昆明春融街(地铁站)","original_ids":"[6]","id":5,"layer":"stop"}},{"type":"Feature","geometry":{"type":"Point","coordinates":[102.790382,24.911162]},"properties":{"name":"昆明斗南(地铁站)","original_ids":"[7]","id":6,"layer":"stop"}},{"type":"Feature","geometry":{"type":"Point","coordinates":[102.773764,24.932317]},"properties":{"name":"昆明南部汽车站(地铁站)","original_ids":"[8]","id":7,"layer":"stop"}},{"type":"Feature","geometry":{"type":"Point","coordinates":[102.76832,24.950062]},"properties":{"name":"昆明新亚洲体育城(地铁站)","original_ids":"[9]","id":8,"layer":"stop"}},{"type":"Feature","geometry":{"type":"Point","coordinates":[102.766807,24.959929]},"properties":{"name":"昆明星耀路(地铁站)","original_ids":"[10]","id":9,"layer":"stop"}},{"type":"Feature","geometry":{"type":"Point","coordinates":[102.76553,24.975574]},"properties":{"name":"昆明珥季路(地铁站)","original_ids":"[11]","id":10,"layer":"stop"}},{"type":"Feature","geometry":{"type":"Point","coordinates":[102.760468,24.988259]},"properties":{"name":"昆明晓东村(地铁站)","original_ids":"[12]","id":11,"layer":"stop"}},{"type":"Feature","geometry":{"type":"Point","coordinates":[102.749541,24.989332]},"properties":{"name":"昆明昌宏西路(地铁站)","original_ids":"[13]","id":12,"layer":"stop"}},{"type":"Feature","geometry":{"type":"Point","coordinates":[102.74013,24.999747]},"properties":{"name":"昆明巫家坝(地铁站)","original_ids":"[14]","id":13,"layer":"stop"}},{"type":"Feature","geometry":{"type":"Point","coordinates":[102.733601,25.00431]},"properties":{"name":"昆明日新路(地铁站)","original_ids":"[15]","id":14,"layer":"stop"}},{"type":"Feature","geometry":{"type":"Point","coordinates":[102.728895,25.009853]},"properties":{"name":"昆明福德(地铁站)","original_ids":"[16]","id":15,"layer":"stop"}},{"type":"Feature","geometry":{"type":"Point","coordinates":[102.722334,25.016661]},"properties":{"name":"昆明昆明火车站(地铁站)","original_ids":"[17]","id":16,"layer":"stop"}},{"type":"Feature","geometry":{"type":"Point","coordinates":[102.719467,25.027348]},"properties":{"name":"昆明环城南路(地铁站)","original_ids":"[18]","id":17,"layer":"stop"}},{"type":"Feature","geometry":{"type":"Point","coordinates":[102.616858,24.987308]},"properties":{"name":"昆明西山公园(地铁站)","original_ids":"[19]","id":18,"layer":"stop"}},{"type":"Feature","geometry":{"type":"Point","coordinates":[102.614446,24.997545]},"properties":{"name":"昆明车家壁(地铁站)","original_ids":"[20]","id":19,"layer":"stop"}},{"type":"Feature","geometry":{"type":"Point","coordinates":[102.619858,25.008542]},"properties":{"name":"昆明普坪村(地铁站)","original_ids":"[21]","id":20,"layer":"stop"}},{"type":"Feature","geometry":{"type":"Point","coordinates":[102.6282,25.021238]},"properties":{"name":"昆明石咀(地铁站)","original_ids":"[22]","id":21,"layer":"stop"}},{"type":"Feature","geometry":{"type":"Point","coordinates":[102.634395,25.030819]},"properties":{"name":"昆明大渔路(地铁站)","original_ids":"[23]","id":22,"layer":"stop"}},{"type":"Feature","geometry":{"type":"Point","coordinates":[102.637564,25.038371]},"properties":{"name":"昆明西部汽车站(地铁站)","original_ids":"[24]","id":23,"layer":"stop"}},{"type":"Feature","geometry":{"type":"Point","coordinates":[102.648143,25.050243]},"properties":{"name":"昆明眠山(地铁站)","original_ids":"[25]","id":24,"layer":"stop"}},{"type":"Feature","geometry":{"type":"Point","coordinates":[102.655543,25.049721]},"properties":{"name":"昆明昌源中路(地铁站)","original_ids":"[26]","id":25,"layer":"stop"}},{"type":"Feature","geometry":{"type":"Point","coordinates":[102.665171,25.048989]},"properties":{"name":"昆明西苑(地铁站)","original_ids":"[27]","id":26,"layer":"stop"}},{"type":"Feature","geometry":{"type":"Point","coordinates":[102.676575,25.048111]},"properties":{"name":"昆明梁家河(地铁站)","original_ids":"[28]","id":27,"layer":"stop"}},{"type":"Feature","geometry":{"type":"Point","coordinates":[102.685999,25.047432]},"properties":{"name":"昆明市体育馆(地铁站)","original_ids":"[29]","id":28,"layer":"stop"}},{"type":"Feature","geometry":{"type":"Point","coordinates":[102.694061,25.046762]},"properties":{"name":"昆明潘家湾(地铁站)","original_ids":"[30]","id":29,"layer":"stop"}},{"type":"Feature","geometry":{"type":"Point","coordinates":[102.704918,25.040067]},"properties":{"name":"昆明五一路(地铁站)","original_ids":"[31]","id":30,"layer":"stop"}},{"type":"Feature","geometry":{"type":"Point","coordinates":[102.71821,25.041045]},"properties":{"name":"昆明东风广场(地铁站)","original_ids":"[32]","id":31,"layer":"stop"}},{"type":"Feature","geometry":{"type":"Point","coordinates":[102.728326,25.041246]},"properties":{"name":"昆明拓东体育馆(地铁站)","original_ids":"[33]","id":32,"layer":"stop"}},{"type":"Feature","geometry":{"type":"Point","coordinates":[102.739514,25.04016]},"properties":{"name":"昆明大树营(地铁站)","original_ids":"[34]","id":33,"layer":"stop"}},{"type":"Feature","geometry":{"type":"Point","coordinates":[102.749986,25.038951]},"properties":{"name":"昆明金马寺(地铁站)","original_ids":"[35]","id":34,"layer":"stop"}},{"type":"Feature","geometry":{"type":"Point","coordinates":[102.75931,25.039342]},"properties":{"name":"昆明太平村(地铁站)","original_ids":"[36]","id":35,"layer":"stop"}},{"type":"Feature","geometry":{"type":"Point","coordinates":[102.771663,25.039047]},"properties":{"name":"昆明虹桥(地铁站)","original_ids":"[37]","id":36,"layer":"stop"}},{"type":"Feature","geometry":{"type":"Point","coordinates":[102.786821,25.039194]},"properties":{"name":"昆明东部汽车站(地铁站)","original_ids":"[38]","id":37,"layer":"stop"}},{"type":"Feature","geometry":{"type":"Point","coordinates":[102.656074,25.102128]},"properties":{"name":"昆明金川路(地铁站)","original_ids":"[39]","id":38,"layer":"stop"}},{"type":"Feature","geometry":{"type":"Point","coordinates":[102.653895,25.092853]},"properties":{"name":"昆明大河埂(地铁站)","original_ids":"[40]","id":39,"layer":"stop"}},{"type":"Feature","geometry":{"type":"Point","coordinates":[102.662981,25.079101]},"properties":{"name":"昆明海屯路(地铁站)","original_ids":"[41]","id":40,"layer":"stop"}},{"type":"Feature","geometry":{"type":"Point","coordinates":[102.672073,25.075257]},"properties":{"name":"昆明小屯(地铁站)","original_ids":"[42]","id":41,"layer":"stop"}},{"type":"Feature","geometry":{"type":"Point","coordinates":[102.683608,25.067149]},"properties":{"name":"昆明金鼎山北路(地铁站)","original_ids":"[43]","id":42,"layer":"stop"}},{"type":"Feature","geometry":{"type":"Point","coordinates":[102.691844,25.066605]},"properties":{"name":"昆明苏家塘(地铁站)","original_ids":"[44]","id":43,"layer":"stop"}},{"type":"Feature","geometry":{"type":"Point","coordinates":[102.704573,25.063464]},"properties":{"name":"昆明小菜园(地铁站)","original_ids":"[45]","id":44,"layer":"stop"}},{"type":"Feature","geometry":{"type":"Point","coordinates":[102.721754,25.059663]},"properties":{"name":"昆明火车北站(地铁站)","original_ids":"[46]","id":45,"layer":"stop"}},{"type":"Feature","geometry":{"type":"Point","coordinates":[102.733316,25.052568]},"properties":{"name":"昆明白龙路(地铁站)","original_ids":"[47]","id":46,"layer":"stop"}},{"type":"Feature","geometry":{"type":"Point","coordinates":[102.741909,25.032749]},"properties":{"name":"昆明菊花村(地铁站)","original_ids":"[48]","id":47,"layer":"stop"}},{"type":"Feature","geometry":{"type":"Point","coordinates":[102.748378,25.027526]},"properties":{"name":"昆明菊华(地铁站)","original_ids":"[49]","id":48,"layer":"stop"}},{"type":"Feature","geometry":{"type":"Point","coordinates":[102.761057,25.017952]},"properties":{"name":"昆明和甸营(地铁站)","original_ids":"[50]","id":49,"layer":"stop"}},{"type":"Feature","geometry":{"type":"Point","coordinates":[102.778059,25.00834]},"properties":{"name":"昆明牛街庄(地铁站)","original_ids":"[51]","id":50,"layer":"stop"}},{"type":"Feature","geometry":{"type":"Point","coordinates":[102.782452,24.996268]},"properties":{"name":"昆明朱家村(地铁站)","original_ids":"[52]","id":51,"layer":"stop"}},{"type":"Feature","geometry":{"type":"Point","coordinates":[102.784238,24.980875]},"properties":{"name":"昆明羊甫头(地铁站)","original_ids":"[53]","id":52,"layer":"stop"}},{"type":"Feature","geometry":{"type":"Point","coordinates":[102.785018,24.967573]},"properties":{"name":"昆明玉缘路(地铁站)","original_ids":"[54]","id":53,"layer":"stop"}},{"type":"Feature","geometry":{"type":"Point","coordinates":[102.783873,24.952301]},"properties":{"name":"昆明广卫(地铁站)","original_ids":"[55]","id":54,"layer":"stop"}},{"type":"Feature","geometry":{"type":"Point","coordinates":[102.786261,24.940362]},"properties":{"name":"昆明塔密(地铁站)","original_ids":"[56]","id":55,"layer":"stop"}},{"type":"Feature","geometry":{"type":"Point","coordinates":[102.78923,24.904498]},"properties":{"name":"昆明金桂街(地铁站)","original_ids":"[57]","id":56,"layer":"stop"}},{"type":"Feature","geometry":{"type":"Point","coordinates":[102.784417,24.89571]},"properties":{"name":"昆明梅子村(地铁站)","original_ids":"[58]","id":57,"layer":"stop"}},{"type":"Feature","geometry":{"type":"Point","coordinates":[102.791288,24.884847]},"properties":{"name":"昆明古城(地铁站)","original_ids":"[59]","id":58,"layer":"stop"}},{"type":"Feature","geometry":{"type":"Point","coordinates":[102.795257,24.877073]},"properties":{"name":"昆明可乐村(地铁站)","original_ids":"[60]","id":59,"layer":"stop"}},{"type":"Feature","geometry":{"type":"Point","coordinates":[102.801326,24.860604]},"properties":{"name":"昆明祥丰街(地铁站)","original_ids":"[61]","id":60,"layer":"stop"}},{"type":"Feature","geometry":{"type":"Point","coordinates":[102.812899,24.856846]},"properties":{"name":"昆明牛头山(地铁站)","original_ids":"[62]","id":61,"layer":"stop"}},{"type":"Feature","geometry":{"type":"Point","coordinates":[102.846968,24.869191]},"properties":{"name":"昆明吴家营(地铁站)","original_ids":"[63]","id":62,"layer":"stop"}},{"type":"Feature","geometry":{"type":"Point","coordinates":[102.858788,24.873326]},"properties":{"name":"昆明昆明南火车站(地铁站)","original_ids":"[64]","id":63,"layer":"stop"}},{"type":"Feature","geometry":{"type":"Point","coordinates":[102.752852,25.072143]},"properties":{"name":"昆明世博园(地铁站)","original_ids":"[65]","id":64,"layer":"stop"}},{"type":"Feature","geometry":{"type":"Point","coordinates":[102.746629,25.063904]},"properties":{"name":"昆明白龙寺(地铁站)","original_ids":"[66]","id":65,"layer":"stop"}},{"type":"Feature","geometry":{"type":"Point","coordinates":[102.73915,25.056358]},"properties":{"name":"昆明石闸(地铁站)","original_ids":"[67]","id":66,"layer":"stop"}},{"type":"Feature","geometry":{"type":"Point","coordinates":[102.728196,25.057751]},"properties":{"name":"昆明穿金路(地铁站)","original_ids":"[68]","id":67,"layer":"stop"}},{"type":"Feature","geometry":{"type":"Point","coordinates":[102.711275,25.057809]},"properties":{"name":"昆明圆通山(地铁站)","original_ids":"[69]","id":68,"layer":"stop"}},{"type":"Feature","geometry":{"type":"Point","coordinates":[102.706112,25.047789]},"properties":{"name":"昆明华山西路(地铁站)","original_ids":"[70]","id":69,"layer":"stop"}},{"type":"Feature","geometry":{"type":"Point","coordinates":[102.698509,25.035047]},"properties":{"name":"昆明弥勒寺(地铁站)","original_ids":"[71]","id":70,"layer":"stop"}},{"type":"Feature","geometry":{"type":"Point","coordinates":[102.697059,25.023668]},"properties":{"name":"昆明严家地(地铁站)","original_ids":"[72]","id":71,"layer":"stop"}},{"type":"Feature","geometry":{"type":"Point","coordinates":[102.688966,25.016957]},"properties":{"name":"昆明金兰路(地铁站)","original_ids":"[73]","id":72,"layer":"stop"}},{"type":"Feature","geometry":{"type":"Point","coordinates":[102.683524,25.013811]},"properties":{"name":"昆明福海(地铁站)","original_ids":"[74]","id":73,"layer":"stop"}},{"type":"Feature","geometry":{"type":"Point","coordinates":[102.672816,25.007232]},"properties":{"name":"昆明广福路西口(地铁站)","original_ids":"[75]","id":74,"layer":"stop"}},{"type":"Feature","geometry":{"type":"Point","coordinates":[102.663178,24.998015]},"properties":{"name":"昆明大坝(地铁站)","original_ids":"[76]","id":75,"layer":"stop"}},{"type":"Feature","geometry":{"type":"Point","coordinates":[102.662311,24.987454]},"properties":{"name":"昆明迎海路(地铁站)","original_ids":"[77]","id":76,"layer":"stop"}},{"type":"Feature","geometry":{"type":"Point","coordinates":[102.669201,24.979822]},"properties":{"name":"昆明渔户村(地铁站)","original_ids":"[78]","id":77,"layer":"stop"}},{"type":"Feature","geometry":{"type":"Point","coordinates":[102.678697,24.978331]},"properties":{"name":"昆明兴体路(地铁站)","original_ids":"[79]","id":78,"layer":"stop"}},{"type":"Feature","geometry":{"type":"Point","coordinates":[102.691575,24.976198]},"properties":{"name":"昆明庄家塘立交桥(地铁站)","original_ids":"[80]","id":79,"layer":"stop"}},{"type":"Feature","geometry":{"type":"Point","coordinates":[102.691665,24.964527]},"properties":{"name":"昆明金家河(地铁站)","original_ids":"[81]","id":80,"layer":"stop"}},{"type":"Feature","geometry":{"type":"Point","coordinates":[102.695132,24.947722]},"properties":{"name":"昆明福保(地铁站)","original_ids":"[82]","id":81,"layer":"stop"}},{"type":"Feature","geometry":{"type":"Point","coordinates":[102.706983,24.941992]},"properties":{"name":"昆明滇池国际会展中心(地铁站)","original_ids":"[83]","id":82,"layer":"stop"}},{"type":"Feature","geometry":{"type":"Point","coordinates":[102.721698,24.933524]},"properties":{"name":"昆明宝丰(地铁站)","original_ids":"[84]","id":83,"layer":"stop"}},{"type":"Feature","geometry":{"type":"Point","coordinates":[102.718465,25.036511]},"properties":{"name":"昆明塘子巷(地铁站)","original_ids":"[85]","id":84,"layer":"stop"}},{"type":"Feature","geometry":{"type":"Point","coordinates":[102.731781,25.034461]},"properties":{"name":"昆明岔街(地铁站)","original_ids":"[86]","id":85,"layer":"stop"}},{"type":"Feature","geometry":{"type":"Point","coordinates":[102.739578,25.030726]},"properties":{"name":"昆明东郊路(地铁站)","original_ids":"[87]","id":86,"layer":"stop"}},{"type":"Feature","geometry":{"type":"Point","coordinates":[102.875097,25.056464]},"properties":{"name":"昆明大板桥(地铁站)","original_ids":"[88]","id":87,"layer":"stop"}},{"type":"Feature","geometry":{"type":"Point","coordinates":[102.912106,25.087941]},"properties":{"name":"昆明机场前(地铁站)","original_ids":"[89]","id":88,"layer":"stop"}},{"type":"Feature","geometry":{"type":"Point","coordinates":[102.926346,25.098579]},"properties":{"name":"昆明机场中心(地铁站)","original_ids":"[90]","id":89,"layer":"stop"}},{"type":"Feature","geometry":{"type":"Point","coordinates":[102.835381,24.885261]},"properties":{"name":"市级行政中心·清风","original_ids":"[91]","id":90,"layer":"stop"}},{"type":"Feature","geometry":{"type":"Point","coordinates":[102.842995,24.887539]},"properties":{"name":"宜和路","original_ids":"[92]","id":91,"layer":"stop"}},{"type":"Feature","geometry":{"type":"Point","coordinates":[102.850452,24.877659]},"properties":{"name":"白龙潭","original_ids":"[93]","id":92,"layer":"stop"}},{"type":"Feature","geometry":{"type":"Point","coordinates":[102.761937,25.110021]},"properties":{"name":"昆明北部汽车站(地铁站)","original_ids":"[94]","id":93,"layer":"stop"}},{"type":"Feature","geometry":{"type":"Point","coordinates":[102.752328,25.114812]},"properties":{"name":"昆明龙头街(地铁站)","original_ids":"[95]","id":94,"layer":"stop"}},{"type":"Feature","geometry":{"type":"Point","coordinates":[102.744193,25.112645]},"properties":{"name":"昆明司家营(地铁站)","original_ids":"[96]","id":95,"layer":"stop"}},{"type":"Feature","geometry":{"type":"Point","coordinates":[102.740595,25.104363]},"properties":{"name":"昆明羊肠村(地铁站)","original_ids":"[97]","id":96,"layer":"stop"}},{"type":"Feature","geometry":{"type":"Point","coordinates":[102.737639,25.09625]},"properties":{"name":"昆明霖雨桥(地铁站)","original_ids":"[98]","id":97,"layer":"stop"}},{"type":"Feature","geometry":{"type":"Point","coordinates":[102.731141,25.084075]},"properties":{"name":"昆明北辰(地铁站)","original_ids":"[99]","id":98,"layer":"stop"}},{"type":"Feature","geometry":{"type":"Point","coordinates":[102.726406,25.079031]},"properties":{"name":"昆明金星(地铁站)","original_ids":"[100]","id":99,"layer":"stop"}},{"type":"Feature","geometry":{"type":"Point","coordinates":[102.722269,25.068645]},"properties":{"name":"昆明白云路(地铁站)","original_ids":"[101]","id":100,"layer":"stop"}},{"type":"Feature","geometry":{"type":"Point","coordinates":[102.717927,25.052282]},"properties":{"name":"昆明穿心鼓楼(地铁站)","original_ids":"[102]","id":101,"layer":"stop"}},{"type":"Feature","geometry":{"type":"Point","coordinates":[102.717964,25.045302]},"properties":{"name":"昆明交三桥(地铁站)","original_ids":"[103]","id":102,"layer":"stop"}},{"type":"Feature","properties":{"shape_id":"{}","direction_id":"{\"0\": 50}","headsign":"{}","duration_avg":240,"n_vehicles":50,"d":2400,"route_I_counts":"{\"1\": 50}","source":0,"target":1,"layer":"L","from":"昆明大学城南(地铁站)","to":"昆明大学城(地铁站)"},"geometry":{"type":"LineString","coordinates":[[102.824752,24.825261],[102.841017,24.839032]]}},{"type":"Feature","properties":{"shape_id":"{}","direction_id":"{\"1\": 50}","headsign":"{}","duration_avg":240,"n_vehicles":50,"d":2400,"route_I_counts":"{\"1\": 50}","source":1,"target":0,"layer":"L","from":"昆明大学城(地铁站)","to":"昆明大学城南(地铁站)"},"geometry":{"type":"LineString","coordinates":[[102.841017,24.839032],[102.824752,24.825261]]}},{"type":"Feature","properties":{"shape_id":"{}","direction_id":"{\"0\": 50}","headsign":"{}","duration_avg":180,"n_vehicles":50,"d":1800,"route_I_counts":"{\"1\": 50}","source":1,"target":2,"layer":"L","from":"昆明大学城(地铁站)","to":"昆明谊康南路(地铁站)"},"geometry":{"type":"LineString","coordinates":[[102.841017,24.839032],[102.836851,24.850712]]}},{"type":"Feature","properties":{"shape_id":"{}","direction_id":"{\"1\": 50}","headsign":"{}","duration_avg":180,"n_vehicles":50,"d":1800,"route_I_counts":"{\"1\": 50}","source":2,"target":1,"layer":"L","from":"昆明谊康南路(地铁站)","to":"昆明大学城(地铁站)"},"geometry":{"type":"LineString","coordinates":[[102.836851,24.850712],[102.841017,24.839032]]}},{"type":"Feature","properties":{"shape_id":"{}","direction_id":"{\"0\": 50}","headsign":"{}","duration_avg":120,"n_vehicles":50,"d":1200,"route_I_counts":"{\"1\": 50}","source":2,"target":3,"layer":"L","from":"昆明谊康南路(地铁站)","to":"昆明联大街(地铁站)"},"geometry":{"type":"LineString","coordinates":[[102.836851,24.850712],[102.832536,24.862746]]}},{"type":"Feature","properties":{"shape_id":"{}","direction_id":"{\"1\": 50}","headsign":"{}","duration_avg":120,"n_vehicles":50,"d":1200,"route_I_counts":"{\"1\": 50}","source":3,"target":2,"layer":"L","from":"昆明联大街(地铁站)","to":"昆明谊康南路(地铁站)"},"geometry":{"type":"LineString","coordinates":[[102.832536,24.862746],[102.836851,24.850712]]}},{"type":"Feature","properties":{"shape_id":"{}","direction_id":"{\"0\": 50}","headsign":"{}","duration_avg":120,"n_vehicles":50,"d":1200,"route_I_counts":"{\"1\": 50}","source":3,"target":4,"layer":"L","from":"昆明联大街(地铁站)","to":"昆明驼峰街(地铁站)"},"geometry":{"type":"LineString","coordinates":[[102.832536,24.862746],[102.828005,24.875511]]}},{"type":"Feature","properties":{"shape_id":"{}","direction_id":"{\"1\": 50}","headsign":"{}","duration_avg":120,"n_vehicles":50,"d":1200,"route_I_counts":"{\"1\": 50}","source":4,"target":3,"layer":"L","from":"昆明驼峰街(地铁站)","to":"昆明联大街(地铁站)"},"geometry":{"type":"LineString","coordinates":[[102.828005,24.875511],[102.832536,24.862746]]}},{"type":"Feature","properties":{"shape_id":"{}","direction_id":"{\"0\": 50}","headsign":"{}","duration_avg":180,"n_vehicles":50,"d":1800,"route_I_counts":"{\"1\": 50}","source":4,"target":5,"layer":"L","from":"昆明驼峰街(地铁站)","to":"昆明春融街(地铁站)"},"geometry":{"type":"LineString","coordinates":[[102.828005,24.875511],[102.823875,24.887089]]}},{"type":"Feature","properties":{"shape_id":"{}","direction_id":"{\"1\": 50}","headsign":"{}","duration_avg":180,"n_vehicles":50,"d":1800,"route_I_counts":"{\"1\": 50}","source":5,"target":4,"layer":"L","from":"昆明春融街(地铁站)","to":"昆明驼峰街(地铁站)"},"geometry":{"type":"LineString","coordinates":[[102.823875,24.887089],[102.828005,24.875511]]}},{"type":"Feature","properties":{"shape_id":"{}","direction_id":"{\"0\": 50}","headsign":"{}","duration_avg":300,"n_vehicles":50,"d":3000,"route_I_counts":"{\"1\": 50}","source":5,"target":6,"layer":"L","from":"昆明春融街(地铁站)","to":"昆明斗南(地铁站)"},"geometry":{"type":"LineString","coordinates":[[102.823875,24.887089],[102.790382,24.911162]]}},{"type":"Feature","properties":{"shape_id":"{}","direction_id":"{\"1\": 50}","headsign":"{}","duration_avg":300,"n_vehicles":50,"d":3000,"route_I_counts":"{\"1\": 50}","source":6,"target":5,"layer":"L","from":"昆明斗南(地铁站)","to":"昆明春融街(地铁站)"},"geometry":{"type":"LineString","coordinates":[[102.790382,24.911162],[102.823875,24.887089]]}},{"type":"Feature","properties":{"shape_id":"{}","direction_id":"{\"0\": 50}","headsign":"{}","duration_avg":180,"n_vehicles":50,"d":1800,"route_I_counts":"{\"1\": 50}","source":6,"target":7,"layer":"L","from":"昆明斗南(地铁站)","to":"昆明南部汽车站(地铁站)"},"geometry":{"type":"LineString","coordinates":[[102.790382,24.911162],[102.773764,24.932317]]}},{"type":"Feature","properties":{"shape_id":"{}","direction_id":"{\"1\": 50}","headsign":"{}","duration_avg":180,"n_vehicles":50,"d":1800,"route_I_counts":"{\"1\": 50}","source":7,"target":6,"layer":"L","from":"昆明南部汽车站(地铁站)","to":"昆明斗南(地铁站)"},"geometry":{"type":"LineString","coordinates":[[102.773764,24.932317],[102.790382,24.911162]]}},{"type":"Feature","properties":{"shape_id":"{}","direction_id":"{\"0\": 50}","headsign":"{}","duration_avg":240,"n_vehicles":50,"d":2400,"route_I_counts":"{\"1\": 50}","source":7,"target":8,"layer":"L","from":"昆明南部汽车站(地铁站)","to":"昆明新亚洲体育城(地铁站)"},"geometry":{"type":"LineString","coordinates":[[102.773764,24.932317],[102.76832,24.950062]]}},{"type":"Feature","properties":{"shape_id":"{}","direction_id":"{\"1\": 50}","headsign":"{}","duration_avg":240,"n_vehicles":50,"d":2400,"route_I_counts":"{\"1\": 50}","source":8,"target":7,"layer":"L","from":"昆明新亚洲体育城(地铁站)","to":"昆明南部汽车站(地铁站)"},"geometry":{"type":"LineString","coordinates":[[102.76832,24.950062],[102.773764,24.932317]]}},{"type":"Feature","properties":{"shape_id":"{}","direction_id":"{\"0\": 50}","headsign":"{}","duration_avg":120,"n_vehicles":50,"d":1200,"route_I_counts":"{\"1\": 50}","source":8,"target":9,"layer":"L","from":"昆明新亚洲体育城(地铁站)","to":"昆明星耀路(地铁站)"},"geometry":{"type":"LineString","coordinates":[[102.76832,24.950062],[102.766807,24.959929]]}},{"type":"Feature","properties":{"shape_id":"{}","direction_id":"{\"1\": 50}","headsign":"{}","duration_avg":120,"n_vehicles":50,"d":1200,"route_I_counts":"{\"1\": 50}","source":9,"target":8,"layer":"L","from":"昆明星耀路(地铁站)","to":"昆明新亚洲体育城(地铁站)"},"geometry":{"type":"LineString","coordinates":[[102.766807,24.959929],[102.76832,24.950062]]}},{"type":"Feature","properties":{"shape_id":"{}","direction_id":"{\"0\": 50}","headsign":"{}","duration_avg":120,"n_vehicles":50,"d":1200,"route_I_counts":"{\"1\": 50}","source":9,"target":10,"layer":"L","from":"昆明星耀路(地铁站)","to":"昆明珥季路(地铁站)"},"geometry":{"type":"LineString","coordinates":[[102.766807,24.959929],[102.76553,24.975574]]}},{"type":"Feature","properties":{"shape_id":"{}","direction_id":"{\"1\": 50}","headsign":"{}","duration_avg":120,"n_vehicles":50,"d":1200,"route_I_counts":"{\"1\": 50}","source":10,"target":9,"layer":"L","from":"昆明珥季路(地铁站)","to":"昆明星耀路(地铁站)"},"geometry":{"type":"LineString","coordinates":[[102.76553,24.975574],[102.766807,24.959929]]}},{"type":"Feature","properties":{"shape_id":"{}","direction_id":"{\"0\": 50}","headsign":"{}","duration_avg":180,"n_vehicles":50,"d":1800,"route_I_counts":"{\"1\": 50}","source":10,"target":11,"layer":"L","from":"昆明珥季路(地铁站)","to":"昆明晓东村(地铁站)"},"geometry":{"type":"LineString","coordinates":[[102.76553,24.975574],[102.760468,24.988259]]}},{"type":"Feature","properties":{"shape_id":"{}","direction_id":"{\"1\": 50}","headsign":"{}","duration_avg":180,"n_vehicles":50,"d":1800,"route_I_counts":"{\"1\": 50}","source":11,"target":10,"layer":"L","from":"昆明晓东村(地铁站)","to":"昆明珥季路(地铁站)"},"geometry":{"type":"LineString","coordinates":[[102.760468,24.988259],[102.76553,24.975574]]}},{"type":"Feature","properties":{"shape_id":"{}","direction_id":"{\"0\": 50}","headsign":"{}","duration_avg":120,"n_vehicles":50,"d":1200,"route_I_counts":"{\"1\": 50}","source":11,"target":12,"layer":"L","from":"昆明晓东村(地铁站)","to":"昆明昌宏西路(地铁站)"},"geometry":{"type":"LineString","coordinates":[[102.760468,24.988259],[102.749541,24.989332]]}},{"type":"Feature","properties":{"shape_id":"{}","direction_id":"{\"1\": 50}","headsign":"{}","duration_avg":120,"n_vehicles":50,"d":1200,"route_I_counts":"{\"1\": 50}","source":12,"target":11,"layer":"L","from":"昆明昌宏西路(地铁站)","to":"昆明晓东村(地铁站)"},"geometry":{"type":"LineString","coordinates":[[102.749541,24.989332],[102.760468,24.988259]]}},{"type":"Feature","properties":{"shape_id":"{}","direction_id":"{\"0\": 50}","headsign":"{}","duration_avg":180,"n_vehicles":50,"d":1800,"route_I_counts":"{\"1\": 50}","source":12,"target":13,"layer":"L","from":"昆明昌宏西路(地铁站)","to":"昆明巫家坝(地铁站)"},"geometry":{"type":"LineString","coordinates":[[102.749541,24.989332],[102.74013,24.999747]]}},{"type":"Feature","properties":{"shape_id":"{}","direction_id":"{\"1\": 50}","headsign":"{}","duration_avg":180,"n_vehicles":50,"d":1800,"route_I_counts":"{\"1\": 50}","source":13,"target":12,"layer":"L","from":"昆明巫家坝(地铁站)","to":"昆明昌宏西路(地铁站)"},"geometry":{"type":"LineString","coordinates":[[102.74013,24.999747],[102.749541,24.989332]]}},{"type":"Feature","properties":{"shape_id":"{}","direction_id":"{\"0\": 50}","headsign":"{}","duration_avg":120,"n_vehicles":50,"d":1200,"route_I_counts":"{\"1\": 50}","source":13,"target":14,"layer":"L","from":"昆明巫家坝(地铁站)","to":"昆明日新路(地铁站)"},"geometry":{"type":"LineString","coordinates":[[102.74013,24.999747],[102.733601,25.00431]]}},{"type":"Feature","properties":{"shape_id":"{}","direction_id":"{\"1\": 50}","headsign":"{}","duration_avg":120,"n_vehicles":50,"d":1200,"route_I_counts":"{\"1\": 50}","source":14,"target":13,"layer":"L","from":"昆明日新路(地铁站)","to":"昆明巫家坝(地铁站)"},"geometry":{"type":"LineString","coordinates":[[102.733601,25.00431],[102.74013,24.999747]]}},{"type":"Feature","properties":{"shape_id":"{}","direction_id":"{\"0\": 50}","headsign":"{}","duration_avg":120,"n_vehicles":50,"d":1200,"route_I_counts":"{\"1\": 50}","source":14,"target":15,"layer":"L","from":"昆明日新路(地铁站)","to":"昆明福德(地铁站)"},"geometry":{"type":"LineString","coordinates":[[102.733601,25.00431],[102.728895,25.009853]]}},{"type":"Feature","properties":{"shape_id":"{}","direction_id":"{\"1\": 50}","headsign":"{}","duration_avg":120,"n_vehicles":50,"d":1200,"route_I_counts":"{\"1\": 50}","source":15,"target":14,"layer":"L","from":"昆明福德(地铁站)","to":"昆明日新路(地铁站)"},"geometry":{"type":"LineString","coordinates":[[102.728895,25.009853],[102.733601,25.00431]]}},{"type":"Feature","properties":{"shape_id":"{}","direction_id":"{\"0\": 50}","headsign":"{}","duration_avg":180,"n_vehicles":50,"d":1800,"route_I_counts":"{\"1\": 50}","source":15,"target":16,"layer":"L","from":"昆明福德(地铁站)","to":"昆明昆明火车站(地铁站)"},"geometry":{"type":"LineString","coordinates":[[102.728895,25.009853],[102.722334,25.016661]]}},{"type":"Feature","properties":{"shape_id":"{}","direction_id":"{\"1\": 50}","headsign":"{}","duration_avg":180,"n_vehicles":50,"d":1800,"route_I_counts":"{\"1\": 50}","source":16,"target":15,"layer":"L","from":"昆明昆明火车站(地铁站)","to":"昆明福德(地铁站)"},"geometry":{"type":"LineString","coordinates":[[102.722334,25.016661],[102.728895,25.009853]]}},{"type":"Feature","properties":{"shape_id":"{}","direction_id":"{\"0\": 50}","headsign":"{}","duration_avg":120,"n_vehicles":50,"d":1200,"route_I_counts":"{\"1\": 50}","source":16,"target":17,"layer":"L","from":"昆明昆明火车站(地铁站)","to":"昆明环城南路(地铁站)"},"geometry":{"type":"LineString","coordinates":[[102.722334,25.016661],[102.719467,25.027348]]}},{"type":"Feature","properties":{"shape_id":"{}","direction_id":"{\"1\": 50}","headsign":"{}","duration_avg":120,"n_vehicles":50,"d":1200,"route_I_counts":"{\"1\": 50}","source":17,"target":16,"layer":"L","from":"昆明环城南路(地铁站)","to":"昆明昆明火车站(地铁站)"},"geometry":{"type":"LineString","coordinates":[[102.719467,25.027348],[102.722334,25.016661]]}},{"type":"Feature","properties":{"shape_id":"{}","direction_id":"{\"0\": 50}","headsign":"{}","duration_avg":120,"n_vehicles":50,"d":1200,"route_I_counts":"{\"2\": 50}","source":18,"target":19,"layer":"L","from":"昆明西山公园(地铁站)","to":"昆明车家壁(地铁站)"},"geometry":{"type":"LineString","coordinates":[[102.616858,24.987308],[102.614446,24.997545]]}},{"type":"Feature","properties":{"shape_id":"{}","direction_id":"{\"1\": 50}","headsign":"{}","duration_avg":120,"n_vehicles":50,"d":1200,"route_I_counts":"{\"2\": 50}","source":19,"target":18,"layer":"L","from":"昆明车家壁(地铁站)","to":"昆明西山公园(地铁站)"},"geometry":{"type":"LineString","coordinates":[[102.614446,24.997545],[102.616858,24.987308]]}},{"type":"Feature","properties":{"shape_id":"{}","direction_id":"{\"0\": 50}","headsign":"{}","duration_avg":120,"n_vehicles":50,"d":1200,"route_I_counts":"{\"2\": 50}","source":19,"target":20,"layer":"L","from":"昆明车家壁(地铁站)","to":"昆明普坪村(地铁站)"},"geometry":{"type":"LineString","coordinates":[[102.614446,24.997545],[102.619858,25.008542]]}},{"type":"Feature","properties":{"shape_id":"{}","direction_id":"{\"1\": 50}","headsign":"{}","duration_avg":120,"n_vehicles":50,"d":1200,"route_I_counts":"{\"2\": 50}","source":20,"target":19,"layer":"L","from":"昆明普坪村(地铁站)","to":"昆明车家壁(地铁站)"},"geometry":{"type":"LineString","coordinates":[[102.619858,25.008542],[102.614446,24.997545]]}},{"type":"Feature","properties":{"shape_id":"{}","direction_id":"{\"0\": 50}","headsign":"{}","duration_avg":180,"n_vehicles":50,"d":1800,"route_I_counts":"{\"2\": 50}","source":20,"target":21,"layer":"L","from":"昆明普坪村(地铁站)","to":"昆明石咀(地铁站)"},"geometry":{"type":"LineString","coordinates":[[102.619858,25.008542],[102.6282,25.021238]]}},{"type":"Feature","properties":{"shape_id":"{}","direction_id":"{\"1\": 50}","headsign":"{}","duration_avg":180,"n_vehicles":50,"d":1800,"route_I_counts":"{\"2\": 50}","source":21,"target":20,"layer":"L","from":"昆明石咀(地铁站)","to":"昆明普坪村(地铁站)"},"geometry":{"type":"LineString","coordinates":[[102.6282,25.021238],[102.619858,25.008542]]}},{"type":"Feature","properties":{"shape_id":"{}","direction_id":"{\"0\": 50}","headsign":"{}","duration_avg":120,"n_vehicles":50,"d":1200,"route_I_counts":"{\"2\": 50}","source":21,"target":22,"layer":"L","from":"昆明石咀(地铁站)","to":"昆明大渔路(地铁站)"},"geometry":{"type":"LineString","coordinates":[[102.6282,25.021238],[102.634395,25.030819]]}},{"type":"Feature","properties":{"shape_id":"{}","direction_id":"{\"1\": 50}","headsign":"{}","duration_avg":120,"n_vehicles":50,"d":1200,"route_I_counts":"{\"2\": 50}","source":22,"target":21,"layer":"L","from":"昆明大渔路(地铁站)","to":"昆明石咀(地铁站)"},"geometry":{"type":"LineString","coordinates":[[102.634395,25.030819],[102.6282,25.021238]]}},{"type":"Feature","properties":{"shape_id":"{}","direction_id":"{\"0\": 50}","headsign":"{}","duration_avg":120,"n_vehicles":50,"d":1200,"route_I_counts":"{\"2\": 50}","source":22,"target":23,"layer":"L","from":"昆明大渔路(地铁站)","to":"昆明西部汽车站(地铁站)"},"geometry":{"type":"LineString","coordinates":[[102.634395,25.030819],[102.637564,25.038371]]}},{"type":"Feature","properties":{"shape_id":"{}","direction_id":"{\"1\": 50}","headsign":"{}","duration_avg":120,"n_vehicles":50,"d":1200,"route_I_counts":"{\"2\": 50}","source":23,"target":22,"layer":"L","from":"昆明西部汽车站(地铁站)","to":"昆明大渔路(地铁站)"},"geometry":{"type":"LineString","coordinates":[[102.637564,25.038371],[102.634395,25.030819]]}},{"type":"Feature","properties":{"shape_id":"{}","direction_id":"{\"0\": 50}","headsign":"{}","duration_avg":180,"n_vehicles":50,"d":1800,"route_I_counts":"{\"2\": 50}","source":23,"target":24,"layer":"L","from":"昆明西部汽车站(地铁站)","to":"昆明眠山(地铁站)"},"geometry":{"type":"LineString","coordinates":[[102.637564,25.038371],[102.648143,25.050243]]}},{"type":"Feature","properties":{"shape_id":"{}","direction_id":"{\"1\": 50}","headsign":"{}","duration_avg":180,"n_vehicles":50,"d":1800,"route_I_counts":"{\"2\": 50}","source":24,"target":23,"layer":"L","from":"昆明眠山(地铁站)","to":"昆明西部汽车站(地铁站)"},"geometry":{"type":"LineString","coordinates":[[102.648143,25.050243],[102.637564,25.038371]]}},{"type":"Feature","properties":{"shape_id":"{}","direction_id":"{\"0\": 50}","headsign":"{}","duration_avg":120,"n_vehicles":50,"d":1200,"route_I_counts":"{\"2\": 50}","source":24,"target":25,"layer":"L","from":"昆明眠山(地铁站)","to":"昆明昌源中路(地铁站)"},"geometry":{"type":"LineString","coordinates":[[102.648143,25.050243],[102.655543,25.049721]]}},{"type":"Feature","properties":{"shape_id":"{}","direction_id":"{\"1\": 50}","headsign":"{}","duration_avg":120,"n_vehicles":50,"d":1200,"route_I_counts":"{\"2\": 50}","source":25,"target":24,"layer":"L","from":"昆明昌源中路(地铁站)","to":"昆明眠山(地铁站)"},"geometry":{"type":"LineString","coordinates":[[102.655543,25.049721],[102.648143,25.050243]]}},{"type":"Feature","properties":{"shape_id":"{}","direction_id":"{\"0\": 50}","headsign":"{}","duration_avg":120,"n_vehicles":50,"d":1200,"route_I_counts":"{\"2\": 50}","source":25,"target":26,"layer":"L","from":"昆明昌源中路(地铁站)","to":"昆明西苑(地铁站)"},"geometry":{"type":"LineString","coordinates":[[102.655543,25.049721],[102.665171,25.048989]]}},{"type":"Feature","properties":{"shape_id":"{}","direction_id":"{\"1\": 50}","headsign":"{}","duration_avg":120,"n_vehicles":50,"d":1200,"route_I_counts":"{\"2\": 50}","source":26,"target":25,"layer":"L","from":"昆明西苑(地铁站)","to":"昆明昌源中路(地铁站)"},"geometry":{"type":"LineString","coordinates":[[102.665171,25.048989],[102.655543,25.049721]]}},{"type":"Feature","properties":{"shape_id":"{}","direction_id":"{\"0\": 50}","headsign":"{}","duration_avg":120,"n_vehicles":50,"d":1200,"route_I_counts":"{\"2\": 50}","source":26,"target":27,"layer":"L","from":"昆明西苑(地铁站)","to":"昆明梁家河(地铁站)"},"geometry":{"type":"LineString","coordinates":[[102.665171,25.048989],[102.676575,25.048111]]}},{"type":"Feature","properties":{"shape_id":"{}","direction_id":"{\"1\": 50}","headsign":"{}","duration_avg":120,"n_vehicles":50,"d":1200,"route_I_counts":"{\"2\": 50}","source":27,"target":26,"layer":"L","from":"昆明梁家河(地铁站)","to":"昆明西苑(地铁站)"},"geometry":{"type":"LineString","coordinates":[[102.676575,25.048111],[102.665171,25.048989]]}},{"type":"Feature","properties":{"shape_id":"{}","direction_id":"{\"0\": 50}","headsign":"{}","duration_avg":180,"n_vehicles":50,"d":1800,"route_I_counts":"{\"2\": 50}","source":27,"target":28,"layer":"L","from":"昆明梁家河(地铁站)","to":"昆明市体育馆(地铁站)"},"geometry":{"type":"LineString","coordinates":[[102.676575,25.048111],[102.685999,25.047432]]}},{"type":"Feature","properties":{"shape_id":"{}","direction_id":"{\"1\": 50}","headsign":"{}","duration_avg":180,"n_vehicles":50,"d":1800,"route_I_counts":"{\"2\": 50}","source":28,"target":27,"layer":"L","from":"昆明市体育馆(地铁站)","to":"昆明梁家河(地铁站)"},"geometry":{"type":"LineString","coordinates":[[102.685999,25.047432],[102.676575,25.048111]]}},{"type":"Feature","properties":{"shape_id":"{}","direction_id":"{\"0\": 50}","headsign":"{}","duration_avg":120,"n_vehicles":50,"d":1200,"route_I_counts":"{\"2\": 50}","source":28,"target":29,"layer":"L","from":"昆明市体育馆(地铁站)","to":"昆明潘家湾(地铁站)"},"geometry":{"type":"LineString","coordinates":[[102.685999,25.047432],[102.694061,25.046762]]}},{"type":"Feature","properties":{"shape_id":"{}","direction_id":"{\"1\": 50}","headsign":"{}","duration_avg":120,"n_vehicles":50,"d":1200,"route_I_counts":"{\"2\": 50}","source":29,"target":28,"layer":"L","from":"昆明潘家湾(地铁站)","to":"昆明市体育馆(地铁站)"},"geometry":{"type":"LineString","coordinates":[[102.694061,25.046762],[102.685999,25.047432]]}},{"type":"Feature","properties":{"shape_id":"{}","direction_id":"{\"0\": 50}","headsign":"{}","duration_avg":120,"n_vehicles":50,"d":1200,"route_I_counts":"{\"2\": 50}","source":29,"target":30,"layer":"L","from":"昆明潘家湾(地铁站)","to":"昆明五一路(地铁站)"},"geometry":{"type":"LineString","coordinates":[[102.694061,25.046762],[102.704918,25.040067]]}},{"type":"Feature","properties":{"shape_id":"{}","direction_id":"{\"1\": 50}","headsign":"{}","duration_avg":120,"n_vehicles":50,"d":1200,"route_I_counts":"{\"2\": 50}","source":30,"target":29,"layer":"L","from":"昆明五一路(地铁站)","to":"昆明潘家湾(地铁站)"},"geometry":{"type":"LineString","coordinates":[[102.704918,25.040067],[102.694061,25.046762]]}},{"type":"Feature","properties":{"shape_id":"{}","direction_id":"{\"0\": 50}","headsign":"{}","duration_avg":180,"n_vehicles":50,"d":1800,"route_I_counts":"{\"2\": 50}","source":30,"target":31,"layer":"L","from":"昆明五一路(地铁站)","to":"昆明东风广场(地铁站)"},"geometry":{"type":"LineString","coordinates":[[102.704918,25.040067],[102.71821,25.041045]]}},{"type":"Feature","properties":{"shape_id":"{}","direction_id":"{\"1\": 50}","headsign":"{}","duration_avg":180,"n_vehicles":50,"d":1800,"route_I_counts":"{\"2\": 50}","source":31,"target":30,"layer":"L","from":"昆明东风广场(地铁站)","to":"昆明五一路(地铁站)"},"geometry":{"type":"LineString","coordinates":[[102.71821,25.041045],[102.704918,25.040067]]}},{"type":"Feature","properties":{"shape_id":"{}","direction_id":"{\"0\": 50}","headsign":"{}","duration_avg":120,"n_vehicles":50,"d":1200,"route_I_counts":"{\"2\": 50}","source":31,"target":32,"layer":"L","from":"昆明东风广场(地铁站)","to":"昆明拓东体育馆(地铁站)"},"geometry":{"type":"LineString","coordinates":[[102.71821,25.041045],[102.728326,25.041246]]}},{"type":"Feature","properties":{"shape_id":"{}","direction_id":"{\"1\": 50}","headsign":"{}","duration_avg":120,"n_vehicles":50,"d":1200,"route_I_counts":"{\"2\": 50}","source":32,"target":31,"layer":"L","from":"昆明拓东体育馆(地铁站)","to":"昆明东风广场(地铁站)"},"geometry":{"type":"LineString","coordinates":[[102.728326,25.041246],[102.71821,25.041045]]}},{"type":"Feature","properties":{"shape_id":"{}","direction_id":"{\"0\": 50}","headsign":"{}","duration_avg":120,"n_vehicles":50,"d":1200,"route_I_counts":"{\"2\": 50}","source":32,"target":33,"layer":"L","from":"昆明拓东体育馆(地铁站)","to":"昆明大树营(地铁站)"},"geometry":{"type":"LineString","coordinates":[[102.728326,25.041246],[102.739514,25.04016]]}},{"type":"Feature","properties":{"shape_id":"{}","direction_id":"{\"1\": 50}","headsign":"{}","duration_avg":120,"n_vehicles":50,"d":1200,"route_I_counts":"{\"2\": 50}","source":33,"target":32,"layer":"L","from":"昆明大树营(地铁站)","to":"昆明拓东体育馆(地铁站)"},"geometry":{"type":"LineString","coordinates":[[102.739514,25.04016],[102.728326,25.041246]]}},{"type":"Feature","properties":{"shape_id":"{}","direction_id":"{\"0\": 50}","headsign":"{}","duration_avg":120,"n_vehicles":50,"d":1200,"route_I_counts":"{\"2\": 50}","source":33,"target":34,"layer":"L","from":"昆明大树营(地铁站)","to":"昆明金马寺(地铁站)"},"geometry":{"type":"LineString","coordinates":[[102.739514,25.04016],[102.749986,25.038951]]}},{"type":"Feature","properties":{"shape_id":"{}","direction_id":"{\"1\": 50}","headsign":"{}","duration_avg":120,"n_vehicles":50,"d":1200,"route_I_counts":"{\"2\": 50}","source":34,"target":33,"layer":"L","from":"昆明金马寺(地铁站)","to":"昆明大树营(地铁站)"},"geometry":{"type":"LineString","coordinates":[[102.749986,25.038951],[102.739514,25.04016]]}},{"type":"Feature","properties":{"shape_id":"{}","direction_id":"{\"0\": 50}","headsign":"{}","duration_avg":120,"n_vehicles":50,"d":1200,"route_I_counts":"{\"2\": 50}","source":34,"target":35,"layer":"L","from":"昆明金马寺(地铁站)","to":"昆明太平村(地铁站)"},"geometry":{"type":"LineString","coordinates":[[102.749986,25.038951],[102.75931,25.039342]]}},{"type":"Feature","properties":{"shape_id":"{}","direction_id":"{\"1\": 50}","headsign":"{}","duration_avg":120,"n_vehicles":50,"d":1200,"route_I_counts":"{\"2\": 50}","source":35,"target":34,"layer":"L","from":"昆明太平村(地铁站)","to":"昆明金马寺(地铁站)"},"geometry":{"type":"LineString","coordinates":[[102.75931,25.039342],[102.749986,25.038951]]}},{"type":"Feature","properties":{"shape_id":"{}","direction_id":"{\"0\": 50}","headsign":"{}","duration_avg":180,"n_vehicles":50,"d":1800,"route_I_counts":"{\"2\": 50}","source":35,"target":36,"layer":"L","from":"昆明太平村(地铁站)","to":"昆明虹桥(地铁站)"},"geometry":{"type":"LineString","coordinates":[[102.75931,25.039342],[102.771663,25.039047]]}},{"type":"Feature","properties":{"shape_id":"{}","direction_id":"{\"1\": 50}","headsign":"{}","duration_avg":180,"n_vehicles":50,"d":1800,"route_I_counts":"{\"2\": 50}","source":36,"target":35,"layer":"L","from":"昆明虹桥(地铁站)","to":"昆明太平村(地铁站)"},"geometry":{"type":"LineString","coordinates":[[102.771663,25.039047],[102.75931,25.039342]]}},{"type":"Feature","properties":{"shape_id":"{}","direction_id":"{\"0\": 50}","headsign":"{}","duration_avg":120,"n_vehicles":50,"d":1200,"route_I_counts":"{\"2\": 50}","source":36,"target":37,"layer":"L","from":"昆明虹桥(地铁站)","to":"昆明东部汽车站(地铁站)"},"geometry":{"type":"LineString","coordinates":[[102.771663,25.039047],[102.786821,25.039194]]}},{"type":"Feature","properties":{"shape_id":"{}","direction_id":"{\"1\": 50}","headsign":"{}","duration_avg":120,"n_vehicles":50,"d":1200,"route_I_counts":"{\"2\": 50}","source":37,"target":36,"layer":"L","from":"昆明东部汽车站(地铁站)","to":"昆明虹桥(地铁站)"},"geometry":{"type":"LineString","coordinates":[[102.786821,25.039194],[102.771663,25.039047]]}},{"type":"Feature","properties":{"shape_id":"{}","direction_id":"{\"0\": 50}","headsign":"{}","duration_avg":120,"n_vehicles":50,"d":1200,"route_I_counts":"{\"3\": 50}","source":38,"target":39,"layer":"L","from":"昆明金川路(地铁站)","to":"昆明大河埂(地铁站)"},"geometry":{"type":"LineString","coordinates":[[102.656074,25.102128],[102.653895,25.092853]]}},{"type":"Feature","properties":{"shape_id":"{}","direction_id":"{\"1\": 50}","headsign":"{}","duration_avg":120,"n_vehicles":50,"d":1200,"route_I_counts":"{\"3\": 50}","source":39,"target":38,"layer":"L","from":"昆明大河埂(地铁站)","to":"昆明金川路(地铁站)"},"geometry":{"type":"LineString","coordinates":[[102.653895,25.092853],[102.656074,25.102128]]}},{"type":"Feature","properties":{"shape_id":"{}","direction_id":"{\"0\": 50}","headsign":"{}","duration_avg":180,"n_vehicles":50,"d":1800,"route_I_counts":"{\"3\": 50}","source":39,"target":40,"layer":"L","from":"昆明大河埂(地铁站)","to":"昆明海屯路(地铁站)"},"geometry":{"type":"LineString","coordinates":[[102.653895,25.092853],[102.662981,25.079101]]}},{"type":"Feature","properties":{"shape_id":"{}","direction_id":"{\"1\": 50}","headsign":"{}","duration_avg":180,"n_vehicles":50,"d":1800,"route_I_counts":"{\"3\": 50}","source":40,"target":39,"layer":"L","from":"昆明海屯路(地铁站)","to":"昆明大河埂(地铁站)"},"geometry":{"type":"LineString","coordinates":[[102.662981,25.079101],[102.653895,25.092853]]}},{"type":"Feature","properties":{"shape_id":"{}","direction_id":"{\"0\": 50}","headsign":"{}","duration_avg":120,"n_vehicles":50,"d":1200,"route_I_counts":"{\"3\": 50}","source":40,"target":41,"layer":"L","from":"昆明海屯路(地铁站)","to":"昆明小屯(地铁站)"},"geometry":{"type":"LineString","coordinates":[[102.662981,25.079101],[102.672073,25.075257]]}},{"type":"Feature","properties":{"shape_id":"{}","direction_id":"{\"1\": 50}","headsign":"{}","duration_avg":120,"n_vehicles":50,"d":1200,"route_I_counts":"{\"3\": 50}","source":41,"target":40,"layer":"L","from":"昆明小屯(地铁站)","to":"昆明海屯路(地铁站)"},"geometry":{"type":"LineString","coordinates":[[102.672073,25.075257],[102.662981,25.079101]]}},{"type":"Feature","properties":{"shape_id":"{}","direction_id":"{\"0\": 50}","headsign":"{}","duration_avg":180,"n_vehicles":50,"d":1800,"route_I_counts":"{\"3\": 50}","source":41,"target":42,"layer":"L","from":"昆明小屯(地铁站)","to":"昆明金鼎山北路(地铁站)"},"geometry":{"type":"LineString","coordinates":[[102.672073,25.075257],[102.683608,25.067149]]}},{"type":"Feature","properties":{"shape_id":"{}","direction_id":"{\"1\": 50}","headsign":"{}","duration_avg":180,"n_vehicles":50,"d":1800,"route_I_counts":"{\"3\": 50}","source":42,"target":41,"layer":"L","from":"昆明金鼎山北路(地铁站)","to":"昆明小屯(地铁站)"},"geometry":{"type":"LineString","coordinates":[[102.683608,25.067149],[102.672073,25.075257]]}},{"type":"Feature","properties":{"shape_id":"{}","direction_id":"{\"0\": 50}","headsign":"{}","duration_avg":120,"n_vehicles":50,"d":1200,"route_I_counts":"{\"3\": 50}","source":42,"target":43,"layer":"L","from":"昆明金鼎山北路(地铁站)","to":"昆明苏家塘(地铁站)"},"geometry":{"type":"LineString","coordinates":[[102.683608,25.067149],[102.691844,25.066605]]}},{"type":"Feature","properties":{"shape_id":"{}","direction_id":"{\"1\": 50}","headsign":"{}","duration_avg":120,"n_vehicles":50,"d":1200,"route_I_counts":"{\"3\": 50}","source":43,"target":42,"layer":"L","from":"昆明苏家塘(地铁站)","to":"昆明金鼎山北路(地铁站)"},"geometry":{"type":"LineString","coordinates":[[102.691844,25.066605],[102.683608,25.067149]]}},{"type":"Feature","properties":{"shape_id":"{}","direction_id":"{\"0\": 50}","headsign":"{}","duration_avg":120,"n_vehicles":50,"d":1200,"route_I_counts":"{\"3\": 50}","source":43,"target":44,"layer":"L","from":"昆明苏家塘(地铁站)","to":"昆明小菜园(地铁站)"},"geometry":{"type":"LineString","coordinates":[[102.691844,25.066605],[102.704573,25.063464]]}},{"type":"Feature","properties":{"shape_id":"{}","direction_id":"{\"1\": 50}","headsign":"{}","duration_avg":120,"n_vehicles":50,"d":1200,"route_I_counts":"{\"3\": 50}","source":44,"target":43,"layer":"L","from":"昆明小菜园(地铁站)","to":"昆明苏家塘(地铁站)"},"geometry":{"type":"LineString","coordinates":[[102.704573,25.063464],[102.691844,25.066605]]}},{"type":"Feature","properties":{"shape_id":"{}","direction_id":"{\"0\": 50}","headsign":"{}","duration_avg":240,"n_vehicles":50,"d":2400,"route_I_counts":"{\"3\": 50}","source":44,"target":45,"layer":"L","from":"昆明小菜园(地铁站)","to":"昆明火车北站(地铁站)"},"geometry":{"type":"LineString","coordinates":[[102.704573,25.063464],[102.721754,25.059663]]}},{"type":"Feature","properties":{"shape_id":"{}","direction_id":"{\"1\": 50}","headsign":"{}","duration_avg":240,"n_vehicles":50,"d":2400,"route_I_counts":"{\"3\": 50}","source":45,"target":44,"layer":"L","from":"昆明火车北站(地铁站)","to":"昆明小菜园(地铁站)"},"geometry":{"type":"LineString","coordinates":[[102.721754,25.059663],[102.704573,25.063464]]}},{"type":"Feature","properties":{"shape_id":"{}","direction_id":"{\"0\": 50}","headsign":"{}","duration_avg":120,"n_vehicles":50,"d":1200,"route_I_counts":"{\"3\": 50}","source":45,"target":46,"layer":"L","from":"昆明火车北站(地铁站)","to":"昆明白龙路(地铁站)"},"geometry":{"type":"LineString","coordinates":[[102.721754,25.059663],[102.733316,25.052568]]}},{"type":"Feature","properties":{"shape_id":"{}","direction_id":"{\"1\": 50}","headsign":"{}","duration_avg":120,"n_vehicles":50,"d":1200,"route_I_counts":"{\"3\": 50}","source":46,"target":45,"layer":"L","from":"昆明白龙路(地铁站)","to":"昆明火车北站(地铁站)"},"geometry":{"type":"LineString","coordinates":[[102.733316,25.052568],[102.721754,25.059663]]}},{"type":"Feature","properties":{"shape_id":"{}","direction_id":"{\"0\": 50}","headsign":"{}","duration_avg":120,"n_vehicles":50,"d":1200,"route_I_counts":"{\"3\": 50}","source":46,"target":33,"layer":"L","from":"昆明白龙路(地铁站)","to":"昆明大树营(地铁站)"},"geometry":{"type":"LineString","coordinates":[[102.733316,25.052568],[102.739514,25.04016]]}},{"type":"Feature","properties":{"shape_id":"{}","direction_id":"{\"1\": 50}","headsign":"{}","duration_avg":120,"n_vehicles":50,"d":1200,"route_I_counts":"{\"3\": 50}","source":33,"target":46,"layer":"L","from":"昆明大树营(地铁站)","to":"昆明白龙路(地铁站)"},"geometry":{"type":"LineString","coordinates":[[102.739514,25.04016],[102.733316,25.052568]]}},{"type":"Feature","properties":{"shape_id":"{}","direction_id":"{\"0\": 50}","headsign":"{}","duration_avg":180,"n_vehicles":50,"d":1800,"route_I_counts":"{\"3\": 50}","source":33,"target":47,"layer":"L","from":"昆明大树营(地铁站)","to":"昆明菊花村(地铁站)"},"geometry":{"type":"LineString","coordinates":[[102.739514,25.04016],[102.741909,25.032749]]}},{"type":"Feature","properties":{"shape_id":"{}","direction_id":"{\"1\": 50}","headsign":"{}","duration_avg":180,"n_vehicles":50,"d":1800,"route_I_counts":"{\"3\": 50}","source":47,"target":33,"layer":"L","from":"昆明菊花村(地铁站)","to":"昆明大树营(地铁站)"},"geometry":{"type":"LineString","coordinates":[[102.741909,25.032749],[102.739514,25.04016]]}},{"type":"Feature","properties":{"shape_id":"{}","direction_id":"{\"0\": 50}","headsign":"{}","duration_avg":180,"n_vehicles":50,"d":1800,"route_I_counts":"{\"3\": 50}","source":47,"target":48,"layer":"L","from":"昆明菊花村(地铁站)","to":"昆明菊华(地铁站)"},"geometry":{"type":"LineString","coordinates":[[102.741909,25.032749],[102.748378,25.027526]]}},{"type":"Feature","properties":{"shape_id":"{}","direction_id":"{\"1\": 50}","headsign":"{}","duration_avg":180,"n_vehicles":50,"d":1800,"route_I_counts":"{\"3\": 50}","source":48,"target":47,"layer":"L","from":"昆明菊华(地铁站)","to":"昆明菊花村(地铁站)"},"geometry":{"type":"LineString","coordinates":[[102.748378,25.027526],[102.741909,25.032749]]}},{"type":"Feature","properties":{"shape_id":"{}","direction_id":"{\"0\": 50}","headsign":"{}","duration_avg":120,"n_vehicles":50,"d":1200,"route_I_counts":"{\"3\": 50}","source":48,"target":49,"layer":"L","from":"昆明菊华(地铁站)","to":"昆明和甸营(地铁站)"},"geometry":{"type":"LineString","coordinates":[[102.748378,25.027526],[102.761057,25.017952]]}},{"type":"Feature","properties":{"shape_id":"{}","direction_id":"{\"1\": 50}","headsign":"{}","duration_avg":120,"n_vehicles":50,"d":1200,"route_I_counts":"{\"3\": 50}","source":49,"target":48,"layer":"L","from":"昆明和甸营(地铁站)","to":"昆明菊华(地铁站)"},"geometry":{"type":"LineString","coordinates":[[102.761057,25.017952],[102.748378,25.027526]]}},{"type":"Feature","properties":{"shape_id":"{}","direction_id":"{\"0\": 50}","headsign":"{}","duration_avg":180,"n_vehicles":50,"d":1800,"route_I_counts":"{\"3\": 50}","source":49,"target":50,"layer":"L","from":"昆明和甸营(地铁站)","to":"昆明牛街庄(地铁站)"},"geometry":{"type":"LineString","coordinates":[[102.761057,25.017952],[102.778059,25.00834]]}},{"type":"Feature","properties":{"shape_id":"{}","direction_id":"{\"1\": 50}","headsign":"{}","duration_avg":180,"n_vehicles":50,"d":1800,"route_I_counts":"{\"3\": 50}","source":50,"target":49,"layer":"L","from":"昆明牛街庄(地铁站)","to":"昆明和甸营(地铁站)"},"geometry":{"type":"LineString","coordinates":[[102.778059,25.00834],[102.761057,25.017952]]}},{"type":"Feature","properties":{"shape_id":"{}","direction_id":"{\"0\": 50}","headsign":"{}","duration_avg":180,"n_vehicles":50,"d":1800,"route_I_counts":"{\"3\": 50}","source":50,"target":51,"layer":"L","from":"昆明牛街庄(地铁站)","to":"昆明朱家村(地铁站)"},"geometry":{"type":"LineString","coordinates":[[102.778059,25.00834],[102.782452,24.996268]]}},{"type":"Feature","properties":{"shape_id":"{}","direction_id":"{\"1\": 50}","headsign":"{}","duration_avg":180,"n_vehicles":50,"d":1800,"route_I_counts":"{\"3\": 50}","source":51,"target":50,"layer":"L","from":"昆明朱家村(地铁站)","to":"昆明牛街庄(地铁站)"},"geometry":{"type":"LineString","coordinates":[[102.782452,24.996268],[102.778059,25.00834]]}},{"type":"Feature","properties":{"shape_id":"{}","direction_id":"{\"0\": 50}","headsign":"{}","duration_avg":180,"n_vehicles":50,"d":1800,"route_I_counts":"{\"3\": 50}","source":51,"target":52,"layer":"L","from":"昆明朱家村(地铁站)","to":"昆明羊甫头(地铁站)"},"geometry":{"type":"LineString","coordinates":[[102.782452,24.996268],[102.784238,24.980875]]}},{"type":"Feature","properties":{"shape_id":"{}","direction_id":"{\"1\": 50}","headsign":"{}","duration_avg":180,"n_vehicles":50,"d":1800,"route_I_counts":"{\"3\": 50}","source":52,"target":51,"layer":"L","from":"昆明羊甫头(地铁站)","to":"昆明朱家村(地铁站)"},"geometry":{"type":"LineString","coordinates":[[102.784238,24.980875],[102.782452,24.996268]]}},{"type":"Feature","properties":{"shape_id":"{}","direction_id":"{\"0\": 50}","headsign":"{}","duration_avg":180,"n_vehicles":50,"d":1800,"route_I_counts":"{\"3\": 50}","source":52,"target":53,"layer":"L","from":"昆明羊甫头(地铁站)","to":"昆明玉缘路(地铁站)"},"geometry":{"type":"LineString","coordinates":[[102.784238,24.980875],[102.785018,24.967573]]}},{"type":"Feature","properties":{"shape_id":"{}","direction_id":"{\"1\": 50}","headsign":"{}","duration_avg":180,"n_vehicles":50,"d":1800,"route_I_counts":"{\"3\": 50}","source":53,"target":52,"layer":"L","from":"昆明玉缘路(地铁站)","to":"昆明羊甫头(地铁站)"},"geometry":{"type":"LineString","coordinates":[[102.785018,24.967573],[102.784238,24.980875]]}},{"type":"Feature","properties":{"shape_id":"{}","direction_id":"{\"0\": 50}","headsign":"{}","duration_avg":180,"n_vehicles":50,"d":1800,"route_I_counts":"{\"3\": 50}","source":53,"target":54,"layer":"L","from":"昆明玉缘路(地铁站)","to":"昆明广卫(地铁站)"},"geometry":{"type":"LineString","coordinates":[[102.785018,24.967573],[102.783873,24.952301]]}},{"type":"Feature","properties":{"shape_id":"{}","direction_id":"{\"1\": 50}","headsign":"{}","duration_avg":180,"n_vehicles":50,"d":1800,"route_I_counts":"{\"3\": 50}","source":54,"target":53,"layer":"L","from":"昆明广卫(地铁站)","to":"昆明玉缘路(地铁站)"},"geometry":{"type":"LineString","coordinates":[[102.783873,24.952301],[102.785018,24.967573]]}},{"type":"Feature","properties":{"shape_id":"{}","direction_id":"{\"0\": 50}","headsign":"{}","duration_avg":120,"n_vehicles":50,"d":1200,"route_I_counts":"{\"3\": 50}","source":54,"target":55,"layer":"L","from":"昆明广卫(地铁站)","to":"昆明塔密(地铁站)"},"geometry":{"type":"LineString","coordinates":[[102.783873,24.952301],[102.786261,24.940362]]}},{"type":"Feature","properties":{"shape_id":"{}","direction_id":"{\"1\": 50}","headsign":"{}","duration_avg":120,"n_vehicles":50,"d":1200,"route_I_counts":"{\"3\": 50}","source":55,"target":54,"layer":"L","from":"昆明塔密(地铁站)","to":"昆明广卫(地铁站)"},"geometry":{"type":"LineString","coordinates":[[102.786261,24.940362],[102.783873,24.952301]]}},{"type":"Feature","properties":{"shape_id":"{}","direction_id":"{\"0\": 50}","headsign":"{}","duration_avg":240,"n_vehicles":50,"d":2400,"route_I_counts":"{\"3\": 50}","source":55,"target":6,"layer":"L","from":"昆明塔密(地铁站)","to":"昆明斗南(地铁站)"},"geometry":{"type":"LineString","coordinates":[[102.786261,24.940362],[102.790382,24.911162]]}},{"type":"Feature","properties":{"shape_id":"{}","direction_id":"{\"1\": 50}","headsign":"{}","duration_avg":240,"n_vehicles":50,"d":2400,"route_I_counts":"{\"3\": 50}","source":6,"target":55,"layer":"L","from":"昆明斗南(地铁站)","to":"昆明塔密(地铁站)"},"geometry":{"type":"LineString","coordinates":[[102.790382,24.911162],[102.786261,24.940362]]}},{"type":"Feature","properties":{"shape_id":"{}","direction_id":"{\"0\": 50}","headsign":"{}","duration_avg":120,"n_vehicles":50,"d":1200,"route_I_counts":"{\"3\": 50}","source":6,"target":56,"layer":"L","from":"昆明斗南(地铁站)","to":"昆明金桂街(地铁站)"},"geometry":{"type":"LineString","coordinates":[[102.790382,24.911162],[102.78923,24.904498]]}},{"type":"Feature","properties":{"shape_id":"{}","direction_id":"{\"1\": 50}","headsign":"{}","duration_avg":120,"n_vehicles":50,"d":1200,"route_I_counts":"{\"3\": 50}","source":56,"target":6,"layer":"L","from":"昆明金桂街(地铁站)","to":"昆明斗南(地铁站)"},"geometry":{"type":"LineString","coordinates":[[102.78923,24.904498],[102.790382,24.911162]]}},{"type":"Feature","properties":{"shape_id":"{}","direction_id":"{\"0\": 50}","headsign":"{}","duration_avg":180,"n_vehicles":50,"d":1800,"route_I_counts":"{\"3\": 50}","source":56,"target":57,"layer":"L","from":"昆明金桂街(地铁站)","to":"昆明梅子村(地铁站)"},"geometry":{"type":"LineString","coordinates":[[102.78923,24.904498],[102.784417,24.89571]]}},{"type":"Feature","properties":{"shape_id":"{}","direction_id":"{\"1\": 50}","headsign":"{}","duration_avg":180,"n_vehicles":50,"d":1800,"route_I_counts":"{\"3\": 50}","source":57,"target":56,"layer":"L","from":"昆明梅子村(地铁站)","to":"昆明金桂街(地铁站)"},"geometry":{"type":"LineString","coordinates":[[102.784417,24.89571],[102.78923,24.904498]]}},{"type":"Feature","properties":{"shape_id":"{}","direction_id":"{\"0\": 50}","headsign":"{}","duration_avg":120,"n_vehicles":50,"d":1200,"route_I_counts":"{\"3\": 50}","source":57,"target":58,"layer":"L","from":"昆明梅子村(地铁站)","to":"昆明古城(地铁站)"},"geometry":{"type":"LineString","coordinates":[[102.784417,24.89571],[102.791288,24.884847]]}},{"type":"Feature","properties":{"shape_id":"{}","direction_id":"{\"1\": 50}","headsign":"{}","duration_avg":120,"n_vehicles":50,"d":1200,"route_I_counts":"{\"3\": 50}","source":58,"target":57,"layer":"L","from":"昆明古城(地铁站)","to":"昆明梅子村(地铁站)"},"geometry":{"type":"LineString","coordinates":[[102.791288,24.884847],[102.784417,24.89571]]}},{"type":"Feature","properties":{"shape_id":"{}","direction_id":"{\"0\": 50}","headsign":"{}","duration_avg":120,"n_vehicles":50,"d":1200,"route_I_counts":"{\"3\": 50}","source":58,"target":59,"layer":"L","from":"昆明古城(地铁站)","to":"昆明可乐村(地铁站)"},"geometry":{"type":"LineString","coordinates":[[102.791288,24.884847],[102.795257,24.877073]]}},{"type":"Feature","properties":{"shape_id":"{}","direction_id":"{\"1\": 50}","headsign":"{}","duration_avg":120,"n_vehicles":50,"d":1200,"route_I_counts":"{\"3\": 50}","source":59,"target":58,"layer":"L","from":"昆明可乐村(地铁站)","to":"昆明古城(地铁站)"},"geometry":{"type":"LineString","coordinates":[[102.795257,24.877073],[102.791288,24.884847]]}},{"type":"Feature","properties":{"shape_id":"{}","direction_id":"{\"0\": 50}","headsign":"{}","duration_avg":180,"n_vehicles":50,"d":1800,"route_I_counts":"{\"3\": 50}","source":59,"target":60,"layer":"L","from":"昆明可乐村(地铁站)","to":"昆明祥丰街(地铁站)"},"geometry":{"type":"LineString","coordinates":[[102.795257,24.877073],[102.801326,24.860604]]}},{"type":"Feature","properties":{"shape_id":"{}","direction_id":"{\"1\": 50}","headsign":"{}","duration_avg":180,"n_vehicles":50,"d":1800,"route_I_counts":"{\"3\": 50}","source":60,"target":59,"layer":"L","from":"昆明祥丰街(地铁站)","to":"昆明可乐村(地铁站)"},"geometry":{"type":"LineString","coordinates":[[102.801326,24.860604],[102.795257,24.877073]]}},{"type":"Feature","properties":{"shape_id":"{}","direction_id":"{\"0\": 50}","headsign":"{}","duration_avg":180,"n_vehicles":50,"d":1800,"route_I_counts":"{\"3\": 50}","source":60,"target":61,"layer":"L","from":"昆明祥丰街(地铁站)","to":"昆明牛头山(地铁站)"},"geometry":{"type":"LineString","coordinates":[[102.801326,24.860604],[102.812899,24.856846]]}},{"type":"Feature","properties":{"shape_id":"{}","direction_id":"{\"1\": 50}","headsign":"{}","duration_avg":180,"n_vehicles":50,"d":1800,"route_I_counts":"{\"3\": 50}","source":61,"target":60,"layer":"L","from":"昆明牛头山(地铁站)","to":"昆明祥丰街(地铁站)"},"geometry":{"type":"LineString","coordinates":[[102.812899,24.856846],[102.801326,24.860604]]}},{"type":"Feature","properties":{"shape_id":"{}","direction_id":"{\"0\": 50}","headsign":"{}","duration_avg":180,"n_vehicles":50,"d":1800,"route_I_counts":"{\"3\": 50}","source":61,"target":3,"layer":"L","from":"昆明牛头山(地铁站)","to":"昆明联大街(地铁站)"},"geometry":{"type":"LineString","coordinates":[[102.812899,24.856846],[102.832536,24.862746]]}},{"type":"Feature","properties":{"shape_id":"{}","direction_id":"{\"1\": 50}","headsign":"{}","duration_avg":180,"n_vehicles":50,"d":1800,"route_I_counts":"{\"3\": 50}","source":3,"target":61,"layer":"L","from":"昆明联大街(地铁站)","to":"昆明牛头山(地铁站)"},"geometry":{"type":"LineString","coordinates":[[102.832536,24.862746],[102.812899,24.856846]]}},{"type":"Feature","properties":{"shape_id":"{}","direction_id":"{\"0\": 50}","headsign":"{}","duration_avg":180,"n_vehicles":50,"d":1800,"route_I_counts":"{\"3\": 50}","source":3,"target":62,"layer":"L","from":"昆明联大街(地铁站)","to":"昆明吴家营(地铁站)"},"geometry":{"type":"LineString","coordinates":[[102.832536,24.862746],[102.846968,24.869191]]}},{"type":"Feature","properties":{"shape_id":"{}","direction_id":"{\"1\": 50}","headsign":"{}","duration_avg":180,"n_vehicles":50,"d":1800,"route_I_counts":"{\"3\": 50}","source":62,"target":3,"layer":"L","from":"昆明吴家营(地铁站)","to":"昆明联大街(地铁站)"},"geometry":{"type":"LineString","coordinates":[[102.846968,24.869191],[102.832536,24.862746]]}},{"type":"Feature","properties":{"shape_id":"{}","direction_id":"{\"0\": 50}","headsign":"{}","duration_avg":120,"n_vehicles":50,"d":1200,"route_I_counts":"{\"3\": 50}","source":62,"target":63,"layer":"L","from":"昆明吴家营(地铁站)","to":"昆明昆明南火车站(地铁站)"},"geometry":{"type":"LineString","coordinates":[[102.846968,24.869191],[102.858788,24.873326]]}},{"type":"Feature","properties":{"shape_id":"{}","direction_id":"{\"1\": 50}","headsign":"{}","duration_avg":120,"n_vehicles":50,"d":1200,"route_I_counts":"{\"3\": 50}","source":63,"target":62,"layer":"L","from":"昆明昆明南火车站(地铁站)","to":"昆明吴家营(地铁站)"},"geometry":{"type":"LineString","coordinates":[[102.858788,24.873326],[102.846968,24.869191]]}},{"type":"Feature","properties":{"shape_id":"{}","direction_id":"{\"0\": 50}","headsign":"{}","duration_avg":120,"n_vehicles":50,"d":1200,"route_I_counts":"{\"4\": 50}","source":64,"target":65,"layer":"L","from":"昆明世博园(地铁站)","to":"昆明白龙寺(地铁站)"},"geometry":{"type":"LineString","coordinates":[[102.752852,25.072143],[102.746629,25.063904]]}},{"type":"Feature","properties":{"shape_id":"{}","direction_id":"{\"1\": 50}","headsign":"{}","duration_avg":120,"n_vehicles":50,"d":1200,"route_I_counts":"{\"4\": 50}","source":65,"target":64,"layer":"L","from":"昆明白龙寺(地铁站)","to":"昆明世博园(地铁站)"},"geometry":{"type":"LineString","coordinates":[[102.746629,25.063904],[102.752852,25.072143]]}},{"type":"Feature","properties":{"shape_id":"{}","direction_id":"{\"0\": 50}","headsign":"{}","duration_avg":120,"n_vehicles":50,"d":1200,"route_I_counts":"{\"4\": 50}","source":65,"target":66,"layer":"L","from":"昆明白龙寺(地铁站)","to":"昆明石闸(地铁站)"},"geometry":{"type":"LineString","coordinates":[[102.746629,25.063904],[102.73915,25.056358]]}},{"type":"Feature","properties":{"shape_id":"{}","direction_id":"{\"1\": 50}","headsign":"{}","duration_avg":120,"n_vehicles":50,"d":1200,"route_I_counts":"{\"4\": 50}","source":66,"target":65,"layer":"L","from":"昆明石闸(地铁站)","to":"昆明白龙寺(地铁站)"},"geometry":{"type":"LineString","coordinates":[[102.73915,25.056358],[102.746629,25.063904]]}},{"type":"Feature","properties":{"shape_id":"{}","direction_id":"{\"0\": 50}","headsign":"{}","duration_avg":120,"n_vehicles":50,"d":1200,"route_I_counts":"{\"4\": 50}","source":66,"target":67,"layer":"L","from":"昆明石闸(地铁站)","to":"昆明穿金路(地铁站)"},"geometry":{"type":"LineString","coordinates":[[102.73915,25.056358],[102.728196,25.057751]]}},{"type":"Feature","properties":{"shape_id":"{}","direction_id":"{\"1\": 50}","headsign":"{}","duration_avg":120,"n_vehicles":50,"d":1200,"route_I_counts":"{\"4\": 50}","source":67,"target":66,"layer":"L","from":"昆明穿金路(地铁站)","to":"昆明石闸(地铁站)"},"geometry":{"type":"LineString","coordinates":[[102.728196,25.057751],[102.73915,25.056358]]}},{"type":"Feature","properties":{"shape_id":"{}","direction_id":"{\"0\": 50}","headsign":"{}","duration_avg":120,"n_vehicles":50,"d":1200,"route_I_counts":"{\"4\": 50}","source":67,"target":45,"layer":"L","from":"昆明穿金路(地铁站)","to":"昆明火车北站(地铁站)"},"geometry":{"type":"LineString","coordinates":[[102.728196,25.057751],[102.721754,25.059663]]}},{"type":"Feature","properties":{"shape_id":"{}","direction_id":"{\"1\": 50}","headsign":"{}","duration_avg":120,"n_vehicles":50,"d":1200,"route_I_counts":"{\"4\": 50}","source":45,"target":67,"layer":"L","from":"昆明火车北站(地铁站)","to":"昆明穿金路(地铁站)"},"geometry":{"type":"LineString","coordinates":[[102.721754,25.059663],[102.728196,25.057751]]}},{"type":"Feature","properties":{"shape_id":"{}","direction_id":"{\"0\": 50}","headsign":"{}","duration_avg":180,"n_vehicles":50,"d":1800,"route_I_counts":"{\"4\": 50}","source":45,"target":68,"layer":"L","from":"昆明火车北站(地铁站)","to":"昆明圆通山(地铁站)"},"geometry":{"type":"LineString","coordinates":[[102.721754,25.059663],[102.711275,25.057809]]}},{"type":"Feature","properties":{"shape_id":"{}","direction_id":"{\"1\": 50}","headsign":"{}","duration_avg":180,"n_vehicles":50,"d":1800,"route_I_counts":"{\"4\": 50}","source":68,"target":45,"layer":"L","from":"昆明圆通山(地铁站)","to":"昆明火车北站(地铁站)"},"geometry":{"type":"LineString","coordinates":[[102.711275,25.057809],[102.721754,25.059663]]}},{"type":"Feature","properties":{"shape_id":"{}","direction_id":"{\"0\": 50}","headsign":"{}","duration_avg":120,"n_vehicles":50,"d":1200,"route_I_counts":"{\"4\": 50}","source":68,"target":69,"layer":"L","from":"昆明圆通山(地铁站)","to":"昆明华山西路(地铁站)"},"geometry":{"type":"LineString","coordinates":[[102.711275,25.057809],[102.706112,25.047789]]}},{"type":"Feature","properties":{"shape_id":"{}","direction_id":"{\"1\": 50}","headsign":"{}","duration_avg":120,"n_vehicles":50,"d":1200,"route_I_counts":"{\"4\": 50}","source":69,"target":68,"layer":"L","from":"昆明华山西路(地铁站)","to":"昆明圆通山(地铁站)"},"geometry":{"type":"LineString","coordinates":[[102.706112,25.047789],[102.711275,25.057809]]}},{"type":"Feature","properties":{"shape_id":"{}","direction_id":"{\"0\": 50}","headsign":"{}","duration_avg":120,"n_vehicles":50,"d":1200,"route_I_counts":"{\"4\": 50}","source":69,"target":30,"layer":"L","from":"昆明华山西路(地铁站)","to":"昆明五一路(地铁站)"},"geometry":{"type":"LineString","coordinates":[[102.706112,25.047789],[102.704918,25.040067]]}},{"type":"Feature","properties":{"shape_id":"{}","direction_id":"{\"1\": 50}","headsign":"{}","duration_avg":120,"n_vehicles":50,"d":1200,"route_I_counts":"{\"4\": 50}","source":30,"target":69,"layer":"L","from":"昆明五一路(地铁站)","to":"昆明华山西路(地铁站)"},"geometry":{"type":"LineString","coordinates":[[102.704918,25.040067],[102.706112,25.047789]]}},{"type":"Feature","properties":{"shape_id":"{}","direction_id":"{\"0\": 50}","headsign":"{}","duration_avg":120,"n_vehicles":50,"d":1200,"route_I_counts":"{\"4\": 50}","source":30,"target":70,"layer":"L","from":"昆明五一路(地铁站)","to":"昆明弥勒寺(地铁站)"},"geometry":{"type":"LineString","coordinates":[[102.704918,25.040067],[102.698509,25.035047]]}},{"type":"Feature","properties":{"shape_id":"{}","direction_id":"{\"1\": 50}","headsign":"{}","duration_avg":120,"n_vehicles":50,"d":1200,"route_I_counts":"{\"4\": 50}","source":70,"target":30,"layer":"L","from":"昆明弥勒寺(地铁站)","to":"昆明五一路(地铁站)"},"geometry":{"type":"LineString","coordinates":[[102.698509,25.035047],[102.704918,25.040067]]}},{"type":"Feature","properties":{"shape_id":"{}","direction_id":"{\"0\": 50}","headsign":"{}","duration_avg":180,"n_vehicles":50,"d":1800,"route_I_counts":"{\"4\": 50}","source":70,"target":71,"layer":"L","from":"昆明弥勒寺(地铁站)","to":"昆明严家地(地铁站)"},"geometry":{"type":"LineString","coordinates":[[102.698509,25.035047],[102.697059,25.023668]]}},{"type":"Feature","properties":{"shape_id":"{}","direction_id":"{\"1\": 50}","headsign":"{}","duration_avg":180,"n_vehicles":50,"d":1800,"route_I_counts":"{\"4\": 50}","source":71,"target":70,"layer":"L","from":"昆明严家地(地铁站)","to":"昆明弥勒寺(地铁站)"},"geometry":{"type":"LineString","coordinates":[[102.697059,25.023668],[102.698509,25.035047]]}},{"type":"Feature","properties":{"shape_id":"{}","direction_id":"{\"0\": 50}","headsign":"{}","duration_avg":120,"n_vehicles":50,"d":1200,"route_I_counts":"{\"4\": 50}","source":71,"target":72,"layer":"L","from":"昆明严家地(地铁站)","to":"昆明金兰路(地铁站)"},"geometry":{"type":"LineString","coordinates":[[102.697059,25.023668],[102.688966,25.016957]]}},{"type":"Feature","properties":{"shape_id":"{}","direction_id":"{\"1\": 50}","headsign":"{}","duration_avg":120,"n_vehicles":50,"d":1200,"route_I_counts":"{\"4\": 50}","source":72,"target":71,"layer":"L","from":"昆明金兰路(地铁站)","to":"昆明严家地(地铁站)"},"geometry":{"type":"LineString","coordinates":[[102.688966,25.016957],[102.697059,25.023668]]}},{"type":"Feature","properties":{"shape_id":"{}","direction_id":"{\"0\": 50}","headsign":"{}","duration_avg":120,"n_vehicles":50,"d":1200,"route_I_counts":"{\"4\": 50}","source":72,"target":73,"layer":"L","from":"昆明金兰路(地铁站)","to":"昆明福海(地铁站)"},"geometry":{"type":"LineString","coordinates":[[102.688966,25.016957],[102.683524,25.013811]]}},{"type":"Feature","properties":{"shape_id":"{}","direction_id":"{\"1\": 50}","headsign":"{}","duration_avg":120,"n_vehicles":50,"d":1200,"route_I_counts":"{\"4\": 50}","source":73,"target":72,"layer":"L","from":"昆明福海(地铁站)","to":"昆明金兰路(地铁站)"},"geometry":{"type":"LineString","coordinates":[[102.683524,25.013811],[102.688966,25.016957]]}},{"type":"Feature","properties":{"shape_id":"{}","direction_id":"{\"0\": 50}","headsign":"{}","duration_avg":180,"n_vehicles":50,"d":1800,"route_I_counts":"{\"4\": 50}","source":73,"target":74,"layer":"L","from":"昆明福海(地铁站)","to":"昆明广福路西口(地铁站)"},"geometry":{"type":"LineString","coordinates":[[102.683524,25.013811],[102.672816,25.007232]]}},{"type":"Feature","properties":{"shape_id":"{}","direction_id":"{\"1\": 50}","headsign":"{}","duration_avg":180,"n_vehicles":50,"d":1800,"route_I_counts":"{\"4\": 50}","source":74,"target":73,"layer":"L","from":"昆明广福路西口(地铁站)","to":"昆明福海(地铁站)"},"geometry":{"type":"LineString","coordinates":[[102.672816,25.007232],[102.683524,25.013811]]}},{"type":"Feature","properties":{"shape_id":"{}","direction_id":"{\"0\": 50}","headsign":"{}","duration_avg":120,"n_vehicles":50,"d":1200,"route_I_counts":"{\"4\": 50}","source":74,"target":75,"layer":"L","from":"昆明广福路西口(地铁站)","to":"昆明大坝(地铁站)"},"geometry":{"type":"LineString","coordinates":[[102.672816,25.007232],[102.663178,24.998015]]}},{"type":"Feature","properties":{"shape_id":"{}","direction_id":"{\"1\": 50}","headsign":"{}","duration_avg":120,"n_vehicles":50,"d":1200,"route_I_counts":"{\"4\": 50}","source":75,"target":74,"layer":"L","from":"昆明大坝(地铁站)","to":"昆明广福路西口(地铁站)"},"geometry":{"type":"LineString","coordinates":[[102.663178,24.998015],[102.672816,25.007232]]}},{"type":"Feature","properties":{"shape_id":"{}","direction_id":"{\"0\": 50}","headsign":"{}","duration_avg":180,"n_vehicles":50,"d":1800,"route_I_counts":"{\"4\": 50}","source":75,"target":76,"layer":"L","from":"昆明大坝(地铁站)","to":"昆明迎海路(地铁站)"},"geometry":{"type":"LineString","coordinates":[[102.663178,24.998015],[102.662311,24.987454]]}},{"type":"Feature","properties":{"shape_id":"{}","direction_id":"{\"1\": 50}","headsign":"{}","duration_avg":180,"n_vehicles":50,"d":1800,"route_I_counts":"{\"4\": 50}","source":76,"target":75,"layer":"L","from":"昆明迎海路(地铁站)","to":"昆明大坝(地铁站)"},"geometry":{"type":"LineString","coordinates":[[102.662311,24.987454],[102.663178,24.998015]]}},{"type":"Feature","properties":{"shape_id":"{}","direction_id":"{\"0\": 50}","headsign":"{}","duration_avg":120,"n_vehicles":50,"d":1200,"route_I_counts":"{\"4\": 50}","source":76,"target":77,"layer":"L","from":"昆明迎海路(地铁站)","to":"昆明渔户村(地铁站)"},"geometry":{"type":"LineString","coordinates":[[102.662311,24.987454],[102.669201,24.979822]]}},{"type":"Feature","properties":{"shape_id":"{}","direction_id":"{\"1\": 50}","headsign":"{}","duration_avg":120,"n_vehicles":50,"d":1200,"route_I_counts":"{\"4\": 50}","source":77,"target":76,"layer":"L","from":"昆明渔户村(地铁站)","to":"昆明迎海路(地铁站)"},"geometry":{"type":"LineString","coordinates":[[102.669201,24.979822],[102.662311,24.987454]]}},{"type":"Feature","properties":{"shape_id":"{}","direction_id":"{\"0\": 50}","headsign":"{}","duration_avg":120,"n_vehicles":50,"d":1200,"route_I_counts":"{\"4\": 50}","source":77,"target":78,"layer":"L","from":"昆明渔户村(地铁站)","to":"昆明兴体路(地铁站)"},"geometry":{"type":"LineString","coordinates":[[102.669201,24.979822],[102.678697,24.978331]]}},{"type":"Feature","properties":{"shape_id":"{}","direction_id":"{\"1\": 50}","headsign":"{}","duration_avg":120,"n_vehicles":50,"d":1200,"route_I_counts":"{\"4\": 50}","source":78,"target":77,"layer":"L","from":"昆明兴体路(地铁站)","to":"昆明渔户村(地铁站)"},"geometry":{"type":"LineString","coordinates":[[102.678697,24.978331],[102.669201,24.979822]]}},{"type":"Feature","properties":{"shape_id":"{}","direction_id":"{\"0\": 50}","headsign":"{}","duration_avg":180,"n_vehicles":50,"d":1800,"route_I_counts":"{\"4\": 50}","source":78,"target":79,"layer":"L","from":"昆明兴体路(地铁站)","to":"昆明庄家塘立交桥(地铁站)"},"geometry":{"type":"LineString","coordinates":[[102.678697,24.978331],[102.691575,24.976198]]}},{"type":"Feature","properties":{"shape_id":"{}","direction_id":"{\"1\": 50}","headsign":"{}","duration_avg":180,"n_vehicles":50,"d":1800,"route_I_counts":"{\"4\": 50}","source":79,"target":78,"layer":"L","from":"昆明庄家塘立交桥(地铁站)","to":"昆明兴体路(地铁站)"},"geometry":{"type":"LineString","coordinates":[[102.691575,24.976198],[102.678697,24.978331]]}},{"type":"Feature","properties":{"shape_id":"{}","direction_id":"{\"0\": 50}","headsign":"{}","duration_avg":120,"n_vehicles":50,"d":1200,"route_I_counts":"{\"4\": 50}","source":79,"target":80,"layer":"L","from":"昆明庄家塘立交桥(地铁站)","to":"昆明金家河(地铁站)"},"geometry":{"type":"LineString","coordinates":[[102.691575,24.976198],[102.691665,24.964527]]}},{"type":"Feature","properties":{"shape_id":"{}","direction_id":"{\"1\": 50}","headsign":"{}","duration_avg":120,"n_vehicles":50,"d":1200,"route_I_counts":"{\"4\": 50}","source":80,"target":79,"layer":"L","from":"昆明金家河(地铁站)","to":"昆明庄家塘立交桥(地铁站)"},"geometry":{"type":"LineString","coordinates":[[102.691665,24.964527],[102.691575,24.976198]]}},{"type":"Feature","properties":{"shape_id":"{}","direction_id":"{\"0\": 50}","headsign":"{}","duration_avg":180,"n_vehicles":50,"d":1800,"route_I_counts":"{\"4\": 50}","source":80,"target":81,"layer":"L","from":"昆明金家河(地铁站)","to":"昆明福保(地铁站)"},"geometry":{"type":"LineString","coordinates":[[102.691665,24.964527],[102.695132,24.947722]]}},{"type":"Feature","properties":{"shape_id":"{}","direction_id":"{\"1\": 50}","headsign":"{}","duration_avg":180,"n_vehicles":50,"d":1800,"route_I_counts":"{\"4\": 50}","source":81,"target":80,"layer":"L","from":"昆明福保(地铁站)","to":"昆明金家河(地铁站)"},"geometry":{"type":"LineString","coordinates":[[102.695132,24.947722],[102.691665,24.964527]]}},{"type":"Feature","properties":{"shape_id":"{}","direction_id":"{\"0\": 50}","headsign":"{}","duration_avg":180,"n_vehicles":50,"d":1800,"route_I_counts":"{\"4\": 50}","source":81,"target":82,"layer":"L","from":"昆明福保(地铁站)","to":"昆明滇池国际会展中心(地铁站)"},"geometry":{"type":"LineString","coordinates":[[102.695132,24.947722],[102.706983,24.941992]]}},{"type":"Feature","properties":{"shape_id":"{}","direction_id":"{\"1\": 50}","headsign":"{}","duration_avg":180,"n_vehicles":50,"d":1800,"route_I_counts":"{\"4\": 50}","source":82,"target":81,"layer":"L","from":"昆明滇池国际会展中心(地铁站)","to":"昆明福保(地铁站)"},"geometry":{"type":"LineString","coordinates":[[102.706983,24.941992],[102.695132,24.947722]]}},{"type":"Feature","properties":{"shape_id":"{}","direction_id":"{\"0\": 50}","headsign":"{}","duration_avg":120,"n_vehicles":50,"d":1200,"route_I_counts":"{\"4\": 50}","source":82,"target":83,"layer":"L","from":"昆明滇池国际会展中心(地铁站)","to":"昆明宝丰(地铁站)"},"geometry":{"type":"LineString","coordinates":[[102.706983,24.941992],[102.721698,24.933524]]}},{"type":"Feature","properties":{"shape_id":"{}","direction_id":"{\"1\": 50}","headsign":"{}","duration_avg":120,"n_vehicles":50,"d":1200,"route_I_counts":"{\"4\": 50}","source":83,"target":82,"layer":"L","from":"昆明宝丰(地铁站)","to":"昆明滇池国际会展中心(地铁站)"},"geometry":{"type":"LineString","coordinates":[[102.721698,24.933524],[102.706983,24.941992]]}},{"type":"Feature","properties":{"shape_id":"{}","direction_id":"{\"0\": 50}","headsign":"{}","duration_avg":180,"n_vehicles":50,"d":1800,"route_I_counts":"{\"5\": 50}","source":84,"target":85,"layer":"L","from":"昆明塘子巷(地铁站)","to":"昆明岔街(地铁站)"},"geometry":{"type":"LineString","coordinates":[[102.718465,25.036511],[102.731781,25.034461]]}},{"type":"Feature","properties":{"shape_id":"{}","direction_id":"{\"1\": 50}","headsign":"{}","duration_avg":180,"n_vehicles":50,"d":1800,"route_I_counts":"{\"5\": 50}","source":85,"target":84,"layer":"L","from":"昆明岔街(地铁站)","to":"昆明塘子巷(地铁站)"},"geometry":{"type":"LineString","coordinates":[[102.731781,25.034461],[102.718465,25.036511]]}},{"type":"Feature","properties":{"shape_id":"{}","direction_id":"{\"0\": 50}","headsign":"{}","duration_avg":120,"n_vehicles":50,"d":1200,"route_I_counts":"{\"5\": 50}","source":85,"target":86,"layer":"L","from":"昆明岔街(地铁站)","to":"昆明东郊路(地铁站)"},"geometry":{"type":"LineString","coordinates":[[102.731781,25.034461],[102.739578,25.030726]]}},{"type":"Feature","properties":{"shape_id":"{}","direction_id":"{\"1\": 50}","headsign":"{}","duration_avg":120,"n_vehicles":50,"d":1200,"route_I_counts":"{\"5\": 50}","source":86,"target":85,"layer":"L","from":"昆明东郊路(地铁站)","to":"昆明岔街(地铁站)"},"geometry":{"type":"LineString","coordinates":[[102.739578,25.030726],[102.731781,25.034461]]}},{"type":"Feature","properties":{"shape_id":"{}","direction_id":"{\"0\": 50}","headsign":"{}","duration_avg":120,"n_vehicles":50,"d":1200,"route_I_counts":"{\"5\": 50}","source":86,"target":48,"layer":"L","from":"昆明东郊路(地铁站)","to":"昆明菊华(地铁站)"},"geometry":{"type":"LineString","coordinates":[[102.739578,25.030726],[102.748378,25.027526]]}},{"type":"Feature","properties":{"shape_id":"{}","direction_id":"{\"1\": 50}","headsign":"{}","duration_avg":120,"n_vehicles":50,"d":1200,"route_I_counts":"{\"5\": 50}","source":48,"target":86,"layer":"L","from":"昆明菊华(地铁站)","to":"昆明东郊路(地铁站)"},"geometry":{"type":"LineString","coordinates":[[102.748378,25.027526],[102.739578,25.030726]]}},{"type":"Feature","properties":{"shape_id":"{}","direction_id":"{\"0\": 50}","headsign":"{}","duration_avg":300,"n_vehicles":50,"d":3000,"route_I_counts":"{\"5\": 50}","source":48,"target":37,"layer":"L","from":"昆明菊华(地铁站)","to":"昆明东部汽车站(地铁站)"},"geometry":{"type":"LineString","coordinates":[[102.748378,25.027526],[102.786821,25.039194]]}},{"type":"Feature","properties":{"shape_id":"{}","direction_id":"{\"1\": 50}","headsign":"{}","duration_avg":300,"n_vehicles":50,"d":3000,"route_I_counts":"{\"5\": 50}","source":37,"target":48,"layer":"L","from":"昆明东部汽车站(地铁站)","to":"昆明菊华(地铁站)"},"geometry":{"type":"LineString","coordinates":[[102.786821,25.039194],[102.748378,25.027526]]}},{"type":"Feature","properties":{"shape_id":"{}","direction_id":"{\"0\": 50}","headsign":"{}","duration_avg":540,"n_vehicles":50,"d":5400,"route_I_counts":"{\"5\": 50}","source":37,"target":87,"layer":"L","from":"昆明东部汽车站(地铁站)","to":"昆明大板桥(地铁站)"},"geometry":{"type":"LineString","coordinates":[[102.786821,25.039194],[102.875097,25.056464]]}},{"type":"Feature","properties":{"shape_id":"{}","direction_id":"{\"1\": 50}","headsign":"{}","duration_avg":540,"n_vehicles":50,"d":5400,"route_I_counts":"{\"5\": 50}","source":87,"target":37,"layer":"L","from":"昆明大板桥(地铁站)","to":"昆明东部汽车站(地铁站)"},"geometry":{"type":"LineString","coordinates":[[102.875097,25.056464],[102.786821,25.039194]]}},{"type":"Feature","properties":{"shape_id":"{}","direction_id":"{\"0\": 50}","headsign":"{}","duration_avg":300,"n_vehicles":50,"d":3000,"route_I_counts":"{\"5\": 50}","source":87,"target":88,"layer":"L","from":"昆明大板桥(地铁站)","to":"昆明机场前(地铁站)"},"geometry":{"type":"LineString","coordinates":[[102.875097,25.056464],[102.912106,25.087941]]}},{"type":"Feature","properties":{"shape_id":"{}","direction_id":"{\"1\": 50}","headsign":"{}","duration_avg":300,"n_vehicles":50,"d":3000,"route_I_counts":"{\"5\": 50}","source":88,"target":87,"layer":"L","from":"昆明机场前(地铁站)","to":"昆明大板桥(地铁站)"},"geometry":{"type":"LineString","coordinates":[[102.912106,25.087941],[102.875097,25.056464]]}},{"type":"Feature","properties":{"shape_id":"{}","direction_id":"{\"0\": 50}","headsign":"{}","duration_avg":180,"n_vehicles":50,"d":1800,"route_I_counts":"{\"5\": 50}","source":88,"target":89,"layer":"L","from":"昆明机场前(地铁站)","to":"昆明机场中心(地铁站)"},"geometry":{"type":"LineString","coordinates":[[102.912106,25.087941],[102.926346,25.098579]]}},{"type":"Feature","properties":{"shape_id":"{}","direction_id":"{\"1\": 50}","headsign":"{}","duration_avg":180,"n_vehicles":50,"d":1800,"route_I_counts":"{\"5\": 50}","source":89,"target":88,"layer":"L","from":"昆明机场中心(地铁站)","to":"昆明机场前(地铁站)"},"geometry":{"type":"LineString","coordinates":[[102.926346,25.098579],[102.912106,25.087941]]}},{"type":"Feature","properties":{"shape_id":"{}","direction_id":"{\"0\": 50}","headsign":"{}","duration_avg":240,"n_vehicles":50,"d":2400,"route_I_counts":"{\"6\": 50}","source":5,"target":90,"layer":"L","from":"昆明春融街(地铁站)","to":"市级行政中心·清风"},"geometry":{"type":"LineString","coordinates":[[102.823875,24.887089],[102.835381,24.885261]]}},{"type":"Feature","properties":{"shape_id":"{}","direction_id":"{\"1\": 50}","headsign":"{}","duration_avg":240,"n_vehicles":50,"d":2400,"route_I_counts":"{\"6\": 50}","source":90,"target":5,"layer":"L","from":"市级行政中心·清风","to":"昆明春融街(地铁站)"},"geometry":{"type":"LineString","coordinates":[[102.835381,24.885261],[102.823875,24.887089]]}},{"type":"Feature","properties":{"shape_id":"{}","direction_id":"{\"0\": 50}","headsign":"{}","duration_avg":120,"n_vehicles":50,"d":1200,"route_I_counts":"{\"6\": 50}","source":90,"target":91,"layer":"L","from":"市级行政中心·清风","to":"宜和路"},"geometry":{"type":"LineString","coordinates":[[102.835381,24.885261],[102.842995,24.887539]]}},{"type":"Feature","properties":{"shape_id":"{}","direction_id":"{\"1\": 50}","headsign":"{}","duration_avg":120,"n_vehicles":50,"d":1200,"route_I_counts":"{\"6\": 50}","source":91,"target":90,"layer":"L","from":"宜和路","to":"市级行政中心·清风"},"geometry":{"type":"LineString","coordinates":[[102.842995,24.887539],[102.835381,24.885261]]}},{"type":"Feature","properties":{"shape_id":"{}","direction_id":"{\"0\": 50}","headsign":"{}","duration_avg":180,"n_vehicles":50,"d":1800,"route_I_counts":"{\"6\": 50}","source":91,"target":92,"layer":"L","from":"宜和路","to":"白龙潭"},"geometry":{"type":"LineString","coordinates":[[102.842995,24.887539],[102.850452,24.877659]]}},{"type":"Feature","properties":{"shape_id":"{}","direction_id":"{\"1\": 50}","headsign":"{}","duration_avg":180,"n_vehicles":50,"d":1800,"route_I_counts":"{\"6\": 50}","source":92,"target":91,"layer":"L","from":"白龙潭","to":"宜和路"},"geometry":{"type":"LineString","coordinates":[[102.850452,24.877659],[102.842995,24.887539]]}},{"type":"Feature","properties":{"shape_id":"{}","direction_id":"{\"0\": 50}","headsign":"{}","duration_avg":120,"n_vehicles":50,"d":1200,"route_I_counts":"{\"6\": 50}","source":92,"target":63,"layer":"L","from":"白龙潭","to":"昆明昆明南火车站(地铁站)"},"geometry":{"type":"LineString","coordinates":[[102.850452,24.877659],[102.858788,24.873326]]}},{"type":"Feature","properties":{"shape_id":"{}","direction_id":"{\"1\": 50}","headsign":"{}","duration_avg":120,"n_vehicles":50,"d":1200,"route_I_counts":"{\"6\": 50}","source":63,"target":92,"layer":"L","from":"昆明昆明南火车站(地铁站)","to":"白龙潭"},"geometry":{"type":"LineString","coordinates":[[102.858788,24.873326],[102.850452,24.877659]]}},{"type":"Feature","properties":{"shape_id":"{}","direction_id":"{\"0\": 50}","headsign":"{}","duration_avg":120,"n_vehicles":50,"d":1200,"route_I_counts":"{\"7\": 50}","source":93,"target":94,"layer":"L","from":"昆明北部汽车站(地铁站)","to":"昆明龙头街(地铁站)"},"geometry":{"type":"LineString","coordinates":[[102.761937,25.110021],[102.752328,25.114812]]}},{"type":"Feature","properties":{"shape_id":"{}","direction_id":"{\"1\": 50}","headsign":"{}","duration_avg":120,"n_vehicles":50,"d":1200,"route_I_counts":"{\"7\": 50}","source":94,"target":93,"layer":"L","from":"昆明龙头街(地铁站)","to":"昆明北部汽车站(地铁站)"},"geometry":{"type":"LineString","coordinates":[[102.752328,25.114812],[102.761937,25.110021]]}},{"type":"Feature","properties":{"shape_id":"{}","direction_id":"{\"0\": 50}","headsign":"{}","duration_avg":120,"n_vehicles":50,"d":1200,"route_I_counts":"{\"7\": 50}","source":94,"target":95,"layer":"L","from":"昆明龙头街(地铁站)","to":"昆明司家营(地铁站)"},"geometry":{"type":"LineString","coordinates":[[102.752328,25.114812],[102.744193,25.112645]]}},{"type":"Feature","properties":{"shape_id":"{}","direction_id":"{\"1\": 50}","headsign":"{}","duration_avg":120,"n_vehicles":50,"d":1200,"route_I_counts":"{\"7\": 50}","source":95,"target":94,"layer":"L","from":"昆明司家营(地铁站)","to":"昆明龙头街(地铁站)"},"geometry":{"type":"LineString","coordinates":[[102.744193,25.112645],[102.752328,25.114812]]}},{"type":"Feature","properties":{"shape_id":"{}","direction_id":"{\"0\": 50}","headsign":"{}","duration_avg":120,"n_vehicles":50,"d":1200,"route_I_counts":"{\"7\": 50}","source":95,"target":96,"layer":"L","from":"昆明司家营(地铁站)","to":"昆明羊肠村(地铁站)"},"geometry":{"type":"LineString","coordinates":[[102.744193,25.112645],[102.740595,25.104363]]}},{"type":"Feature","properties":{"shape_id":"{}","direction_id":"{\"1\": 50}","headsign":"{}","duration_avg":120,"n_vehicles":50,"d":1200,"route_I_counts":"{\"7\": 50}","source":96,"target":95,"layer":"L","from":"昆明羊肠村(地铁站)","to":"昆明司家营(地铁站)"},"geometry":{"type":"LineString","coordinates":[[102.740595,25.104363],[102.744193,25.112645]]}},{"type":"Feature","properties":{"shape_id":"{}","direction_id":"{\"0\": 50}","headsign":"{}","duration_avg":120,"n_vehicles":50,"d":1200,"route_I_counts":"{\"7\": 50}","source":96,"target":97,"layer":"L","from":"昆明羊肠村(地铁站)","to":"昆明霖雨桥(地铁站)"},"geometry":{"type":"LineString","coordinates":[[102.740595,25.104363],[102.737639,25.09625]]}},{"type":"Feature","properties":{"shape_id":"{}","direction_id":"{\"1\": 50}","headsign":"{}","duration_avg":120,"n_vehicles":50,"d":1200,"route_I_counts":"{\"7\": 50}","source":97,"target":96,"layer":"L","from":"昆明霖雨桥(地铁站)","to":"昆明羊肠村(地铁站)"},"geometry":{"type":"LineString","coordinates":[[102.737639,25.09625],[102.740595,25.104363]]}},{"type":"Feature","properties":{"shape_id":"{}","direction_id":"{\"0\": 50}","headsign":"{}","duration_avg":180,"n_vehicles":50,"d":1800,"route_I_counts":"{\"7\": 50}","source":97,"target":98,"layer":"L","from":"昆明霖雨桥(地铁站)","to":"昆明北辰(地铁站)"},"geometry":{"type":"LineString","coordinates":[[102.737639,25.09625],[102.731141,25.084075]]}},{"type":"Feature","properties":{"shape_id":"{}","direction_id":"{\"1\": 50}","headsign":"{}","duration_avg":180,"n_vehicles":50,"d":1800,"route_I_counts":"{\"7\": 50}","source":98,"target":97,"layer":"L","from":"昆明北辰(地铁站)","to":"昆明霖雨桥(地铁站)"},"geometry":{"type":"LineString","coordinates":[[102.731141,25.084075],[102.737639,25.09625]]}},{"type":"Feature","properties":{"shape_id":"{}","direction_id":"{\"0\": 50}","headsign":"{}","duration_avg":120,"n_vehicles":50,"d":1200,"route_I_counts":"{\"7\": 50}","source":98,"target":99,"layer":"L","from":"昆明北辰(地铁站)","to":"昆明金星(地铁站)"},"geometry":{"type":"LineString","coordinates":[[102.731141,25.084075],[102.726406,25.079031]]}},{"type":"Feature","properties":{"shape_id":"{}","direction_id":"{\"1\": 50}","headsign":"{}","duration_avg":120,"n_vehicles":50,"d":1200,"route_I_counts":"{\"7\": 50}","source":99,"target":98,"layer":"L","from":"昆明金星(地铁站)","to":"昆明北辰(地铁站)"},"geometry":{"type":"LineString","coordinates":[[102.726406,25.079031],[102.731141,25.084075]]}},{"type":"Feature","properties":{"shape_id":"{}","direction_id":"{\"0\": 50}","headsign":"{}","duration_avg":120,"n_vehicles":50,"d":1200,"route_I_counts":"{\"7\": 50}","source":99,"target":100,"layer":"L","from":"昆明金星(地铁站)","to":"昆明白云路(地铁站)"},"geometry":{"type":"LineString","coordinates":[[102.726406,25.079031],[102.722269,25.068645]]}},{"type":"Feature","properties":{"shape_id":"{}","direction_id":"{\"1\": 50}","headsign":"{}","duration_avg":120,"n_vehicles":50,"d":1200,"route_I_counts":"{\"7\": 50}","source":100,"target":99,"layer":"L","from":"昆明白云路(地铁站)","to":"昆明金星(地铁站)"},"geometry":{"type":"LineString","coordinates":[[102.722269,25.068645],[102.726406,25.079031]]}},{"type":"Feature","properties":{"shape_id":"{}","direction_id":"{\"0\": 50}","headsign":"{}","duration_avg":180,"n_vehicles":50,"d":1800,"route_I_counts":"{\"7\": 50}","source":100,"target":45,"layer":"L","from":"昆明白云路(地铁站)","to":"昆明火车北站(地铁站)"},"geometry":{"type":"LineString","coordinates":[[102.722269,25.068645],[102.721754,25.059663]]}},{"type":"Feature","properties":{"shape_id":"{}","direction_id":"{\"1\": 50}","headsign":"{}","duration_avg":180,"n_vehicles":50,"d":1800,"route_I_counts":"{\"7\": 50}","source":45,"target":100,"layer":"L","from":"昆明火车北站(地铁站)","to":"昆明白云路(地铁站)"},"geometry":{"type":"LineString","coordinates":[[102.721754,25.059663],[102.722269,25.068645]]}},{"type":"Feature","properties":{"shape_id":"{}","direction_id":"{\"0\": 50}","headsign":"{}","duration_avg":120,"n_vehicles":50,"d":1200,"route_I_counts":"{\"7\": 50}","source":45,"target":101,"layer":"L","from":"昆明火车北站(地铁站)","to":"昆明穿心鼓楼(地铁站)"},"geometry":{"type":"LineString","coordinates":[[102.721754,25.059663],[102.717927,25.052282]]}},{"type":"Feature","properties":{"shape_id":"{}","direction_id":"{\"1\": 50}","headsign":"{}","duration_avg":120,"n_vehicles":50,"d":1200,"route_I_counts":"{\"7\": 50}","source":101,"target":45,"layer":"L","from":"昆明穿心鼓楼(地铁站)","to":"昆明火车北站(地铁站)"},"geometry":{"type":"LineString","coordinates":[[102.717927,25.052282],[102.721754,25.059663]]}},{"type":"Feature","properties":{"shape_id":"{}","direction_id":"{\"0\": 50}","headsign":"{}","duration_avg":120,"n_vehicles":50,"d":1200,"route_I_counts":"{\"7\": 50}","source":101,"target":102,"layer":"L","from":"昆明穿心鼓楼(地铁站)","to":"昆明交三桥(地铁站)"},"geometry":{"type":"LineString","coordinates":[[102.717927,25.052282],[102.717964,25.045302]]}},{"type":"Feature","properties":{"shape_id":"{}","direction_id":"{\"1\": 50}","headsign":"{}","duration_avg":120,"n_vehicles":50,"d":1200,"route_I_counts":"{\"7\": 50}","source":102,"target":101,"layer":"L","from":"昆明交三桥(地铁站)","to":"昆明穿心鼓楼(地铁站)"},"geometry":{"type":"LineString","coordinates":[[102.717964,25.045302],[102.717927,25.052282]]}},{"type":"Feature","properties":{"shape_id":"{}","direction_id":"{\"0\": 50}","headsign":"{}","duration_avg":120,"n_vehicles":50,"d":1200,"route_I_counts":"{\"7\": 50}","source":102,"target":31,"layer":"L","from":"昆明交三桥(地铁站)","to":"昆明东风广场(地铁站)"},"geometry":{"type":"LineString","coordinates":[[102.717964,25.045302],[102.71821,25.041045]]}},{"type":"Feature","properties":{"shape_id":"{}","direction_id":"{\"1\": 50}","headsign":"{}","duration_avg":120,"n_vehicles":50,"d":1200,"route_I_counts":"{\"7\": 50}","source":31,"target":102,"layer":"L","from":"昆明东风广场(地铁站)","to":"昆明交三桥(地铁站)"},"geometry":{"type":"LineString","coordinates":[[102.71821,25.041045],[102.717964,25.045302]]}},{"type":"Feature","properties":{"shape_id":"{}","direction_id":"{\"0\": 50}","headsign":"{}","duration_avg":60,"n_vehicles":50,"d":600,"route_I_counts":"{\"7\": 50}","source":31,"target":84,"layer":"L","from":"昆明东风广场(地铁站)","to":"昆明塘子巷(地铁站)"},"geometry":{"type":"LineString","coordinates":[[102.71821,25.041045],[102.718465,25.036511]]}},{"type":"Feature","properties":{"shape_id":"{}","direction_id":"{\"1\": 50}","headsign":"{}","duration_avg":60,"n_vehicles":50,"d":600,"route_I_counts":"{\"7\": 50}","source":84,"target":31,"layer":"L","from":"昆明塘子巷(地铁站)","to":"昆明东风广场(地铁站)"},"geometry":{"type":"LineString","coordinates":[[102.718465,25.036511],[102.71821,25.041045]]}},{"type":"Feature","properties":{"shape_id":"{}","direction_id":"{\"0\": 50}","headsign":"{}","duration_avg":180,"n_vehicles":50,"d":1800,"route_I_counts":"{\"7\": 50}","source":84,"target":17,"layer":"L","from":"昆明塘子巷(地铁站)","to":"昆明环城南路(地铁站)"},"geometry":{"type":"LineString","coordinates":[[102.718465,25.036511],[102.719467,25.027348]]}},{"type":"Feature","properties":{"shape_id":"{}","direction_id":"{\"1\": 50}","headsign":"{}","duration_avg":180,"n_vehicles":50,"d":1800,"route_I_counts":"{\"7\": 50}","source":17,"target":84,"layer":"L","from":"昆明环城南路(地铁站)","to":"昆明塘子巷(地铁站)"},"geometry":{"type":"LineString","coordinates":[[102.719467,25.027348],[102.718465,25.036511]]}}]}