{"type":"FeatureCollection","features":[{"type":"Feature","geometry":{"type":"Point","coordinates":[135.78519,35.062935]},"properties":{"name":"国際会館","original_ids":"[1]","id":0,"layer":"stop"}},{"type":"Feature","geometry":{"type":"Point","coordinates":[135.776886,35.051623]},"properties":{"name":"松ヶ崎","original_ids":"[2]","id":1,"layer":"stop"}},{"type":"Feature","geometry":{"type":"Point","coordinates":[135.765685,35.051298]},"properties":{"name":"北山","original_ids":"[3]","id":2,"layer":"stop"}},{"type":"Feature","geometry":{"type":"Point","coordinates":[135.758711,35.045018]},"properties":{"name":"北大路","original_ids":"[4]","id":3,"layer":"stop"}},{"type":"Feature","geometry":{"type":"Point","coordinates":[135.759301,35.03749]},"properties":{"name":"鞍馬口","original_ids":"[5]","id":4,"layer":"stop"}},{"type":"Feature","geometry":{"type":"Point","coordinates":[135.759355,35.030128]},"properties":{"name":"今出川","original_ids":"[6]","id":5,"layer":"stop"}},{"type":"Feature","geometry":{"type":"Point","coordinates":[135.759537,35.016316]},"properties":{"name":"丸太町","original_ids":"[7]","id":6,"layer":"stop"}},{"type":"Feature","geometry":{"type":"Point","coordinates":[135.759645,35.01028]},"properties":{"name":"烏丸御池","original_ids":"[8]","id":7,"layer":"stop"}},{"type":"Feature","geometry":{"type":"Point","coordinates":[135.759677,35.002125]},"properties":{"name":"四条","original_ids":"[9]","id":8,"layer":"stop"}},{"type":"Feature","geometry":{"type":"Point","coordinates":[135.75972,34.995225]},"properties":{"name":"五条","original_ids":"[10]","id":9,"layer":"stop"}},{"type":"Feature","geometry":{"type":"Point","coordinates":[135.760074,34.985838]},"properties":{"name":"京都","original_ids":"[11]","id":10,"layer":"stop"}},{"type":"Feature","geometry":{"type":"Point","coordinates":[135.75972,34.979184]},"properties":{"name":"九条","original_ids":"[12]","id":11,"layer":"stop"}},{"type":"Feature","geometry":{"type":"Point","coordinates":[135.759709,34.9723]},"properties":{"name":"十条","original_ids":"[13]","id":12,"layer":"stop"}},{"type":"Feature","geometry":{"type":"Point","coordinates":[135.757504,34.962748]},"properties":{"name":"くいな橋","original_ids":"[14]","id":13,"layer":"stop"}},{"type":"Feature","geometry":{"type":"Point","coordinates":[135.756109,34.956905]},"properties":{"name":"竹田","original_ids":"[15]","id":14,"layer":"stop"}},{"type":"Feature","geometry":{"type":"Point","coordinates":[135.796428,34.933776]},"properties":{"name":"六地蔵","original_ids":"[16]","id":15,"layer":"stop"}},{"type":"Feature","geometry":{"type":"Point","coordinates":[135.804035,34.940645]},"properties":{"name":"石田","original_ids":"[17]","id":16,"layer":"stop"}},{"type":"Feature","geometry":{"type":"Point","coordinates":[135.810649,34.950666]},"properties":{"name":"醍醐","original_ids":"[18]","id":17,"layer":"stop"}},{"type":"Feature","geometry":{"type":"Point","coordinates":[135.812683,34.961161]},"properties":{"name":"小野","original_ids":"[19]","id":18,"layer":"stop"}},{"type":"Feature","geometry":{"type":"Point","coordinates":[135.814919,34.972744]},"properties":{"name":"椥辻","original_ids":"[20]","id":19,"layer":"stop"}},{"type":"Feature","geometry":{"type":"Point","coordinates":[135.816674,34.981944]},"properties":{"name":"東野","original_ids":"[21]","id":20,"layer":"stop"}},{"type":"Feature","geometry":{"type":"Point","coordinates":[135.817333,34.991138]},"properties":{"name":"山科","original_ids":"[22]","id":21,"layer":"stop"}},{"type":"Feature","geometry":{"type":"Point","coordinates":[135.801739,34.996056]},"properties":{"name":"御陵","original_ids":"[23]","id":22,"layer":"stop"}},{"type":"Feature","geometry":{"type":"Point","coordinates":[135.790576,35.007551]},"properties":{"name":"蹴上","original_ids":"[24]","id":23,"layer":"stop"}},{"type":"Feature","geometry":{"type":"Point","coordinates":[135.779766,35.009432]},"properties":{"name":"東山","original_ids":"[25]","id":24,"layer":"stop"}},{"type":"Feature","geometry":{"type":"Point","coordinates":[135.773962,35.009274]},"properties":{"name":"三条京阪","original_ids":"[26]","id":25,"layer":"stop"}},{"type":"Feature","geometry":{"type":"Point","coordinates":[135.76899,35.010886]},"properties":{"name":"京都市役所前","original_ids":"[27]","id":26,"layer":"stop"}},{"type":"Feature","geometry":{"type":"Point","coordinates":[135.750289,35.011888]},"properties":{"name":"二条城前","original_ids":"[28]","id":27,"layer":"stop"}},{"type":"Feature","geometry":{"type":"Point","coordinates":[135.741572,35.011949]},"properties":{"name":"二条","original_ids":"[29]","id":28,"layer":"stop"}},{"type":"Feature","geometry":{"type":"Point","coordinates":[135.730623,35.010948]},"properties":{"name":"西大路御池","original_ids":"[30]","id":29,"layer":"stop"}},{"type":"Feature","geometry":{"type":"Point","coordinates":[135.715544,35.010803]},"properties":{"name":"太秦天神川","original_ids":"[31]","id":30,"layer":"stop"}},{"type":"Feature","properties":{"shape_id":"{}","direction_id":"{\"0\": 50}","headsign":"{}","duration_avg":144,"n_vehicles":50,"d":1440,"route_I_counts":"{\"1\": 50}","source":0,"target":1,"layer":"L","from":"国際会館","to":"松ヶ崎"},"geometry":{"type":"LineString","coordinates":[[135.78519,35.062935],[135.776886,35.051623]]}},{"type":"Feature","properties":{"shape_id":"{}","direction_id":"{\"1\": 50}","headsign":"{}","duration_avg":144,"n_vehicles":50,"d":1440,"route_I_counts":"{\"1\": 50}","source":1,"target":0,"layer":"L","from":"松ヶ崎","to":"国際会館"},"geometry":{"type":"LineString","coordinates":[[135.776886,35.051623],[135.78519,35.062935]]}},{"type":"Feature","properties":{"shape_id":"{}","direction_id":"{\"0\": 50}","headsign":"{}","duration_avg":120,"n_vehicles":50,"d":1200,"route_I_counts":"{\"1\": 50}","source":1,"target":2,"layer":"L","from":"松ヶ崎","to":"北山"},"geometry":{"type":"LineString","coordinates":[[135.776886,35.051623],[135.765685,35.051298]]}},{"type":"Feature","properties":{"shape_id":"{}","direction_id":"{\"1\": 50}","headsign":"{}","duration_avg":120,"n_vehicles":50,"d":1200,"route_I_counts":"{\"1\": 50}","source":2,"target":1,"layer":"L","from":"北山","to":"松ヶ崎"},"geometry":{"type":"LineString","coordinates":[[135.765685,35.051298],[135.776886,35.051623]]}},{"type":"Feature","properties":{"shape_id":"{}","direction_id":"{\"0\": 50}","headsign":"{}","duration_avg":120,"n_vehicles":50,"d":1200,"route_I_counts":"{\"1\": 50}","source":2,"target":3,"layer":"L","from":"北山","to":"北大路"},"geometry":{"type":"LineString","coordinates":[[135.765685,35.051298],[135.758711,35.045018]]}},{"type":"Feature","properties":{"shape_id":"{}","direction_id":"{\"1\": 50}","headsign":"{}","duration_avg":120,"n_vehicles":50,"d":1200,"route_I_counts":"{\"1\": 50}","source":3,"target":2,"layer":"L","from":"北大路","to":"北山"},"geometry":{"type":"LineString","coordinates":[[135.758711,35.045018],[135.765685,35.051298]]}},{"type":"Feature","properties":{"shape_id":"{}","direction_id":"{\"0\": 50}","headsign":"{}","duration_avg":119,"n_vehicles":50,"d":1190,"route_I_counts":"{\"1\": 50}","source":3,"target":4,"layer":"L","from":"北大路","to":"鞍馬口"},"geometry":{"type":"LineString","coordinates":[[135.758711,35.045018],[135.759301,35.03749]]}},{"type":"Feature","properties":{"shape_id":"{}","direction_id":"{\"1\": 50}","headsign":"{}","duration_avg":119,"n_vehicles":50,"d":1190,"route_I_counts":"{\"1\": 50}","source":4,"target":3,"layer":"L","from":"鞍馬口","to":"北大路"},"geometry":{"type":"LineString","coordinates":[[135.759301,35.03749],[135.758711,35.045018]]}},{"type":"Feature","properties":{"shape_id":"{}","direction_id":"{\"0\": 50}","headsign":"{}","duration_avg":97,"n_vehicles":50,"d":970,"route_I_counts":"{\"1\": 50}","source":4,"target":5,"layer":"L","from":"鞍馬口","to":"今出川"},"geometry":{"type":"LineString","coordinates":[[135.759301,35.03749],[135.759355,35.030128]]}},{"type":"Feature","properties":{"shape_id":"{}","direction_id":"{\"1\": 50}","headsign":"{}","duration_avg":97,"n_vehicles":50,"d":970,"route_I_counts":"{\"1\": 50}","source":5,"target":4,"layer":"L","from":"今出川","to":"鞍馬口"},"geometry":{"type":"LineString","coordinates":[[135.759355,35.030128],[135.759301,35.03749]]}},{"type":"Feature","properties":{"shape_id":"{}","direction_id":"{\"0\": 50}","headsign":"{}","duration_avg":143,"n_vehicles":50,"d":1430,"route_I_counts":"{\"1\": 50}","source":5,"target":6,"layer":"L","from":"今出川","to":"丸太町"},"geometry":{"type":"LineString","coordinates":[[135.759355,35.030128],[135.759537,35.016316]]}},{"type":"Feature","properties":{"shape_id":"{}","direction_id":"{\"1\": 50}","headsign":"{}","duration_avg":143,"n_vehicles":50,"d":1430,"route_I_counts":"{\"1\": 50}","source":6,"target":5,"layer":"L","from":"丸太町","to":"今出川"},"geometry":{"type":"LineString","coordinates":[[135.759537,35.016316],[135.759355,35.030128]]}},{"type":"Feature","properties":{"shape_id":"{}","direction_id":"{\"0\": 50}","headsign":"{}","duration_avg":102,"n_vehicles":50,"d":1020,"route_I_counts":"{\"1\": 50}","source":6,"target":7,"layer":"L","from":"丸太町","to":"烏丸御池"},"geometry":{"type":"LineString","coordinates":[[135.759537,35.016316],[135.759645,35.01028]]}},{"type":"Feature","properties":{"shape_id":"{}","direction_id":"{\"1\": 50}","headsign":"{}","duration_avg":102,"n_vehicles":50,"d":1020,"route_I_counts":"{\"1\": 50}","source":7,"target":6,"layer":"L","from":"烏丸御池","to":"丸太町"},"geometry":{"type":"LineString","coordinates":[[135.759645,35.01028],[135.759537,35.016316]]}},{"type":"Feature","properties":{"shape_id":"{}","direction_id":"{\"0\": 50}","headsign":"{}","duration_avg":115,"n_vehicles":50,"d":1150,"route_I_counts":"{\"1\": 50}","source":7,"target":8,"layer":"L","from":"烏丸御池","to":"四条"},"geometry":{"type":"LineString","coordinates":[[135.759645,35.01028],[135.759677,35.002125]]}},{"type":"Feature","properties":{"shape_id":"{}","direction_id":"{\"1\": 50}","headsign":"{}","duration_avg":115,"n_vehicles":50,"d":1150,"route_I_counts":"{\"1\": 50}","source":8,"target":7,"layer":"L","from":"四条","to":"烏丸御池"},"geometry":{"type":"LineString","coordinates":[[135.759677,35.002125],[135.759645,35.01028]]}},{"type":"Feature","properties":{"shape_id":"{}","direction_id":"{\"0\": 50}","headsign":"{}","duration_avg":100,"n_vehicles":50,"d":1000,"route_I_counts":"{\"1\": 50}","source":8,"target":9,"layer":"L","from":"四条","to":"五条"},"geometry":{"type":"LineString","coordinates":[[135.759677,35.002125],[135.75972,34.995225]]}},{"type":"Feature","properties":{"shape_id":"{}","direction_id":"{\"1\": 50}","headsign":"{}","duration_avg":100,"n_vehicles":50,"d":1000,"route_I_counts":"{\"1\": 50}","source":9,"target":8,"layer":"L","from":"五条","to":"四条"},"geometry":{"type":"LineString","coordinates":[[135.75972,34.995225],[135.759677,35.002125]]}},{"type":"Feature","properties":{"shape_id":"{}","direction_id":"{\"0\": 50}","headsign":"{}","duration_avg":153,"n_vehicles":50,"d":1530,"route_I_counts":"{\"1\": 50}","source":9,"target":10,"layer":"L","from":"五条","to":"京都"},"geometry":{"type":"LineString","coordinates":[[135.75972,34.995225],[135.760074,34.985838]]}},{"type":"Feature","properties":{"shape_id":"{}","direction_id":"{\"1\": 50}","headsign":"{}","duration_avg":153,"n_vehicles":50,"d":1530,"route_I_counts":"{\"1\": 50}","source":10,"target":9,"layer":"L","from":"京都","to":"五条"},"geometry":{"type":"LineString","coordinates":[[135.760074,34.985838],[135.75972,34.995225]]}},{"type":"Feature","properties":{"shape_id":"{}","direction_id":"{\"0\": 50}","headsign":"{}","duration_avg":89,"n_vehicles":50,"d":890,"route_I_counts":"{\"1\": 50}","source":10,"target":11,"layer":"L","from":"京都","to":"九条"},"geometry":{"type":"LineString","coordinates":[[135.760074,34.985838],[135.75972,34.979184]]}},{"type":"Feature","properties":{"shape_id":"{}","direction_id":"{\"1\": 50}","headsign":"{}","duration_avg":89,"n_vehicles":50,"d":890,"route_I_counts":"{\"1\": 50}","source":11,"target":10,"layer":"L","from":"九条","to":"京都"},"geometry":{"type":"LineString","coordinates":[[135.75972,34.979184],[135.760074,34.985838]]}},{"type":"Feature","properties":{"shape_id":"{}","direction_id":"{\"0\": 50}","headsign":"{}","duration_avg":91,"n_vehicles":50,"d":910,"route_I_counts":"{\"1\": 50}","source":11,"target":12,"layer":"L","from":"九条","to":"十条"},"geometry":{"type":"LineString","coordinates":[[135.75972,34.979184],[135.759709,34.9723]]}},{"type":"Feature","properties":{"shape_id":"{}","direction_id":"{\"1\": 50}","headsign":"{}","duration_avg":91,"n_vehicles":50,"d":910,"route_I_counts":"{\"1\": 50}","source":12,"target":11,"layer":"L","from":"十条","to":"九条"},"geometry":{"type":"LineString","coordinates":[[135.759709,34.9723],[135.75972,34.979184]]}},{"type":"Feature","properties":{"shape_id":"{}","direction_id":"{\"0\": 50}","headsign":"{}","duration_avg":120,"n_vehicles":50,"d":1200,"route_I_counts":"{\"1\": 50}","source":12,"target":13,"layer":"L","from":"十条","to":"くいな橋"},"geometry":{"type":"LineString","coordinates":[[135.759709,34.9723],[135.757504,34.962748]]}},{"type":"Feature","properties":{"shape_id":"{}","direction_id":"{\"1\": 50}","headsign":"{}","duration_avg":120,"n_vehicles":50,"d":1200,"route_I_counts":"{\"1\": 50}","source":13,"target":12,"layer":"L","from":"くいな橋","to":"十条"},"geometry":{"type":"LineString","coordinates":[[135.757504,34.962748],[135.759709,34.9723]]}},{"type":"Feature","properties":{"shape_id":"{}","direction_id":"{\"0\": 50}","headsign":"{}","duration_avg":109,"n_vehicles":50,"d":1090,"route_I_counts":"{\"1\": 50}","source":13,"target":14,"layer":"L","from":"くいな橋","to":"竹田"},"geometry":{"type":"LineString","coordinates":[[135.757504,34.962748],[135.756109,34.956905]]}},{"type":"Feature","properties":{"shape_id":"{}","direction_id":"{\"1\": 50}","headsign":"{}","duration_avg":109,"n_vehicles":50,"d":1090,"route_I_counts":"{\"1\": 50}","source":14,"target":13,"layer":"L","from":"竹田","to":"くいな橋"},"geometry":{"type":"LineString","coordinates":[[135.756109,34.956905],[135.757504,34.962748]]}},{"type":"Feature","properties":{"shape_id":"{}","direction_id":"{\"0\": 50}","headsign":"{}","duration_avg":120,"n_vehicles":50,"d":1200,"route_I_counts":"{\"2\": 50}","source":15,"target":16,"layer":"L","from":"六地蔵","to":"石田"},"geometry":{"type":"LineString","coordinates":[[135.796428,34.933776],[135.804035,34.940645]]}},{"type":"Feature","properties":{"shape_id":"{}","direction_id":"{\"1\": 50}","headsign":"{}","duration_avg":120,"n_vehicles":50,"d":1200,"route_I_counts":"{\"2\": 50}","source":16,"target":15,"layer":"L","from":"石田","to":"六地蔵"},"geometry":{"type":"LineString","coordinates":[[135.804035,34.940645],[135.796428,34.933776]]}},{"type":"Feature","properties":{"shape_id":"{}","direction_id":"{\"0\": 50}","headsign":"{}","duration_avg":120,"n_vehicles":50,"d":1200,"route_I_counts":"{\"2\": 50}","source":16,"target":17,"layer":"L","from":"石田","to":"醍醐"},"geometry":{"type":"LineString","coordinates":[[135.804035,34.940645],[135.810649,34.950666]]}},{"type":"Feature","properties":{"shape_id":"{}","direction_id":"{\"1\": 50}","headsign":"{}","duration_avg":120,"n_vehicles":50,"d":1200,"route_I_counts":"{\"2\": 50}","source":17,"target":16,"layer":"L","from":"醍醐","to":"石田"},"geometry":{"type":"LineString","coordinates":[[135.810649,34.950666],[135.804035,34.940645]]}},{"type":"Feature","properties":{"shape_id":"{}","direction_id":"{\"0\": 50}","headsign":"{}","duration_avg":120,"n_vehicles":50,"d":1200,"route_I_counts":"{\"2\": 50}","source":17,"target":18,"layer":"L","from":"醍醐","to":"小野"},"geometry":{"type":"LineString","coordinates":[[135.810649,34.950666],[135.812683,34.961161]]}},{"type":"Feature","properties":{"shape_id":"{}","direction_id":"{\"1\": 50}","headsign":"{}","duration_avg":120,"n_vehicles":50,"d":1200,"route_I_counts":"{\"2\": 50}","source":18,"target":17,"layer":"L","from":"小野","to":"醍醐"},"geometry":{"type":"LineString","coordinates":[[135.812683,34.961161],[135.810649,34.950666]]}},{"type":"Feature","properties":{"shape_id":"{}","direction_id":"{\"0\": 50}","headsign":"{}","duration_avg":146,"n_vehicles":50,"d":1460,"route_I_counts":"{\"2\": 50}","source":18,"target":19,"layer":"L","from":"小野","to":"椥辻"},"geometry":{"type":"LineString","coordinates":[[135.812683,34.961161],[135.814919,34.972744]]}},{"type":"Feature","properties":{"shape_id":"{}","direction_id":"{\"1\": 50}","headsign":"{}","duration_avg":146,"n_vehicles":50,"d":1460,"route_I_counts":"{\"2\": 50}","source":19,"target":18,"layer":"L","from":"椥辻","to":"小野"},"geometry":{"type":"LineString","coordinates":[[135.814919,34.972744],[135.812683,34.961161]]}},{"type":"Feature","properties":{"shape_id":"{}","direction_id":"{\"0\": 50}","headsign":"{}","duration_avg":120,"n_vehicles":50,"d":1200,"route_I_counts":"{\"2\": 50}","source":19,"target":20,"layer":"L","from":"椥辻","to":"東野"},"geometry":{"type":"LineString","coordinates":[[135.814919,34.972744],[135.816674,34.981944]]}},{"type":"Feature","properties":{"shape_id":"{}","direction_id":"{\"1\": 50}","headsign":"{}","duration_avg":120,"n_vehicles":50,"d":1200,"route_I_counts":"{\"2\": 50}","source":20,"target":19,"layer":"L","from":"東野","to":"椥辻"},"geometry":{"type":"LineString","coordinates":[[135.816674,34.981944],[135.814919,34.972744]]}},{"type":"Feature","properties":{"shape_id":"{}","direction_id":"{\"0\": 50}","headsign":"{}","duration_avg":134,"n_vehicles":50,"d":1340,"route_I_counts":"{\"2\": 50}","source":20,"target":21,"layer":"L","from":"東野","to":"山科"},"geometry":{"type":"LineString","coordinates":[[135.816674,34.981944],[135.817333,34.991138]]}},{"type":"Feature","properties":{"shape_id":"{}","direction_id":"{\"1\": 50}","headsign":"{}","duration_avg":134,"n_vehicles":50,"d":1340,"route_I_counts":"{\"2\": 50}","source":21,"target":20,"layer":"L","from":"山科","to":"東野"},"geometry":{"type":"LineString","coordinates":[[135.817333,34.991138],[135.816674,34.981944]]}},{"type":"Feature","properties":{"shape_id":"{}","direction_id":"{\"0\": 50}","headsign":"{}","duration_avg":178,"n_vehicles":50,"d":1780,"route_I_counts":"{\"2\": 50}","source":21,"target":22,"layer":"L","from":"山科","to":"御陵"},"geometry":{"type":"LineString","coordinates":[[135.817333,34.991138],[135.801739,34.996056]]}},{"type":"Feature","properties":{"shape_id":"{}","direction_id":"{\"1\": 50}","headsign":"{}","duration_avg":178,"n_vehicles":50,"d":1780,"route_I_counts":"{\"2\": 50}","source":22,"target":21,"layer":"L","from":"御陵","to":"山科"},"geometry":{"type":"LineString","coordinates":[[135.801739,34.996056],[135.817333,34.991138]]}},{"type":"Feature","properties":{"shape_id":"{}","direction_id":"{\"0\": 50}","headsign":"{}","duration_avg":149,"n_vehicles":50,"d":1490,"route_I_counts":"{\"2\": 50}","source":22,"target":23,"layer":"L","from":"御陵","to":"蹴上"},"geometry":{"type":"LineString","coordinates":[[135.801739,34.996056],[135.790576,35.007551]]}},{"type":"Feature","properties":{"shape_id":"{}","direction_id":"{\"1\": 50}","headsign":"{}","duration_avg":149,"n_vehicles":50,"d":1490,"route_I_counts":"{\"2\": 50}","source":23,"target":22,"layer":"L","from":"蹴上","to":"御陵"},"geometry":{"type":"LineString","coordinates":[[135.790576,35.007551],[135.801739,34.996056]]}},{"type":"Feature","properties":{"shape_id":"{}","direction_id":"{\"0\": 50}","headsign":"{}","duration_avg":117,"n_vehicles":50,"d":1170,"route_I_counts":"{\"2\": 50}","source":23,"target":24,"layer":"L","from":"蹴上","to":"東山"},"geometry":{"type":"LineString","coordinates":[[135.790576,35.007551],[135.779766,35.009432]]}},{"type":"Feature","properties":{"shape_id":"{}","direction_id":"{\"1\": 50}","headsign":"{}","duration_avg":117,"n_vehicles":50,"d":1170,"route_I_counts":"{\"2\": 50}","source":24,"target":23,"layer":"L","from":"東山","to":"蹴上"},"geometry":{"type":"LineString","coordinates":[[135.779766,35.009432],[135.790576,35.007551]]}},{"type":"Feature","properties":{"shape_id":"{}","direction_id":"{\"0\": 50}","headsign":"{}","duration_avg":94,"n_vehicles":50,"d":940,"route_I_counts":"{\"2\": 50}","source":24,"target":25,"layer":"L","from":"東山","to":"三条京阪"},"geometry":{"type":"LineString","coordinates":[[135.779766,35.009432],[135.773962,35.009274]]}},{"type":"Feature","properties":{"shape_id":"{}","direction_id":"{\"1\": 50}","headsign":"{}","duration_avg":94,"n_vehicles":50,"d":940,"route_I_counts":"{\"2\": 50}","source":25,"target":24,"layer":"L","from":"三条京阪","to":"東山"},"geometry":{"type":"LineString","coordinates":[[135.773962,35.009274],[135.779766,35.009432]]}},{"type":"Feature","properties":{"shape_id":"{}","direction_id":"{\"0\": 50}","headsign":"{}","duration_avg":101,"n_vehicles":50,"d":1010,"route_I_counts":"{\"2\": 50}","source":25,"target":26,"layer":"L","from":"三条京阪","to":"京都市役所前"},"geometry":{"type":"LineString","coordinates":[[135.773962,35.009274],[135.76899,35.010886]]}},{"type":"Feature","properties":{"shape_id":"{}","direction_id":"{\"1\": 50}","headsign":"{}","duration_avg":101,"n_vehicles":50,"d":1010,"route_I_counts":"{\"2\": 50}","source":26,"target":25,"layer":"L","from":"京都市役所前","to":"三条京阪"},"geometry":{"type":"LineString","coordinates":[[135.76899,35.010886],[135.773962,35.009274]]}},{"type":"Feature","properties":{"shape_id":"{}","direction_id":"{\"0\": 50}","headsign":"{}","duration_avg":120,"n_vehicles":50,"d":1200,"route_I_counts":"{\"2\": 50}","source":26,"target":7,"layer":"L","from":"京都市役所前","to":"烏丸御池"},"geometry":{"type":"LineString","coordinates":[[135.76899,35.010886],[135.759645,35.01028]]}},{"type":"Feature","properties":{"shape_id":"{}","direction_id":"{\"1\": 50}","headsign":"{}","duration_avg":120,"n_vehicles":50,"d":1200,"route_I_counts":"{\"2\": 50}","source":7,"target":26,"layer":"L","from":"烏丸御池","to":"京都市役所前"},"geometry":{"type":"LineString","coordinates":[[135.759645,35.01028],[135.76899,35.010886]]}},{"type":"Feature","properties":{"shape_id":"{}","direction_id":"{\"0\": 50}","headsign":"{}","duration_avg":117,"n_vehicles":50,"d":1170,"route_I_counts":"{\"2\": 50}","source":7,"target":27,"layer":"L","from":"烏丸御池","to":"二条城前"},"geometry":{"type":"LineString","coordinates":[[135.759645,35.01028],[135.750289,35.011888]]}},{"type":"Feature","properties":{"shape_id":"{}","direction_id":"{\"1\": 50}","headsign":"{}","duration_avg":117,"n_vehicles":50,"d":1170,"route_I_counts":"{\"2\": 50}","source":27,"target":7,"layer":"L","from":"二条城前","to":"烏丸御池"},"geometry":{"type":"LineString","coordinates":[[135.750289,35.011888],[135.759645,35.01028]]}},{"type":"Feature","properties":{"shape_id":"{}","direction_id":"{\"0\": 50}","headsign":"{}","duration_avg":123,"n_vehicles":50,"d":1230,"route_I_counts":"{\"2\": 50}","source":27,"target":28,"layer":"L","from":"二条城前","to":"二条"},"geometry":{"type":"LineString","coordinates":[[135.750289,35.011888],[135.741572,35.011949]]}},{"type":"Feature","properties":{"shape_id":"{}","direction_id":"{\"1\": 50}","headsign":"{}","duration_avg":123,"n_vehicles":50,"d":1230,"route_I_counts":"{\"2\": 50}","source":28,"target":27,"layer":"L","from":"二条","to":"二条城前"},"geometry":{"type":"LineString","coordinates":[[135.741572,35.011949],[135.750289,35.011888]]}},{"type":"Feature","properties":{"shape_id":"{}","direction_id":"{\"0\": 50}","headsign":"{}","duration_avg":120,"n_vehicles":50,"d":1200,"route_I_counts":"{\"2\": 50}","source":28,"target":29,"layer":"L","from":"二条","to":"西大路御池"},"geometry":{"type":"LineString","coordinates":[[135.741572,35.011949],[135.730623,35.010948]]}},{"type":"Feature","properties":{"shape_id":"{}","direction_id":"{\"1\": 50}","headsign":"{}","duration_avg":120,"n_vehicles":50,"d":1200,"route_I_counts":"{\"2\": 50}","source":29,"target":28,"layer":"L","from":"西大路御池","to":"二条"},"geometry":{"type":"LineString","coordinates":[[135.730623,35.010948],[135.741572,35.011949]]}},{"type":"Feature","properties":{"shape_id":"{}","direction_id":"{\"0\": 50}","headsign":"{}","duration_avg":148,"n_vehicles":50,"d":1480,"route_I_counts":"{\"2\": 50}","source":29,"target":30,"layer":"L","from":"西大路御池","to":"太秦天神川"},"geometry":{"type":"LineString","coordinates":[[135.730623,35.010948],[135.715544,35.010803]]}},{"type":"Feature","properties":{"shape_id":"{}","direction_id":"{\"1\": 50}","headsign":"{}","duration_avg":148,"n_vehicles":50,"d":1480,"route_I_counts":"{\"2\": 50}","source":30,"target":29,"layer":"L","from":"太秦天神川","to":"西大路御池"},"geometry":{"type":"LineString","coordinates":[[135.715544,35.010803],[135.730623,35.010948]]}}]}