{"type":"FeatureCollection","features":[{"type":"Feature","geometry":{"type":"Point","coordinates":[103.915456,36.040874]},"properties":{"name":"兰州东岗(地铁站)","original_ids":"[1]","id":0,"layer":"stop"}},{"type":"Feature","geometry":{"type":"Point","coordinates":[103.905432,36.038721]},"properties":{"name":"兰州焦家湾(地铁站)","original_ids":"[2]","id":1,"layer":"stop"}},{"type":"Feature","geometry":{"type":"Point","coordinates":[103.893089,36.039518]},"properties":{"name":"兰州拱星墩(地铁站)","original_ids":"[3]","id":2,"layer":"stop"}},{"type":"Feature","geometry":{"type":"Point","coordinates":[103.881158,36.042035]},"properties":{"name":"兰州省气象局(地铁站)","original_ids":"[4]","id":3,"layer":"stop"}},{"type":"Feature","geometry":{"type":"Point","coordinates":[103.869135,36.046879]},"properties":{"name":"兰州五里铺(地铁站)","original_ids":"[5]","id":4,"layer":"stop"}},{"type":"Feature","geometry":{"type":"Point","coordinates":[103.854228,36.050324]},"properties":{"name":"兰州兰州大学(地铁站)","original_ids":"[6]","id":5,"layer":"stop"}},{"type":"Feature","geometry":{"type":"Point","coordinates":[103.840038,36.053534]},"properties":{"name":"兰州东方红广场(地铁站)","original_ids":"[7]","id":6,"layer":"stop"}},{"type":"Feature","geometry":{"type":"Point","coordinates":[103.824927,36.058485]},"properties":{"name":"兰州省政府(地铁站)","original_ids":"[8]","id":7,"layer":"stop"}},{"type":"Feature","geometry":{"type":"Point","coordinates":[103.814496,36.059669]},"properties":{"name":"兰州西关(地铁站)","original_ids":"[9]","id":8,"layer":"stop"}},{"type":"Feature","geometry":{"type":"Point","coordinates":[103.802722,36.061406]},"properties":{"name":"兰州文化宫(地铁站)","original_ids":"[10]","id":9,"layer":"stop"}},{"type":"Feature","geometry":{"type":"Point","coordinates":[103.79381,36.063782]},"properties":{"name":"兰州小西湖(地铁站)","original_ids":"[11]","id":10,"layer":"stop"}},{"type":"Feature","geometry":{"type":"Point","coordinates":[103.778768,36.066649]},"properties":{"name":"兰州七里河(地铁站)","original_ids":"[12]","id":11,"layer":"stop"}},{"type":"Feature","geometry":{"type":"Point","coordinates":[103.767008,36.068728]},"properties":{"name":"兰州西站什字(地铁站)","original_ids":"[13]","id":12,"layer":"stop"}},{"type":"Feature","geometry":{"type":"Point","coordinates":[103.749842,36.070444]},"properties":{"name":"兰州兰州西站北广场(地铁站)","original_ids":"[14]","id":13,"layer":"stop"}},{"type":"Feature","geometry":{"type":"Point","coordinates":[103.740665,36.073282]},"properties":{"name":"兰州土门墩(地铁站)","original_ids":"[15]","id":14,"layer":"stop"}},{"type":"Feature","geometry":{"type":"Point","coordinates":[103.724805,36.083136]},"properties":{"name":"兰州马滩(地铁站)","original_ids":"[16]","id":15,"layer":"stop"}},{"type":"Feature","geometry":{"type":"Point","coordinates":[103.707018,36.094758]},"properties":{"name":"兰州兰州海关(地铁站)","original_ids":"[17]","id":16,"layer":"stop"}},{"type":"Feature","geometry":{"type":"Point","coordinates":[103.698691,36.099156]},"properties":{"name":"兰州兰州城市学院(省科技馆)(地铁站)","original_ids":"[18]","id":17,"layer":"stop"}},{"type":"Feature","geometry":{"type":"Point","coordinates":[103.675659,36.09085]},"properties":{"name":"兰州奥体中心(地铁站)","original_ids":"[19]","id":18,"layer":"stop"}},{"type":"Feature","geometry":{"type":"Point","coordinates":[103.659948,36.087272]},"properties":{"name":"兰州陈官营(地铁站)","original_ids":"[20]","id":19,"layer":"stop"}},{"type":"Feature","geometry":{"type":"Point","coordinates":[103.881849,36.069131]},"properties":{"name":"兰州雁白大桥(地铁站)","original_ids":"[21]","id":20,"layer":"stop"}},{"type":"Feature","geometry":{"type":"Point","coordinates":[103.878979,36.061097]},"properties":{"name":"兰州均家滩(地铁站)","original_ids":"[22]","id":21,"layer":"stop"}},{"type":"Feature","geometry":{"type":"Point","coordinates":[103.874798,36.056091]},"properties":{"name":"兰州张苏滩(地铁站)","original_ids":"[23]","id":22,"layer":"stop"}},{"type":"Feature","geometry":{"type":"Point","coordinates":[103.866562,36.039318]},"properties":{"name":"兰州团结新村(地铁站)","original_ids":"[24]","id":23,"layer":"stop"}},{"type":"Feature","geometry":{"type":"Point","coordinates":[103.858444,36.034505]},"properties":{"name":"兰州红星巷(地铁站)","original_ids":"[25]","id":24,"layer":"stop"}},{"type":"Feature","geometry":{"type":"Point","coordinates":[103.850781,36.036247]},"properties":{"name":"兰州兰州火车站(地铁站)","original_ids":"[26]","id":25,"layer":"stop"}},{"type":"Feature","geometry":{"type":"Point","coordinates":[103.846441,36.042209]},"properties":{"name":"兰州邮电大楼(地铁站)","original_ids":"[27]","id":26,"layer":"stop"}},{"type":"Feature","properties":{"shape_id":"{}","direction_id":"{\"0\": 50}","headsign":"{}","duration_avg":60,"n_vehicles":50,"d":600,"route_I_counts":"{\"1\": 50}","source":0,"target":1,"layer":"L","from":"兰州东岗(地铁站)","to":"兰州焦家湾(地铁站)"},"geometry":{"type":"LineString","coordinates":[[103.915456,36.040874],[103.905432,36.038721]]}},{"type":"Feature","properties":{"shape_id":"{}","direction_id":"{\"1\": 50}","headsign":"{}","duration_avg":60,"n_vehicles":50,"d":600,"route_I_counts":"{\"1\": 50}","source":1,"target":0,"layer":"L","from":"兰州焦家湾(地铁站)","to":"兰州东岗(地铁站)"},"geometry":{"type":"LineString","coordinates":[[103.905432,36.038721],[103.915456,36.040874]]}},{"type":"Feature","properties":{"shape_id":"{}","direction_id":"{\"0\": 50}","headsign":"{}","duration_avg":180,"n_vehicles":50,"d":1800,"route_I_counts":"{\"1\": 50}","source":1,"target":2,"layer":"L","from":"兰州焦家湾(地铁站)","to":"兰州拱星墩(地铁站)"},"geometry":{"type":"LineString","coordinates":[[103.905432,36.038721],[103.893089,36.039518]]}},{"type":"Feature","properties":{"shape_id":"{}","direction_id":"{\"1\": 50}","headsign":"{}","duration_avg":180,"n_vehicles":50,"d":1800,"route_I_counts":"{\"1\": 50}","source":2,"target":1,"layer":"L","from":"兰州拱星墩(地铁站)","to":"兰州焦家湾(地铁站)"},"geometry":{"type":"LineString","coordinates":[[103.893089,36.039518],[103.905432,36.038721]]}},{"type":"Feature","properties":{"shape_id":"{}","direction_id":"{\"0\": 50}","headsign":"{}","duration_avg":120,"n_vehicles":50,"d":1200,"route_I_counts":"{\"1\": 50}","source":2,"target":3,"layer":"L","from":"兰州拱星墩(地铁站)","to":"兰州省气象局(地铁站)"},"geometry":{"type":"LineString","coordinates":[[103.893089,36.039518],[103.881158,36.042035]]}},{"type":"Feature","properties":{"shape_id":"{}","direction_id":"{\"1\": 50}","headsign":"{}","duration_avg":120,"n_vehicles":50,"d":1200,"route_I_counts":"{\"1\": 50}","source":3,"target":2,"layer":"L","from":"兰州省气象局(地铁站)","to":"兰州拱星墩(地铁站)"},"geometry":{"type":"LineString","coordinates":[[103.881158,36.042035],[103.893089,36.039518]]}},{"type":"Feature","properties":{"shape_id":"{}","direction_id":"{\"0\": 50}","headsign":"{}","duration_avg":120,"n_vehicles":50,"d":1200,"route_I_counts":"{\"1\": 50}","source":3,"target":4,"layer":"L","from":"兰州省气象局(地铁站)","to":"兰州五里铺(地铁站)"},"geometry":{"type":"LineString","coordinates":[[103.881158,36.042035],[103.869135,36.046879]]}},{"type":"Feature","properties":{"shape_id":"{}","direction_id":"{\"1\": 50}","headsign":"{}","duration_avg":120,"n_vehicles":50,"d":1200,"route_I_counts":"{\"1\": 50}","source":4,"target":3,"layer":"L","from":"兰州五里铺(地铁站)","to":"兰州省气象局(地铁站)"},"geometry":{"type":"LineString","coordinates":[[103.869135,36.046879],[103.881158,36.042035]]}},{"type":"Feature","properties":{"shape_id":"{}","direction_id":"{\"0\": 50}","headsign":"{}","duration_avg":180,"n_vehicles":50,"d":1800,"route_I_counts":"{\"1\": 50}","source":4,"target":5,"layer":"L","from":"兰州五里铺(地铁站)","to":"兰州兰州大学(地铁站)"},"geometry":{"type":"LineString","coordinates":[[103.869135,36.046879],[103.854228,36.050324]]}},{"type":"Feature","properties":{"shape_id":"{}","direction_id":"{\"1\": 50}","headsign":"{}","duration_avg":180,"n_vehicles":50,"d":1800,"route_I_counts":"{\"1\": 50}","source":5,"target":4,"layer":"L","from":"兰州兰州大学(地铁站)","to":"兰州五里铺(地铁站)"},"geometry":{"type":"LineString","coordinates":[[103.854228,36.050324],[103.869135,36.046879]]}},{"type":"Feature","properties":{"shape_id":"{}","direction_id":"{\"0\": 50}","headsign":"{}","duration_avg":120,"n_vehicles":50,"d":1200,"route_I_counts":"{\"1\": 50}","source":5,"target":6,"layer":"L","from":"兰州兰州大学(地铁站)","to":"兰州东方红广场(地铁站)"},"geometry":{"type":"LineString","coordinates":[[103.854228,36.050324],[103.840038,36.053534]]}},{"type":"Feature","properties":{"shape_id":"{}","direction_id":"{\"1\": 50}","headsign":"{}","duration_avg":120,"n_vehicles":50,"d":1200,"route_I_counts":"{\"1\": 50}","source":6,"target":5,"layer":"L","from":"兰州东方红广场(地铁站)","to":"兰州兰州大学(地铁站)"},"geometry":{"type":"LineString","coordinates":[[103.840038,36.053534],[103.854228,36.050324]]}},{"type":"Feature","properties":{"shape_id":"{}","direction_id":"{\"0\": 50}","headsign":"{}","duration_avg":180,"n_vehicles":50,"d":1800,"route_I_counts":"{\"1\": 50}","source":6,"target":7,"layer":"L","from":"兰州东方红广场(地铁站)","to":"兰州省政府(地铁站)"},"geometry":{"type":"LineString","coordinates":[[103.840038,36.053534],[103.824927,36.058485]]}},{"type":"Feature","properties":{"shape_id":"{}","direction_id":"{\"1\": 50}","headsign":"{}","duration_avg":180,"n_vehicles":50,"d":1800,"route_I_counts":"{\"1\": 50}","source":7,"target":6,"layer":"L","from":"兰州省政府(地铁站)","to":"兰州东方红广场(地铁站)"},"geometry":{"type":"LineString","coordinates":[[103.824927,36.058485],[103.840038,36.053534]]}},{"type":"Feature","properties":{"shape_id":"{}","direction_id":"{\"0\": 50}","headsign":"{}","duration_avg":120,"n_vehicles":50,"d":1200,"route_I_counts":"{\"1\": 50}","source":7,"target":8,"layer":"L","from":"兰州省政府(地铁站)","to":"兰州西关(地铁站)"},"geometry":{"type":"LineString","coordinates":[[103.824927,36.058485],[103.814496,36.059669]]}},{"type":"Feature","properties":{"shape_id":"{}","direction_id":"{\"1\": 50}","headsign":"{}","duration_avg":120,"n_vehicles":50,"d":1200,"route_I_counts":"{\"1\": 50}","source":8,"target":7,"layer":"L","from":"兰州西关(地铁站)","to":"兰州省政府(地铁站)"},"geometry":{"type":"LineString","coordinates":[[103.814496,36.059669],[103.824927,36.058485]]}},{"type":"Feature","properties":{"shape_id":"{}","direction_id":"{\"0\": 50}","headsign":"{}","duration_avg":120,"n_vehicles":50,"d":1200,"route_I_counts":"{\"1\": 50}","source":8,"target":9,"layer":"L","from":"兰州西关(地铁站)","to":"兰州文化宫(地铁站)"},"geometry":{"type":"LineString","coordinates":[[103.814496,36.059669],[103.802722,36.061406]]}},{"type":"Feature","properties":{"shape_id":"{}","direction_id":"{\"1\": 50}","headsign":"{}","duration_avg":120,"n_vehicles":50,"d":1200,"route_I_counts":"{\"1\": 50}","source":9,"target":8,"layer":"L","from":"兰州文化宫(地铁站)","to":"兰州西关(地铁站)"},"geometry":{"type":"LineString","coordinates":[[103.802722,36.061406],[103.814496,36.059669]]}},{"type":"Feature","properties":{"shape_id":"{}","direction_id":"{\"0\": 50}","headsign":"{}","duration_avg":120,"n_vehicles":50,"d":1200,"route_I_counts":"{\"1\": 50}","source":9,"target":10,"layer":"L","from":"兰州文化宫(地铁站)","to":"兰州小西湖(地铁站)"},"geometry":{"type":"LineString","coordinates":[[103.802722,36.061406],[103.79381,36.063782]]}},{"type":"Feature","properties":{"shape_id":"{}","direction_id":"{\"1\": 50}","headsign":"{}","duration_avg":120,"n_vehicles":50,"d":1200,"route_I_counts":"{\"1\": 50}","source":10,"target":9,"layer":"L","from":"兰州小西湖(地铁站)","to":"兰州文化宫(地铁站)"},"geometry":{"type":"LineString","coordinates":[[103.79381,36.063782],[103.802722,36.061406]]}},{"type":"Feature","properties":{"shape_id":"{}","direction_id":"{\"0\": 50}","headsign":"{}","duration_avg":120,"n_vehicles":50,"d":1200,"route_I_counts":"{\"1\": 50}","source":10,"target":11,"layer":"L","from":"兰州小西湖(地铁站)","to":"兰州七里河(地铁站)"},"geometry":{"type":"LineString","coordinates":[[103.79381,36.063782],[103.778768,36.066649]]}},{"type":"Feature","properties":{"shape_id":"{}","direction_id":"{\"1\": 50}","headsign":"{}","duration_avg":120,"n_vehicles":50,"d":1200,"route_I_counts":"{\"1\": 50}","source":11,"target":10,"layer":"L","from":"兰州七里河(地铁站)","to":"兰州小西湖(地铁站)"},"geometry":{"type":"LineString","coordinates":[[103.778768,36.066649],[103.79381,36.063782]]}},{"type":"Feature","properties":{"shape_id":"{}","direction_id":"{\"0\": 50}","headsign":"{}","duration_avg":180,"n_vehicles":50,"d":1800,"route_I_counts":"{\"1\": 50}","source":11,"target":12,"layer":"L","from":"兰州七里河(地铁站)","to":"兰州西站什字(地铁站)"},"geometry":{"type":"LineString","coordinates":[[103.778768,36.066649],[103.767008,36.068728]]}},{"type":"Feature","properties":{"shape_id":"{}","direction_id":"{\"1\": 50}","headsign":"{}","duration_avg":180,"n_vehicles":50,"d":1800,"route_I_counts":"{\"1\": 50}","source":12,"target":11,"layer":"L","from":"兰州西站什字(地铁站)","to":"兰州七里河(地铁站)"},"geometry":{"type":"LineString","coordinates":[[103.767008,36.068728],[103.778768,36.066649]]}},{"type":"Feature","properties":{"shape_id":"{}","direction_id":"{\"0\": 50}","headsign":"{}","duration_avg":120,"n_vehicles":50,"d":1200,"route_I_counts":"{\"1\": 50}","source":12,"target":13,"layer":"L","from":"兰州西站什字(地铁站)","to":"兰州兰州西站北广场(地铁站)"},"geometry":{"type":"LineString","coordinates":[[103.767008,36.068728],[103.749842,36.070444]]}},{"type":"Feature","properties":{"shape_id":"{}","direction_id":"{\"1\": 50}","headsign":"{}","duration_avg":120,"n_vehicles":50,"d":1200,"route_I_counts":"{\"1\": 50}","source":13,"target":12,"layer":"L","from":"兰州兰州西站北广场(地铁站)","to":"兰州西站什字(地铁站)"},"geometry":{"type":"LineString","coordinates":[[103.749842,36.070444],[103.767008,36.068728]]}},{"type":"Feature","properties":{"shape_id":"{}","direction_id":"{\"0\": 50}","headsign":"{}","duration_avg":120,"n_vehicles":50,"d":1200,"route_I_counts":"{\"1\": 50}","source":13,"target":14,"layer":"L","from":"兰州兰州西站北广场(地铁站)","to":"兰州土门墩(地铁站)"},"geometry":{"type":"LineString","coordinates":[[103.749842,36.070444],[103.740665,36.073282]]}},{"type":"Feature","properties":{"shape_id":"{}","direction_id":"{\"1\": 50}","headsign":"{}","duration_avg":120,"n_vehicles":50,"d":1200,"route_I_counts":"{\"1\": 50}","source":14,"target":13,"layer":"L","from":"兰州土门墩(地铁站)","to":"兰州兰州西站北广场(地铁站)"},"geometry":{"type":"LineString","coordinates":[[103.740665,36.073282],[103.749842,36.070444]]}},{"type":"Feature","properties":{"shape_id":"{}","direction_id":"{\"0\": 50}","headsign":"{}","duration_avg":180,"n_vehicles":50,"d":1800,"route_I_counts":"{\"1\": 50}","source":14,"target":15,"layer":"L","from":"兰州土门墩(地铁站)","to":"兰州马滩(地铁站)"},"geometry":{"type":"LineString","coordinates":[[103.740665,36.073282],[103.724805,36.083136]]}},{"type":"Feature","properties":{"shape_id":"{}","direction_id":"{\"1\": 50}","headsign":"{}","duration_avg":180,"n_vehicles":50,"d":1800,"route_I_counts":"{\"1\": 50}","source":15,"target":14,"layer":"L","from":"兰州马滩(地铁站)","to":"兰州土门墩(地铁站)"},"geometry":{"type":"LineString","coordinates":[[103.724805,36.083136],[103.740665,36.073282]]}},{"type":"Feature","properties":{"shape_id":"{}","direction_id":"{\"0\": 50}","headsign":"{}","duration_avg":180,"n_vehicles":50,"d":1800,"route_I_counts":"{\"1\": 50}","source":15,"target":16,"layer":"L","from":"兰州马滩(地铁站)","to":"兰州兰州海关(地铁站)"},"geometry":{"type":"LineString","coordinates":[[103.724805,36.083136],[103.707018,36.094758]]}},{"type":"Feature","properties":{"shape_id":"{}","direction_id":"{\"1\": 50}","headsign":"{}","duration_avg":180,"n_vehicles":50,"d":1800,"route_I_counts":"{\"1\": 50}","source":16,"target":15,"layer":"L","from":"兰州兰州海关(地铁站)","to":"兰州马滩(地铁站)"},"geometry":{"type":"LineString","coordinates":[[103.707018,36.094758],[103.724805,36.083136]]}},{"type":"Feature","properties":{"shape_id":"{}","direction_id":"{\"0\": 50}","headsign":"{}","duration_avg":120,"n_vehicles":50,"d":1200,"route_I_counts":"{\"1\": 50}","source":16,"target":17,"layer":"L","from":"兰州兰州海关(地铁站)","to":"兰州兰州城市学院(省科技馆)(地铁站)"},"geometry":{"type":"LineString","coordinates":[[103.707018,36.094758],[103.698691,36.099156]]}},{"type":"Feature","properties":{"shape_id":"{}","direction_id":"{\"1\": 50}","headsign":"{}","duration_avg":120,"n_vehicles":50,"d":1200,"route_I_counts":"{\"1\": 50}","source":17,"target":16,"layer":"L","from":"兰州兰州城市学院(省科技馆)(地铁站)","to":"兰州兰州海关(地铁站)"},"geometry":{"type":"LineString","coordinates":[[103.698691,36.099156],[103.707018,36.094758]]}},{"type":"Feature","properties":{"shape_id":"{}","direction_id":"{\"0\": 50}","headsign":"{}","duration_avg":240,"n_vehicles":50,"d":2400,"route_I_counts":"{\"1\": 50}","source":17,"target":18,"layer":"L","from":"兰州兰州城市学院(省科技馆)(地铁站)","to":"兰州奥体中心(地铁站)"},"geometry":{"type":"LineString","coordinates":[[103.698691,36.099156],[103.675659,36.09085]]}},{"type":"Feature","properties":{"shape_id":"{}","direction_id":"{\"1\": 50}","headsign":"{}","duration_avg":240,"n_vehicles":50,"d":2400,"route_I_counts":"{\"1\": 50}","source":18,"target":17,"layer":"L","from":"兰州奥体中心(地铁站)","to":"兰州兰州城市学院(省科技馆)(地铁站)"},"geometry":{"type":"LineString","coordinates":[[103.675659,36.09085],[103.698691,36.099156]]}},{"type":"Feature","properties":{"shape_id":"{}","direction_id":"{\"0\": 50}","headsign":"{}","duration_avg":120,"n_vehicles":50,"d":1200,"route_I_counts":"{\"1\": 50}","source":18,"target":19,"layer":"L","from":"兰州奥体中心(地铁站)","to":"兰州陈官营(地铁站)"},"geometry":{"type":"LineString","coordinates":[[103.675659,36.09085],[103.659948,36.087272]]}},{"type":"Feature","properties":{"shape_id":"{}","direction_id":"{\"1\": 50}","headsign":"{}","duration_avg":120,"n_vehicles":50,"d":1200,"route_I_counts":"{\"1\": 50}","source":19,"target":18,"layer":"L","from":"兰州陈官营(地铁站)","to":"兰州奥体中心(地铁站)"},"geometry":{"type":"LineString","coordinates":[[103.659948,36.087272],[103.675659,36.09085]]}},{"type":"Feature","properties":{"shape_id":"{}","direction_id":"{\"0\": 50}","headsign":"{}","duration_avg":120,"n_vehicles":50,"d":1200,"route_I_counts":"{\"2\": 50}","source":20,"target":21,"layer":"L","from":"兰州雁白大桥(地铁站)","to":"兰州均家滩(地铁站)"},"geometry":{"type":"LineString","coordinates":[[103.881849,36.069131],[103.878979,36.061097]]}},{"type":"Feature","properties":{"shape_id":"{}","direction_id":"{\"1\": 50}","headsign":"{}","duration_avg":120,"n_vehicles":50,"d":1200,"route_I_counts":"{\"2\": 50}","source":21,"target":20,"layer":"L","from":"兰州均家滩(地铁站)","to":"兰州雁白大桥(地铁站)"},"geometry":{"type":"LineString","coordinates":[[103.878979,36.061097],[103.881849,36.069131]]}},{"type":"Feature","properties":{"shape_id":"{}","direction_id":"{\"0\": 50}","headsign":"{}","duration_avg":120,"n_vehicles":50,"d":1200,"route_I_counts":"{\"2\": 50}","source":21,"target":22,"layer":"L","from":"兰州均家滩(地铁站)","to":"兰州张苏滩(地铁站)"},"geometry":{"type":"LineString","coordinates":[[103.878979,36.061097],[103.874798,36.056091]]}},{"type":"Feature","properties":{"shape_id":"{}","direction_id":"{\"1\": 50}","headsign":"{}","duration_avg":120,"n_vehicles":50,"d":1200,"route_I_counts":"{\"2\": 50}","source":22,"target":21,"layer":"L","from":"兰州张苏滩(地铁站)","to":"兰州均家滩(地铁站)"},"geometry":{"type":"LineString","coordinates":[[103.874798,36.056091],[103.878979,36.061097]]}},{"type":"Feature","properties":{"shape_id":"{}","direction_id":"{\"0\": 50}","headsign":"{}","duration_avg":120,"n_vehicles":50,"d":1200,"route_I_counts":"{\"2\": 50}","source":22,"target":4,"layer":"L","from":"兰州张苏滩(地铁站)","to":"兰州五里铺(地铁站)"},"geometry":{"type":"LineString","coordinates":[[103.874798,36.056091],[103.869135,36.046879]]}},{"type":"Feature","properties":{"shape_id":"{}","direction_id":"{\"1\": 50}","headsign":"{}","duration_avg":120,"n_vehicles":50,"d":1200,"route_I_counts":"{\"2\": 50}","source":4,"target":22,"layer":"L","from":"兰州五里铺(地铁站)","to":"兰州张苏滩(地铁站)"},"geometry":{"type":"LineString","coordinates":[[103.869135,36.046879],[103.874798,36.056091]]}},{"type":"Feature","properties":{"shape_id":"{}","direction_id":"{\"0\": 50}","headsign":"{}","duration_avg":180,"n_vehicles":50,"d":1800,"route_I_counts":"{\"2\": 50}","source":4,"target":23,"layer":"L","from":"兰州五里铺(地铁站)","to":"兰州团结新村(地铁站)"},"geometry":{"type":"LineString","coordinates":[[103.869135,36.046879],[103.866562,36.039318]]}},{"type":"Feature","properties":{"shape_id":"{}","direction_id":"{\"1\": 50}","headsign":"{}","duration_avg":180,"n_vehicles":50,"d":1800,"route_I_counts":"{\"2\": 50}","source":23,"target":4,"layer":"L","from":"兰州团结新村(地铁站)","to":"兰州五里铺(地铁站)"},"geometry":{"type":"LineString","coordinates":[[103.866562,36.039318],[103.869135,36.046879]]}},{"type":"Feature","properties":{"shape_id":"{}","direction_id":"{\"0\": 50}","headsign":"{}","duration_avg":120,"n_vehicles":50,"d":1200,"route_I_counts":"{\"2\": 50}","source":23,"target":24,"layer":"L","from":"兰州团结新村(地铁站)","to":"兰州红星巷(地铁站)"},"geometry":{"type":"LineString","coordinates":[[103.866562,36.039318],[103.858444,36.034505]]}},{"type":"Feature","properties":{"shape_id":"{}","direction_id":"{\"1\": 50}","headsign":"{}","duration_avg":120,"n_vehicles":50,"d":1200,"route_I_counts":"{\"2\": 50}","source":24,"target":23,"layer":"L","from":"兰州红星巷(地铁站)","to":"兰州团结新村(地铁站)"},"geometry":{"type":"LineString","coordinates":[[103.858444,36.034505],[103.866562,36.039318]]}},{"type":"Feature","properties":{"shape_id":"{}","direction_id":"{\"0\": 50}","headsign":"{}","duration_avg":120,"n_vehicles":50,"d":1200,"route_I_counts":"{\"2\": 50}","source":24,"target":25,"layer":"L","from":"兰州红星巷(地铁站)","to":"兰州兰州火车站(地铁站)"},"geometry":{"type":"LineString","coordinates":[[103.858444,36.034505],[103.850781,36.036247]]}},{"type":"Feature","properties":{"shape_id":"{}","direction_id":"{\"1\": 50}","headsign":"{}","duration_avg":120,"n_vehicles":50,"d":1200,"route_I_counts":"{\"2\": 50}","source":25,"target":24,"layer":"L","from":"兰州兰州火车站(地铁站)","to":"兰州红星巷(地铁站)"},"geometry":{"type":"LineString","coordinates":[[103.850781,36.036247],[103.858444,36.034505]]}},{"type":"Feature","properties":{"shape_id":"{}","direction_id":"{\"0\": 50}","headsign":"{}","duration_avg":120,"n_vehicles":50,"d":1200,"route_I_counts":"{\"2\": 50}","source":25,"target":26,"layer":"L","from":"兰州兰州火车站(地铁站)","to":"兰州邮电大楼(地铁站)"},"geometry":{"type":"LineString","coordinates":[[103.850781,36.036247],[103.846441,36.042209]]}},{"type":"Feature","properties":{"shape_id":"{}","direction_id":"{\"1\": 50}","headsign":"{}","duration_avg":120,"n_vehicles":50,"d":1200,"route_I_counts":"{\"2\": 50}","source":26,"target":25,"layer":"L","from":"兰州邮电大楼(地铁站)","to":"兰州兰州火车站(地铁站)"},"geometry":{"type":"LineString","coordinates":[[103.846441,36.042209],[103.850781,36.036247]]}},{"type":"Feature","properties":{"shape_id":"{}","direction_id":"{\"0\": 50}","headsign":"{}","duration_avg":120,"n_vehicles":50,"d":1200,"route_I_counts":"{\"2\": 50}","source":26,"target":6,"layer":"L","from":"兰州邮电大楼(地铁站)","to":"兰州东方红广场(地铁站)"},"geometry":{"type":"LineString","coordinates":[[103.846441,36.042209],[103.840038,36.053534]]}},{"type":"Feature","properties":{"shape_id":"{}","direction_id":"{\"1\": 50}","headsign":"{}","duration_avg":120,"n_vehicles":50,"d":1200,"route_I_counts":"{\"2\": 50}","source":6,"target":26,"layer":"L","from":"兰州东方红广场(地铁站)","to":"兰州邮电大楼(地铁站)"},"geometry":{"type":"LineString","coordinates":[[103.840038,36.053534],[103.846441,36.042209]]}}]}