{"type":"FeatureCollection","features":[{"type":"Feature","geometry":{"type":"Point","coordinates":[112.317849,34.702955]},"properties":{"name":"洛阳红山(地铁站)","original_ids":"[1]","id":0,"layer":"stop"}},{"type":"Feature","geometry":{"type":"Point","coordinates":[112.328543,34.682501]},"properties":{"name":"洛阳谷水(地铁站)","original_ids":"[2]","id":1,"layer":"stop"}},{"type":"Feature","geometry":{"type":"Point","coordinates":[112.34877,34.678152]},"properties":{"name":"洛阳秦岭路(地铁站)","original_ids":"[3]","id":2,"layer":"stop"}},{"type":"Feature","geometry":{"type":"Point","coordinates":[112.361173,34.670363]},"properties":{"name":"洛阳武汉路(地铁站)","original_ids":"[4]","id":3,"layer":"stop"}},{"type":"Feature","geometry":{"type":"Point","coordinates":[112.370309,34.66344]},"properties":{"name":"洛阳长安路(地铁站)","original_ids":"[5]","id":4,"layer":"stop"}},{"type":"Feature","geometry":{"type":"Point","coordinates":[112.379109,34.660902]},"properties":{"name":"洛阳上海市场(地铁站)","original_ids":"[6]","id":5,"layer":"stop"}},{"type":"Feature","geometry":{"type":"Point","coordinates":[112.390855,34.657669]},"properties":{"name":"洛阳牡丹广场(地铁站)","original_ids":"[7]","id":6,"layer":"stop"}},{"type":"Feature","geometry":{"type":"Point","coordinates":[112.404832,34.660678]},"properties":{"name":"洛阳七里河(地铁站)","original_ids":"[8]","id":7,"layer":"stop"}},{"type":"Feature","geometry":{"type":"Point","coordinates":[112.420405,34.667293]},"properties":{"name":"洛阳王城公园(地铁站)","original_ids":"[9]","id":8,"layer":"stop"}},{"type":"Feature","geometry":{"type":"Point","coordinates":[112.428724,34.67045]},"properties":{"name":"洛阳解放路(地铁站)","original_ids":"[10]","id":9,"layer":"stop"}},{"type":"Feature","geometry":{"type":"Point","coordinates":[112.437588,34.673782]},"properties":{"name":"洛阳周王城广场(地铁站)","original_ids":"[11]","id":10,"layer":"stop"}},{"type":"Feature","geometry":{"type":"Point","coordinates":[112.451794,34.679162]},"properties":{"name":"洛阳应天门(地铁站)","original_ids":"[12]","id":11,"layer":"stop"}},{"type":"Feature","geometry":{"type":"Point","coordinates":[112.462229,34.683032]},"properties":{"name":"洛阳丽景门(地铁站)","original_ids":"[13]","id":12,"layer":"stop"}},{"type":"Feature","geometry":{"type":"Point","coordinates":[112.47608,34.685332]},"properties":{"name":"洛阳洛邑古城(地铁站)","original_ids":"[14]","id":13,"layer":"stop"}},{"type":"Feature","geometry":{"type":"Point","coordinates":[112.486694,34.686649]},"properties":{"name":"洛阳夹马营(地铁站)","original_ids":"[15]","id":14,"layer":"stop"}},{"type":"Feature","geometry":{"type":"Point","coordinates":[112.498647,34.689014]},"properties":{"name":"洛阳启明南路(地铁站)","original_ids":"[16]","id":15,"layer":"stop"}},{"type":"Feature","geometry":{"type":"Point","coordinates":[112.511565,34.691127]},"properties":{"name":"洛阳塔湾(地铁站)","original_ids":"[17]","id":16,"layer":"stop"}},{"type":"Feature","geometry":{"type":"Point","coordinates":[112.526441,34.693562]},"properties":{"name":"洛阳史家湾(地铁站)","original_ids":"[18]","id":17,"layer":"stop"}},{"type":"Feature","geometry":{"type":"Point","coordinates":[112.546911,34.697075]},"properties":{"name":"洛阳杨湾(地铁站)","original_ids":"[19]","id":18,"layer":"stop"}},{"type":"Feature","geometry":{"type":"Point","coordinates":[112.40676,34.708022]},"properties":{"name":"洛阳二乔路(地铁站)","original_ids":"[20]","id":19,"layer":"stop"}},{"type":"Feature","geometry":{"type":"Point","coordinates":[112.415158,34.70791]},"properties":{"name":"洛阳邙岭(地铁站)","original_ids":"[21]","id":20,"layer":"stop"}},{"type":"Feature","geometry":{"type":"Point","coordinates":[112.422497,34.696731]},"properties":{"name":"洛阳国花路(地铁站)","original_ids":"[22]","id":21,"layer":"stop"}},{"type":"Feature","geometry":{"type":"Point","coordinates":[112.427728,34.685941]},"properties":{"name":"洛阳洛阳火车站(地铁站)","original_ids":"[23]","id":22,"layer":"stop"}},{"type":"Feature","geometry":{"type":"Point","coordinates":[112.427836,34.678645]},"properties":{"name":"洛阳纱厂路(地铁站)","original_ids":"[24]","id":23,"layer":"stop"}},{"type":"Feature","geometry":{"type":"Point","coordinates":[112.434658,34.661994]},"properties":{"name":"洛阳牡丹桥(地铁站)","original_ids":"[25]","id":24,"layer":"stop"}},{"type":"Feature","geometry":{"type":"Point","coordinates":[112.439264,34.643406]},"properties":{"name":"洛阳文博园(地铁站)","original_ids":"[26]","id":25,"layer":"stop"}},{"type":"Feature","geometry":{"type":"Point","coordinates":[112.434528,34.636798]},"properties":{"name":"洛阳隋唐园(地铁站)","original_ids":"[27]","id":26,"layer":"stop"}},{"type":"Feature","geometry":{"type":"Point","coordinates":[112.431181,34.623171]},"properties":{"name":"洛阳体育中心(地铁站)","original_ids":"[28]","id":27,"layer":"stop"}},{"type":"Feature","geometry":{"type":"Point","coordinates":[112.439622,34.61842]},"properties":{"name":"洛阳市民之家(地铁站)","original_ids":"[29]","id":28,"layer":"stop"}},{"type":"Feature","geometry":{"type":"Point","coordinates":[112.446724,34.612085]},"properties":{"name":"洛阳开元湖(地铁站)","original_ids":"[30]","id":29,"layer":"stop"}},{"type":"Feature","geometry":{"type":"Point","coordinates":[112.447608,34.605316]},"properties":{"name":"洛阳兴洛湖(地铁站)","original_ids":"[31]","id":30,"layer":"stop"}},{"type":"Feature","geometry":{"type":"Point","coordinates":[112.449824,34.595137]},"properties":{"name":"洛阳龙门高铁站(地铁站)","original_ids":"[32]","id":31,"layer":"stop"}},{"type":"Feature","geometry":{"type":"Point","coordinates":[112.468558,34.6012]},"properties":{"name":"洛阳八里堂(地铁站)","original_ids":"[33]","id":32,"layer":"stop"}},{"type":"Feature","properties":{"shape_id":"{}","direction_id":"{\"0\": 50}","headsign":"{}","duration_avg":180,"n_vehicles":50,"d":1800,"route_I_counts":"{\"1\": 50}","source":0,"target":1,"layer":"L","from":"洛阳红山(地铁站)","to":"洛阳谷水(地铁站)"},"geometry":{"type":"LineString","coordinates":[[112.317849,34.702955],[112.328543,34.682501]]}},{"type":"Feature","properties":{"shape_id":"{}","direction_id":"{\"1\": 50}","headsign":"{}","duration_avg":180,"n_vehicles":50,"d":1800,"route_I_counts":"{\"1\": 50}","source":1,"target":0,"layer":"L","from":"洛阳谷水(地铁站)","to":"洛阳红山(地铁站)"},"geometry":{"type":"LineString","coordinates":[[112.328543,34.682501],[112.317849,34.702955]]}},{"type":"Feature","properties":{"shape_id":"{}","direction_id":"{\"0\": 50}","headsign":"{}","duration_avg":180,"n_vehicles":50,"d":1800,"route_I_counts":"{\"1\": 50}","source":1,"target":2,"layer":"L","from":"洛阳谷水(地铁站)","to":"洛阳秦岭路(地铁站)"},"geometry":{"type":"LineString","coordinates":[[112.328543,34.682501],[112.34877,34.678152]]}},{"type":"Feature","properties":{"shape_id":"{}","direction_id":"{\"1\": 50}","headsign":"{}","duration_avg":180,"n_vehicles":50,"d":1800,"route_I_counts":"{\"1\": 50}","source":2,"target":1,"layer":"L","from":"洛阳秦岭路(地铁站)","to":"洛阳谷水(地铁站)"},"geometry":{"type":"LineString","coordinates":[[112.34877,34.678152],[112.328543,34.682501]]}},{"type":"Feature","properties":{"shape_id":"{}","direction_id":"{\"0\": 50}","headsign":"{}","duration_avg":180,"n_vehicles":50,"d":1800,"route_I_counts":"{\"1\": 50}","source":2,"target":3,"layer":"L","from":"洛阳秦岭路(地铁站)","to":"洛阳武汉路(地铁站)"},"geometry":{"type":"LineString","coordinates":[[112.34877,34.678152],[112.361173,34.670363]]}},{"type":"Feature","properties":{"shape_id":"{}","direction_id":"{\"1\": 50}","headsign":"{}","duration_avg":180,"n_vehicles":50,"d":1800,"route_I_counts":"{\"1\": 50}","source":3,"target":2,"layer":"L","from":"洛阳武汉路(地铁站)","to":"洛阳秦岭路(地铁站)"},"geometry":{"type":"LineString","coordinates":[[112.361173,34.670363],[112.34877,34.678152]]}},{"type":"Feature","properties":{"shape_id":"{}","direction_id":"{\"0\": 50}","headsign":"{}","duration_avg":120,"n_vehicles":50,"d":1200,"route_I_counts":"{\"1\": 50}","source":3,"target":4,"layer":"L","from":"洛阳武汉路(地铁站)","to":"洛阳长安路(地铁站)"},"geometry":{"type":"LineString","coordinates":[[112.361173,34.670363],[112.370309,34.66344]]}},{"type":"Feature","properties":{"shape_id":"{}","direction_id":"{\"1\": 50}","headsign":"{}","duration_avg":120,"n_vehicles":50,"d":1200,"route_I_counts":"{\"1\": 50}","source":4,"target":3,"layer":"L","from":"洛阳长安路(地铁站)","to":"洛阳武汉路(地铁站)"},"geometry":{"type":"LineString","coordinates":[[112.370309,34.66344],[112.361173,34.670363]]}},{"type":"Feature","properties":{"shape_id":"{}","direction_id":"{\"0\": 50}","headsign":"{}","duration_avg":120,"n_vehicles":50,"d":1200,"route_I_counts":"{\"1\": 50}","source":4,"target":5,"layer":"L","from":"洛阳长安路(地铁站)","to":"洛阳上海市场(地铁站)"},"geometry":{"type":"LineString","coordinates":[[112.370309,34.66344],[112.379109,34.660902]]}},{"type":"Feature","properties":{"shape_id":"{}","direction_id":"{\"1\": 50}","headsign":"{}","duration_avg":120,"n_vehicles":50,"d":1200,"route_I_counts":"{\"1\": 50}","source":5,"target":4,"layer":"L","from":"洛阳上海市场(地铁站)","to":"洛阳长安路(地铁站)"},"geometry":{"type":"LineString","coordinates":[[112.379109,34.660902],[112.370309,34.66344]]}},{"type":"Feature","properties":{"shape_id":"{}","direction_id":"{\"0\": 50}","headsign":"{}","duration_avg":120,"n_vehicles":50,"d":1200,"route_I_counts":"{\"1\": 50}","source":5,"target":6,"layer":"L","from":"洛阳上海市场(地铁站)","to":"洛阳牡丹广场(地铁站)"},"geometry":{"type":"LineString","coordinates":[[112.379109,34.660902],[112.390855,34.657669]]}},{"type":"Feature","properties":{"shape_id":"{}","direction_id":"{\"1\": 50}","headsign":"{}","duration_avg":120,"n_vehicles":50,"d":1200,"route_I_counts":"{\"1\": 50}","source":6,"target":5,"layer":"L","from":"洛阳牡丹广场(地铁站)","to":"洛阳上海市场(地铁站)"},"geometry":{"type":"LineString","coordinates":[[112.390855,34.657669],[112.379109,34.660902]]}},{"type":"Feature","properties":{"shape_id":"{}","direction_id":"{\"0\": 50}","headsign":"{}","duration_avg":180,"n_vehicles":50,"d":1800,"route_I_counts":"{\"1\": 50}","source":6,"target":7,"layer":"L","from":"洛阳牡丹广场(地铁站)","to":"洛阳七里河(地铁站)"},"geometry":{"type":"LineString","coordinates":[[112.390855,34.657669],[112.404832,34.660678]]}},{"type":"Feature","properties":{"shape_id":"{}","direction_id":"{\"1\": 50}","headsign":"{}","duration_avg":180,"n_vehicles":50,"d":1800,"route_I_counts":"{\"1\": 50}","source":7,"target":6,"layer":"L","from":"洛阳七里河(地铁站)","to":"洛阳牡丹广场(地铁站)"},"geometry":{"type":"LineString","coordinates":[[112.404832,34.660678],[112.390855,34.657669]]}},{"type":"Feature","properties":{"shape_id":"{}","direction_id":"{\"0\": 50}","headsign":"{}","duration_avg":120,"n_vehicles":50,"d":1200,"route_I_counts":"{\"1\": 50}","source":7,"target":8,"layer":"L","from":"洛阳七里河(地铁站)","to":"洛阳王城公园(地铁站)"},"geometry":{"type":"LineString","coordinates":[[112.404832,34.660678],[112.420405,34.667293]]}},{"type":"Feature","properties":{"shape_id":"{}","direction_id":"{\"1\": 50}","headsign":"{}","duration_avg":120,"n_vehicles":50,"d":1200,"route_I_counts":"{\"1\": 50}","source":8,"target":7,"layer":"L","from":"洛阳王城公园(地铁站)","to":"洛阳七里河(地铁站)"},"geometry":{"type":"LineString","coordinates":[[112.420405,34.667293],[112.404832,34.660678]]}},{"type":"Feature","properties":{"shape_id":"{}","direction_id":"{\"0\": 50}","headsign":"{}","duration_avg":120,"n_vehicles":50,"d":1200,"route_I_counts":"{\"1\": 50}","source":8,"target":9,"layer":"L","from":"洛阳王城公园(地铁站)","to":"洛阳解放路(地铁站)"},"geometry":{"type":"LineString","coordinates":[[112.420405,34.667293],[112.428724,34.67045]]}},{"type":"Feature","properties":{"shape_id":"{}","direction_id":"{\"1\": 50}","headsign":"{}","duration_avg":120,"n_vehicles":50,"d":1200,"route_I_counts":"{\"1\": 50}","source":9,"target":8,"layer":"L","from":"洛阳解放路(地铁站)","to":"洛阳王城公园(地铁站)"},"geometry":{"type":"LineString","coordinates":[[112.428724,34.67045],[112.420405,34.667293]]}},{"type":"Feature","properties":{"shape_id":"{}","direction_id":"{\"0\": 50}","headsign":"{}","duration_avg":120,"n_vehicles":50,"d":1200,"route_I_counts":"{\"1\": 50}","source":9,"target":10,"layer":"L","from":"洛阳解放路(地铁站)","to":"洛阳周王城广场(地铁站)"},"geometry":{"type":"LineString","coordinates":[[112.428724,34.67045],[112.437588,34.673782]]}},{"type":"Feature","properties":{"shape_id":"{}","direction_id":"{\"1\": 50}","headsign":"{}","duration_avg":120,"n_vehicles":50,"d":1200,"route_I_counts":"{\"1\": 50}","source":10,"target":9,"layer":"L","from":"洛阳周王城广场(地铁站)","to":"洛阳解放路(地铁站)"},"geometry":{"type":"LineString","coordinates":[[112.437588,34.673782],[112.428724,34.67045]]}},{"type":"Feature","properties":{"shape_id":"{}","direction_id":"{\"0\": 50}","headsign":"{}","duration_avg":120,"n_vehicles":50,"d":1200,"route_I_counts":"{\"1\": 50}","source":10,"target":11,"layer":"L","from":"洛阳周王城广场(地铁站)","to":"洛阳应天门(地铁站)"},"geometry":{"type":"LineString","coordinates":[[112.437588,34.673782],[112.451794,34.679162]]}},{"type":"Feature","properties":{"shape_id":"{}","direction_id":"{\"1\": 50}","headsign":"{}","duration_avg":120,"n_vehicles":50,"d":1200,"route_I_counts":"{\"1\": 50}","source":11,"target":10,"layer":"L","from":"洛阳应天门(地铁站)","to":"洛阳周王城广场(地铁站)"},"geometry":{"type":"LineString","coordinates":[[112.451794,34.679162],[112.437588,34.673782]]}},{"type":"Feature","properties":{"shape_id":"{}","direction_id":"{\"0\": 50}","headsign":"{}","duration_avg":180,"n_vehicles":50,"d":1800,"route_I_counts":"{\"1\": 50}","source":11,"target":12,"layer":"L","from":"洛阳应天门(地铁站)","to":"洛阳丽景门(地铁站)"},"geometry":{"type":"LineString","coordinates":[[112.451794,34.679162],[112.462229,34.683032]]}},{"type":"Feature","properties":{"shape_id":"{}","direction_id":"{\"1\": 50}","headsign":"{}","duration_avg":180,"n_vehicles":50,"d":1800,"route_I_counts":"{\"1\": 50}","source":12,"target":11,"layer":"L","from":"洛阳丽景门(地铁站)","to":"洛阳应天门(地铁站)"},"geometry":{"type":"LineString","coordinates":[[112.462229,34.683032],[112.451794,34.679162]]}},{"type":"Feature","properties":{"shape_id":"{}","direction_id":"{\"0\": 50}","headsign":"{}","duration_avg":120,"n_vehicles":50,"d":1200,"route_I_counts":"{\"1\": 50}","source":12,"target":13,"layer":"L","from":"洛阳丽景门(地铁站)","to":"洛阳洛邑古城(地铁站)"},"geometry":{"type":"LineString","coordinates":[[112.462229,34.683032],[112.47608,34.685332]]}},{"type":"Feature","properties":{"shape_id":"{}","direction_id":"{\"1\": 50}","headsign":"{}","duration_avg":120,"n_vehicles":50,"d":1200,"route_I_counts":"{\"1\": 50}","source":13,"target":12,"layer":"L","from":"洛阳洛邑古城(地铁站)","to":"洛阳丽景门(地铁站)"},"geometry":{"type":"LineString","coordinates":[[112.47608,34.685332],[112.462229,34.683032]]}},{"type":"Feature","properties":{"shape_id":"{}","direction_id":"{\"0\": 50}","headsign":"{}","duration_avg":120,"n_vehicles":50,"d":1200,"route_I_counts":"{\"1\": 50}","source":13,"target":14,"layer":"L","from":"洛阳洛邑古城(地铁站)","to":"洛阳夹马营(地铁站)"},"geometry":{"type":"LineString","coordinates":[[112.47608,34.685332],[112.486694,34.686649]]}},{"type":"Feature","properties":{"shape_id":"{}","direction_id":"{\"1\": 50}","headsign":"{}","duration_avg":120,"n_vehicles":50,"d":1200,"route_I_counts":"{\"1\": 50}","source":14,"target":13,"layer":"L","from":"洛阳夹马营(地铁站)","to":"洛阳洛邑古城(地铁站)"},"geometry":{"type":"LineString","coordinates":[[112.486694,34.686649],[112.47608,34.685332]]}},{"type":"Feature","properties":{"shape_id":"{}","direction_id":"{\"0\": 50}","headsign":"{}","duration_avg":120,"n_vehicles":50,"d":1200,"route_I_counts":"{\"1\": 50}","source":14,"target":15,"layer":"L","from":"洛阳夹马营(地铁站)","to":"洛阳启明南路(地铁站)"},"geometry":{"type":"LineString","coordinates":[[112.486694,34.686649],[112.498647,34.689014]]}},{"type":"Feature","properties":{"shape_id":"{}","direction_id":"{\"1\": 50}","headsign":"{}","duration_avg":120,"n_vehicles":50,"d":1200,"route_I_counts":"{\"1\": 50}","source":15,"target":14,"layer":"L","from":"洛阳启明南路(地铁站)","to":"洛阳夹马营(地铁站)"},"geometry":{"type":"LineString","coordinates":[[112.498647,34.689014],[112.486694,34.686649]]}},{"type":"Feature","properties":{"shape_id":"{}","direction_id":"{\"0\": 50}","headsign":"{}","duration_avg":120,"n_vehicles":50,"d":1200,"route_I_counts":"{\"1\": 50}","source":15,"target":16,"layer":"L","from":"洛阳启明南路(地铁站)","to":"洛阳塔湾(地铁站)"},"geometry":{"type":"LineString","coordinates":[[112.498647,34.689014],[112.511565,34.691127]]}},{"type":"Feature","properties":{"shape_id":"{}","direction_id":"{\"1\": 50}","headsign":"{}","duration_avg":120,"n_vehicles":50,"d":1200,"route_I_counts":"{\"1\": 50}","source":16,"target":15,"layer":"L","from":"洛阳塔湾(地铁站)","to":"洛阳启明南路(地铁站)"},"geometry":{"type":"LineString","coordinates":[[112.511565,34.691127],[112.498647,34.689014]]}},{"type":"Feature","properties":{"shape_id":"{}","direction_id":"{\"0\": 50}","headsign":"{}","duration_avg":180,"n_vehicles":50,"d":1800,"route_I_counts":"{\"1\": 50}","source":16,"target":17,"layer":"L","from":"洛阳塔湾(地铁站)","to":"洛阳史家湾(地铁站)"},"geometry":{"type":"LineString","coordinates":[[112.511565,34.691127],[112.526441,34.693562]]}},{"type":"Feature","properties":{"shape_id":"{}","direction_id":"{\"1\": 50}","headsign":"{}","duration_avg":180,"n_vehicles":50,"d":1800,"route_I_counts":"{\"1\": 50}","source":17,"target":16,"layer":"L","from":"洛阳史家湾(地铁站)","to":"洛阳塔湾(地铁站)"},"geometry":{"type":"LineString","coordinates":[[112.526441,34.693562],[112.511565,34.691127]]}},{"type":"Feature","properties":{"shape_id":"{}","direction_id":"{\"0\": 50}","headsign":"{}","duration_avg":180,"n_vehicles":50,"d":1800,"route_I_counts":"{\"1\": 50}","source":17,"target":18,"layer":"L","from":"洛阳史家湾(地铁站)","to":"洛阳杨湾(地铁站)"},"geometry":{"type":"LineString","coordinates":[[112.526441,34.693562],[112.546911,34.697075]]}},{"type":"Feature","properties":{"shape_id":"{}","direction_id":"{\"1\": 50}","headsign":"{}","duration_avg":180,"n_vehicles":50,"d":1800,"route_I_counts":"{\"1\": 50}","source":18,"target":17,"layer":"L","from":"洛阳杨湾(地铁站)","to":"洛阳史家湾(地铁站)"},"geometry":{"type":"LineString","coordinates":[[112.546911,34.697075],[112.526441,34.693562]]}},{"type":"Feature","properties":{"shape_id":"{}","direction_id":"{\"0\": 50}","headsign":"{}","duration_avg":60,"n_vehicles":50,"d":600,"route_I_counts":"{\"2\": 50}","source":19,"target":20,"layer":"L","from":"洛阳二乔路(地铁站)","to":"洛阳邙岭(地铁站)"},"geometry":{"type":"LineString","coordinates":[[112.40676,34.708022],[112.415158,34.70791]]}},{"type":"Feature","properties":{"shape_id":"{}","direction_id":"{\"1\": 50}","headsign":"{}","duration_avg":60,"n_vehicles":50,"d":600,"route_I_counts":"{\"2\": 50}","source":20,"target":19,"layer":"L","from":"洛阳邙岭(地铁站)","to":"洛阳二乔路(地铁站)"},"geometry":{"type":"LineString","coordinates":[[112.415158,34.70791],[112.40676,34.708022]]}},{"type":"Feature","properties":{"shape_id":"{}","direction_id":"{\"0\": 50}","headsign":"{}","duration_avg":180,"n_vehicles":50,"d":1800,"route_I_counts":"{\"2\": 50}","source":20,"target":21,"layer":"L","from":"洛阳邙岭(地铁站)","to":"洛阳国花路(地铁站)"},"geometry":{"type":"LineString","coordinates":[[112.415158,34.70791],[112.422497,34.696731]]}},{"type":"Feature","properties":{"shape_id":"{}","direction_id":"{\"1\": 50}","headsign":"{}","duration_avg":180,"n_vehicles":50,"d":1800,"route_I_counts":"{\"2\": 50}","source":21,"target":20,"layer":"L","from":"洛阳国花路(地铁站)","to":"洛阳邙岭(地铁站)"},"geometry":{"type":"LineString","coordinates":[[112.422497,34.696731],[112.415158,34.70791]]}},{"type":"Feature","properties":{"shape_id":"{}","direction_id":"{\"0\": 50}","headsign":"{}","duration_avg":120,"n_vehicles":50,"d":1200,"route_I_counts":"{\"2\": 50}","source":21,"target":22,"layer":"L","from":"洛阳国花路(地铁站)","to":"洛阳洛阳火车站(地铁站)"},"geometry":{"type":"LineString","coordinates":[[112.422497,34.696731],[112.427728,34.685941]]}},{"type":"Feature","properties":{"shape_id":"{}","direction_id":"{\"1\": 50}","headsign":"{}","duration_avg":120,"n_vehicles":50,"d":1200,"route_I_counts":"{\"2\": 50}","source":22,"target":21,"layer":"L","from":"洛阳洛阳火车站(地铁站)","to":"洛阳国花路(地铁站)"},"geometry":{"type":"LineString","coordinates":[[112.427728,34.685941],[112.422497,34.696731]]}},{"type":"Feature","properties":{"shape_id":"{}","direction_id":"{\"0\": 50}","headsign":"{}","duration_avg":120,"n_vehicles":50,"d":1200,"route_I_counts":"{\"2\": 50}","source":22,"target":23,"layer":"L","from":"洛阳洛阳火车站(地铁站)","to":"洛阳纱厂路(地铁站)"},"geometry":{"type":"LineString","coordinates":[[112.427728,34.685941],[112.427836,34.678645]]}},{"type":"Feature","properties":{"shape_id":"{}","direction_id":"{\"1\": 50}","headsign":"{}","duration_avg":120,"n_vehicles":50,"d":1200,"route_I_counts":"{\"2\": 50}","source":23,"target":22,"layer":"L","from":"洛阳纱厂路(地铁站)","to":"洛阳洛阳火车站(地铁站)"},"geometry":{"type":"LineString","coordinates":[[112.427836,34.678645],[112.427728,34.685941]]}},{"type":"Feature","properties":{"shape_id":"{}","direction_id":"{\"0\": 50}","headsign":"{}","duration_avg":120,"n_vehicles":50,"d":1200,"route_I_counts":"{\"2\": 50}","source":23,"target":9,"layer":"L","from":"洛阳纱厂路(地铁站)","to":"洛阳解放路(地铁站)"},"geometry":{"type":"LineString","coordinates":[[112.427836,34.678645],[112.428724,34.67045]]}},{"type":"Feature","properties":{"shape_id":"{}","direction_id":"{\"1\": 50}","headsign":"{}","duration_avg":120,"n_vehicles":50,"d":1200,"route_I_counts":"{\"2\": 50}","source":9,"target":23,"layer":"L","from":"洛阳解放路(地铁站)","to":"洛阳纱厂路(地铁站)"},"geometry":{"type":"LineString","coordinates":[[112.428724,34.67045],[112.427836,34.678645]]}},{"type":"Feature","properties":{"shape_id":"{}","direction_id":"{\"0\": 50}","headsign":"{}","duration_avg":120,"n_vehicles":50,"d":1200,"route_I_counts":"{\"2\": 50}","source":9,"target":24,"layer":"L","from":"洛阳解放路(地铁站)","to":"洛阳牡丹桥(地铁站)"},"geometry":{"type":"LineString","coordinates":[[112.428724,34.67045],[112.434658,34.661994]]}},{"type":"Feature","properties":{"shape_id":"{}","direction_id":"{\"1\": 50}","headsign":"{}","duration_avg":120,"n_vehicles":50,"d":1200,"route_I_counts":"{\"2\": 50}","source":24,"target":9,"layer":"L","from":"洛阳牡丹桥(地铁站)","to":"洛阳解放路(地铁站)"},"geometry":{"type":"LineString","coordinates":[[112.434658,34.661994],[112.428724,34.67045]]}},{"type":"Feature","properties":{"shape_id":"{}","direction_id":"{\"0\": 50}","headsign":"{}","duration_avg":120,"n_vehicles":50,"d":1200,"route_I_counts":"{\"2\": 50}","source":24,"target":25,"layer":"L","from":"洛阳牡丹桥(地铁站)","to":"洛阳文博园(地铁站)"},"geometry":{"type":"LineString","coordinates":[[112.434658,34.661994],[112.439264,34.643406]]}},{"type":"Feature","properties":{"shape_id":"{}","direction_id":"{\"1\": 50}","headsign":"{}","duration_avg":120,"n_vehicles":50,"d":1200,"route_I_counts":"{\"2\": 50}","source":25,"target":24,"layer":"L","from":"洛阳文博园(地铁站)","to":"洛阳牡丹桥(地铁站)"},"geometry":{"type":"LineString","coordinates":[[112.439264,34.643406],[112.434658,34.661994]]}},{"type":"Feature","properties":{"shape_id":"{}","direction_id":"{\"0\": 50}","headsign":"{}","duration_avg":120,"n_vehicles":50,"d":1200,"route_I_counts":"{\"2\": 50}","source":25,"target":26,"layer":"L","from":"洛阳文博园(地铁站)","to":"洛阳隋唐园(地铁站)"},"geometry":{"type":"LineString","coordinates":[[112.439264,34.643406],[112.434528,34.636798]]}},{"type":"Feature","properties":{"shape_id":"{}","direction_id":"{\"1\": 50}","headsign":"{}","duration_avg":120,"n_vehicles":50,"d":1200,"route_I_counts":"{\"2\": 50}","source":26,"target":25,"layer":"L","from":"洛阳隋唐园(地铁站)","to":"洛阳文博园(地铁站)"},"geometry":{"type":"LineString","coordinates":[[112.434528,34.636798],[112.439264,34.643406]]}},{"type":"Feature","properties":{"shape_id":"{}","direction_id":"{\"0\": 50}","headsign":"{}","duration_avg":120,"n_vehicles":50,"d":1200,"route_I_counts":"{\"2\": 50}","source":26,"target":27,"layer":"L","from":"洛阳隋唐园(地铁站)","to":"洛阳体育中心(地铁站)"},"geometry":{"type":"LineString","coordinates":[[112.434528,34.636798],[112.431181,34.623171]]}},{"type":"Feature","properties":{"shape_id":"{}","direction_id":"{\"1\": 50}","headsign":"{}","duration_avg":120,"n_vehicles":50,"d":1200,"route_I_counts":"{\"2\": 50}","source":27,"target":26,"layer":"L","from":"洛阳体育中心(地铁站)","to":"洛阳隋唐园(地铁站)"},"geometry":{"type":"LineString","coordinates":[[112.431181,34.623171],[112.434528,34.636798]]}},{"type":"Feature","properties":{"shape_id":"{}","direction_id":"{\"0\": 50}","headsign":"{}","duration_avg":120,"n_vehicles":50,"d":1200,"route_I_counts":"{\"2\": 50}","source":27,"target":28,"layer":"L","from":"洛阳体育中心(地铁站)","to":"洛阳市民之家(地铁站)"},"geometry":{"type":"LineString","coordinates":[[112.431181,34.623171],[112.439622,34.61842]]}},{"type":"Feature","properties":{"shape_id":"{}","direction_id":"{\"1\": 50}","headsign":"{}","duration_avg":120,"n_vehicles":50,"d":1200,"route_I_counts":"{\"2\": 50}","source":28,"target":27,"layer":"L","from":"洛阳市民之家(地铁站)","to":"洛阳体育中心(地铁站)"},"geometry":{"type":"LineString","coordinates":[[112.439622,34.61842],[112.431181,34.623171]]}},{"type":"Feature","properties":{"shape_id":"{}","direction_id":"{\"0\": 50}","headsign":"{}","duration_avg":180,"n_vehicles":50,"d":1800,"route_I_counts":"{\"2\": 50}","source":28,"target":29,"layer":"L","from":"洛阳市民之家(地铁站)","to":"洛阳开元湖(地铁站)"},"geometry":{"type":"LineString","coordinates":[[112.439622,34.61842],[112.446724,34.612085]]}},{"type":"Feature","properties":{"shape_id":"{}","direction_id":"{\"1\": 50}","headsign":"{}","duration_avg":180,"n_vehicles":50,"d":1800,"route_I_counts":"{\"2\": 50}","source":29,"target":28,"layer":"L","from":"洛阳开元湖(地铁站)","to":"洛阳市民之家(地铁站)"},"geometry":{"type":"LineString","coordinates":[[112.446724,34.612085],[112.439622,34.61842]]}},{"type":"Feature","properties":{"shape_id":"{}","direction_id":"{\"0\": 50}","headsign":"{}","duration_avg":60,"n_vehicles":50,"d":600,"route_I_counts":"{\"2\": 50}","source":29,"target":30,"layer":"L","from":"洛阳开元湖(地铁站)","to":"洛阳兴洛湖(地铁站)"},"geometry":{"type":"LineString","coordinates":[[112.446724,34.612085],[112.447608,34.605316]]}},{"type":"Feature","properties":{"shape_id":"{}","direction_id":"{\"1\": 50}","headsign":"{}","duration_avg":60,"n_vehicles":50,"d":600,"route_I_counts":"{\"2\": 50}","source":30,"target":29,"layer":"L","from":"洛阳兴洛湖(地铁站)","to":"洛阳开元湖(地铁站)"},"geometry":{"type":"LineString","coordinates":[[112.447608,34.605316],[112.446724,34.612085]]}},{"type":"Feature","properties":{"shape_id":"{}","direction_id":"{\"0\": 50}","headsign":"{}","duration_avg":180,"n_vehicles":50,"d":1800,"route_I_counts":"{\"2\": 50}","source":30,"target":31,"layer":"L","from":"洛阳兴洛湖(地铁站)","to":"洛阳龙门高铁站(地铁站)"},"geometry":{"type":"LineString","coordinates":[[112.447608,34.605316],[112.449824,34.595137]]}},{"type":"Feature","properties":{"shape_id":"{}","direction_id":"{\"1\": 50}","headsign":"{}","duration_avg":180,"n_vehicles":50,"d":1800,"route_I_counts":"{\"2\": 50}","source":31,"target":30,"layer":"L","from":"洛阳龙门高铁站(地铁站)","to":"洛阳兴洛湖(地铁站)"},"geometry":{"type":"LineString","coordinates":[[112.449824,34.595137],[112.447608,34.605316]]}},{"type":"Feature","properties":{"shape_id":"{}","direction_id":"{\"0\": 50}","headsign":"{}","duration_avg":180,"n_vehicles":50,"d":1800,"route_I_counts":"{\"2\": 50}","source":31,"target":32,"layer":"L","from":"洛阳龙门高铁站(地铁站)","to":"洛阳八里堂(地铁站)"},"geometry":{"type":"LineString","coordinates":[[112.449824,34.595137],[112.468558,34.6012]]}},{"type":"Feature","properties":{"shape_id":"{}","direction_id":"{\"1\": 50}","headsign":"{}","duration_avg":180,"n_vehicles":50,"d":1800,"route_I_counts":"{\"2\": 50}","source":32,"target":31,"layer":"L","from":"洛阳八里堂(地铁站)","to":"洛阳龙门高铁站(地铁站)"},"geometry":{"type":"LineString","coordinates":[[112.468558,34.6012],[112.449824,34.595137]]}}]}