{"type":"FeatureCollection","features":[{"type":"Feature","geometry":{"type":"Point","coordinates":[113.573848,22.163054]},"properties":{"name":"澳门氹仔码头(地铁站)","original_ids":"[1]","id":0,"layer":"stop"}},{"type":"Feature","geometry":{"type":"Point","coordinates":[113.574634,22.159429]},"properties":{"name":"澳门机场(地铁站)","original_ids":"[2]","id":1,"layer":"stop"}},{"type":"Feature","geometry":{"type":"Point","coordinates":[113.570592,22.153086]},"properties":{"name":"澳门科大(地铁站)","original_ids":"[3]","id":2,"layer":"stop"}},{"type":"Feature","geometry":{"type":"Point","coordinates":[113.569107,22.148261]},"properties":{"name":"澳门路氹东(地铁站)","original_ids":"[4]","id":3,"layer":"stop"}},{"type":"Feature","geometry":{"type":"Point","coordinates":[113.568596,22.142424]},"properties":{"name":"澳门东亚运(地铁站)","original_ids":"[5]","id":4,"layer":"stop"}},{"type":"Feature","geometry":{"type":"Point","coordinates":[113.563283,22.138739]},"properties":{"name":"澳门协和医院(地铁站)","original_ids":"[6]","id":5,"layer":"stop"}},{"type":"Feature","geometry":{"type":"Point","coordinates":[113.55978,22.139557]},"properties":{"name":"澳门莲花(地铁站)","original_ids":"[7]","id":6,"layer":"stop"}},{"type":"Feature","geometry":{"type":"Point","coordinates":[113.557816,22.145078]},"properties":{"name":"澳门路氹西(地铁站)","original_ids":"[8]","id":7,"layer":"stop"}},{"type":"Feature","geometry":{"type":"Point","coordinates":[113.554483,22.150907]},"properties":{"name":"澳门排角(地铁站)","original_ids":"[9]","id":8,"layer":"stop"}},{"type":"Feature","geometry":{"type":"Point","coordinates":[113.551831,22.154374]},"properties":{"name":"澳门运动场(地铁站)","original_ids":"[10]","id":9,"layer":"stop"}},{"type":"Feature","geometry":{"type":"Point","coordinates":[113.547222,22.157131]},"properties":{"name":"澳门马会(地铁站)","original_ids":"[11]","id":10,"layer":"stop"}},{"type":"Feature","geometry":{"type":"Point","coordinates":[113.541307,22.15782]},"properties":{"name":"澳门海洋(地铁站)","original_ids":"[12]","id":11,"layer":"stop"}},{"type":"Feature","geometry":{"type":"Point","coordinates":[113.529774,22.183451]},"properties":{"name":"澳门妈阁(地铁站)","original_ids":"[13]","id":12,"layer":"stop"}},{"type":"Feature","geometry":{"type":"Point","coordinates":[113.561081,22.131439]},"properties":{"name":"Seac Pai Van","original_ids":"[14]","id":13,"layer":"stop"}},{"type":"Feature","geometry":{"type":"Point","coordinates":[113.544753,22.142723]},"properties":{"name":"Hengqin","original_ids":"[15]","id":14,"layer":"stop"}},{"type":"Feature","properties":{"shape_id":"{}","direction_id":"{\"0\": 50}","headsign":"{}","duration_avg":60,"n_vehicles":50,"d":600,"route_I_counts":"{\"1\": 50}","source":0,"target":1,"layer":"L","from":"澳门氹仔码头(地铁站)","to":"澳门机场(地铁站)"},"geometry":{"type":"LineString","coordinates":[[113.573848,22.163054],[113.574634,22.159429]]}},{"type":"Feature","properties":{"shape_id":"{}","direction_id":"{\"1\": 50}","headsign":"{}","duration_avg":60,"n_vehicles":50,"d":600,"route_I_counts":"{\"1\": 50}","source":1,"target":0,"layer":"L","from":"澳门机场(地铁站)","to":"澳门氹仔码头(地铁站)"},"geometry":{"type":"LineString","coordinates":[[113.574634,22.159429],[113.573848,22.163054]]}},{"type":"Feature","properties":{"shape_id":"{}","direction_id":"{\"0\": 50}","headsign":"{}","duration_avg":180,"n_vehicles":50,"d":1800,"route_I_counts":"{\"1\": 50}","source":1,"target":2,"layer":"L","from":"澳门机场(地铁站)","to":"澳门科大(地铁站)"},"geometry":{"type":"LineString","coordinates":[[113.574634,22.159429],[113.570592,22.153086]]}},{"type":"Feature","properties":{"shape_id":"{}","direction_id":"{\"1\": 50}","headsign":"{}","duration_avg":180,"n_vehicles":50,"d":1800,"route_I_counts":"{\"1\": 50}","source":2,"target":1,"layer":"L","from":"澳门科大(地铁站)","to":"澳门机场(地铁站)"},"geometry":{"type":"LineString","coordinates":[[113.570592,22.153086],[113.574634,22.159429]]}},{"type":"Feature","properties":{"shape_id":"{}","direction_id":"{\"0\": 50}","headsign":"{}","duration_avg":120,"n_vehicles":50,"d":1200,"route_I_counts":"{\"1\": 50}","source":2,"target":3,"layer":"L","from":"澳门科大(地铁站)","to":"澳门路氹东(地铁站)"},"geometry":{"type":"LineString","coordinates":[[113.570592,22.153086],[113.569107,22.148261]]}},{"type":"Feature","properties":{"shape_id":"{}","direction_id":"{\"1\": 50}","headsign":"{}","duration_avg":120,"n_vehicles":50,"d":1200,"route_I_counts":"{\"1\": 50}","source":3,"target":2,"layer":"L","from":"澳门路氹东(地铁站)","to":"澳门科大(地铁站)"},"geometry":{"type":"LineString","coordinates":[[113.569107,22.148261],[113.570592,22.153086]]}},{"type":"Feature","properties":{"shape_id":"{}","direction_id":"{\"0\": 50}","headsign":"{}","duration_avg":60,"n_vehicles":50,"d":600,"route_I_counts":"{\"1\": 50}","source":3,"target":4,"layer":"L","from":"澳门路氹东(地铁站)","to":"澳门东亚运(地铁站)"},"geometry":{"type":"LineString","coordinates":[[113.569107,22.148261],[113.568596,22.142424]]}},{"type":"Feature","properties":{"shape_id":"{}","direction_id":"{\"1\": 50}","headsign":"{}","duration_avg":60,"n_vehicles":50,"d":600,"route_I_counts":"{\"1\": 50}","source":4,"target":3,"layer":"L","from":"澳门东亚运(地铁站)","to":"澳门路氹东(地铁站)"},"geometry":{"type":"LineString","coordinates":[[113.568596,22.142424],[113.569107,22.148261]]}},{"type":"Feature","properties":{"shape_id":"{}","direction_id":"{\"0\": 50}","headsign":"{}","duration_avg":180,"n_vehicles":50,"d":1800,"route_I_counts":"{\"1\": 50}","source":4,"target":5,"layer":"L","from":"澳门东亚运(地铁站)","to":"澳门协和医院(地铁站)"},"geometry":{"type":"LineString","coordinates":[[113.568596,22.142424],[113.563283,22.138739]]}},{"type":"Feature","properties":{"shape_id":"{}","direction_id":"{\"1\": 50}","headsign":"{}","duration_avg":180,"n_vehicles":50,"d":1800,"route_I_counts":"{\"1\": 50}","source":5,"target":4,"layer":"L","from":"澳门协和医院(地铁站)","to":"澳门东亚运(地铁站)"},"geometry":{"type":"LineString","coordinates":[[113.563283,22.138739],[113.568596,22.142424]]}},{"type":"Feature","properties":{"shape_id":"{}","direction_id":"{\"0\": 50}","headsign":"{}","duration_avg":60,"n_vehicles":50,"d":600,"route_I_counts":"{\"1\": 50}","source":5,"target":6,"layer":"L","from":"澳门协和医院(地铁站)","to":"澳门莲花(地铁站)"},"geometry":{"type":"LineString","coordinates":[[113.563283,22.138739],[113.55978,22.139557]]}},{"type":"Feature","properties":{"shape_id":"{}","direction_id":"{\"1\": 50}","headsign":"{}","duration_avg":60,"n_vehicles":50,"d":600,"route_I_counts":"{\"1\": 50}","source":6,"target":5,"layer":"L","from":"澳门莲花(地铁站)","to":"澳门协和医院(地铁站)"},"geometry":{"type":"LineString","coordinates":[[113.55978,22.139557],[113.563283,22.138739]]}},{"type":"Feature","properties":{"shape_id":"{}","direction_id":"{\"0\": 50}","headsign":"{}","duration_avg":120,"n_vehicles":50,"d":1200,"route_I_counts":"{\"1\": 50}","source":6,"target":7,"layer":"L","from":"澳门莲花(地铁站)","to":"澳门路氹西(地铁站)"},"geometry":{"type":"LineString","coordinates":[[113.55978,22.139557],[113.557816,22.145078]]}},{"type":"Feature","properties":{"shape_id":"{}","direction_id":"{\"1\": 50}","headsign":"{}","duration_avg":120,"n_vehicles":50,"d":1200,"route_I_counts":"{\"1\": 50}","source":7,"target":6,"layer":"L","from":"澳门路氹西(地铁站)","to":"澳门莲花(地铁站)"},"geometry":{"type":"LineString","coordinates":[[113.557816,22.145078],[113.55978,22.139557]]}},{"type":"Feature","properties":{"shape_id":"{}","direction_id":"{\"0\": 50}","headsign":"{}","duration_avg":120,"n_vehicles":50,"d":1200,"route_I_counts":"{\"1\": 50}","source":7,"target":8,"layer":"L","from":"澳门路氹西(地铁站)","to":"澳门排角(地铁站)"},"geometry":{"type":"LineString","coordinates":[[113.557816,22.145078],[113.554483,22.150907]]}},{"type":"Feature","properties":{"shape_id":"{}","direction_id":"{\"1\": 50}","headsign":"{}","duration_avg":120,"n_vehicles":50,"d":1200,"route_I_counts":"{\"1\": 50}","source":8,"target":7,"layer":"L","from":"澳门排角(地铁站)","to":"澳门路氹西(地铁站)"},"geometry":{"type":"LineString","coordinates":[[113.554483,22.150907],[113.557816,22.145078]]}},{"type":"Feature","properties":{"shape_id":"{}","direction_id":"{\"0\": 50}","headsign":"{}","duration_avg":120,"n_vehicles":50,"d":1200,"route_I_counts":"{\"1\": 50}","source":8,"target":9,"layer":"L","from":"澳门排角(地铁站)","to":"澳门运动场(地铁站)"},"geometry":{"type":"LineString","coordinates":[[113.554483,22.150907],[113.551831,22.154374]]}},{"type":"Feature","properties":{"shape_id":"{}","direction_id":"{\"1\": 50}","headsign":"{}","duration_avg":120,"n_vehicles":50,"d":1200,"route_I_counts":"{\"1\": 50}","source":9,"target":8,"layer":"L","from":"澳门运动场(地铁站)","to":"澳门排角(地铁站)"},"geometry":{"type":"LineString","coordinates":[[113.551831,22.154374],[113.554483,22.150907]]}},{"type":"Feature","properties":{"shape_id":"{}","direction_id":"{\"0\": 50}","headsign":"{}","duration_avg":120,"n_vehicles":50,"d":1200,"route_I_counts":"{\"1\": 50}","source":9,"target":10,"layer":"L","from":"澳门运动场(地铁站)","to":"澳门马会(地铁站)"},"geometry":{"type":"LineString","coordinates":[[113.551831,22.154374],[113.547222,22.157131]]}},{"type":"Feature","properties":{"shape_id":"{}","direction_id":"{\"1\": 50}","headsign":"{}","duration_avg":120,"n_vehicles":50,"d":1200,"route_I_counts":"{\"1\": 50}","source":10,"target":9,"layer":"L","from":"澳门马会(地铁站)","to":"澳门运动场(地铁站)"},"geometry":{"type":"LineString","coordinates":[[113.547222,22.157131],[113.551831,22.154374]]}},{"type":"Feature","properties":{"shape_id":"{}","direction_id":"{\"0\": 50}","headsign":"{}","duration_avg":120,"n_vehicles":50,"d":1200,"route_I_counts":"{\"1\": 50}","source":10,"target":11,"layer":"L","from":"澳门马会(地铁站)","to":"澳门海洋(地铁站)"},"geometry":{"type":"LineString","coordinates":[[113.547222,22.157131],[113.541307,22.15782]]}},{"type":"Feature","properties":{"shape_id":"{}","direction_id":"{\"1\": 50}","headsign":"{}","duration_avg":120,"n_vehicles":50,"d":1200,"route_I_counts":"{\"1\": 50}","source":11,"target":10,"layer":"L","from":"澳门海洋(地铁站)","to":"澳门马会(地铁站)"},"geometry":{"type":"LineString","coordinates":[[113.541307,22.15782],[113.547222,22.157131]]}},{"type":"Feature","properties":{"shape_id":"{}","direction_id":"{\"0\": 50}","headsign":"{}","duration_avg":420,"n_vehicles":50,"d":4200,"route_I_counts":"{\"1\": 50}","source":11,"target":12,"layer":"L","from":"澳门海洋(地铁站)","to":"澳门妈阁(地铁站)"},"geometry":{"type":"LineString","coordinates":[[113.541307,22.15782],[113.529774,22.183451]]}},{"type":"Feature","properties":{"shape_id":"{}","direction_id":"{\"1\": 50}","headsign":"{}","duration_avg":420,"n_vehicles":50,"d":4200,"route_I_counts":"{\"1\": 50}","source":12,"target":11,"layer":"L","from":"澳门妈阁(地铁站)","to":"澳门海洋(地铁站)"},"geometry":{"type":"LineString","coordinates":[[113.529774,22.183451],[113.541307,22.15782]]}},{"type":"Feature","properties":{"shape_id":"{}","direction_id":"{\"0\": 50}","headsign":"{}","duration_avg":90,"n_vehicles":50,"d":900,"route_I_counts":"{\"2\": 50}","source":5,"target":13,"layer":"L","from":"澳门协和医院(地铁站)","to":"Seac Pai Van"},"geometry":{"type":"LineString","coordinates":[[113.563283,22.138739],[113.561081,22.131439]]}},{"type":"Feature","properties":{"shape_id":"{}","direction_id":"{\"1\": 50}","headsign":"{}","duration_avg":90,"n_vehicles":50,"d":900,"route_I_counts":"{\"2\": 50}","source":13,"target":5,"layer":"L","from":"Seac Pai Van","to":"澳门协和医院(地铁站)"},"geometry":{"type":"LineString","coordinates":[[113.561081,22.131439],[113.563283,22.138739]]}},{"type":"Feature","properties":{"shape_id":"{}","direction_id":"{\"0\": 50}","headsign":"{}","duration_avg":120,"n_vehicles":50,"d":1200,"route_I_counts":"{\"3\": 50}","source":6,"target":14,"layer":"L","from":"澳门莲花(地铁站)","to":"Hengqin"},"geometry":{"type":"LineString","coordinates":[[113.55978,22.139557],[113.544753,22.142723]]}},{"type":"Feature","properties":{"shape_id":"{}","direction_id":"{\"1\": 50}","headsign":"{}","duration_avg":120,"n_vehicles":50,"d":1200,"route_I_counts":"{\"3\": 50}","source":14,"target":6,"layer":"L","from":"Hengqin","to":"澳门莲花(地铁站)"},"geometry":{"type":"LineString","coordinates":[[113.544753,22.142723],[113.55978,22.139557]]}}]}