{"type":"FeatureCollection","features":[{"type":"Feature","geometry":{"type":"Point","coordinates":[108.409997,22.842332]},"properties":{"name":"南宁火车东站(地铁站)","original_ids":"[1]","id":0,"layer":"stop"}},{"type":"Feature","geometry":{"type":"Point","coordinates":[108.420694,22.834576]},"properties":{"name":"南宁佛子岭(地铁站)","original_ids":"[2]","id":1,"layer":"stop"}},{"type":"Feature","geometry":{"type":"Point","coordinates":[108.423864,22.820785]},"properties":{"name":"南宁百花岭(地铁站)","original_ids":"[3]","id":2,"layer":"stop"}},{"type":"Feature","geometry":{"type":"Point","coordinates":[108.414551,22.815589]},"properties":{"name":"南宁埌东客运站(地铁站)","original_ids":"[4]","id":3,"layer":"stop"}},{"type":"Feature","geometry":{"type":"Point","coordinates":[108.406251,22.815782]},"properties":{"name":"南宁凤岭(地铁站)","original_ids":"[5]","id":4,"layer":"stop"}},{"type":"Feature","geometry":{"type":"Point","coordinates":[108.394952,22.815768]},"properties":{"name":"南宁东盟商务区(地铁站)","original_ids":"[6]","id":5,"layer":"stop"}},{"type":"Feature","geometry":{"type":"Point","coordinates":[108.387927,22.815705]},"properties":{"name":"南宁万象城(地铁站)","original_ids":"[7]","id":6,"layer":"stop"}},{"type":"Feature","geometry":{"type":"Point","coordinates":[108.379638,22.815534]},"properties":{"name":"南宁会展中心(地铁站)","original_ids":"[8]","id":7,"layer":"stop"}},{"type":"Feature","geometry":{"type":"Point","coordinates":[108.368426,22.815425]},"properties":{"name":"南宁金湖广场(地铁站)","original_ids":"[9]","id":8,"layer":"stop"}},{"type":"Feature","geometry":{"type":"Point","coordinates":[108.359,22.816363]},"properties":{"name":"南宁南湖(地铁站)","original_ids":"[10]","id":9,"layer":"stop"}},{"type":"Feature","geometry":{"type":"Point","coordinates":[108.343432,22.815731]},"properties":{"name":"南宁麻村(地铁站)","original_ids":"[11]","id":10,"layer":"stop"}},{"type":"Feature","geometry":{"type":"Point","coordinates":[108.332331,22.815786]},"properties":{"name":"南宁民族广场(地铁站)","original_ids":"[12]","id":11,"layer":"stop"}},{"type":"Feature","geometry":{"type":"Point","coordinates":[108.323321,22.815797]},"properties":{"name":"南宁新民路(地铁站)","original_ids":"[13]","id":12,"layer":"stop"}},{"type":"Feature","geometry":{"type":"Point","coordinates":[108.316853,22.819858]},"properties":{"name":"南宁朝阳广场(地铁站)","original_ids":"[14]","id":13,"layer":"stop"}},{"type":"Feature","geometry":{"type":"Point","coordinates":[108.312354,22.827645]},"properties":{"name":"南宁火车站(地铁站)","original_ids":"[15]","id":14,"layer":"stop"}},{"type":"Feature","geometry":{"type":"Point","coordinates":[108.303189,22.833857]},"properties":{"name":"南宁白苍岭(地铁站)","original_ids":"[16]","id":15,"layer":"stop"}},{"type":"Feature","geometry":{"type":"Point","coordinates":[108.287171,22.834417]},"properties":{"name":"南宁广西大学(地铁站)","original_ids":"[17]","id":16,"layer":"stop"}},{"type":"Feature","geometry":{"type":"Point","coordinates":[108.279081,22.836894]},"properties":{"name":"南宁鲁班路(地铁站)","original_ids":"[18]","id":17,"layer":"stop"}},{"type":"Feature","geometry":{"type":"Point","coordinates":[108.263854,22.840638]},"properties":{"name":"南宁动物园(地铁站)","original_ids":"[19]","id":18,"layer":"stop"}},{"type":"Feature","geometry":{"type":"Point","coordinates":[108.249205,22.84301]},"properties":{"name":"南宁清川(地铁站)","original_ids":"[20]","id":19,"layer":"stop"}},{"type":"Feature","geometry":{"type":"Point","coordinates":[108.229094,22.840063]},"properties":{"name":"南宁民族大学(地铁站)","original_ids":"[21]","id":20,"layer":"stop"}},{"type":"Feature","geometry":{"type":"Point","coordinates":[108.215216,22.835748]},"properties":{"name":"南宁西乡塘客运站(地铁站)","original_ids":"[22]","id":21,"layer":"stop"}},{"type":"Feature","geometry":{"type":"Point","coordinates":[108.198316,22.835857]},"properties":{"name":"南宁鹏飞路(地铁站)","original_ids":"[23]","id":22,"layer":"stop"}},{"type":"Feature","geometry":{"type":"Point","coordinates":[108.188255,22.835916]},"properties":{"name":"南宁南职院(地铁站)","original_ids":"[24]","id":23,"layer":"stop"}},{"type":"Feature","geometry":{"type":"Point","coordinates":[108.173576,22.829289]},"properties":{"name":"南宁石埠(地铁站)","original_ids":"[25]","id":24,"layer":"stop"}},{"type":"Feature","geometry":{"type":"Point","coordinates":[108.392255,22.728959]},"properties":{"name":"南宁坛泽(地铁站)","original_ids":"[26]","id":25,"layer":"stop"}},{"type":"Feature","geometry":{"type":"Point","coordinates":[108.37879,22.728985]},"properties":{"name":"南宁平良立交(地铁站)","original_ids":"[27]","id":26,"layer":"stop"}},{"type":"Feature","geometry":{"type":"Point","coordinates":[108.369472,22.727672]},"properties":{"name":"南宁那福路(地铁站)","original_ids":"[28]","id":27,"layer":"stop"}},{"type":"Feature","geometry":{"type":"Point","coordinates":[108.356182,22.724258]},"properties":{"name":"南宁玉岭路(地铁站)","original_ids":"[29]","id":28,"layer":"stop"}},{"type":"Feature","geometry":{"type":"Point","coordinates":[108.348349,22.722154]},"properties":{"name":"南宁东风路(地铁站)","original_ids":"[30]","id":29,"layer":"stop"}},{"type":"Feature","geometry":{"type":"Point","coordinates":[108.332635,22.7253]},"properties":{"name":"南宁玉洞(地铁站)","original_ids":"[31]","id":30,"layer":"stop"}},{"type":"Feature","geometry":{"type":"Point","coordinates":[108.328236,22.73407]},"properties":{"name":"南宁金象(地铁站)","original_ids":"[32]","id":31,"layer":"stop"}},{"type":"Feature","geometry":{"type":"Point","coordinates":[108.320382,22.743966]},"properties":{"name":"南宁石子塘(地铁站)","original_ids":"[33]","id":32,"layer":"stop"}},{"type":"Feature","geometry":{"type":"Point","coordinates":[108.314338,22.754612]},"properties":{"name":"南宁建设路(地铁站)","original_ids":"[34]","id":33,"layer":"stop"}},{"type":"Feature","geometry":{"type":"Point","coordinates":[108.31278,22.763604]},"properties":{"name":"南宁大沙田(地铁站)","original_ids":"[35]","id":34,"layer":"stop"}},{"type":"Feature","geometry":{"type":"Point","coordinates":[108.308149,22.769424]},"properties":{"name":"南宁江南客运站(地铁站)","original_ids":"[36]","id":35,"layer":"stop"}},{"type":"Feature","geometry":{"type":"Point","coordinates":[108.307515,22.784313]},"properties":{"name":"南宁石柱岭(地铁站)","original_ids":"[37]","id":36,"layer":"stop"}},{"type":"Feature","geometry":{"type":"Point","coordinates":[108.307431,22.791691]},"properties":{"name":"南宁亭洪路(地铁站)","original_ids":"[38]","id":37,"layer":"stop"}},{"type":"Feature","geometry":{"type":"Point","coordinates":[108.307279,22.799285]},"properties":{"name":"南宁福建园(地铁站)","original_ids":"[39]","id":38,"layer":"stop"}},{"type":"Feature","geometry":{"type":"Point","coordinates":[108.309672,22.806958]},"properties":{"name":"南宁南宁剧场(地铁站)","original_ids":"[40]","id":39,"layer":"stop"}},{"type":"Feature","geometry":{"type":"Point","coordinates":[108.308769,22.842007]},"properties":{"name":"南宁明秀路(地铁站)","original_ids":"[41]","id":40,"layer":"stop"}},{"type":"Feature","geometry":{"type":"Point","coordinates":[108.302721,22.851323]},"properties":{"name":"南宁秀厢(地铁站)","original_ids":"[42]","id":41,"layer":"stop"}},{"type":"Feature","geometry":{"type":"Point","coordinates":[108.298283,22.86076]},"properties":{"name":"南宁三十三中(地铁站)","original_ids":"[43]","id":42,"layer":"stop"}},{"type":"Feature","geometry":{"type":"Point","coordinates":[108.295599,22.871669]},"properties":{"name":"南宁苏卢(地铁站)","original_ids":"[44]","id":43,"layer":"stop"}},{"type":"Feature","geometry":{"type":"Point","coordinates":[108.293891,22.882539]},"properties":{"name":"南宁安吉客运站(地铁站)","original_ids":"[45]","id":44,"layer":"stop"}},{"type":"Feature","geometry":{"type":"Point","coordinates":[108.294506,22.892048]},"properties":{"name":"南宁西津(地铁站)","original_ids":"[46]","id":45,"layer":"stop"}},{"type":"Feature","geometry":{"type":"Point","coordinates":[108.265379,22.881142]},"properties":{"name":"南宁科园大道(地铁站)","original_ids":"[47]","id":46,"layer":"stop"}},{"type":"Feature","geometry":{"type":"Point","coordinates":[108.27999,22.881645]},"properties":{"name":"南宁创业路(地铁站)","original_ids":"[48]","id":47,"layer":"stop"}},{"type":"Feature","geometry":{"type":"Point","coordinates":[108.31282,22.878766]},"properties":{"name":"南宁北湖北路(地铁站)","original_ids":"[49]","id":48,"layer":"stop"}},{"type":"Feature","geometry":{"type":"Point","coordinates":[108.32724,22.880945]},"properties":{"name":"南宁秀峰路(地铁站)","original_ids":"[50]","id":49,"layer":"stop"}},{"type":"Feature","geometry":{"type":"Point","coordinates":[108.336179,22.878273]},"properties":{"name":"南宁邕武路(地铁站)","original_ids":"[51]","id":50,"layer":"stop"}},{"type":"Feature","geometry":{"type":"Point","coordinates":[108.346923,22.875238]},"properties":{"name":"南宁大鸡村(地铁站)","original_ids":"[52]","id":51,"layer":"stop"}},{"type":"Feature","geometry":{"type":"Point","coordinates":[108.352449,22.86719]},"properties":{"name":"南宁兴桂路(地铁站)","original_ids":"[53]","id":52,"layer":"stop"}},{"type":"Feature","geometry":{"type":"Point","coordinates":[108.352082,22.858927]},"properties":{"name":"南宁小鸡村(地铁站)","original_ids":"[54]","id":53,"layer":"stop"}},{"type":"Feature","geometry":{"type":"Point","coordinates":[108.350767,22.84803]},"properties":{"name":"南宁东沟岭(地铁站)","original_ids":"[55]","id":54,"layer":"stop"}},{"type":"Feature","geometry":{"type":"Point","coordinates":[108.35271,22.839471]},"properties":{"name":"南宁长堽路(地铁站)","original_ids":"[56]","id":55,"layer":"stop"}},{"type":"Feature","geometry":{"type":"Point","coordinates":[108.35587,22.832784]},"properties":{"name":"南宁东葛路(地铁站)","original_ids":"[57]","id":56,"layer":"stop"}},{"type":"Feature","geometry":{"type":"Point","coordinates":[108.365408,22.827594]},"properties":{"name":"南宁滨湖路(地铁站)","original_ids":"[58]","id":57,"layer":"stop"}},{"type":"Feature","geometry":{"type":"Point","coordinates":[108.363158,22.809783]},"properties":{"name":"南宁埌西(地铁站)","original_ids":"[59]","id":58,"layer":"stop"}},{"type":"Feature","geometry":{"type":"Point","coordinates":[108.360329,22.80194]},"properties":{"name":"南宁青竹立交(地铁站)","original_ids":"[60]","id":59,"layer":"stop"}},{"type":"Feature","geometry":{"type":"Point","coordinates":[108.364544,22.795246]},"properties":{"name":"南宁青秀山(地铁站)","original_ids":"[61]","id":60,"layer":"stop"}},{"type":"Feature","geometry":{"type":"Point","coordinates":[108.372026,22.777799]},"properties":{"name":"南宁市博物馆(地铁站)","original_ids":"[62]","id":61,"layer":"stop"}},{"type":"Feature","geometry":{"type":"Point","coordinates":[108.372182,22.77031]},"properties":{"name":"南宁总部基地(地铁站)","original_ids":"[63]","id":62,"layer":"stop"}},{"type":"Feature","geometry":{"type":"Point","coordinates":[108.373728,22.759856]},"properties":{"name":"南宁广西规划馆(地铁站)","original_ids":"[64]","id":63,"layer":"stop"}},{"type":"Feature","geometry":{"type":"Point","coordinates":[108.379307,22.752941]},"properties":{"name":"南宁庆歌路(地铁站)","original_ids":"[65]","id":64,"layer":"stop"}},{"type":"Feature","geometry":{"type":"Point","coordinates":[108.380243,22.741684]},"properties":{"name":"南宁五象湖(地铁站)","original_ids":"[66]","id":65,"layer":"stop"}},{"type":"Feature","geometry":{"type":"Point","coordinates":[108.424343,22.757136]},"properties":{"name":"南宁楞塘村(地铁站)","original_ids":"[67]","id":66,"layer":"stop"}},{"type":"Feature","geometry":{"type":"Point","coordinates":[108.413889,22.755669]},"properties":{"name":"南宁良庆圩(地铁站)","original_ids":"[68]","id":67,"layer":"stop"}},{"type":"Feature","geometry":{"type":"Point","coordinates":[108.402387,22.756673]},"properties":{"name":"南宁良庆大桥南(地铁站)","original_ids":"[69]","id":68,"layer":"stop"}},{"type":"Feature","geometry":{"type":"Point","coordinates":[108.395119,22.763444]},"properties":{"name":"南宁体育中心东(地铁站)","original_ids":"[70]","id":69,"layer":"stop"}},{"type":"Feature","geometry":{"type":"Point","coordinates":[108.388424,22.768012]},"properties":{"name":"南宁体育中心西(地铁站)","original_ids":"[71]","id":70,"layer":"stop"}},{"type":"Feature","geometry":{"type":"Point","coordinates":[108.382107,22.769085]},"properties":{"name":"南宁飞龙路(地铁站)","original_ids":"[72]","id":71,"layer":"stop"}},{"type":"Feature","geometry":{"type":"Point","coordinates":[108.359383,22.771059]},"properties":{"name":"南宁玉象路(地铁站)","original_ids":"[73]","id":72,"layer":"stop"}},{"type":"Feature","geometry":{"type":"Point","coordinates":[108.333993,22.764028]},"properties":{"name":"南宁五象岭(地铁站)","original_ids":"[74]","id":73,"layer":"stop"}},{"type":"Feature","geometry":{"type":"Point","coordinates":[108.319032,22.763544]},"properties":{"name":"南宁金象大道(地铁站)","original_ids":"[75]","id":74,"layer":"stop"}},{"type":"Feature","geometry":{"type":"Point","coordinates":[108.295938,22.761365]},"properties":{"name":"南宁通源路(地铁站)","original_ids":"[76]","id":75,"layer":"stop"}},{"type":"Feature","geometry":{"type":"Point","coordinates":[108.277533,22.763678]},"properties":{"name":"南宁金阳路(地铁站)","original_ids":"[77]","id":76,"layer":"stop"}},{"type":"Feature","geometry":{"type":"Point","coordinates":[108.266116,22.76361]},"properties":{"name":"南宁那洪立交(地铁站)","original_ids":"[78]","id":77,"layer":"stop"}},{"type":"Feature","geometry":{"type":"Point","coordinates":[108.254974,22.763642]},"properties":{"name":"南宁那历村(地铁站)","original_ids":"[79]","id":78,"layer":"stop"}},{"type":"Feature","geometry":{"type":"Point","coordinates":[108.238146,22.768386]},"properties":{"name":"南宁洪运路(地铁站)","original_ids":"[80]","id":79,"layer":"stop"}},{"type":"Feature","geometry":{"type":"Point","coordinates":[108.267704,22.756918]},"properties":{"name":"南宁国凯大道(地铁站)","original_ids":"[81]","id":80,"layer":"stop"}},{"type":"Feature","geometry":{"type":"Point","coordinates":[108.267472,22.771569]},"properties":{"name":"南宁金凯路(地铁站)","original_ids":"[82]","id":81,"layer":"stop"}},{"type":"Feature","geometry":{"type":"Point","coordinates":[108.267729,22.783575]},"properties":{"name":"南宁江南公园(地铁站)","original_ids":"[83]","id":82,"layer":"stop"}},{"type":"Feature","geometry":{"type":"Point","coordinates":[108.26813,22.79224]},"properties":{"name":"南宁周家坡(地铁站)","original_ids":"[84]","id":83,"layer":"stop"}},{"type":"Feature","geometry":{"type":"Point","coordinates":[108.271843,22.803789]},"properties":{"name":"南宁五一立交(地铁站)","original_ids":"[85]","id":84,"layer":"stop"}},{"type":"Feature","geometry":{"type":"Point","coordinates":[108.282463,22.821371]},"properties":{"name":"南宁新秀公园(地铁站)","original_ids":"[86]","id":85,"layer":"stop"}},{"type":"Feature","geometry":{"type":"Point","coordinates":[108.30181,22.840046]},"properties":{"name":"南宁秀灵路(地铁站)","original_ids":"[87]","id":86,"layer":"stop"}},{"type":"Feature","geometry":{"type":"Point","coordinates":[108.317955,22.846983]},"properties":{"name":"南宁北湖南路(地铁站)","original_ids":"[88]","id":87,"layer":"stop"}},{"type":"Feature","geometry":{"type":"Point","coordinates":[108.327081,22.850806]},"properties":{"name":"南宁虎邱(地铁站)","original_ids":"[89]","id":88,"layer":"stop"}},{"type":"Feature","geometry":{"type":"Point","coordinates":[108.336865,22.85601]},"properties":{"name":"南宁狮山公园(地铁站)","original_ids":"[90]","id":89,"layer":"stop"}},{"type":"Feature","geometry":{"type":"Point","coordinates":[108.359897,22.859417]},"properties":{"name":"南宁邕宾立交(地铁站)","original_ids":"[91]","id":90,"layer":"stop"}},{"type":"Feature","geometry":{"type":"Point","coordinates":[108.3699,22.865378]},"properties":{"name":"南宁降桥(地铁站)","original_ids":"[92]","id":91,"layer":"stop"}},{"type":"Feature","geometry":{"type":"Point","coordinates":[108.381001,22.867272]},"properties":{"name":"南宁金桥客运站(地铁站)","original_ids":"[93]","id":92,"layer":"stop"}},{"type":"Feature","properties":{"shape_id":"{}","direction_id":"{\"0\": 50}","headsign":"{}","duration_avg":115.0,"n_vehicles":50,"d":1150,"route_I_counts":"{\"1\": 50}","source":0,"target":1,"layer":"L","from":"南宁火车东站(地铁站)","to":"南宁佛子岭(地铁站)"},"geometry":{"type":"LineString","coordinates":[[108.409997,22.842332],[108.420694,22.834576]]}},{"type":"Feature","properties":{"shape_id":"{}","direction_id":"{\"1\": 50}","headsign":"{}","duration_avg":115.0,"n_vehicles":50,"d":1150,"route_I_counts":"{\"1\": 50}","source":1,"target":0,"layer":"L","from":"南宁佛子岭(地铁站)","to":"南宁火车东站(地铁站)"},"geometry":{"type":"LineString","coordinates":[[108.420694,22.834576],[108.409997,22.842332]]}},{"type":"Feature","properties":{"shape_id":"{}","direction_id":"{\"0\": 50}","headsign":"{}","duration_avg":143.0,"n_vehicles":50,"d":1430,"route_I_counts":"{\"1\": 50}","source":1,"target":2,"layer":"L","from":"南宁佛子岭(地铁站)","to":"南宁百花岭(地铁站)"},"geometry":{"type":"LineString","coordinates":[[108.420694,22.834576],[108.423864,22.820785]]}},{"type":"Feature","properties":{"shape_id":"{}","direction_id":"{\"1\": 50}","headsign":"{}","duration_avg":143.0,"n_vehicles":50,"d":1430,"route_I_counts":"{\"1\": 50}","source":2,"target":1,"layer":"L","from":"南宁百花岭(地铁站)","to":"南宁佛子岭(地铁站)"},"geometry":{"type":"LineString","coordinates":[[108.423864,22.820785],[108.420694,22.834576]]}},{"type":"Feature","properties":{"shape_id":"{}","direction_id":"{\"0\": 50}","headsign":"{}","duration_avg":148.0,"n_vehicles":50,"d":1480,"route_I_counts":"{\"1\": 50}","source":2,"target":3,"layer":"L","from":"南宁百花岭(地铁站)","to":"南宁埌东客运站(地铁站)"},"geometry":{"type":"LineString","coordinates":[[108.423864,22.820785],[108.414551,22.815589]]}},{"type":"Feature","properties":{"shape_id":"{}","direction_id":"{\"1\": 50}","headsign":"{}","duration_avg":148.0,"n_vehicles":50,"d":1480,"route_I_counts":"{\"1\": 50}","source":3,"target":2,"layer":"L","from":"南宁埌东客运站(地铁站)","to":"南宁百花岭(地铁站)"},"geometry":{"type":"LineString","coordinates":[[108.414551,22.815589],[108.423864,22.820785]]}},{"type":"Feature","properties":{"shape_id":"{}","direction_id":"{\"0\": 50}","headsign":"{}","duration_avg":117.0,"n_vehicles":50,"d":1170,"route_I_counts":"{\"1\": 50}","source":3,"target":4,"layer":"L","from":"南宁埌东客运站(地铁站)","to":"南宁凤岭(地铁站)"},"geometry":{"type":"LineString","coordinates":[[108.414551,22.815589],[108.406251,22.815782]]}},{"type":"Feature","properties":{"shape_id":"{}","direction_id":"{\"1\": 50}","headsign":"{}","duration_avg":117.0,"n_vehicles":50,"d":1170,"route_I_counts":"{\"1\": 50}","source":4,"target":3,"layer":"L","from":"南宁凤岭(地铁站)","to":"南宁埌东客运站(地铁站)"},"geometry":{"type":"LineString","coordinates":[[108.406251,22.815782],[108.414551,22.815589]]}},{"type":"Feature","properties":{"shape_id":"{}","direction_id":"{\"0\": 50}","headsign":"{}","duration_avg":124.0,"n_vehicles":50,"d":1240,"route_I_counts":"{\"1\": 50}","source":4,"target":5,"layer":"L","from":"南宁凤岭(地铁站)","to":"南宁东盟商务区(地铁站)"},"geometry":{"type":"LineString","coordinates":[[108.406251,22.815782],[108.394952,22.815768]]}},{"type":"Feature","properties":{"shape_id":"{}","direction_id":"{\"1\": 50}","headsign":"{}","duration_avg":124.0,"n_vehicles":50,"d":1240,"route_I_counts":"{\"1\": 50}","source":5,"target":4,"layer":"L","from":"南宁东盟商务区(地铁站)","to":"南宁凤岭(地铁站)"},"geometry":{"type":"LineString","coordinates":[[108.394952,22.815768],[108.406251,22.815782]]}},{"type":"Feature","properties":{"shape_id":"{}","direction_id":"{\"0\": 50}","headsign":"{}","duration_avg":104.0,"n_vehicles":50,"d":1040,"route_I_counts":"{\"1\": 50}","source":5,"target":6,"layer":"L","from":"南宁东盟商务区(地铁站)","to":"南宁万象城(地铁站)"},"geometry":{"type":"LineString","coordinates":[[108.394952,22.815768],[108.387927,22.815705]]}},{"type":"Feature","properties":{"shape_id":"{}","direction_id":"{\"1\": 50}","headsign":"{}","duration_avg":104.0,"n_vehicles":50,"d":1040,"route_I_counts":"{\"1\": 50}","source":6,"target":5,"layer":"L","from":"南宁万象城(地铁站)","to":"南宁东盟商务区(地铁站)"},"geometry":{"type":"LineString","coordinates":[[108.387927,22.815705],[108.394952,22.815768]]}},{"type":"Feature","properties":{"shape_id":"{}","direction_id":"{\"0\": 50}","headsign":"{}","duration_avg":107.0,"n_vehicles":50,"d":1070,"route_I_counts":"{\"1\": 50}","source":6,"target":7,"layer":"L","from":"南宁万象城(地铁站)","to":"南宁会展中心(地铁站)"},"geometry":{"type":"LineString","coordinates":[[108.387927,22.815705],[108.379638,22.815534]]}},{"type":"Feature","properties":{"shape_id":"{}","direction_id":"{\"1\": 50}","headsign":"{}","duration_avg":107.0,"n_vehicles":50,"d":1070,"route_I_counts":"{\"1\": 50}","source":7,"target":6,"layer":"L","from":"南宁会展中心(地铁站)","to":"南宁万象城(地铁站)"},"geometry":{"type":"LineString","coordinates":[[108.379638,22.815534],[108.387927,22.815705]]}},{"type":"Feature","properties":{"shape_id":"{}","direction_id":"{\"0\": 50}","headsign":"{}","duration_avg":120.0,"n_vehicles":50,"d":1200,"route_I_counts":"{\"1\": 50}","source":7,"target":8,"layer":"L","from":"南宁会展中心(地铁站)","to":"南宁金湖广场(地铁站)"},"geometry":{"type":"LineString","coordinates":[[108.379638,22.815534],[108.368426,22.815425]]}},{"type":"Feature","properties":{"shape_id":"{}","direction_id":"{\"1\": 50}","headsign":"{}","duration_avg":120.0,"n_vehicles":50,"d":1200,"route_I_counts":"{\"1\": 50}","source":8,"target":7,"layer":"L","from":"南宁金湖广场(地铁站)","to":"南宁会展中心(地铁站)"},"geometry":{"type":"LineString","coordinates":[[108.368426,22.815425],[108.379638,22.815534]]}},{"type":"Feature","properties":{"shape_id":"{}","direction_id":"{\"0\": 50}","headsign":"{}","duration_avg":136.0,"n_vehicles":50,"d":1360,"route_I_counts":"{\"1\": 50}","source":8,"target":9,"layer":"L","from":"南宁金湖广场(地铁站)","to":"南宁南湖(地铁站)"},"geometry":{"type":"LineString","coordinates":[[108.368426,22.815425],[108.359,22.816363]]}},{"type":"Feature","properties":{"shape_id":"{}","direction_id":"{\"1\": 50}","headsign":"{}","duration_avg":136.0,"n_vehicles":50,"d":1360,"route_I_counts":"{\"1\": 50}","source":9,"target":8,"layer":"L","from":"南宁南湖(地铁站)","to":"南宁金湖广场(地铁站)"},"geometry":{"type":"LineString","coordinates":[[108.359,22.816363],[108.368426,22.815425]]}},{"type":"Feature","properties":{"shape_id":"{}","direction_id":"{\"0\": 50}","headsign":"{}","duration_avg":93.0,"n_vehicles":50,"d":930,"route_I_counts":"{\"1\": 50}","source":9,"target":10,"layer":"L","from":"南宁南湖(地铁站)","to":"南宁麻村(地铁站)"},"geometry":{"type":"LineString","coordinates":[[108.359,22.816363],[108.343432,22.815731]]}},{"type":"Feature","properties":{"shape_id":"{}","direction_id":"{\"1\": 50}","headsign":"{}","duration_avg":93.0,"n_vehicles":50,"d":930,"route_I_counts":"{\"1\": 50}","source":10,"target":9,"layer":"L","from":"南宁麻村(地铁站)","to":"南宁南湖(地铁站)"},"geometry":{"type":"LineString","coordinates":[[108.343432,22.815731],[108.359,22.816363]]}},{"type":"Feature","properties":{"shape_id":"{}","direction_id":"{\"0\": 50}","headsign":"{}","duration_avg":129.0,"n_vehicles":50,"d":1290,"route_I_counts":"{\"1\": 50}","source":10,"target":11,"layer":"L","from":"南宁麻村(地铁站)","to":"南宁民族广场(地铁站)"},"geometry":{"type":"LineString","coordinates":[[108.343432,22.815731],[108.332331,22.815786]]}},{"type":"Feature","properties":{"shape_id":"{}","direction_id":"{\"1\": 50}","headsign":"{}","duration_avg":129.0,"n_vehicles":50,"d":1290,"route_I_counts":"{\"1\": 50}","source":11,"target":10,"layer":"L","from":"南宁民族广场(地铁站)","to":"南宁麻村(地铁站)"},"geometry":{"type":"LineString","coordinates":[[108.332331,22.815786],[108.343432,22.815731]]}},{"type":"Feature","properties":{"shape_id":"{}","direction_id":"{\"0\": 50}","headsign":"{}","duration_avg":115.0,"n_vehicles":50,"d":1150,"route_I_counts":"{\"1\": 50}","source":11,"target":12,"layer":"L","from":"南宁民族广场(地铁站)","to":"南宁新民路(地铁站)"},"geometry":{"type":"LineString","coordinates":[[108.332331,22.815786],[108.323321,22.815797]]}},{"type":"Feature","properties":{"shape_id":"{}","direction_id":"{\"1\": 50}","headsign":"{}","duration_avg":115.0,"n_vehicles":50,"d":1150,"route_I_counts":"{\"1\": 50}","source":12,"target":11,"layer":"L","from":"南宁新民路(地铁站)","to":"南宁民族广场(地铁站)"},"geometry":{"type":"LineString","coordinates":[[108.323321,22.815797],[108.332331,22.815786]]}},{"type":"Feature","properties":{"shape_id":"{}","direction_id":"{\"0\": 50}","headsign":"{}","duration_avg":124.0,"n_vehicles":50,"d":1240,"route_I_counts":"{\"1\": 50}","source":12,"target":13,"layer":"L","from":"南宁新民路(地铁站)","to":"南宁朝阳广场(地铁站)"},"geometry":{"type":"LineString","coordinates":[[108.323321,22.815797],[108.316853,22.819858]]}},{"type":"Feature","properties":{"shape_id":"{}","direction_id":"{\"1\": 50}","headsign":"{}","duration_avg":124.0,"n_vehicles":50,"d":1240,"route_I_counts":"{\"1\": 50}","source":13,"target":12,"layer":"L","from":"南宁朝阳广场(地铁站)","to":"南宁新民路(地铁站)"},"geometry":{"type":"LineString","coordinates":[[108.316853,22.819858],[108.323321,22.815797]]}},{"type":"Feature","properties":{"shape_id":"{}","direction_id":"{\"0\": 50}","headsign":"{}","duration_avg":139.0,"n_vehicles":50,"d":1390,"route_I_counts":"{\"1\": 50, \"2\": 50}","source":13,"target":14,"layer":"L","from":"南宁朝阳广场(地铁站)","to":"南宁火车站(地铁站)"},"geometry":{"type":"LineString","coordinates":[[108.316853,22.819858],[108.312354,22.827645]]}},{"type":"Feature","properties":{"shape_id":"{}","direction_id":"{\"1\": 50}","headsign":"{}","duration_avg":139.0,"n_vehicles":50,"d":1390,"route_I_counts":"{\"1\": 50, \"2\": 50}","source":14,"target":13,"layer":"L","from":"南宁火车站(地铁站)","to":"南宁朝阳广场(地铁站)"},"geometry":{"type":"LineString","coordinates":[[108.312354,22.827645],[108.316853,22.819858]]}},{"type":"Feature","properties":{"shape_id":"{}","direction_id":"{\"0\": 50}","headsign":"{}","duration_avg":157.0,"n_vehicles":50,"d":1570,"route_I_counts":"{\"1\": 50}","source":14,"target":15,"layer":"L","from":"南宁火车站(地铁站)","to":"南宁白苍岭(地铁站)"},"geometry":{"type":"LineString","coordinates":[[108.312354,22.827645],[108.303189,22.833857]]}},{"type":"Feature","properties":{"shape_id":"{}","direction_id":"{\"1\": 50}","headsign":"{}","duration_avg":157.0,"n_vehicles":50,"d":1570,"route_I_counts":"{\"1\": 50}","source":15,"target":14,"layer":"L","from":"南宁白苍岭(地铁站)","to":"南宁火车站(地铁站)"},"geometry":{"type":"LineString","coordinates":[[108.303189,22.833857],[108.312354,22.827645]]}},{"type":"Feature","properties":{"shape_id":"{}","direction_id":"{\"0\": 50}","headsign":"{}","duration_avg":151.0,"n_vehicles":50,"d":1510,"route_I_counts":"{\"1\": 50}","source":15,"target":16,"layer":"L","from":"南宁白苍岭(地铁站)","to":"南宁广西大学(地铁站)"},"geometry":{"type":"LineString","coordinates":[[108.303189,22.833857],[108.287171,22.834417]]}},{"type":"Feature","properties":{"shape_id":"{}","direction_id":"{\"1\": 50}","headsign":"{}","duration_avg":151.0,"n_vehicles":50,"d":1510,"route_I_counts":"{\"1\": 50}","source":16,"target":15,"layer":"L","from":"南宁广西大学(地铁站)","to":"南宁白苍岭(地铁站)"},"geometry":{"type":"LineString","coordinates":[[108.287171,22.834417],[108.303189,22.833857]]}},{"type":"Feature","properties":{"shape_id":"{}","direction_id":"{\"0\": 50}","headsign":"{}","duration_avg":142.0,"n_vehicles":50,"d":1420,"route_I_counts":"{\"1\": 50}","source":16,"target":17,"layer":"L","from":"南宁广西大学(地铁站)","to":"南宁鲁班路(地铁站)"},"geometry":{"type":"LineString","coordinates":[[108.287171,22.834417],[108.279081,22.836894]]}},{"type":"Feature","properties":{"shape_id":"{}","direction_id":"{\"1\": 50}","headsign":"{}","duration_avg":142.0,"n_vehicles":50,"d":1420,"route_I_counts":"{\"1\": 50}","source":17,"target":16,"layer":"L","from":"南宁鲁班路(地铁站)","to":"南宁广西大学(地铁站)"},"geometry":{"type":"LineString","coordinates":[[108.279081,22.836894],[108.287171,22.834417]]}},{"type":"Feature","properties":{"shape_id":"{}","direction_id":"{\"0\": 50}","headsign":"{}","duration_avg":163.0,"n_vehicles":50,"d":1630,"route_I_counts":"{\"1\": 50}","source":17,"target":18,"layer":"L","from":"南宁鲁班路(地铁站)","to":"南宁动物园(地铁站)"},"geometry":{"type":"LineString","coordinates":[[108.279081,22.836894],[108.263854,22.840638]]}},{"type":"Feature","properties":{"shape_id":"{}","direction_id":"{\"1\": 50}","headsign":"{}","duration_avg":163.0,"n_vehicles":50,"d":1630,"route_I_counts":"{\"1\": 50}","source":18,"target":17,"layer":"L","from":"南宁动物园(地铁站)","to":"南宁鲁班路(地铁站)"},"geometry":{"type":"LineString","coordinates":[[108.263854,22.840638],[108.279081,22.836894]]}},{"type":"Feature","properties":{"shape_id":"{}","direction_id":"{\"0\": 50}","headsign":"{}","duration_avg":157.0,"n_vehicles":50,"d":1570,"route_I_counts":"{\"1\": 50}","source":18,"target":19,"layer":"L","from":"南宁动物园(地铁站)","to":"南宁清川(地铁站)"},"geometry":{"type":"LineString","coordinates":[[108.263854,22.840638],[108.249205,22.84301]]}},{"type":"Feature","properties":{"shape_id":"{}","direction_id":"{\"1\": 50}","headsign":"{}","duration_avg":157.0,"n_vehicles":50,"d":1570,"route_I_counts":"{\"1\": 50}","source":19,"target":18,"layer":"L","from":"南宁清川(地铁站)","to":"南宁动物园(地铁站)"},"geometry":{"type":"LineString","coordinates":[[108.249205,22.84301],[108.263854,22.840638]]}},{"type":"Feature","properties":{"shape_id":"{}","direction_id":"{\"0\": 50}","headsign":"{}","duration_avg":180.0,"n_vehicles":50,"d":1800,"route_I_counts":"{\"1\": 50}","source":19,"target":20,"layer":"L","from":"南宁清川(地铁站)","to":"南宁民族大学(地铁站)"},"geometry":{"type":"LineString","coordinates":[[108.249205,22.84301],[108.229094,22.840063]]}},{"type":"Feature","properties":{"shape_id":"{}","direction_id":"{\"1\": 50}","headsign":"{}","duration_avg":180.0,"n_vehicles":50,"d":1800,"route_I_counts":"{\"1\": 50}","source":20,"target":19,"layer":"L","from":"南宁民族大学(地铁站)","to":"南宁清川(地铁站)"},"geometry":{"type":"LineString","coordinates":[[108.229094,22.840063],[108.249205,22.84301]]}},{"type":"Feature","properties":{"shape_id":"{}","direction_id":"{\"0\": 50}","headsign":"{}","duration_avg":148.0,"n_vehicles":50,"d":1480,"route_I_counts":"{\"1\": 50}","source":20,"target":21,"layer":"L","from":"南宁民族大学(地铁站)","to":"南宁西乡塘客运站(地铁站)"},"geometry":{"type":"LineString","coordinates":[[108.229094,22.840063],[108.215216,22.835748]]}},{"type":"Feature","properties":{"shape_id":"{}","direction_id":"{\"1\": 50}","headsign":"{}","duration_avg":148.0,"n_vehicles":50,"d":1480,"route_I_counts":"{\"1\": 50}","source":21,"target":20,"layer":"L","from":"南宁西乡塘客运站(地铁站)","to":"南宁民族大学(地铁站)"},"geometry":{"type":"LineString","coordinates":[[108.215216,22.835748],[108.229094,22.840063]]}},{"type":"Feature","properties":{"shape_id":"{}","direction_id":"{\"0\": 50}","headsign":"{}","duration_avg":176.0,"n_vehicles":50,"d":1760,"route_I_counts":"{\"1\": 50}","source":21,"target":22,"layer":"L","from":"南宁西乡塘客运站(地铁站)","to":"南宁鹏飞路(地铁站)"},"geometry":{"type":"LineString","coordinates":[[108.215216,22.835748],[108.198316,22.835857]]}},{"type":"Feature","properties":{"shape_id":"{}","direction_id":"{\"1\": 50}","headsign":"{}","duration_avg":176.0,"n_vehicles":50,"d":1760,"route_I_counts":"{\"1\": 50}","source":22,"target":21,"layer":"L","from":"南宁鹏飞路(地铁站)","to":"南宁西乡塘客运站(地铁站)"},"geometry":{"type":"LineString","coordinates":[[108.198316,22.835857],[108.215216,22.835748]]}},{"type":"Feature","properties":{"shape_id":"{}","direction_id":"{\"0\": 50}","headsign":"{}","duration_avg":117.0,"n_vehicles":50,"d":1170,"route_I_counts":"{\"1\": 50}","source":22,"target":23,"layer":"L","from":"南宁鹏飞路(地铁站)","to":"南宁南职院(地铁站)"},"geometry":{"type":"LineString","coordinates":[[108.198316,22.835857],[108.188255,22.835916]]}},{"type":"Feature","properties":{"shape_id":"{}","direction_id":"{\"1\": 50}","headsign":"{}","duration_avg":117.0,"n_vehicles":50,"d":1170,"route_I_counts":"{\"1\": 50}","source":23,"target":22,"layer":"L","from":"南宁南职院(地铁站)","to":"南宁鹏飞路(地铁站)"},"geometry":{"type":"LineString","coordinates":[[108.188255,22.835916],[108.198316,22.835857]]}},{"type":"Feature","properties":{"shape_id":"{}","direction_id":"{\"0\": 50}","headsign":"{}","duration_avg":166.0,"n_vehicles":50,"d":1660,"route_I_counts":"{\"1\": 50}","source":23,"target":24,"layer":"L","from":"南宁南职院(地铁站)","to":"南宁石埠(地铁站)"},"geometry":{"type":"LineString","coordinates":[[108.188255,22.835916],[108.173576,22.829289]]}},{"type":"Feature","properties":{"shape_id":"{}","direction_id":"{\"1\": 50}","headsign":"{}","duration_avg":166.0,"n_vehicles":50,"d":1660,"route_I_counts":"{\"1\": 50}","source":24,"target":23,"layer":"L","from":"南宁石埠(地铁站)","to":"南宁南职院(地铁站)"},"geometry":{"type":"LineString","coordinates":[[108.173576,22.829289],[108.188255,22.835916]]}},{"type":"Feature","properties":{"shape_id":"{}","direction_id":"{\"0\": 50}","headsign":"{}","duration_avg":123.0,"n_vehicles":50,"d":1230,"route_I_counts":"{\"2\": 50}","source":25,"target":26,"layer":"L","from":"南宁坛泽(地铁站)","to":"南宁平良立交(地铁站)"},"geometry":{"type":"LineString","coordinates":[[108.392255,22.728959],[108.37879,22.728985]]}},{"type":"Feature","properties":{"shape_id":"{}","direction_id":"{\"1\": 50}","headsign":"{}","duration_avg":123.0,"n_vehicles":50,"d":1230,"route_I_counts":"{\"2\": 50}","source":26,"target":25,"layer":"L","from":"南宁平良立交(地铁站)","to":"南宁坛泽(地铁站)"},"geometry":{"type":"LineString","coordinates":[[108.37879,22.728985],[108.392255,22.728959]]}},{"type":"Feature","properties":{"shape_id":"{}","direction_id":"{\"0\": 50}","headsign":"{}","duration_avg":119.0,"n_vehicles":50,"d":1190,"route_I_counts":"{\"2\": 50}","source":26,"target":27,"layer":"L","from":"南宁平良立交(地铁站)","to":"南宁那福路(地铁站)"},"geometry":{"type":"LineString","coordinates":[[108.37879,22.728985],[108.369472,22.727672]]}},{"type":"Feature","properties":{"shape_id":"{}","direction_id":"{\"1\": 50}","headsign":"{}","duration_avg":119.0,"n_vehicles":50,"d":1190,"route_I_counts":"{\"2\": 50}","source":27,"target":26,"layer":"L","from":"南宁那福路(地铁站)","to":"南宁平良立交(地铁站)"},"geometry":{"type":"LineString","coordinates":[[108.369472,22.727672],[108.37879,22.728985]]}},{"type":"Feature","properties":{"shape_id":"{}","direction_id":"{\"0\": 50}","headsign":"{}","duration_avg":135.0,"n_vehicles":50,"d":1350,"route_I_counts":"{\"2\": 50}","source":27,"target":28,"layer":"L","from":"南宁那福路(地铁站)","to":"南宁玉岭路(地铁站)"},"geometry":{"type":"LineString","coordinates":[[108.369472,22.727672],[108.356182,22.724258]]}},{"type":"Feature","properties":{"shape_id":"{}","direction_id":"{\"1\": 50}","headsign":"{}","duration_avg":135.0,"n_vehicles":50,"d":1350,"route_I_counts":"{\"2\": 50}","source":28,"target":27,"layer":"L","from":"南宁玉岭路(地铁站)","to":"南宁那福路(地铁站)"},"geometry":{"type":"LineString","coordinates":[[108.356182,22.724258],[108.369472,22.727672]]}},{"type":"Feature","properties":{"shape_id":"{}","direction_id":"{\"0\": 50}","headsign":"{}","duration_avg":105.0,"n_vehicles":50,"d":1050,"route_I_counts":"{\"2\": 50}","source":28,"target":29,"layer":"L","from":"南宁玉岭路(地铁站)","to":"南宁东风路(地铁站)"},"geometry":{"type":"LineString","coordinates":[[108.356182,22.724258],[108.348349,22.722154]]}},{"type":"Feature","properties":{"shape_id":"{}","direction_id":"{\"1\": 50}","headsign":"{}","duration_avg":105.0,"n_vehicles":50,"d":1050,"route_I_counts":"{\"2\": 50}","source":29,"target":28,"layer":"L","from":"南宁东风路(地铁站)","to":"南宁玉岭路(地铁站)"},"geometry":{"type":"LineString","coordinates":[[108.348349,22.722154],[108.356182,22.724258]]}},{"type":"Feature","properties":{"shape_id":"{}","direction_id":"{\"0\": 50}","headsign":"{}","duration_avg":159.0,"n_vehicles":50,"d":1590,"route_I_counts":"{\"2\": 50}","source":29,"target":30,"layer":"L","from":"南宁东风路(地铁站)","to":"南宁玉洞(地铁站)"},"geometry":{"type":"LineString","coordinates":[[108.348349,22.722154],[108.332635,22.7253]]}},{"type":"Feature","properties":{"shape_id":"{}","direction_id":"{\"1\": 50}","headsign":"{}","duration_avg":159.0,"n_vehicles":50,"d":1590,"route_I_counts":"{\"2\": 50}","source":30,"target":29,"layer":"L","from":"南宁玉洞(地铁站)","to":"南宁东风路(地铁站)"},"geometry":{"type":"LineString","coordinates":[[108.332635,22.7253],[108.348349,22.722154]]}},{"type":"Feature","properties":{"shape_id":"{}","direction_id":"{\"0\": 50}","headsign":"{}","duration_avg":125.0,"n_vehicles":50,"d":1250,"route_I_counts":"{\"2\": 50}","source":30,"target":31,"layer":"L","from":"南宁玉洞(地铁站)","to":"南宁金象(地铁站)"},"geometry":{"type":"LineString","coordinates":[[108.332635,22.7253],[108.328236,22.73407]]}},{"type":"Feature","properties":{"shape_id":"{}","direction_id":"{\"1\": 50}","headsign":"{}","duration_avg":125.0,"n_vehicles":50,"d":1250,"route_I_counts":"{\"2\": 50}","source":31,"target":30,"layer":"L","from":"南宁金象(地铁站)","to":"南宁玉洞(地铁站)"},"geometry":{"type":"LineString","coordinates":[[108.328236,22.73407],[108.332635,22.7253]]}},{"type":"Feature","properties":{"shape_id":"{}","direction_id":"{\"0\": 50}","headsign":"{}","duration_avg":140.0,"n_vehicles":50,"d":1400,"route_I_counts":"{\"2\": 50}","source":31,"target":32,"layer":"L","from":"南宁金象(地铁站)","to":"南宁石子塘(地铁站)"},"geometry":{"type":"LineString","coordinates":[[108.328236,22.73407],[108.320382,22.743966]]}},{"type":"Feature","properties":{"shape_id":"{}","direction_id":"{\"1\": 50}","headsign":"{}","duration_avg":140.0,"n_vehicles":50,"d":1400,"route_I_counts":"{\"2\": 50}","source":32,"target":31,"layer":"L","from":"南宁石子塘(地铁站)","to":"南宁金象(地铁站)"},"geometry":{"type":"LineString","coordinates":[[108.320382,22.743966],[108.328236,22.73407]]}},{"type":"Feature","properties":{"shape_id":"{}","direction_id":"{\"0\": 50}","headsign":"{}","duration_avg":134.0,"n_vehicles":50,"d":1340,"route_I_counts":"{\"2\": 50}","source":32,"target":33,"layer":"L","from":"南宁石子塘(地铁站)","to":"南宁建设路(地铁站)"},"geometry":{"type":"LineString","coordinates":[[108.320382,22.743966],[108.314338,22.754612]]}},{"type":"Feature","properties":{"shape_id":"{}","direction_id":"{\"1\": 50}","headsign":"{}","duration_avg":134.0,"n_vehicles":50,"d":1340,"route_I_counts":"{\"2\": 50}","source":33,"target":32,"layer":"L","from":"南宁建设路(地铁站)","to":"南宁石子塘(地铁站)"},"geometry":{"type":"LineString","coordinates":[[108.314338,22.754612],[108.320382,22.743966]]}},{"type":"Feature","properties":{"shape_id":"{}","direction_id":"{\"0\": 50}","headsign":"{}","duration_avg":115.0,"n_vehicles":50,"d":1150,"route_I_counts":"{\"2\": 50}","source":33,"target":34,"layer":"L","from":"南宁建设路(地铁站)","to":"南宁大沙田(地铁站)"},"geometry":{"type":"LineString","coordinates":[[108.314338,22.754612],[108.31278,22.763604]]}},{"type":"Feature","properties":{"shape_id":"{}","direction_id":"{\"1\": 50}","headsign":"{}","duration_avg":115.0,"n_vehicles":50,"d":1150,"route_I_counts":"{\"2\": 50}","source":34,"target":33,"layer":"L","from":"南宁大沙田(地铁站)","to":"南宁建设路(地铁站)"},"geometry":{"type":"LineString","coordinates":[[108.31278,22.763604],[108.314338,22.754612]]}},{"type":"Feature","properties":{"shape_id":"{}","direction_id":"{\"0\": 50}","headsign":"{}","duration_avg":112.0,"n_vehicles":50,"d":1120,"route_I_counts":"{\"2\": 50}","source":34,"target":35,"layer":"L","from":"南宁大沙田(地铁站)","to":"南宁江南客运站(地铁站)"},"geometry":{"type":"LineString","coordinates":[[108.31278,22.763604],[108.308149,22.769424]]}},{"type":"Feature","properties":{"shape_id":"{}","direction_id":"{\"1\": 50}","headsign":"{}","duration_avg":112.0,"n_vehicles":50,"d":1120,"route_I_counts":"{\"2\": 50}","source":35,"target":34,"layer":"L","from":"南宁江南客运站(地铁站)","to":"南宁大沙田(地铁站)"},"geometry":{"type":"LineString","coordinates":[[108.308149,22.769424],[108.31278,22.763604]]}},{"type":"Feature","properties":{"shape_id":"{}","direction_id":"{\"0\": 50}","headsign":"{}","duration_avg":153.0,"n_vehicles":50,"d":1530,"route_I_counts":"{\"2\": 50}","source":35,"target":36,"layer":"L","from":"南宁江南客运站(地铁站)","to":"南宁石柱岭(地铁站)"},"geometry":{"type":"LineString","coordinates":[[108.308149,22.769424],[108.307515,22.784313]]}},{"type":"Feature","properties":{"shape_id":"{}","direction_id":"{\"1\": 50}","headsign":"{}","duration_avg":153.0,"n_vehicles":50,"d":1530,"route_I_counts":"{\"2\": 50}","source":36,"target":35,"layer":"L","from":"南宁石柱岭(地铁站)","to":"南宁江南客运站(地铁站)"},"geometry":{"type":"LineString","coordinates":[[108.307515,22.784313],[108.308149,22.769424]]}},{"type":"Feature","properties":{"shape_id":"{}","direction_id":"{\"0\": 50}","headsign":"{}","duration_avg":116.0,"n_vehicles":50,"d":1160,"route_I_counts":"{\"2\": 50}","source":36,"target":37,"layer":"L","from":"南宁石柱岭(地铁站)","to":"南宁亭洪路(地铁站)"},"geometry":{"type":"LineString","coordinates":[[108.307515,22.784313],[108.307431,22.791691]]}},{"type":"Feature","properties":{"shape_id":"{}","direction_id":"{\"1\": 50}","headsign":"{}","duration_avg":116.0,"n_vehicles":50,"d":1160,"route_I_counts":"{\"2\": 50}","source":37,"target":36,"layer":"L","from":"南宁亭洪路(地铁站)","to":"南宁石柱岭(地铁站)"},"geometry":{"type":"LineString","coordinates":[[108.307431,22.791691],[108.307515,22.784313]]}},{"type":"Feature","properties":{"shape_id":"{}","direction_id":"{\"0\": 50}","headsign":"{}","duration_avg":104.0,"n_vehicles":50,"d":1040,"route_I_counts":"{\"2\": 50}","source":37,"target":38,"layer":"L","from":"南宁亭洪路(地铁站)","to":"南宁福建园(地铁站)"},"geometry":{"type":"LineString","coordinates":[[108.307431,22.791691],[108.307279,22.799285]]}},{"type":"Feature","properties":{"shape_id":"{}","direction_id":"{\"1\": 50}","headsign":"{}","duration_avg":104.0,"n_vehicles":50,"d":1040,"route_I_counts":"{\"2\": 50}","source":38,"target":37,"layer":"L","from":"南宁福建园(地铁站)","to":"南宁亭洪路(地铁站)"},"geometry":{"type":"LineString","coordinates":[[108.307279,22.799285],[108.307431,22.791691]]}},{"type":"Feature","properties":{"shape_id":"{}","direction_id":"{\"0\": 50}","headsign":"{}","duration_avg":124.0,"n_vehicles":50,"d":1240,"route_I_counts":"{\"2\": 50}","source":38,"target":39,"layer":"L","from":"南宁福建园(地铁站)","to":"南宁南宁剧场(地铁站)"},"geometry":{"type":"LineString","coordinates":[[108.307279,22.799285],[108.309672,22.806958]]}},{"type":"Feature","properties":{"shape_id":"{}","direction_id":"{\"1\": 50}","headsign":"{}","duration_avg":124.0,"n_vehicles":50,"d":1240,"route_I_counts":"{\"2\": 50}","source":39,"target":38,"layer":"L","from":"南宁南宁剧场(地铁站)","to":"南宁福建园(地铁站)"},"geometry":{"type":"LineString","coordinates":[[108.309672,22.806958],[108.307279,22.799285]]}},{"type":"Feature","properties":{"shape_id":"{}","direction_id":"{\"0\": 50}","headsign":"{}","duration_avg":157.0,"n_vehicles":50,"d":1570,"route_I_counts":"{\"2\": 50}","source":39,"target":13,"layer":"L","from":"南宁南宁剧场(地铁站)","to":"南宁朝阳广场(地铁站)"},"geometry":{"type":"LineString","coordinates":[[108.309672,22.806958],[108.316853,22.819858]]}},{"type":"Feature","properties":{"shape_id":"{}","direction_id":"{\"1\": 50}","headsign":"{}","duration_avg":157.0,"n_vehicles":50,"d":1570,"route_I_counts":"{\"2\": 50}","source":13,"target":39,"layer":"L","from":"南宁朝阳广场(地铁站)","to":"南宁南宁剧场(地铁站)"},"geometry":{"type":"LineString","coordinates":[[108.316853,22.819858],[108.309672,22.806958]]}},{"type":"Feature","properties":{"shape_id":"{}","direction_id":"{\"0\": 50}","headsign":"{}","duration_avg":174.0,"n_vehicles":50,"d":1740,"route_I_counts":"{\"2\": 50}","source":14,"target":40,"layer":"L","from":"南宁火车站(地铁站)","to":"南宁明秀路(地铁站)"},"geometry":{"type":"LineString","coordinates":[[108.312354,22.827645],[108.308769,22.842007]]}},{"type":"Feature","properties":{"shape_id":"{}","direction_id":"{\"1\": 50}","headsign":"{}","duration_avg":174.0,"n_vehicles":50,"d":1740,"route_I_counts":"{\"2\": 50}","source":40,"target":14,"layer":"L","from":"南宁明秀路(地铁站)","to":"南宁火车站(地铁站)"},"geometry":{"type":"LineString","coordinates":[[108.308769,22.842007],[108.312354,22.827645]]}},{"type":"Feature","properties":{"shape_id":"{}","direction_id":"{\"0\": 50}","headsign":"{}","duration_avg":130.0,"n_vehicles":50,"d":1300,"route_I_counts":"{\"2\": 50}","source":40,"target":41,"layer":"L","from":"南宁明秀路(地铁站)","to":"南宁秀厢(地铁站)"},"geometry":{"type":"LineString","coordinates":[[108.308769,22.842007],[108.302721,22.851323]]}},{"type":"Feature","properties":{"shape_id":"{}","direction_id":"{\"1\": 50}","headsign":"{}","duration_avg":130.0,"n_vehicles":50,"d":1300,"route_I_counts":"{\"2\": 50}","source":41,"target":40,"layer":"L","from":"南宁秀厢(地铁站)","to":"南宁明秀路(地铁站)"},"geometry":{"type":"LineString","coordinates":[[108.302721,22.851323],[108.308769,22.842007]]}},{"type":"Feature","properties":{"shape_id":"{}","direction_id":"{\"0\": 50}","headsign":"{}","duration_avg":128.0,"n_vehicles":50,"d":1280,"route_I_counts":"{\"2\": 50}","source":41,"target":42,"layer":"L","from":"南宁秀厢(地铁站)","to":"南宁三十三中(地铁站)"},"geometry":{"type":"LineString","coordinates":[[108.302721,22.851323],[108.298283,22.86076]]}},{"type":"Feature","properties":{"shape_id":"{}","direction_id":"{\"1\": 50}","headsign":"{}","duration_avg":128.0,"n_vehicles":50,"d":1280,"route_I_counts":"{\"2\": 50}","source":42,"target":41,"layer":"L","from":"南宁三十三中(地铁站)","to":"南宁秀厢(地铁站)"},"geometry":{"type":"LineString","coordinates":[[108.298283,22.86076],[108.302721,22.851323]]}},{"type":"Feature","properties":{"shape_id":"{}","direction_id":"{\"0\": 50}","headsign":"{}","duration_avg":128.0,"n_vehicles":50,"d":1280,"route_I_counts":"{\"2\": 50}","source":42,"target":43,"layer":"L","from":"南宁三十三中(地铁站)","to":"南宁苏卢(地铁站)"},"geometry":{"type":"LineString","coordinates":[[108.298283,22.86076],[108.295599,22.871669]]}},{"type":"Feature","properties":{"shape_id":"{}","direction_id":"{\"1\": 50}","headsign":"{}","duration_avg":128.0,"n_vehicles":50,"d":1280,"route_I_counts":"{\"2\": 50}","source":43,"target":42,"layer":"L","from":"南宁苏卢(地铁站)","to":"南宁三十三中(地铁站)"},"geometry":{"type":"LineString","coordinates":[[108.295599,22.871669],[108.298283,22.86076]]}},{"type":"Feature","properties":{"shape_id":"{}","direction_id":"{\"0\": 50}","headsign":"{}","duration_avg":117.0,"n_vehicles":50,"d":1170,"route_I_counts":"{\"2\": 50}","source":43,"target":44,"layer":"L","from":"南宁苏卢(地铁站)","to":"南宁安吉客运站(地铁站)"},"geometry":{"type":"LineString","coordinates":[[108.295599,22.871669],[108.293891,22.882539]]}},{"type":"Feature","properties":{"shape_id":"{}","direction_id":"{\"1\": 50}","headsign":"{}","duration_avg":117.0,"n_vehicles":50,"d":1170,"route_I_counts":"{\"2\": 50}","source":44,"target":43,"layer":"L","from":"南宁安吉客运站(地铁站)","to":"南宁苏卢(地铁站)"},"geometry":{"type":"LineString","coordinates":[[108.293891,22.882539],[108.295599,22.871669]]}},{"type":"Feature","properties":{"shape_id":"{}","direction_id":"{\"0\": 50}","headsign":"{}","duration_avg":124.0,"n_vehicles":50,"d":1240,"route_I_counts":"{\"2\": 50}","source":44,"target":45,"layer":"L","from":"南宁安吉客运站(地铁站)","to":"南宁西津(地铁站)"},"geometry":{"type":"LineString","coordinates":[[108.293891,22.882539],[108.294506,22.892048]]}},{"type":"Feature","properties":{"shape_id":"{}","direction_id":"{\"1\": 50}","headsign":"{}","duration_avg":124.0,"n_vehicles":50,"d":1240,"route_I_counts":"{\"2\": 50}","source":45,"target":44,"layer":"L","from":"南宁西津(地铁站)","to":"南宁安吉客运站(地铁站)"},"geometry":{"type":"LineString","coordinates":[[108.294506,22.892048],[108.293891,22.882539]]}},{"type":"Feature","properties":{"shape_id":"{}","direction_id":"{\"0\": 50}","headsign":"{}","duration_avg":137.0,"n_vehicles":50,"d":1370,"route_I_counts":"{\"3\": 50}","source":46,"target":47,"layer":"L","from":"南宁科园大道(地铁站)","to":"南宁创业路(地铁站)"},"geometry":{"type":"LineString","coordinates":[[108.265379,22.881142],[108.27999,22.881645]]}},{"type":"Feature","properties":{"shape_id":"{}","direction_id":"{\"1\": 50}","headsign":"{}","duration_avg":137.0,"n_vehicles":50,"d":1370,"route_I_counts":"{\"3\": 50}","source":47,"target":46,"layer":"L","from":"南宁创业路(地铁站)","to":"南宁科园大道(地铁站)"},"geometry":{"type":"LineString","coordinates":[[108.27999,22.881645],[108.265379,22.881142]]}},{"type":"Feature","properties":{"shape_id":"{}","direction_id":"{\"0\": 50}","headsign":"{}","duration_avg":147.0,"n_vehicles":50,"d":1470,"route_I_counts":"{\"3\": 50}","source":47,"target":44,"layer":"L","from":"南宁创业路(地铁站)","to":"南宁安吉客运站(地铁站)"},"geometry":{"type":"LineString","coordinates":[[108.27999,22.881645],[108.293891,22.882539]]}},{"type":"Feature","properties":{"shape_id":"{}","direction_id":"{\"1\": 50}","headsign":"{}","duration_avg":147.0,"n_vehicles":50,"d":1470,"route_I_counts":"{\"3\": 50}","source":44,"target":47,"layer":"L","from":"南宁安吉客运站(地铁站)","to":"南宁创业路(地铁站)"},"geometry":{"type":"LineString","coordinates":[[108.293891,22.882539],[108.27999,22.881645]]}},{"type":"Feature","properties":{"shape_id":"{}","direction_id":"{\"0\": 50}","headsign":"{}","duration_avg":163.0,"n_vehicles":50,"d":1630,"route_I_counts":"{\"3\": 50}","source":44,"target":48,"layer":"L","from":"南宁安吉客运站(地铁站)","to":"南宁北湖北路(地铁站)"},"geometry":{"type":"LineString","coordinates":[[108.293891,22.882539],[108.31282,22.878766]]}},{"type":"Feature","properties":{"shape_id":"{}","direction_id":"{\"1\": 50}","headsign":"{}","duration_avg":163.0,"n_vehicles":50,"d":1630,"route_I_counts":"{\"3\": 50}","source":48,"target":44,"layer":"L","from":"南宁北湖北路(地铁站)","to":"南宁安吉客运站(地铁站)"},"geometry":{"type":"LineString","coordinates":[[108.31282,22.878766],[108.293891,22.882539]]}},{"type":"Feature","properties":{"shape_id":"{}","direction_id":"{\"0\": 50}","headsign":"{}","duration_avg":139.0,"n_vehicles":50,"d":1390,"route_I_counts":"{\"3\": 50}","source":48,"target":49,"layer":"L","from":"南宁北湖北路(地铁站)","to":"南宁秀峰路(地铁站)"},"geometry":{"type":"LineString","coordinates":[[108.31282,22.878766],[108.32724,22.880945]]}},{"type":"Feature","properties":{"shape_id":"{}","direction_id":"{\"1\": 50}","headsign":"{}","duration_avg":139.0,"n_vehicles":50,"d":1390,"route_I_counts":"{\"3\": 50}","source":49,"target":48,"layer":"L","from":"南宁秀峰路(地铁站)","to":"南宁北湖北路(地铁站)"},"geometry":{"type":"LineString","coordinates":[[108.32724,22.880945],[108.31282,22.878766]]}},{"type":"Feature","properties":{"shape_id":"{}","direction_id":"{\"0\": 50}","headsign":"{}","duration_avg":113.0,"n_vehicles":50,"d":1130,"route_I_counts":"{\"3\": 50}","source":49,"target":50,"layer":"L","from":"南宁秀峰路(地铁站)","to":"南宁邕武路(地铁站)"},"geometry":{"type":"LineString","coordinates":[[108.32724,22.880945],[108.336179,22.878273]]}},{"type":"Feature","properties":{"shape_id":"{}","direction_id":"{\"1\": 50}","headsign":"{}","duration_avg":113.0,"n_vehicles":50,"d":1130,"route_I_counts":"{\"3\": 50}","source":50,"target":49,"layer":"L","from":"南宁邕武路(地铁站)","to":"南宁秀峰路(地铁站)"},"geometry":{"type":"LineString","coordinates":[[108.336179,22.878273],[108.32724,22.880945]]}},{"type":"Feature","properties":{"shape_id":"{}","direction_id":"{\"0\": 50}","headsign":"{}","duration_avg":124.0,"n_vehicles":50,"d":1240,"route_I_counts":"{\"3\": 50}","source":50,"target":51,"layer":"L","from":"南宁邕武路(地铁站)","to":"南宁大鸡村(地铁站)"},"geometry":{"type":"LineString","coordinates":[[108.336179,22.878273],[108.346923,22.875238]]}},{"type":"Feature","properties":{"shape_id":"{}","direction_id":"{\"1\": 50}","headsign":"{}","duration_avg":124.0,"n_vehicles":50,"d":1240,"route_I_counts":"{\"3\": 50}","source":51,"target":50,"layer":"L","from":"南宁大鸡村(地铁站)","to":"南宁邕武路(地铁站)"},"geometry":{"type":"LineString","coordinates":[[108.346923,22.875238],[108.336179,22.878273]]}},{"type":"Feature","properties":{"shape_id":"{}","direction_id":"{\"0\": 50}","headsign":"{}","duration_avg":129.0,"n_vehicles":50,"d":1290,"route_I_counts":"{\"3\": 50}","source":51,"target":52,"layer":"L","from":"南宁大鸡村(地铁站)","to":"南宁兴桂路(地铁站)"},"geometry":{"type":"LineString","coordinates":[[108.346923,22.875238],[108.352449,22.86719]]}},{"type":"Feature","properties":{"shape_id":"{}","direction_id":"{\"1\": 50}","headsign":"{}","duration_avg":129.0,"n_vehicles":50,"d":1290,"route_I_counts":"{\"3\": 50}","source":52,"target":51,"layer":"L","from":"南宁兴桂路(地铁站)","to":"南宁大鸡村(地铁站)"},"geometry":{"type":"LineString","coordinates":[[108.352449,22.86719],[108.346923,22.875238]]}},{"type":"Feature","properties":{"shape_id":"{}","direction_id":"{\"0\": 50}","headsign":"{}","duration_avg":119.0,"n_vehicles":50,"d":1190,"route_I_counts":"{\"3\": 50}","source":52,"target":53,"layer":"L","from":"南宁兴桂路(地铁站)","to":"南宁小鸡村(地铁站)"},"geometry":{"type":"LineString","coordinates":[[108.352449,22.86719],[108.352082,22.858927]]}},{"type":"Feature","properties":{"shape_id":"{}","direction_id":"{\"1\": 50}","headsign":"{}","duration_avg":119.0,"n_vehicles":50,"d":1190,"route_I_counts":"{\"3\": 50}","source":53,"target":52,"layer":"L","from":"南宁小鸡村(地铁站)","to":"南宁兴桂路(地铁站)"},"geometry":{"type":"LineString","coordinates":[[108.352082,22.858927],[108.352449,22.86719]]}},{"type":"Feature","properties":{"shape_id":"{}","direction_id":"{\"0\": 50}","headsign":"{}","duration_avg":123.0,"n_vehicles":50,"d":1230,"route_I_counts":"{\"3\": 50}","source":53,"target":54,"layer":"L","from":"南宁小鸡村(地铁站)","to":"南宁东沟岭(地铁站)"},"geometry":{"type":"LineString","coordinates":[[108.352082,22.858927],[108.350767,22.84803]]}},{"type":"Feature","properties":{"shape_id":"{}","direction_id":"{\"1\": 50}","headsign":"{}","duration_avg":123.0,"n_vehicles":50,"d":1230,"route_I_counts":"{\"3\": 50}","source":54,"target":53,"layer":"L","from":"南宁东沟岭(地铁站)","to":"南宁小鸡村(地铁站)"},"geometry":{"type":"LineString","coordinates":[[108.350767,22.84803],[108.352082,22.858927]]}},{"type":"Feature","properties":{"shape_id":"{}","direction_id":"{\"0\": 50}","headsign":"{}","duration_avg":118.0,"n_vehicles":50,"d":1180,"route_I_counts":"{\"3\": 50}","source":54,"target":55,"layer":"L","from":"南宁东沟岭(地铁站)","to":"南宁长堽路(地铁站)"},"geometry":{"type":"LineString","coordinates":[[108.350767,22.84803],[108.35271,22.839471]]}},{"type":"Feature","properties":{"shape_id":"{}","direction_id":"{\"1\": 50}","headsign":"{}","duration_avg":118.0,"n_vehicles":50,"d":1180,"route_I_counts":"{\"3\": 50}","source":55,"target":54,"layer":"L","from":"南宁长堽路(地铁站)","to":"南宁东沟岭(地铁站)"},"geometry":{"type":"LineString","coordinates":[[108.35271,22.839471],[108.350767,22.84803]]}},{"type":"Feature","properties":{"shape_id":"{}","direction_id":"{\"0\": 50}","headsign":"{}","duration_avg":116.0,"n_vehicles":50,"d":1160,"route_I_counts":"{\"3\": 50}","source":55,"target":56,"layer":"L","from":"南宁长堽路(地铁站)","to":"南宁东葛路(地铁站)"},"geometry":{"type":"LineString","coordinates":[[108.35271,22.839471],[108.35587,22.832784]]}},{"type":"Feature","properties":{"shape_id":"{}","direction_id":"{\"1\": 50}","headsign":"{}","duration_avg":116.0,"n_vehicles":50,"d":1160,"route_I_counts":"{\"3\": 50}","source":56,"target":55,"layer":"L","from":"南宁东葛路(地铁站)","to":"南宁长堽路(地铁站)"},"geometry":{"type":"LineString","coordinates":[[108.35587,22.832784],[108.35271,22.839471]]}},{"type":"Feature","properties":{"shape_id":"{}","direction_id":"{\"0\": 50}","headsign":"{}","duration_avg":113.0,"n_vehicles":50,"d":1130,"route_I_counts":"{\"3\": 50}","source":56,"target":57,"layer":"L","from":"南宁东葛路(地铁站)","to":"南宁滨湖路(地铁站)"},"geometry":{"type":"LineString","coordinates":[[108.35587,22.832784],[108.365408,22.827594]]}},{"type":"Feature","properties":{"shape_id":"{}","direction_id":"{\"1\": 50}","headsign":"{}","duration_avg":113.0,"n_vehicles":50,"d":1130,"route_I_counts":"{\"3\": 50}","source":57,"target":56,"layer":"L","from":"南宁滨湖路(地铁站)","to":"南宁东葛路(地铁站)"},"geometry":{"type":"LineString","coordinates":[[108.365408,22.827594],[108.35587,22.832784]]}},{"type":"Feature","properties":{"shape_id":"{}","direction_id":"{\"0\": 50}","headsign":"{}","duration_avg":173.0,"n_vehicles":50,"d":1730,"route_I_counts":"{\"3\": 50}","source":57,"target":8,"layer":"L","from":"南宁滨湖路(地铁站)","to":"南宁金湖广场(地铁站)"},"geometry":{"type":"LineString","coordinates":[[108.365408,22.827594],[108.368426,22.815425]]}},{"type":"Feature","properties":{"shape_id":"{}","direction_id":"{\"1\": 50}","headsign":"{}","duration_avg":173.0,"n_vehicles":50,"d":1730,"route_I_counts":"{\"3\": 50}","source":8,"target":57,"layer":"L","from":"南宁金湖广场(地铁站)","to":"南宁滨湖路(地铁站)"},"geometry":{"type":"LineString","coordinates":[[108.368426,22.815425],[108.365408,22.827594]]}},{"type":"Feature","properties":{"shape_id":"{}","direction_id":"{\"0\": 50}","headsign":"{}","duration_avg":133.0,"n_vehicles":50,"d":1330,"route_I_counts":"{\"3\": 50}","source":8,"target":58,"layer":"L","from":"南宁金湖广场(地铁站)","to":"南宁埌西(地铁站)"},"geometry":{"type":"LineString","coordinates":[[108.368426,22.815425],[108.363158,22.809783]]}},{"type":"Feature","properties":{"shape_id":"{}","direction_id":"{\"1\": 50}","headsign":"{}","duration_avg":133.0,"n_vehicles":50,"d":1330,"route_I_counts":"{\"3\": 50}","source":58,"target":8,"layer":"L","from":"南宁埌西(地铁站)","to":"南宁金湖广场(地铁站)"},"geometry":{"type":"LineString","coordinates":[[108.363158,22.809783],[108.368426,22.815425]]}},{"type":"Feature","properties":{"shape_id":"{}","direction_id":"{\"0\": 50}","headsign":"{}","duration_avg":121.0,"n_vehicles":50,"d":1210,"route_I_counts":"{\"3\": 50}","source":58,"target":59,"layer":"L","from":"南宁埌西(地铁站)","to":"南宁青竹立交(地铁站)"},"geometry":{"type":"LineString","coordinates":[[108.363158,22.809783],[108.360329,22.80194]]}},{"type":"Feature","properties":{"shape_id":"{}","direction_id":"{\"1\": 50}","headsign":"{}","duration_avg":121.0,"n_vehicles":50,"d":1210,"route_I_counts":"{\"3\": 50}","source":59,"target":58,"layer":"L","from":"南宁青竹立交(地铁站)","to":"南宁埌西(地铁站)"},"geometry":{"type":"LineString","coordinates":[[108.360329,22.80194],[108.363158,22.809783]]}},{"type":"Feature","properties":{"shape_id":"{}","direction_id":"{\"0\": 50}","headsign":"{}","duration_avg":105.0,"n_vehicles":50,"d":1050,"route_I_counts":"{\"3\": 50}","source":59,"target":60,"layer":"L","from":"南宁青竹立交(地铁站)","to":"南宁青秀山(地铁站)"},"geometry":{"type":"LineString","coordinates":[[108.360329,22.80194],[108.364544,22.795246]]}},{"type":"Feature","properties":{"shape_id":"{}","direction_id":"{\"1\": 50}","headsign":"{}","duration_avg":105.0,"n_vehicles":50,"d":1050,"route_I_counts":"{\"3\": 50}","source":60,"target":59,"layer":"L","from":"南宁青秀山(地铁站)","to":"南宁青竹立交(地铁站)"},"geometry":{"type":"LineString","coordinates":[[108.364544,22.795246],[108.360329,22.80194]]}},{"type":"Feature","properties":{"shape_id":"{}","direction_id":"{\"0\": 50}","headsign":"{}","duration_avg":174.0,"n_vehicles":50,"d":1740,"route_I_counts":"{\"3\": 50}","source":60,"target":61,"layer":"L","from":"南宁青秀山(地铁站)","to":"南宁市博物馆(地铁站)"},"geometry":{"type":"LineString","coordinates":[[108.364544,22.795246],[108.372026,22.777799]]}},{"type":"Feature","properties":{"shape_id":"{}","direction_id":"{\"1\": 50}","headsign":"{}","duration_avg":174.0,"n_vehicles":50,"d":1740,"route_I_counts":"{\"3\": 50}","source":61,"target":60,"layer":"L","from":"南宁市博物馆(地铁站)","to":"南宁青秀山(地铁站)"},"geometry":{"type":"LineString","coordinates":[[108.372026,22.777799],[108.364544,22.795246]]}},{"type":"Feature","properties":{"shape_id":"{}","direction_id":"{\"0\": 50}","headsign":"{}","duration_avg":110.0,"n_vehicles":50,"d":1100,"route_I_counts":"{\"3\": 50}","source":61,"target":62,"layer":"L","from":"南宁市博物馆(地铁站)","to":"南宁总部基地(地铁站)"},"geometry":{"type":"LineString","coordinates":[[108.372026,22.777799],[108.372182,22.77031]]}},{"type":"Feature","properties":{"shape_id":"{}","direction_id":"{\"1\": 50}","headsign":"{}","duration_avg":110.0,"n_vehicles":50,"d":1100,"route_I_counts":"{\"3\": 50}","source":62,"target":61,"layer":"L","from":"南宁总部基地(地铁站)","to":"南宁市博物馆(地铁站)"},"geometry":{"type":"LineString","coordinates":[[108.372182,22.77031],[108.372026,22.777799]]}},{"type":"Feature","properties":{"shape_id":"{}","direction_id":"{\"0\": 50}","headsign":"{}","duration_avg":124.0,"n_vehicles":50,"d":1240,"route_I_counts":"{\"3\": 50}","source":62,"target":63,"layer":"L","from":"南宁总部基地(地铁站)","to":"南宁广西规划馆(地铁站)"},"geometry":{"type":"LineString","coordinates":[[108.372182,22.77031],[108.373728,22.759856]]}},{"type":"Feature","properties":{"shape_id":"{}","direction_id":"{\"1\": 50}","headsign":"{}","duration_avg":124.0,"n_vehicles":50,"d":1240,"route_I_counts":"{\"3\": 50}","source":63,"target":62,"layer":"L","from":"南宁广西规划馆(地铁站)","to":"南宁总部基地(地铁站)"},"geometry":{"type":"LineString","coordinates":[[108.373728,22.759856],[108.372182,22.77031]]}},{"type":"Feature","properties":{"shape_id":"{}","direction_id":"{\"0\": 50}","headsign":"{}","duration_avg":110.0,"n_vehicles":50,"d":1100,"route_I_counts":"{\"3\": 50}","source":63,"target":64,"layer":"L","from":"南宁广西规划馆(地铁站)","to":"南宁庆歌路(地铁站)"},"geometry":{"type":"LineString","coordinates":[[108.373728,22.759856],[108.379307,22.752941]]}},{"type":"Feature","properties":{"shape_id":"{}","direction_id":"{\"1\": 50}","headsign":"{}","duration_avg":110.0,"n_vehicles":50,"d":1100,"route_I_counts":"{\"3\": 50}","source":64,"target":63,"layer":"L","from":"南宁庆歌路(地铁站)","to":"南宁广西规划馆(地铁站)"},"geometry":{"type":"LineString","coordinates":[[108.379307,22.752941],[108.373728,22.759856]]}},{"type":"Feature","properties":{"shape_id":"{}","direction_id":"{\"0\": 50}","headsign":"{}","duration_avg":127.0,"n_vehicles":50,"d":1270,"route_I_counts":"{\"3\": 50}","source":64,"target":65,"layer":"L","from":"南宁庆歌路(地铁站)","to":"南宁五象湖(地铁站)"},"geometry":{"type":"LineString","coordinates":[[108.379307,22.752941],[108.380243,22.741684]]}},{"type":"Feature","properties":{"shape_id":"{}","direction_id":"{\"1\": 50}","headsign":"{}","duration_avg":127.0,"n_vehicles":50,"d":1270,"route_I_counts":"{\"3\": 50}","source":65,"target":64,"layer":"L","from":"南宁五象湖(地铁站)","to":"南宁庆歌路(地铁站)"},"geometry":{"type":"LineString","coordinates":[[108.380243,22.741684],[108.379307,22.752941]]}},{"type":"Feature","properties":{"shape_id":"{}","direction_id":"{\"0\": 50}","headsign":"{}","duration_avg":97.0,"n_vehicles":50,"d":970,"route_I_counts":"{\"3\": 50}","source":65,"target":26,"layer":"L","from":"南宁五象湖(地铁站)","to":"南宁平良立交(地铁站)"},"geometry":{"type":"LineString","coordinates":[[108.380243,22.741684],[108.37879,22.728985]]}},{"type":"Feature","properties":{"shape_id":"{}","direction_id":"{\"1\": 50}","headsign":"{}","duration_avg":97.0,"n_vehicles":50,"d":970,"route_I_counts":"{\"3\": 50}","source":26,"target":65,"layer":"L","from":"南宁平良立交(地铁站)","to":"南宁五象湖(地铁站)"},"geometry":{"type":"LineString","coordinates":[[108.37879,22.728985],[108.380243,22.741684]]}},{"type":"Feature","properties":{"shape_id":"{}","direction_id":"{\"0\": 50}","headsign":"{}","duration_avg":126.0,"n_vehicles":50,"d":1260,"route_I_counts":"{\"4\": 50}","source":66,"target":67,"layer":"L","from":"南宁楞塘村(地铁站)","to":"南宁良庆圩(地铁站)"},"geometry":{"type":"LineString","coordinates":[[108.424343,22.757136],[108.413889,22.755669]]}},{"type":"Feature","properties":{"shape_id":"{}","direction_id":"{\"1\": 50}","headsign":"{}","duration_avg":126.0,"n_vehicles":50,"d":1260,"route_I_counts":"{\"4\": 50}","source":67,"target":66,"layer":"L","from":"南宁良庆圩(地铁站)","to":"南宁楞塘村(地铁站)"},"geometry":{"type":"LineString","coordinates":[[108.413889,22.755669],[108.424343,22.757136]]}},{"type":"Feature","properties":{"shape_id":"{}","direction_id":"{\"0\": 50}","headsign":"{}","duration_avg":129.0,"n_vehicles":50,"d":1290,"route_I_counts":"{\"4\": 50}","source":67,"target":68,"layer":"L","from":"南宁良庆圩(地铁站)","to":"南宁良庆大桥南(地铁站)"},"geometry":{"type":"LineString","coordinates":[[108.413889,22.755669],[108.402387,22.756673]]}},{"type":"Feature","properties":{"shape_id":"{}","direction_id":"{\"1\": 50}","headsign":"{}","duration_avg":129.0,"n_vehicles":50,"d":1290,"route_I_counts":"{\"4\": 50}","source":68,"target":67,"layer":"L","from":"南宁良庆大桥南(地铁站)","to":"南宁良庆圩(地铁站)"},"geometry":{"type":"LineString","coordinates":[[108.402387,22.756673],[108.413889,22.755669]]}},{"type":"Feature","properties":{"shape_id":"{}","direction_id":"{\"0\": 50}","headsign":"{}","duration_avg":119.0,"n_vehicles":50,"d":1190,"route_I_counts":"{\"4\": 50}","source":68,"target":69,"layer":"L","from":"南宁良庆大桥南(地铁站)","to":"南宁体育中心东(地铁站)"},"geometry":{"type":"LineString","coordinates":[[108.402387,22.756673],[108.395119,22.763444]]}},{"type":"Feature","properties":{"shape_id":"{}","direction_id":"{\"1\": 50}","headsign":"{}","duration_avg":119.0,"n_vehicles":50,"d":1190,"route_I_counts":"{\"4\": 50}","source":69,"target":68,"layer":"L","from":"南宁体育中心东(地铁站)","to":"南宁良庆大桥南(地铁站)"},"geometry":{"type":"LineString","coordinates":[[108.395119,22.763444],[108.402387,22.756673]]}},{"type":"Feature","properties":{"shape_id":"{}","direction_id":"{\"0\": 50}","headsign":"{}","duration_avg":106.0,"n_vehicles":50,"d":1060,"route_I_counts":"{\"4\": 50}","source":69,"target":70,"layer":"L","from":"南宁体育中心东(地铁站)","to":"南宁体育中心西(地铁站)"},"geometry":{"type":"LineString","coordinates":[[108.395119,22.763444],[108.388424,22.768012]]}},{"type":"Feature","properties":{"shape_id":"{}","direction_id":"{\"1\": 50}","headsign":"{}","duration_avg":106.0,"n_vehicles":50,"d":1060,"route_I_counts":"{\"4\": 50}","source":70,"target":69,"layer":"L","from":"南宁体育中心西(地铁站)","to":"南宁体育中心东(地铁站)"},"geometry":{"type":"LineString","coordinates":[[108.388424,22.768012],[108.395119,22.763444]]}},{"type":"Feature","properties":{"shape_id":"{}","direction_id":"{\"0\": 50}","headsign":"{}","duration_avg":104.0,"n_vehicles":50,"d":1040,"route_I_counts":"{\"4\": 50}","source":70,"target":71,"layer":"L","from":"南宁体育中心西(地铁站)","to":"南宁飞龙路(地铁站)"},"geometry":{"type":"LineString","coordinates":[[108.388424,22.768012],[108.382107,22.769085]]}},{"type":"Feature","properties":{"shape_id":"{}","direction_id":"{\"1\": 50}","headsign":"{}","duration_avg":104.0,"n_vehicles":50,"d":1040,"route_I_counts":"{\"4\": 50}","source":71,"target":70,"layer":"L","from":"南宁飞龙路(地铁站)","to":"南宁体育中心西(地铁站)"},"geometry":{"type":"LineString","coordinates":[[108.382107,22.769085],[108.388424,22.768012]]}},{"type":"Feature","properties":{"shape_id":"{}","direction_id":"{\"0\": 50}","headsign":"{}","duration_avg":125.0,"n_vehicles":50,"d":1250,"route_I_counts":"{\"4\": 50}","source":71,"target":62,"layer":"L","from":"南宁飞龙路(地铁站)","to":"南宁总部基地(地铁站)"},"geometry":{"type":"LineString","coordinates":[[108.382107,22.769085],[108.372182,22.77031]]}},{"type":"Feature","properties":{"shape_id":"{}","direction_id":"{\"1\": 50}","headsign":"{}","duration_avg":125.0,"n_vehicles":50,"d":1250,"route_I_counts":"{\"4\": 50}","source":62,"target":71,"layer":"L","from":"南宁总部基地(地铁站)","to":"南宁飞龙路(地铁站)"},"geometry":{"type":"LineString","coordinates":[[108.372182,22.77031],[108.382107,22.769085]]}},{"type":"Feature","properties":{"shape_id":"{}","direction_id":"{\"0\": 50}","headsign":"{}","duration_avg":129.0,"n_vehicles":50,"d":1290,"route_I_counts":"{\"4\": 50}","source":62,"target":72,"layer":"L","from":"南宁总部基地(地铁站)","to":"南宁玉象路(地铁站)"},"geometry":{"type":"LineString","coordinates":[[108.372182,22.77031],[108.359383,22.771059]]}},{"type":"Feature","properties":{"shape_id":"{}","direction_id":"{\"1\": 50}","headsign":"{}","duration_avg":129.0,"n_vehicles":50,"d":1290,"route_I_counts":"{\"4\": 50}","source":72,"target":62,"layer":"L","from":"南宁玉象路(地铁站)","to":"南宁总部基地(地铁站)"},"geometry":{"type":"LineString","coordinates":[[108.359383,22.771059],[108.372182,22.77031]]}},{"type":"Feature","properties":{"shape_id":"{}","direction_id":"{\"0\": 50}","headsign":"{}","duration_avg":207.0,"n_vehicles":50,"d":2070,"route_I_counts":"{\"4\": 50}","source":72,"target":73,"layer":"L","from":"南宁玉象路(地铁站)","to":"南宁五象岭(地铁站)"},"geometry":{"type":"LineString","coordinates":[[108.359383,22.771059],[108.333993,22.764028]]}},{"type":"Feature","properties":{"shape_id":"{}","direction_id":"{\"1\": 50}","headsign":"{}","duration_avg":207.0,"n_vehicles":50,"d":2070,"route_I_counts":"{\"4\": 50}","source":73,"target":72,"layer":"L","from":"南宁五象岭(地铁站)","to":"南宁玉象路(地铁站)"},"geometry":{"type":"LineString","coordinates":[[108.333993,22.764028],[108.359383,22.771059]]}},{"type":"Feature","properties":{"shape_id":"{}","direction_id":"{\"0\": 50}","headsign":"{}","duration_avg":143.0,"n_vehicles":50,"d":1430,"route_I_counts":"{\"4\": 50}","source":73,"target":74,"layer":"L","from":"南宁五象岭(地铁站)","to":"南宁金象大道(地铁站)"},"geometry":{"type":"LineString","coordinates":[[108.333993,22.764028],[108.319032,22.763544]]}},{"type":"Feature","properties":{"shape_id":"{}","direction_id":"{\"1\": 50}","headsign":"{}","duration_avg":143.0,"n_vehicles":50,"d":1430,"route_I_counts":"{\"4\": 50}","source":74,"target":73,"layer":"L","from":"南宁金象大道(地铁站)","to":"南宁五象岭(地铁站)"},"geometry":{"type":"LineString","coordinates":[[108.319032,22.763544],[108.333993,22.764028]]}},{"type":"Feature","properties":{"shape_id":"{}","direction_id":"{\"0\": 50}","headsign":"{}","duration_avg":111.0,"n_vehicles":50,"d":1110,"route_I_counts":"{\"4\": 50}","source":74,"target":34,"layer":"L","from":"南宁金象大道(地铁站)","to":"南宁大沙田(地铁站)"},"geometry":{"type":"LineString","coordinates":[[108.319032,22.763544],[108.31278,22.763604]]}},{"type":"Feature","properties":{"shape_id":"{}","direction_id":"{\"1\": 50}","headsign":"{}","duration_avg":111.0,"n_vehicles":50,"d":1110,"route_I_counts":"{\"4\": 50}","source":34,"target":74,"layer":"L","from":"南宁大沙田(地铁站)","to":"南宁金象大道(地铁站)"},"geometry":{"type":"LineString","coordinates":[[108.31278,22.763604],[108.319032,22.763544]]}},{"type":"Feature","properties":{"shape_id":"{}","direction_id":"{\"0\": 50}","headsign":"{}","duration_avg":152.0,"n_vehicles":50,"d":1520,"route_I_counts":"{\"4\": 50}","source":34,"target":75,"layer":"L","from":"南宁大沙田(地铁站)","to":"南宁通源路(地铁站)"},"geometry":{"type":"LineString","coordinates":[[108.31278,22.763604],[108.295938,22.761365]]}},{"type":"Feature","properties":{"shape_id":"{}","direction_id":"{\"1\": 50}","headsign":"{}","duration_avg":152.0,"n_vehicles":50,"d":1520,"route_I_counts":"{\"4\": 50}","source":75,"target":34,"layer":"L","from":"南宁通源路(地铁站)","to":"南宁大沙田(地铁站)"},"geometry":{"type":"LineString","coordinates":[[108.295938,22.761365],[108.31278,22.763604]]}},{"type":"Feature","properties":{"shape_id":"{}","direction_id":"{\"0\": 50}","headsign":"{}","duration_avg":163.0,"n_vehicles":50,"d":1630,"route_I_counts":"{\"4\": 50}","source":75,"target":76,"layer":"L","from":"南宁通源路(地铁站)","to":"南宁金阳路(地铁站)"},"geometry":{"type":"LineString","coordinates":[[108.295938,22.761365],[108.277533,22.763678]]}},{"type":"Feature","properties":{"shape_id":"{}","direction_id":"{\"1\": 50}","headsign":"{}","duration_avg":163.0,"n_vehicles":50,"d":1630,"route_I_counts":"{\"4\": 50}","source":76,"target":75,"layer":"L","from":"南宁金阳路(地铁站)","to":"南宁通源路(地铁站)"},"geometry":{"type":"LineString","coordinates":[[108.277533,22.763678],[108.295938,22.761365]]}},{"type":"Feature","properties":{"shape_id":"{}","direction_id":"{\"0\": 50}","headsign":"{}","duration_avg":122.0,"n_vehicles":50,"d":1220,"route_I_counts":"{\"4\": 50}","source":76,"target":77,"layer":"L","from":"南宁金阳路(地铁站)","to":"南宁那洪立交(地铁站)"},"geometry":{"type":"LineString","coordinates":[[108.277533,22.763678],[108.266116,22.76361]]}},{"type":"Feature","properties":{"shape_id":"{}","direction_id":"{\"1\": 50}","headsign":"{}","duration_avg":122.0,"n_vehicles":50,"d":1220,"route_I_counts":"{\"4\": 50}","source":77,"target":76,"layer":"L","from":"南宁那洪立交(地铁站)","to":"南宁金阳路(地铁站)"},"geometry":{"type":"LineString","coordinates":[[108.266116,22.76361],[108.277533,22.763678]]}},{"type":"Feature","properties":{"shape_id":"{}","direction_id":"{\"0\": 50}","headsign":"{}","duration_avg":124.0,"n_vehicles":50,"d":1240,"route_I_counts":"{\"4\": 50}","source":77,"target":78,"layer":"L","from":"南宁那洪立交(地铁站)","to":"南宁那历村(地铁站)"},"geometry":{"type":"LineString","coordinates":[[108.266116,22.76361],[108.254974,22.763642]]}},{"type":"Feature","properties":{"shape_id":"{}","direction_id":"{\"1\": 50}","headsign":"{}","duration_avg":124.0,"n_vehicles":50,"d":1240,"route_I_counts":"{\"4\": 50}","source":78,"target":77,"layer":"L","from":"南宁那历村(地铁站)","to":"南宁那洪立交(地铁站)"},"geometry":{"type":"LineString","coordinates":[[108.254974,22.763642],[108.266116,22.76361]]}},{"type":"Feature","properties":{"shape_id":"{}","direction_id":"{\"0\": 50}","headsign":"{}","duration_avg":116.0,"n_vehicles":50,"d":1160,"route_I_counts":"{\"4\": 50}","source":78,"target":79,"layer":"L","from":"南宁那历村(地铁站)","to":"南宁洪运路(地铁站)"},"geometry":{"type":"LineString","coordinates":[[108.254974,22.763642],[108.238146,22.768386]]}},{"type":"Feature","properties":{"shape_id":"{}","direction_id":"{\"1\": 50}","headsign":"{}","duration_avg":116.0,"n_vehicles":50,"d":1160,"route_I_counts":"{\"4\": 50}","source":79,"target":78,"layer":"L","from":"南宁洪运路(地铁站)","to":"南宁那历村(地铁站)"},"geometry":{"type":"LineString","coordinates":[[108.238146,22.768386],[108.254974,22.763642]]}},{"type":"Feature","properties":{"shape_id":"{}","direction_id":"{\"0\": 50}","headsign":"{}","duration_avg":115.0,"n_vehicles":50,"d":1150,"route_I_counts":"{\"5\": 50}","source":80,"target":77,"layer":"L","from":"南宁国凯大道(地铁站)","to":"南宁那洪立交(地铁站)"},"geometry":{"type":"LineString","coordinates":[[108.267704,22.756918],[108.266116,22.76361]]}},{"type":"Feature","properties":{"shape_id":"{}","direction_id":"{\"1\": 50}","headsign":"{}","duration_avg":115.0,"n_vehicles":50,"d":1150,"route_I_counts":"{\"5\": 50}","source":77,"target":80,"layer":"L","from":"南宁那洪立交(地铁站)","to":"南宁国凯大道(地铁站)"},"geometry":{"type":"LineString","coordinates":[[108.266116,22.76361],[108.267704,22.756918]]}},{"type":"Feature","properties":{"shape_id":"{}","direction_id":"{\"0\": 50}","headsign":"{}","duration_avg":174.0,"n_vehicles":50,"d":1740,"route_I_counts":"{\"5\": 50}","source":77,"target":81,"layer":"L","from":"南宁那洪立交(地铁站)","to":"南宁金凯路(地铁站)"},"geometry":{"type":"LineString","coordinates":[[108.266116,22.76361],[108.267472,22.771569]]}},{"type":"Feature","properties":{"shape_id":"{}","direction_id":"{\"1\": 50}","headsign":"{}","duration_avg":174.0,"n_vehicles":50,"d":1740,"route_I_counts":"{\"5\": 50}","source":81,"target":77,"layer":"L","from":"南宁金凯路(地铁站)","to":"南宁那洪立交(地铁站)"},"geometry":{"type":"LineString","coordinates":[[108.267472,22.771569],[108.266116,22.76361]]}},{"type":"Feature","properties":{"shape_id":"{}","direction_id":"{\"0\": 50}","headsign":"{}","duration_avg":141.0,"n_vehicles":50,"d":1410,"route_I_counts":"{\"5\": 50}","source":81,"target":82,"layer":"L","from":"南宁金凯路(地铁站)","to":"南宁江南公园(地铁站)"},"geometry":{"type":"LineString","coordinates":[[108.267472,22.771569],[108.267729,22.783575]]}},{"type":"Feature","properties":{"shape_id":"{}","direction_id":"{\"1\": 50}","headsign":"{}","duration_avg":141.0,"n_vehicles":50,"d":1410,"route_I_counts":"{\"5\": 50}","source":82,"target":81,"layer":"L","from":"南宁江南公园(地铁站)","to":"南宁金凯路(地铁站)"},"geometry":{"type":"LineString","coordinates":[[108.267729,22.783575],[108.267472,22.771569]]}},{"type":"Feature","properties":{"shape_id":"{}","direction_id":"{\"0\": 50}","headsign":"{}","duration_avg":124.0,"n_vehicles":50,"d":1240,"route_I_counts":"{\"5\": 50}","source":82,"target":83,"layer":"L","from":"南宁江南公园(地铁站)","to":"南宁周家坡(地铁站)"},"geometry":{"type":"LineString","coordinates":[[108.267729,22.783575],[108.26813,22.79224]]}},{"type":"Feature","properties":{"shape_id":"{}","direction_id":"{\"1\": 50}","headsign":"{}","duration_avg":124.0,"n_vehicles":50,"d":1240,"route_I_counts":"{\"5\": 50}","source":83,"target":82,"layer":"L","from":"南宁周家坡(地铁站)","to":"南宁江南公园(地铁站)"},"geometry":{"type":"LineString","coordinates":[[108.26813,22.79224],[108.267729,22.783575]]}},{"type":"Feature","properties":{"shape_id":"{}","direction_id":"{\"0\": 50}","headsign":"{}","duration_avg":140.0,"n_vehicles":50,"d":1400,"route_I_counts":"{\"5\": 50}","source":83,"target":84,"layer":"L","from":"南宁周家坡(地铁站)","to":"南宁五一立交(地铁站)"},"geometry":{"type":"LineString","coordinates":[[108.26813,22.79224],[108.271843,22.803789]]}},{"type":"Feature","properties":{"shape_id":"{}","direction_id":"{\"1\": 50}","headsign":"{}","duration_avg":140.0,"n_vehicles":50,"d":1400,"route_I_counts":"{\"5\": 50}","source":84,"target":83,"layer":"L","from":"南宁五一立交(地铁站)","to":"南宁周家坡(地铁站)"},"geometry":{"type":"LineString","coordinates":[[108.271843,22.803789],[108.26813,22.79224]]}},{"type":"Feature","properties":{"shape_id":"{}","direction_id":"{\"0\": 50}","headsign":"{}","duration_avg":192.0,"n_vehicles":50,"d":1920,"route_I_counts":"{\"5\": 50}","source":84,"target":85,"layer":"L","from":"南宁五一立交(地铁站)","to":"南宁新秀公园(地铁站)"},"geometry":{"type":"LineString","coordinates":[[108.271843,22.803789],[108.282463,22.821371]]}},{"type":"Feature","properties":{"shape_id":"{}","direction_id":"{\"1\": 50}","headsign":"{}","duration_avg":192.0,"n_vehicles":50,"d":1920,"route_I_counts":"{\"5\": 50}","source":85,"target":84,"layer":"L","from":"南宁新秀公园(地铁站)","to":"南宁五一立交(地铁站)"},"geometry":{"type":"LineString","coordinates":[[108.282463,22.821371],[108.271843,22.803789]]}},{"type":"Feature","properties":{"shape_id":"{}","direction_id":"{\"0\": 50}","headsign":"{}","duration_avg":167.0,"n_vehicles":50,"d":1670,"route_I_counts":"{\"5\": 50}","source":85,"target":16,"layer":"L","from":"南宁新秀公园(地铁站)","to":"南宁广西大学(地铁站)"},"geometry":{"type":"LineString","coordinates":[[108.282463,22.821371],[108.287171,22.834417]]}},{"type":"Feature","properties":{"shape_id":"{}","direction_id":"{\"1\": 50}","headsign":"{}","duration_avg":167.0,"n_vehicles":50,"d":1670,"route_I_counts":"{\"5\": 50}","source":16,"target":85,"layer":"L","from":"南宁广西大学(地铁站)","to":"南宁新秀公园(地铁站)"},"geometry":{"type":"LineString","coordinates":[[108.287171,22.834417],[108.282463,22.821371]]}},{"type":"Feature","properties":{"shape_id":"{}","direction_id":"{\"0\": 50}","headsign":"{}","duration_avg":142.0,"n_vehicles":50,"d":1420,"route_I_counts":"{\"5\": 50}","source":16,"target":86,"layer":"L","from":"南宁广西大学(地铁站)","to":"南宁秀灵路(地铁站)"},"geometry":{"type":"LineString","coordinates":[[108.287171,22.834417],[108.30181,22.840046]]}},{"type":"Feature","properties":{"shape_id":"{}","direction_id":"{\"1\": 50}","headsign":"{}","duration_avg":142.0,"n_vehicles":50,"d":1420,"route_I_counts":"{\"5\": 50}","source":86,"target":16,"layer":"L","from":"南宁秀灵路(地铁站)","to":"南宁广西大学(地铁站)"},"geometry":{"type":"LineString","coordinates":[[108.30181,22.840046],[108.287171,22.834417]]}},{"type":"Feature","properties":{"shape_id":"{}","direction_id":"{\"0\": 50}","headsign":"{}","duration_avg":117.0,"n_vehicles":50,"d":1170,"route_I_counts":"{\"5\": 50}","source":86,"target":40,"layer":"L","from":"南宁秀灵路(地铁站)","to":"南宁明秀路(地铁站)"},"geometry":{"type":"LineString","coordinates":[[108.30181,22.840046],[108.308769,22.842007]]}},{"type":"Feature","properties":{"shape_id":"{}","direction_id":"{\"1\": 50}","headsign":"{}","duration_avg":117.0,"n_vehicles":50,"d":1170,"route_I_counts":"{\"5\": 50}","source":40,"target":86,"layer":"L","from":"南宁明秀路(地铁站)","to":"南宁秀灵路(地铁站)"},"geometry":{"type":"LineString","coordinates":[[108.308769,22.842007],[108.30181,22.840046]]}},{"type":"Feature","properties":{"shape_id":"{}","direction_id":"{\"0\": 50}","headsign":"{}","duration_avg":115.0,"n_vehicles":50,"d":1150,"route_I_counts":"{\"5\": 50}","source":40,"target":87,"layer":"L","from":"南宁明秀路(地铁站)","to":"南宁北湖南路(地铁站)"},"geometry":{"type":"LineString","coordinates":[[108.308769,22.842007],[108.317955,22.846983]]}},{"type":"Feature","properties":{"shape_id":"{}","direction_id":"{\"1\": 50}","headsign":"{}","duration_avg":115.0,"n_vehicles":50,"d":1150,"route_I_counts":"{\"5\": 50}","source":87,"target":40,"layer":"L","from":"南宁北湖南路(地铁站)","to":"南宁明秀路(地铁站)"},"geometry":{"type":"LineString","coordinates":[[108.317955,22.846983],[108.308769,22.842007]]}},{"type":"Feature","properties":{"shape_id":"{}","direction_id":"{\"0\": 50}","headsign":"{}","duration_avg":122.0,"n_vehicles":50,"d":1220,"route_I_counts":"{\"5\": 50}","source":87,"target":88,"layer":"L","from":"南宁北湖南路(地铁站)","to":"南宁虎邱(地铁站)"},"geometry":{"type":"LineString","coordinates":[[108.317955,22.846983],[108.327081,22.850806]]}},{"type":"Feature","properties":{"shape_id":"{}","direction_id":"{\"1\": 50}","headsign":"{}","duration_avg":122.0,"n_vehicles":50,"d":1220,"route_I_counts":"{\"5\": 50}","source":88,"target":87,"layer":"L","from":"南宁虎邱(地铁站)","to":"南宁北湖南路(地铁站)"},"geometry":{"type":"LineString","coordinates":[[108.327081,22.850806],[108.317955,22.846983]]}},{"type":"Feature","properties":{"shape_id":"{}","direction_id":"{\"0\": 50}","headsign":"{}","duration_avg":132.0,"n_vehicles":50,"d":1320,"route_I_counts":"{\"5\": 50}","source":88,"target":89,"layer":"L","from":"南宁虎邱(地铁站)","to":"南宁狮山公园(地铁站)"},"geometry":{"type":"LineString","coordinates":[[108.327081,22.850806],[108.336865,22.85601]]}},{"type":"Feature","properties":{"shape_id":"{}","direction_id":"{\"1\": 50}","headsign":"{}","duration_avg":132.0,"n_vehicles":50,"d":1320,"route_I_counts":"{\"5\": 50}","source":89,"target":88,"layer":"L","from":"南宁狮山公园(地铁站)","to":"南宁虎邱(地铁站)"},"geometry":{"type":"LineString","coordinates":[[108.336865,22.85601],[108.327081,22.850806]]}},{"type":"Feature","properties":{"shape_id":"{}","direction_id":"{\"0\": 50}","headsign":"{}","duration_avg":147.0,"n_vehicles":50,"d":1470,"route_I_counts":"{\"5\": 50}","source":89,"target":53,"layer":"L","from":"南宁狮山公园(地铁站)","to":"南宁小鸡村(地铁站)"},"geometry":{"type":"LineString","coordinates":[[108.336865,22.85601],[108.352082,22.858927]]}},{"type":"Feature","properties":{"shape_id":"{}","direction_id":"{\"1\": 50}","headsign":"{}","duration_avg":147.0,"n_vehicles":50,"d":1470,"route_I_counts":"{\"5\": 50}","source":53,"target":89,"layer":"L","from":"南宁小鸡村(地铁站)","to":"南宁狮山公园(地铁站)"},"geometry":{"type":"LineString","coordinates":[[108.352082,22.858927],[108.336865,22.85601]]}},{"type":"Feature","properties":{"shape_id":"{}","direction_id":"{\"0\": 50}","headsign":"{}","duration_avg":116.0,"n_vehicles":50,"d":1160,"route_I_counts":"{\"5\": 50}","source":53,"target":90,"layer":"L","from":"南宁小鸡村(地铁站)","to":"南宁邕宾立交(地铁站)"},"geometry":{"type":"LineString","coordinates":[[108.352082,22.858927],[108.359897,22.859417]]}},{"type":"Feature","properties":{"shape_id":"{}","direction_id":"{\"1\": 50}","headsign":"{}","duration_avg":116.0,"n_vehicles":50,"d":1160,"route_I_counts":"{\"5\": 50}","source":90,"target":53,"layer":"L","from":"南宁邕宾立交(地铁站)","to":"南宁小鸡村(地铁站)"},"geometry":{"type":"LineString","coordinates":[[108.359897,22.859417],[108.352082,22.858927]]}},{"type":"Feature","properties":{"shape_id":"{}","direction_id":"{\"0\": 50}","headsign":"{}","duration_avg":131.0,"n_vehicles":50,"d":1310,"route_I_counts":"{\"5\": 50}","source":90,"target":91,"layer":"L","from":"南宁邕宾立交(地铁站)","to":"南宁降桥(地铁站)"},"geometry":{"type":"LineString","coordinates":[[108.359897,22.859417],[108.3699,22.865378]]}},{"type":"Feature","properties":{"shape_id":"{}","direction_id":"{\"1\": 50}","headsign":"{}","duration_avg":131.0,"n_vehicles":50,"d":1310,"route_I_counts":"{\"5\": 50}","source":91,"target":90,"layer":"L","from":"南宁降桥(地铁站)","to":"南宁邕宾立交(地铁站)"},"geometry":{"type":"LineString","coordinates":[[108.3699,22.865378],[108.359897,22.859417]]}},{"type":"Feature","properties":{"shape_id":"{}","direction_id":"{\"0\": 50}","headsign":"{}","duration_avg":91.0,"n_vehicles":50,"d":910,"route_I_counts":"{\"5\": 50}","source":91,"target":92,"layer":"L","from":"南宁降桥(地铁站)","to":"南宁金桥客运站(地铁站)"},"geometry":{"type":"LineString","coordinates":[[108.3699,22.865378],[108.381001,22.867272]]}},{"type":"Feature","properties":{"shape_id":"{}","direction_id":"{\"1\": 50}","headsign":"{}","duration_avg":91.0,"n_vehicles":50,"d":910,"route_I_counts":"{\"5\": 50}","source":92,"target":91,"layer":"L","from":"南宁金桥客运站(地铁站)","to":"南宁降桥(地铁站)"},"geometry":{"type":"LineString","coordinates":[[108.381001,22.867272],[108.3699,22.865378]]}}]}