{"type":"FeatureCollection","features":[{"type":"Feature","geometry":{"type":"Point","coordinates":[120.847992,32.084733]},"properties":{"name":"南通幸福(地铁站)","original_ids":"[1]","id":0,"layer":"stop"}},{"type":"Feature","geometry":{"type":"Point","coordinates":[120.854533,32.073375]},"properties":{"name":"南通南通火车站(地铁站)","original_ids":"[2]","id":1,"layer":"stop"}},{"type":"Feature","geometry":{"type":"Point","coordinates":[120.855936,32.062394]},"properties":{"name":"南通长岸(地铁站)","original_ids":"[3]","id":2,"layer":"stop"}},{"type":"Feature","geometry":{"type":"Point","coordinates":[120.855982,32.051077]},"properties":{"name":"南通北大街(地铁站)","original_ids":"[4]","id":3,"layer":"stop"}},{"type":"Feature","geometry":{"type":"Point","coordinates":[120.855974,32.044445]},"properties":{"name":"南通北城大桥(地铁站)","original_ids":"[5]","id":4,"layer":"stop"}},{"type":"Feature","geometry":{"type":"Point","coordinates":[120.851711,32.030133]},"properties":{"name":"南通钟秀西路(地铁站)","original_ids":"[6]","id":5,"layer":"stop"}},{"type":"Feature","geometry":{"type":"Point","coordinates":[120.854651,32.018857]},"properties":{"name":"南通和平桥(地铁站)","original_ids":"[7]","id":6,"layer":"stop"}},{"type":"Feature","geometry":{"type":"Point","coordinates":[120.860005,32.007717]},"properties":{"name":"南通体育公园(地铁站)","original_ids":"[8]","id":7,"layer":"stop"}},{"type":"Feature","geometry":{"type":"Point","coordinates":[120.871276,32.005605]},"properties":{"name":"南通易家桥(地铁站)","original_ids":"[9]","id":8,"layer":"stop"}},{"type":"Feature","geometry":{"type":"Point","coordinates":[120.879695,32.008124]},"properties":{"name":"南通文峰(地铁站)","original_ids":"[10]","id":9,"layer":"stop"}},{"type":"Feature","geometry":{"type":"Point","coordinates":[120.888645,32.008101]},"properties":{"name":"南通五一路(地铁站)","original_ids":"[11]","id":10,"layer":"stop"}},{"type":"Feature","geometry":{"type":"Point","coordinates":[120.903436,32.00544]},"properties":{"name":"南通园林路(地铁站)","original_ids":"[12]","id":11,"layer":"stop"}},{"type":"Feature","geometry":{"type":"Point","coordinates":[120.914395,32.003551]},"properties":{"name":"南通汽车东站(地铁站)","original_ids":"[13]","id":12,"layer":"stop"}},{"type":"Feature","geometry":{"type":"Point","coordinates":[120.923882,32.002339]},"properties":{"name":"南通通富北路(地铁站)","original_ids":"[14]","id":13,"layer":"stop"}},{"type":"Feature","geometry":{"type":"Point","coordinates":[120.932981,32.001191]},"properties":{"name":"南通观音山(地铁站)","original_ids":"[15]","id":14,"layer":"stop"}},{"type":"Feature","geometry":{"type":"Point","coordinates":[120.949586,32.000831]},"properties":{"name":"南通南通东站(地铁站)","original_ids":"[16]","id":15,"layer":"stop"}},{"type":"Feature","geometry":{"type":"Point","coordinates":[120.975467,32.004243]},"properties":{"name":"南通先锋(地铁站)","original_ids":"[17]","id":16,"layer":"stop"}},{"type":"Feature","geometry":{"type":"Point","coordinates":[120.753819,32.107869]},"properties":{"name":"南通平潮(地铁站)","original_ids":"[18]","id":17,"layer":"stop"}},{"type":"Feature","geometry":{"type":"Point","coordinates":[120.761119,32.103631]},"properties":{"name":"南通西站(地铁站)","original_ids":"[19]","id":18,"layer":"stop"}},{"type":"Feature","geometry":{"type":"Point","coordinates":[120.773381,32.092331]},"properties":{"name":"南通集成村(地铁站)","original_ids":"[20]","id":19,"layer":"stop"}},{"type":"Feature","geometry":{"type":"Point","coordinates":[120.789131,32.087389]},"properties":{"name":"南通河口(地铁站)","original_ids":"[21]","id":20,"layer":"stop"}},{"type":"Feature","geometry":{"type":"Point","coordinates":[120.8139,32.073139]},"properties":{"name":"南通唐闸公园(地铁站)","original_ids":"[22]","id":21,"layer":"stop"}},{"type":"Feature","geometry":{"type":"Point","coordinates":[120.825761,32.064011]},"properties":{"name":"南通普贤路(地铁站)","original_ids":"[23]","id":22,"layer":"stop"}},{"type":"Feature","geometry":{"type":"Point","coordinates":[120.819023,32.044671]},"properties":{"name":"南通十里坊(地铁站)","original_ids":"[24]","id":23,"layer":"stop"}},{"type":"Feature","geometry":{"type":"Point","coordinates":[120.81141,32.03375]},"properties":{"name":"南通城港路(地铁站)","original_ids":"[25]","id":24,"layer":"stop"}},{"type":"Feature","geometry":{"type":"Point","coordinates":[120.815561,32.02595]},"properties":{"name":"南通曙光(地铁站)","original_ids":"[26]","id":25,"layer":"stop"}},{"type":"Feature","geometry":{"type":"Point","coordinates":[120.831561,32.01715]},"properties":{"name":"南通茶庵殿(地铁站)","original_ids":"[27]","id":26,"layer":"stop"}},{"type":"Feature","geometry":{"type":"Point","coordinates":[120.845961,32.017911]},"properties":{"name":"南通孩儿巷(地铁站)","original_ids":"[28]","id":27,"layer":"stop"}},{"type":"Feature","geometry":{"type":"Point","coordinates":[120.864669,32.0202]},"properties":{"name":"南通友谊桥(地铁站)","original_ids":"[29]","id":28,"layer":"stop"}},{"type":"Feature","geometry":{"type":"Point","coordinates":[120.877811,32.017111]},"properties":{"name":"南通学田(地铁站)","original_ids":"[30]","id":29,"layer":"stop"}},{"type":"Feature","geometry":{"type":"Point","coordinates":[120.880419,31.999419]},"properties":{"name":"南通慈善博物馆(地铁站)","original_ids":"[31]","id":30,"layer":"stop"}},{"type":"Feature","geometry":{"type":"Point","coordinates":[120.882181,31.9899]},"properties":{"name":"南通政务中心(地铁站)","original_ids":"[32]","id":31,"layer":"stop"}},{"type":"Feature","geometry":{"type":"Point","coordinates":[120.8841,31.981231]},"properties":{"name":"南通世纪大道(地铁站)","original_ids":"[33]","id":32,"layer":"stop"}},{"type":"Feature","geometry":{"type":"Point","coordinates":[120.890581,31.976239]},"properties":{"name":"南通图书馆(地铁站)","original_ids":"[34]","id":33,"layer":"stop"}},{"type":"Feature","geometry":{"type":"Point","coordinates":[120.902331,31.978019]},"properties":{"name":"南通大学(地铁站)","original_ids":"[35]","id":34,"layer":"stop"}},{"type":"Feature","geometry":{"type":"Point","coordinates":[120.916181,31.979689]},"properties":{"name":"南通盘香路(地铁站)","original_ids":"[36]","id":35,"layer":"stop"}},{"type":"Feature","geometry":{"type":"Point","coordinates":[120.929198,31.979793]},"properties":{"name":"南通崇州大道(地铁站)","original_ids":"[37]","id":36,"layer":"stop"}},{"type":"Feature","geometry":{"type":"Point","coordinates":[120.941927,31.969484]},"properties":{"name":"南通静海大道(地铁站)","original_ids":"[38]","id":37,"layer":"stop"}},{"type":"Feature","geometry":{"type":"Point","coordinates":[120.942361,31.967239]},"properties":{"name":"南通大剧院(地铁站)","original_ids":"[39]","id":38,"layer":"stop"}},{"type":"Feature","geometry":{"type":"Point","coordinates":[120.94328,31.9562]},"properties":{"name":"南通紫琅湖(地铁站)","original_ids":"[40]","id":39,"layer":"stop"}},{"type":"Feature","geometry":{"type":"Point","coordinates":[120.954669,31.935789]},"properties":{"name":"南通能达商务区(地铁站)","original_ids":"[41]","id":40,"layer":"stop"}},{"type":"Feature","geometry":{"type":"Point","coordinates":[120.954719,31.924211]},"properties":{"name":"南通航运学院(地铁站)","original_ids":"[42]","id":41,"layer":"stop"}},{"type":"Feature","geometry":{"type":"Point","coordinates":[120.951961,31.912581]},"properties":{"name":"南通振兴路(地铁站)","original_ids":"[43]","id":42,"layer":"stop"}},{"type":"Feature","properties":{"shape_id":"{}","direction_id":"{\"0\": 50}","headsign":"{}","duration_avg":120,"n_vehicles":50,"d":1200,"route_I_counts":"{\"2\": 50}","source":0,"target":1,"layer":"L","from":"南通幸福(地铁站)","to":"南通南通火车站(地铁站)"},"geometry":{"type":"LineString","coordinates":[[120.847992,32.084733],[120.854533,32.073375]]}},{"type":"Feature","properties":{"shape_id":"{}","direction_id":"{\"1\": 50}","headsign":"{}","duration_avg":120,"n_vehicles":50,"d":1200,"route_I_counts":"{\"2\": 50}","source":1,"target":0,"layer":"L","from":"南通南通火车站(地铁站)","to":"南通幸福(地铁站)"},"geometry":{"type":"LineString","coordinates":[[120.854533,32.073375],[120.847992,32.084733]]}},{"type":"Feature","properties":{"shape_id":"{}","direction_id":"{\"0\": 50}","headsign":"{}","duration_avg":120,"n_vehicles":50,"d":1200,"route_I_counts":"{\"2\": 50}","source":1,"target":2,"layer":"L","from":"南通南通火车站(地铁站)","to":"南通长岸(地铁站)"},"geometry":{"type":"LineString","coordinates":[[120.854533,32.073375],[120.855936,32.062394]]}},{"type":"Feature","properties":{"shape_id":"{}","direction_id":"{\"1\": 50}","headsign":"{}","duration_avg":120,"n_vehicles":50,"d":1200,"route_I_counts":"{\"2\": 50}","source":2,"target":1,"layer":"L","from":"南通长岸(地铁站)","to":"南通南通火车站(地铁站)"},"geometry":{"type":"LineString","coordinates":[[120.855936,32.062394],[120.854533,32.073375]]}},{"type":"Feature","properties":{"shape_id":"{}","direction_id":"{\"0\": 50}","headsign":"{}","duration_avg":120,"n_vehicles":50,"d":1200,"route_I_counts":"{\"2\": 50}","source":2,"target":3,"layer":"L","from":"南通长岸(地铁站)","to":"南通北大街(地铁站)"},"geometry":{"type":"LineString","coordinates":[[120.855936,32.062394],[120.855982,32.051077]]}},{"type":"Feature","properties":{"shape_id":"{}","direction_id":"{\"1\": 50}","headsign":"{}","duration_avg":120,"n_vehicles":50,"d":1200,"route_I_counts":"{\"2\": 50}","source":3,"target":2,"layer":"L","from":"南通北大街(地铁站)","to":"南通长岸(地铁站)"},"geometry":{"type":"LineString","coordinates":[[120.855982,32.051077],[120.855936,32.062394]]}},{"type":"Feature","properties":{"shape_id":"{}","direction_id":"{\"0\": 50}","headsign":"{}","duration_avg":120,"n_vehicles":50,"d":1200,"route_I_counts":"{\"2\": 50}","source":3,"target":4,"layer":"L","from":"南通北大街(地铁站)","to":"南通北城大桥(地铁站)"},"geometry":{"type":"LineString","coordinates":[[120.855982,32.051077],[120.855974,32.044445]]}},{"type":"Feature","properties":{"shape_id":"{}","direction_id":"{\"1\": 50}","headsign":"{}","duration_avg":120,"n_vehicles":50,"d":1200,"route_I_counts":"{\"2\": 50}","source":4,"target":3,"layer":"L","from":"南通北城大桥(地铁站)","to":"南通北大街(地铁站)"},"geometry":{"type":"LineString","coordinates":[[120.855974,32.044445],[120.855982,32.051077]]}},{"type":"Feature","properties":{"shape_id":"{}","direction_id":"{\"0\": 50}","headsign":"{}","duration_avg":120,"n_vehicles":50,"d":1200,"route_I_counts":"{\"2\": 50}","source":4,"target":5,"layer":"L","from":"南通北城大桥(地铁站)","to":"南通钟秀西路(地铁站)"},"geometry":{"type":"LineString","coordinates":[[120.855974,32.044445],[120.851711,32.030133]]}},{"type":"Feature","properties":{"shape_id":"{}","direction_id":"{\"1\": 50}","headsign":"{}","duration_avg":120,"n_vehicles":50,"d":1200,"route_I_counts":"{\"2\": 50}","source":5,"target":4,"layer":"L","from":"南通钟秀西路(地铁站)","to":"南通北城大桥(地铁站)"},"geometry":{"type":"LineString","coordinates":[[120.851711,32.030133],[120.855974,32.044445]]}},{"type":"Feature","properties":{"shape_id":"{}","direction_id":"{\"0\": 50}","headsign":"{}","duration_avg":120,"n_vehicles":50,"d":1200,"route_I_counts":"{\"2\": 50}","source":5,"target":6,"layer":"L","from":"南通钟秀西路(地铁站)","to":"南通和平桥(地铁站)"},"geometry":{"type":"LineString","coordinates":[[120.851711,32.030133],[120.854651,32.018857]]}},{"type":"Feature","properties":{"shape_id":"{}","direction_id":"{\"1\": 50}","headsign":"{}","duration_avg":120,"n_vehicles":50,"d":1200,"route_I_counts":"{\"2\": 50}","source":6,"target":5,"layer":"L","from":"南通和平桥(地铁站)","to":"南通钟秀西路(地铁站)"},"geometry":{"type":"LineString","coordinates":[[120.854651,32.018857],[120.851711,32.030133]]}},{"type":"Feature","properties":{"shape_id":"{}","direction_id":"{\"0\": 50}","headsign":"{}","duration_avg":120,"n_vehicles":50,"d":1200,"route_I_counts":"{\"2\": 50}","source":6,"target":7,"layer":"L","from":"南通和平桥(地铁站)","to":"南通体育公园(地铁站)"},"geometry":{"type":"LineString","coordinates":[[120.854651,32.018857],[120.860005,32.007717]]}},{"type":"Feature","properties":{"shape_id":"{}","direction_id":"{\"1\": 50}","headsign":"{}","duration_avg":120,"n_vehicles":50,"d":1200,"route_I_counts":"{\"2\": 50}","source":7,"target":6,"layer":"L","from":"南通体育公园(地铁站)","to":"南通和平桥(地铁站)"},"geometry":{"type":"LineString","coordinates":[[120.860005,32.007717],[120.854651,32.018857]]}},{"type":"Feature","properties":{"shape_id":"{}","direction_id":"{\"0\": 50}","headsign":"{}","duration_avg":120,"n_vehicles":50,"d":1200,"route_I_counts":"{\"2\": 50}","source":7,"target":8,"layer":"L","from":"南通体育公园(地铁站)","to":"南通易家桥(地铁站)"},"geometry":{"type":"LineString","coordinates":[[120.860005,32.007717],[120.871276,32.005605]]}},{"type":"Feature","properties":{"shape_id":"{}","direction_id":"{\"1\": 50}","headsign":"{}","duration_avg":120,"n_vehicles":50,"d":1200,"route_I_counts":"{\"2\": 50}","source":8,"target":7,"layer":"L","from":"南通易家桥(地铁站)","to":"南通体育公园(地铁站)"},"geometry":{"type":"LineString","coordinates":[[120.871276,32.005605],[120.860005,32.007717]]}},{"type":"Feature","properties":{"shape_id":"{}","direction_id":"{\"0\": 50}","headsign":"{}","duration_avg":120,"n_vehicles":50,"d":1200,"route_I_counts":"{\"2\": 50}","source":8,"target":9,"layer":"L","from":"南通易家桥(地铁站)","to":"南通文峰(地铁站)"},"geometry":{"type":"LineString","coordinates":[[120.871276,32.005605],[120.879695,32.008124]]}},{"type":"Feature","properties":{"shape_id":"{}","direction_id":"{\"1\": 50}","headsign":"{}","duration_avg":120,"n_vehicles":50,"d":1200,"route_I_counts":"{\"2\": 50}","source":9,"target":8,"layer":"L","from":"南通文峰(地铁站)","to":"南通易家桥(地铁站)"},"geometry":{"type":"LineString","coordinates":[[120.879695,32.008124],[120.871276,32.005605]]}},{"type":"Feature","properties":{"shape_id":"{}","direction_id":"{\"0\": 50}","headsign":"{}","duration_avg":120,"n_vehicles":50,"d":1200,"route_I_counts":"{\"2\": 50}","source":9,"target":10,"layer":"L","from":"南通文峰(地铁站)","to":"南通五一路(地铁站)"},"geometry":{"type":"LineString","coordinates":[[120.879695,32.008124],[120.888645,32.008101]]}},{"type":"Feature","properties":{"shape_id":"{}","direction_id":"{\"1\": 50}","headsign":"{}","duration_avg":120,"n_vehicles":50,"d":1200,"route_I_counts":"{\"2\": 50}","source":10,"target":9,"layer":"L","from":"南通五一路(地铁站)","to":"南通文峰(地铁站)"},"geometry":{"type":"LineString","coordinates":[[120.888645,32.008101],[120.879695,32.008124]]}},{"type":"Feature","properties":{"shape_id":"{}","direction_id":"{\"0\": 50}","headsign":"{}","duration_avg":120,"n_vehicles":50,"d":1200,"route_I_counts":"{\"2\": 50}","source":10,"target":11,"layer":"L","from":"南通五一路(地铁站)","to":"南通园林路(地铁站)"},"geometry":{"type":"LineString","coordinates":[[120.888645,32.008101],[120.903436,32.00544]]}},{"type":"Feature","properties":{"shape_id":"{}","direction_id":"{\"1\": 50}","headsign":"{}","duration_avg":120,"n_vehicles":50,"d":1200,"route_I_counts":"{\"2\": 50}","source":11,"target":10,"layer":"L","from":"南通园林路(地铁站)","to":"南通五一路(地铁站)"},"geometry":{"type":"LineString","coordinates":[[120.903436,32.00544],[120.888645,32.008101]]}},{"type":"Feature","properties":{"shape_id":"{}","direction_id":"{\"0\": 50}","headsign":"{}","duration_avg":120,"n_vehicles":50,"d":1200,"route_I_counts":"{\"2\": 50}","source":11,"target":12,"layer":"L","from":"南通园林路(地铁站)","to":"南通汽车东站(地铁站)"},"geometry":{"type":"LineString","coordinates":[[120.903436,32.00544],[120.914395,32.003551]]}},{"type":"Feature","properties":{"shape_id":"{}","direction_id":"{\"1\": 50}","headsign":"{}","duration_avg":120,"n_vehicles":50,"d":1200,"route_I_counts":"{\"2\": 50}","source":12,"target":11,"layer":"L","from":"南通汽车东站(地铁站)","to":"南通园林路(地铁站)"},"geometry":{"type":"LineString","coordinates":[[120.914395,32.003551],[120.903436,32.00544]]}},{"type":"Feature","properties":{"shape_id":"{}","direction_id":"{\"0\": 50}","headsign":"{}","duration_avg":120,"n_vehicles":50,"d":1200,"route_I_counts":"{\"2\": 50}","source":12,"target":13,"layer":"L","from":"南通汽车东站(地铁站)","to":"南通通富北路(地铁站)"},"geometry":{"type":"LineString","coordinates":[[120.914395,32.003551],[120.923882,32.002339]]}},{"type":"Feature","properties":{"shape_id":"{}","direction_id":"{\"1\": 50}","headsign":"{}","duration_avg":120,"n_vehicles":50,"d":1200,"route_I_counts":"{\"2\": 50}","source":13,"target":12,"layer":"L","from":"南通通富北路(地铁站)","to":"南通汽车东站(地铁站)"},"geometry":{"type":"LineString","coordinates":[[120.923882,32.002339],[120.914395,32.003551]]}},{"type":"Feature","properties":{"shape_id":"{}","direction_id":"{\"0\": 50}","headsign":"{}","duration_avg":120,"n_vehicles":50,"d":1200,"route_I_counts":"{\"2\": 50}","source":13,"target":14,"layer":"L","from":"南通通富北路(地铁站)","to":"南通观音山(地铁站)"},"geometry":{"type":"LineString","coordinates":[[120.923882,32.002339],[120.932981,32.001191]]}},{"type":"Feature","properties":{"shape_id":"{}","direction_id":"{\"1\": 50}","headsign":"{}","duration_avg":120,"n_vehicles":50,"d":1200,"route_I_counts":"{\"2\": 50}","source":14,"target":13,"layer":"L","from":"南通观音山(地铁站)","to":"南通通富北路(地铁站)"},"geometry":{"type":"LineString","coordinates":[[120.932981,32.001191],[120.923882,32.002339]]}},{"type":"Feature","properties":{"shape_id":"{}","direction_id":"{\"0\": 50}","headsign":"{}","duration_avg":120,"n_vehicles":50,"d":1200,"route_I_counts":"{\"2\": 50}","source":14,"target":15,"layer":"L","from":"南通观音山(地铁站)","to":"南通南通东站(地铁站)"},"geometry":{"type":"LineString","coordinates":[[120.932981,32.001191],[120.949586,32.000831]]}},{"type":"Feature","properties":{"shape_id":"{}","direction_id":"{\"1\": 50}","headsign":"{}","duration_avg":120,"n_vehicles":50,"d":1200,"route_I_counts":"{\"2\": 50}","source":15,"target":14,"layer":"L","from":"南通南通东站(地铁站)","to":"南通观音山(地铁站)"},"geometry":{"type":"LineString","coordinates":[[120.949586,32.000831],[120.932981,32.001191]]}},{"type":"Feature","properties":{"shape_id":"{}","direction_id":"{\"0\": 50}","headsign":"{}","duration_avg":120,"n_vehicles":50,"d":1200,"route_I_counts":"{\"2\": 50}","source":15,"target":16,"layer":"L","from":"南通南通东站(地铁站)","to":"南通先锋(地铁站)"},"geometry":{"type":"LineString","coordinates":[[120.949586,32.000831],[120.975467,32.004243]]}},{"type":"Feature","properties":{"shape_id":"{}","direction_id":"{\"1\": 50}","headsign":"{}","duration_avg":120,"n_vehicles":50,"d":1200,"route_I_counts":"{\"2\": 50}","source":16,"target":15,"layer":"L","from":"南通先锋(地铁站)","to":"南通南通东站(地铁站)"},"geometry":{"type":"LineString","coordinates":[[120.975467,32.004243],[120.949586,32.000831]]}},{"type":"Feature","properties":{"shape_id":"{}","direction_id":"{\"0\": 50}","headsign":"{}","duration_avg":60,"n_vehicles":50,"d":600,"route_I_counts":"{\"2\": 50}","source":17,"target":18,"layer":"L","from":"南通平潮(地铁站)","to":"南通西站(地铁站)"},"geometry":{"type":"LineString","coordinates":[[120.753819,32.107869],[120.761119,32.103631]]}},{"type":"Feature","properties":{"shape_id":"{}","direction_id":"{\"1\": 50}","headsign":"{}","duration_avg":60,"n_vehicles":50,"d":600,"route_I_counts":"{\"2\": 50}","source":18,"target":17,"layer":"L","from":"南通西站(地铁站)","to":"南通平潮(地铁站)"},"geometry":{"type":"LineString","coordinates":[[120.761119,32.103631],[120.753819,32.107869]]}},{"type":"Feature","properties":{"shape_id":"{}","direction_id":"{\"0\": 50}","headsign":"{}","duration_avg":180,"n_vehicles":50,"d":1800,"route_I_counts":"{\"2\": 50}","source":18,"target":19,"layer":"L","from":"南通西站(地铁站)","to":"南通集成村(地铁站)"},"geometry":{"type":"LineString","coordinates":[[120.761119,32.103631],[120.773381,32.092331]]}},{"type":"Feature","properties":{"shape_id":"{}","direction_id":"{\"1\": 50}","headsign":"{}","duration_avg":180,"n_vehicles":50,"d":1800,"route_I_counts":"{\"2\": 50}","source":19,"target":18,"layer":"L","from":"南通集成村(地铁站)","to":"南通西站(地铁站)"},"geometry":{"type":"LineString","coordinates":[[120.773381,32.092331],[120.761119,32.103631]]}},{"type":"Feature","properties":{"shape_id":"{}","direction_id":"{\"0\": 50}","headsign":"{}","duration_avg":180,"n_vehicles":50,"d":1800,"route_I_counts":"{\"2\": 50}","source":19,"target":20,"layer":"L","from":"南通集成村(地铁站)","to":"南通河口(地铁站)"},"geometry":{"type":"LineString","coordinates":[[120.773381,32.092331],[120.789131,32.087389]]}},{"type":"Feature","properties":{"shape_id":"{}","direction_id":"{\"1\": 50}","headsign":"{}","duration_avg":180,"n_vehicles":50,"d":1800,"route_I_counts":"{\"2\": 50}","source":20,"target":19,"layer":"L","from":"南通河口(地铁站)","to":"南通集成村(地铁站)"},"geometry":{"type":"LineString","coordinates":[[120.789131,32.087389],[120.773381,32.092331]]}},{"type":"Feature","properties":{"shape_id":"{}","direction_id":"{\"0\": 50}","headsign":"{}","duration_avg":180,"n_vehicles":50,"d":1800,"route_I_counts":"{\"2\": 50}","source":20,"target":21,"layer":"L","from":"南通河口(地铁站)","to":"南通唐闸公园(地铁站)"},"geometry":{"type":"LineString","coordinates":[[120.789131,32.087389],[120.8139,32.073139]]}},{"type":"Feature","properties":{"shape_id":"{}","direction_id":"{\"1\": 50}","headsign":"{}","duration_avg":180,"n_vehicles":50,"d":1800,"route_I_counts":"{\"2\": 50}","source":21,"target":20,"layer":"L","from":"南通唐闸公园(地铁站)","to":"南通河口(地铁站)"},"geometry":{"type":"LineString","coordinates":[[120.8139,32.073139],[120.789131,32.087389]]}},{"type":"Feature","properties":{"shape_id":"{}","direction_id":"{\"0\": 50}","headsign":"{}","duration_avg":180,"n_vehicles":50,"d":1800,"route_I_counts":"{\"2\": 50}","source":21,"target":22,"layer":"L","from":"南通唐闸公园(地铁站)","to":"南通普贤路(地铁站)"},"geometry":{"type":"LineString","coordinates":[[120.8139,32.073139],[120.825761,32.064011]]}},{"type":"Feature","properties":{"shape_id":"{}","direction_id":"{\"1\": 50}","headsign":"{}","duration_avg":180,"n_vehicles":50,"d":1800,"route_I_counts":"{\"2\": 50}","source":22,"target":21,"layer":"L","from":"南通普贤路(地铁站)","to":"南通唐闸公园(地铁站)"},"geometry":{"type":"LineString","coordinates":[[120.825761,32.064011],[120.8139,32.073139]]}},{"type":"Feature","properties":{"shape_id":"{}","direction_id":"{\"0\": 50}","headsign":"{}","duration_avg":180,"n_vehicles":50,"d":1800,"route_I_counts":"{\"2\": 50}","source":22,"target":23,"layer":"L","from":"南通普贤路(地铁站)","to":"南通十里坊(地铁站)"},"geometry":{"type":"LineString","coordinates":[[120.825761,32.064011],[120.819023,32.044671]]}},{"type":"Feature","properties":{"shape_id":"{}","direction_id":"{\"1\": 50}","headsign":"{}","duration_avg":180,"n_vehicles":50,"d":1800,"route_I_counts":"{\"2\": 50}","source":23,"target":22,"layer":"L","from":"南通十里坊(地铁站)","to":"南通普贤路(地铁站)"},"geometry":{"type":"LineString","coordinates":[[120.819023,32.044671],[120.825761,32.064011]]}},{"type":"Feature","properties":{"shape_id":"{}","direction_id":"{\"0\": 50}","headsign":"{}","duration_avg":180,"n_vehicles":50,"d":1800,"route_I_counts":"{\"2\": 50}","source":23,"target":24,"layer":"L","from":"南通十里坊(地铁站)","to":"南通城港路(地铁站)"},"geometry":{"type":"LineString","coordinates":[[120.819023,32.044671],[120.81141,32.03375]]}},{"type":"Feature","properties":{"shape_id":"{}","direction_id":"{\"1\": 50}","headsign":"{}","duration_avg":180,"n_vehicles":50,"d":1800,"route_I_counts":"{\"2\": 50}","source":24,"target":23,"layer":"L","from":"南通城港路(地铁站)","to":"南通十里坊(地铁站)"},"geometry":{"type":"LineString","coordinates":[[120.81141,32.03375],[120.819023,32.044671]]}},{"type":"Feature","properties":{"shape_id":"{}","direction_id":"{\"0\": 50}","headsign":"{}","duration_avg":120,"n_vehicles":50,"d":1200,"route_I_counts":"{\"2\": 50}","source":24,"target":25,"layer":"L","from":"南通城港路(地铁站)","to":"南通曙光(地铁站)"},"geometry":{"type":"LineString","coordinates":[[120.81141,32.03375],[120.815561,32.02595]]}},{"type":"Feature","properties":{"shape_id":"{}","direction_id":"{\"1\": 50}","headsign":"{}","duration_avg":120,"n_vehicles":50,"d":1200,"route_I_counts":"{\"2\": 50}","source":25,"target":24,"layer":"L","from":"南通曙光(地铁站)","to":"南通城港路(地铁站)"},"geometry":{"type":"LineString","coordinates":[[120.815561,32.02595],[120.81141,32.03375]]}},{"type":"Feature","properties":{"shape_id":"{}","direction_id":"{\"0\": 50}","headsign":"{}","duration_avg":180,"n_vehicles":50,"d":1800,"route_I_counts":"{\"2\": 50}","source":25,"target":26,"layer":"L","from":"南通曙光(地铁站)","to":"南通茶庵殿(地铁站)"},"geometry":{"type":"LineString","coordinates":[[120.815561,32.02595],[120.831561,32.01715]]}},{"type":"Feature","properties":{"shape_id":"{}","direction_id":"{\"1\": 50}","headsign":"{}","duration_avg":180,"n_vehicles":50,"d":1800,"route_I_counts":"{\"2\": 50}","source":26,"target":25,"layer":"L","from":"南通茶庵殿(地铁站)","to":"南通曙光(地铁站)"},"geometry":{"type":"LineString","coordinates":[[120.831561,32.01715],[120.815561,32.02595]]}},{"type":"Feature","properties":{"shape_id":"{}","direction_id":"{\"0\": 50}","headsign":"{}","duration_avg":120,"n_vehicles":50,"d":1200,"route_I_counts":"{\"2\": 50}","source":26,"target":27,"layer":"L","from":"南通茶庵殿(地铁站)","to":"南通孩儿巷(地铁站)"},"geometry":{"type":"LineString","coordinates":[[120.831561,32.01715],[120.845961,32.017911]]}},{"type":"Feature","properties":{"shape_id":"{}","direction_id":"{\"1\": 50}","headsign":"{}","duration_avg":120,"n_vehicles":50,"d":1200,"route_I_counts":"{\"2\": 50}","source":27,"target":26,"layer":"L","from":"南通孩儿巷(地铁站)","to":"南通茶庵殿(地铁站)"},"geometry":{"type":"LineString","coordinates":[[120.845961,32.017911],[120.831561,32.01715]]}},{"type":"Feature","properties":{"shape_id":"{}","direction_id":"{\"0\": 50}","headsign":"{}","duration_avg":120,"n_vehicles":50,"d":1200,"route_I_counts":"{\"2\": 50}","source":27,"target":6,"layer":"L","from":"南通孩儿巷(地铁站)","to":"南通和平桥(地铁站)"},"geometry":{"type":"LineString","coordinates":[[120.845961,32.017911],[120.854651,32.018857]]}},{"type":"Feature","properties":{"shape_id":"{}","direction_id":"{\"1\": 50}","headsign":"{}","duration_avg":120,"n_vehicles":50,"d":1200,"route_I_counts":"{\"2\": 50}","source":6,"target":27,"layer":"L","from":"南通和平桥(地铁站)","to":"南通孩儿巷(地铁站)"},"geometry":{"type":"LineString","coordinates":[[120.854651,32.018857],[120.845961,32.017911]]}},{"type":"Feature","properties":{"shape_id":"{}","direction_id":"{\"0\": 50}","headsign":"{}","duration_avg":120,"n_vehicles":50,"d":1200,"route_I_counts":"{\"2\": 50}","source":6,"target":28,"layer":"L","from":"南通和平桥(地铁站)","to":"南通友谊桥(地铁站)"},"geometry":{"type":"LineString","coordinates":[[120.854651,32.018857],[120.864669,32.0202]]}},{"type":"Feature","properties":{"shape_id":"{}","direction_id":"{\"1\": 50}","headsign":"{}","duration_avg":120,"n_vehicles":50,"d":1200,"route_I_counts":"{\"2\": 50}","source":28,"target":6,"layer":"L","from":"南通友谊桥(地铁站)","to":"南通和平桥(地铁站)"},"geometry":{"type":"LineString","coordinates":[[120.864669,32.0202],[120.854651,32.018857]]}},{"type":"Feature","properties":{"shape_id":"{}","direction_id":"{\"0\": 50}","headsign":"{}","duration_avg":240,"n_vehicles":50,"d":2400,"route_I_counts":"{\"2\": 50}","source":28,"target":29,"layer":"L","from":"南通友谊桥(地铁站)","to":"南通学田(地铁站)"},"geometry":{"type":"LineString","coordinates":[[120.864669,32.0202],[120.877811,32.017111]]}},{"type":"Feature","properties":{"shape_id":"{}","direction_id":"{\"1\": 50}","headsign":"{}","duration_avg":240,"n_vehicles":50,"d":2400,"route_I_counts":"{\"2\": 50}","source":29,"target":28,"layer":"L","from":"南通学田(地铁站)","to":"南通友谊桥(地铁站)"},"geometry":{"type":"LineString","coordinates":[[120.877811,32.017111],[120.864669,32.0202]]}},{"type":"Feature","properties":{"shape_id":"{}","direction_id":"{\"0\": 50}","headsign":"{}","duration_avg":120,"n_vehicles":50,"d":1200,"route_I_counts":"{\"2\": 50}","source":29,"target":9,"layer":"L","from":"南通学田(地铁站)","to":"南通文峰(地铁站)"},"geometry":{"type":"LineString","coordinates":[[120.877811,32.017111],[120.879695,32.008124]]}},{"type":"Feature","properties":{"shape_id":"{}","direction_id":"{\"1\": 50}","headsign":"{}","duration_avg":120,"n_vehicles":50,"d":1200,"route_I_counts":"{\"2\": 50}","source":9,"target":29,"layer":"L","from":"南通文峰(地铁站)","to":"南通学田(地铁站)"},"geometry":{"type":"LineString","coordinates":[[120.879695,32.008124],[120.877811,32.017111]]}},{"type":"Feature","properties":{"shape_id":"{}","direction_id":"{\"0\": 50}","headsign":"{}","duration_avg":120,"n_vehicles":50,"d":1200,"route_I_counts":"{\"2\": 50}","source":9,"target":30,"layer":"L","from":"南通文峰(地铁站)","to":"南通慈善博物馆(地铁站)"},"geometry":{"type":"LineString","coordinates":[[120.879695,32.008124],[120.880419,31.999419]]}},{"type":"Feature","properties":{"shape_id":"{}","direction_id":"{\"1\": 50}","headsign":"{}","duration_avg":120,"n_vehicles":50,"d":1200,"route_I_counts":"{\"2\": 50}","source":30,"target":9,"layer":"L","from":"南通慈善博物馆(地铁站)","to":"南通文峰(地铁站)"},"geometry":{"type":"LineString","coordinates":[[120.880419,31.999419],[120.879695,32.008124]]}},{"type":"Feature","properties":{"shape_id":"{}","direction_id":"{\"0\": 50}","headsign":"{}","duration_avg":120,"n_vehicles":50,"d":1200,"route_I_counts":"{\"2\": 50}","source":30,"target":31,"layer":"L","from":"南通慈善博物馆(地铁站)","to":"南通政务中心(地铁站)"},"geometry":{"type":"LineString","coordinates":[[120.880419,31.999419],[120.882181,31.9899]]}},{"type":"Feature","properties":{"shape_id":"{}","direction_id":"{\"1\": 50}","headsign":"{}","duration_avg":120,"n_vehicles":50,"d":1200,"route_I_counts":"{\"2\": 50}","source":31,"target":30,"layer":"L","from":"南通政务中心(地铁站)","to":"南通慈善博物馆(地铁站)"},"geometry":{"type":"LineString","coordinates":[[120.882181,31.9899],[120.880419,31.999419]]}},{"type":"Feature","properties":{"shape_id":"{}","direction_id":"{\"0\": 50}","headsign":"{}","duration_avg":120,"n_vehicles":50,"d":1200,"route_I_counts":"{\"2\": 50}","source":31,"target":32,"layer":"L","from":"南通政务中心(地铁站)","to":"南通世纪大道(地铁站)"},"geometry":{"type":"LineString","coordinates":[[120.882181,31.9899],[120.8841,31.981231]]}},{"type":"Feature","properties":{"shape_id":"{}","direction_id":"{\"1\": 50}","headsign":"{}","duration_avg":120,"n_vehicles":50,"d":1200,"route_I_counts":"{\"2\": 50}","source":32,"target":31,"layer":"L","from":"南通世纪大道(地铁站)","to":"南通政务中心(地铁站)"},"geometry":{"type":"LineString","coordinates":[[120.8841,31.981231],[120.882181,31.9899]]}},{"type":"Feature","properties":{"shape_id":"{}","direction_id":"{\"0\": 50}","headsign":"{}","duration_avg":120,"n_vehicles":50,"d":1200,"route_I_counts":"{\"2\": 50}","source":32,"target":33,"layer":"L","from":"南通世纪大道(地铁站)","to":"南通图书馆(地铁站)"},"geometry":{"type":"LineString","coordinates":[[120.8841,31.981231],[120.890581,31.976239]]}},{"type":"Feature","properties":{"shape_id":"{}","direction_id":"{\"1\": 50}","headsign":"{}","duration_avg":120,"n_vehicles":50,"d":1200,"route_I_counts":"{\"2\": 50}","source":33,"target":32,"layer":"L","from":"南通图书馆(地铁站)","to":"南通世纪大道(地铁站)"},"geometry":{"type":"LineString","coordinates":[[120.890581,31.976239],[120.8841,31.981231]]}},{"type":"Feature","properties":{"shape_id":"{}","direction_id":"{\"0\": 50}","headsign":"{}","duration_avg":120,"n_vehicles":50,"d":1200,"route_I_counts":"{\"2\": 50}","source":33,"target":34,"layer":"L","from":"南通图书馆(地铁站)","to":"南通大学(地铁站)"},"geometry":{"type":"LineString","coordinates":[[120.890581,31.976239],[120.902331,31.978019]]}},{"type":"Feature","properties":{"shape_id":"{}","direction_id":"{\"1\": 50}","headsign":"{}","duration_avg":120,"n_vehicles":50,"d":1200,"route_I_counts":"{\"2\": 50}","source":34,"target":33,"layer":"L","from":"南通大学(地铁站)","to":"南通图书馆(地铁站)"},"geometry":{"type":"LineString","coordinates":[[120.902331,31.978019],[120.890581,31.976239]]}},{"type":"Feature","properties":{"shape_id":"{}","direction_id":"{\"0\": 50}","headsign":"{}","duration_avg":180,"n_vehicles":50,"d":1800,"route_I_counts":"{\"2\": 50}","source":34,"target":35,"layer":"L","from":"南通大学(地铁站)","to":"南通盘香路(地铁站)"},"geometry":{"type":"LineString","coordinates":[[120.902331,31.978019],[120.916181,31.979689]]}},{"type":"Feature","properties":{"shape_id":"{}","direction_id":"{\"1\": 50}","headsign":"{}","duration_avg":180,"n_vehicles":50,"d":1800,"route_I_counts":"{\"2\": 50}","source":35,"target":34,"layer":"L","from":"南通盘香路(地铁站)","to":"南通大学(地铁站)"},"geometry":{"type":"LineString","coordinates":[[120.916181,31.979689],[120.902331,31.978019]]}},{"type":"Feature","properties":{"shape_id":"{}","direction_id":"{\"0\": 50}","headsign":"{}","duration_avg":120,"n_vehicles":50,"d":1200,"route_I_counts":"{\"2\": 50}","source":35,"target":36,"layer":"L","from":"南通盘香路(地铁站)","to":"南通崇州大道(地铁站)"},"geometry":{"type":"LineString","coordinates":[[120.916181,31.979689],[120.929198,31.979793]]}},{"type":"Feature","properties":{"shape_id":"{}","direction_id":"{\"1\": 50}","headsign":"{}","duration_avg":120,"n_vehicles":50,"d":1200,"route_I_counts":"{\"2\": 50}","source":36,"target":35,"layer":"L","from":"南通崇州大道(地铁站)","to":"南通盘香路(地铁站)"},"geometry":{"type":"LineString","coordinates":[[120.929198,31.979793],[120.916181,31.979689]]}},{"type":"Feature","properties":{"shape_id":"{}","direction_id":"{\"0\": 50}","headsign":"{}","duration_avg":120,"n_vehicles":50,"d":1200,"route_I_counts":"{\"2\": 50}","source":36,"target":37,"layer":"L","from":"南通崇州大道(地铁站)","to":"南通静海大道(地铁站)"},"geometry":{"type":"LineString","coordinates":[[120.929198,31.979793],[120.941927,31.969484]]}},{"type":"Feature","properties":{"shape_id":"{}","direction_id":"{\"1\": 50}","headsign":"{}","duration_avg":120,"n_vehicles":50,"d":1200,"route_I_counts":"{\"2\": 50}","source":37,"target":36,"layer":"L","from":"南通静海大道(地铁站)","to":"南通崇州大道(地铁站)"},"geometry":{"type":"LineString","coordinates":[[120.941927,31.969484],[120.929198,31.979793]]}},{"type":"Feature","properties":{"shape_id":"{}","direction_id":"{\"0\": 50}","headsign":"{}","duration_avg":120,"n_vehicles":50,"d":1200,"route_I_counts":"{\"2\": 50}","source":37,"target":38,"layer":"L","from":"南通静海大道(地铁站)","to":"南通大剧院(地铁站)"},"geometry":{"type":"LineString","coordinates":[[120.941927,31.969484],[120.942361,31.967239]]}},{"type":"Feature","properties":{"shape_id":"{}","direction_id":"{\"1\": 50}","headsign":"{}","duration_avg":120,"n_vehicles":50,"d":1200,"route_I_counts":"{\"2\": 50}","source":38,"target":37,"layer":"L","from":"南通大剧院(地铁站)","to":"南通静海大道(地铁站)"},"geometry":{"type":"LineString","coordinates":[[120.942361,31.967239],[120.941927,31.969484]]}},{"type":"Feature","properties":{"shape_id":"{}","direction_id":"{\"0\": 50}","headsign":"{}","duration_avg":180,"n_vehicles":50,"d":1800,"route_I_counts":"{\"2\": 50}","source":38,"target":39,"layer":"L","from":"南通大剧院(地铁站)","to":"南通紫琅湖(地铁站)"},"geometry":{"type":"LineString","coordinates":[[120.942361,31.967239],[120.94328,31.9562]]}},{"type":"Feature","properties":{"shape_id":"{}","direction_id":"{\"1\": 50}","headsign":"{}","duration_avg":180,"n_vehicles":50,"d":1800,"route_I_counts":"{\"2\": 50}","source":39,"target":38,"layer":"L","from":"南通紫琅湖(地铁站)","to":"南通大剧院(地铁站)"},"geometry":{"type":"LineString","coordinates":[[120.94328,31.9562],[120.942361,31.967239]]}},{"type":"Feature","properties":{"shape_id":"{}","direction_id":"{\"0\": 50}","headsign":"{}","duration_avg":180,"n_vehicles":50,"d":1800,"route_I_counts":"{\"2\": 50}","source":39,"target":40,"layer":"L","from":"南通紫琅湖(地铁站)","to":"南通能达商务区(地铁站)"},"geometry":{"type":"LineString","coordinates":[[120.94328,31.9562],[120.954669,31.935789]]}},{"type":"Feature","properties":{"shape_id":"{}","direction_id":"{\"1\": 50}","headsign":"{}","duration_avg":180,"n_vehicles":50,"d":1800,"route_I_counts":"{\"2\": 50}","source":40,"target":39,"layer":"L","from":"南通能达商务区(地铁站)","to":"南通紫琅湖(地铁站)"},"geometry":{"type":"LineString","coordinates":[[120.954669,31.935789],[120.94328,31.9562]]}},{"type":"Feature","properties":{"shape_id":"{}","direction_id":"{\"0\": 50}","headsign":"{}","duration_avg":180,"n_vehicles":50,"d":1800,"route_I_counts":"{\"2\": 50}","source":40,"target":41,"layer":"L","from":"南通能达商务区(地铁站)","to":"南通航运学院(地铁站)"},"geometry":{"type":"LineString","coordinates":[[120.954669,31.935789],[120.954719,31.924211]]}},{"type":"Feature","properties":{"shape_id":"{}","direction_id":"{\"1\": 50}","headsign":"{}","duration_avg":180,"n_vehicles":50,"d":1800,"route_I_counts":"{\"2\": 50}","source":41,"target":40,"layer":"L","from":"南通航运学院(地铁站)","to":"南通能达商务区(地铁站)"},"geometry":{"type":"LineString","coordinates":[[120.954719,31.924211],[120.954669,31.935789]]}},{"type":"Feature","properties":{"shape_id":"{}","direction_id":"{\"0\": 50}","headsign":"{}","duration_avg":120,"n_vehicles":50,"d":1200,"route_I_counts":"{\"2\": 50}","source":41,"target":42,"layer":"L","from":"南通航运学院(地铁站)","to":"南通振兴路(地铁站)"},"geometry":{"type":"LineString","coordinates":[[120.954719,31.924211],[120.951961,31.912581]]}},{"type":"Feature","properties":{"shape_id":"{}","direction_id":"{\"1\": 50}","headsign":"{}","duration_avg":120,"n_vehicles":50,"d":1200,"route_I_counts":"{\"2\": 50}","source":42,"target":41,"layer":"L","from":"南通振兴路(地铁站)","to":"南通航运学院(地铁站)"},"geometry":{"type":"LineString","coordinates":[[120.951961,31.912581],[120.954719,31.924211]]}}]}