{"type":"FeatureCollection","features":[{"type":"Feature","geometry":{"type":"Point","coordinates":[141.338248,43.109102]},"properties":{"name":"麻生","original_ids":"[1]","id":0,"layer":"stop"}},{"type":"Feature","geometry":{"type":"Point","coordinates":[141.342121,43.099882]},"properties":{"name":"北３４条","original_ids":"[2]","id":1,"layer":"stop"}},{"type":"Feature","geometry":{"type":"Point","coordinates":[141.344645,43.089944]},"properties":{"name":"北２４条","original_ids":"[3]","id":2,"layer":"stop"}},{"type":"Feature","geometry":{"type":"Point","coordinates":[141.346766,43.08156]},"properties":{"name":"北１８条","original_ids":"[4]","id":3,"layer":"stop"}},{"type":"Feature","geometry":{"type":"Point","coordinates":[141.348467,43.074825]},"properties":{"name":"北１２条","original_ids":"[5]","id":4,"layer":"stop"}},{"type":"Feature","geometry":{"type":"Point","coordinates":[141.352273,43.066197]},"properties":{"name":"さっぽろ","original_ids":"[6]","id":5,"layer":"stop"}},{"type":"Feature","geometry":{"type":"Point","coordinates":[141.353713,43.060454]},"properties":{"name":"大通","original_ids":"[7]","id":6,"layer":"stop"}},{"type":"Feature","geometry":{"type":"Point","coordinates":[141.353306,43.055609]},"properties":{"name":"すすきの","original_ids":"[8]","id":7,"layer":"stop"}},{"type":"Feature","geometry":{"type":"Point","coordinates":[141.354995,43.048875]},"properties":{"name":"中島公園","original_ids":"[9]","id":8,"layer":"stop"}},{"type":"Feature","geometry":{"type":"Point","coordinates":[141.356074,43.04016]},"properties":{"name":"幌平橋","original_ids":"[10]","id":9,"layer":"stop"}},{"type":"Feature","geometry":{"type":"Point","coordinates":[141.360902,43.037678]},"properties":{"name":"中の島","original_ids":"[11]","id":10,"layer":"stop"}},{"type":"Feature","geometry":{"type":"Point","coordinates":[141.368203,43.034608]},"properties":{"name":"平岸","original_ids":"[12]","id":11,"layer":"stop"}},{"type":"Feature","geometry":{"type":"Point","coordinates":[141.371329,43.026773]},"properties":{"name":"南平岸","original_ids":"[13]","id":12,"layer":"stop"}},{"type":"Feature","geometry":{"type":"Point","coordinates":[141.367317,43.016846]},"properties":{"name":"澄川","original_ids":"[14]","id":13,"layer":"stop"}},{"type":"Feature","geometry":{"type":"Point","coordinates":[141.364823,43.00624]},"properties":{"name":"自衛隊前","original_ids":"[15]","id":14,"layer":"stop"}},{"type":"Feature","geometry":{"type":"Point","coordinates":[141.358412,42.991213]},"properties":{"name":"真駒内","original_ids":"[16]","id":15,"layer":"stop"}},{"type":"Feature","geometry":{"type":"Point","coordinates":[141.277297,43.089979]},"properties":{"name":"宮の沢","original_ids":"[17]","id":16,"layer":"stop"}},{"type":"Feature","geometry":{"type":"Point","coordinates":[141.289828,43.081815]},"properties":{"name":"発寒南","original_ids":"[18]","id":17,"layer":"stop"}},{"type":"Feature","geometry":{"type":"Point","coordinates":[141.303854,43.075905]},"properties":{"name":"琴似","original_ids":"[19]","id":18,"layer":"stop"}},{"type":"Feature","geometry":{"type":"Point","coordinates":[141.314263,43.070205]},"properties":{"name":"二十四軒","original_ids":"[20]","id":19,"layer":"stop"}},{"type":"Feature","geometry":{"type":"Point","coordinates":[141.314607,43.060885]},"properties":{"name":"西２８丁目","original_ids":"[21]","id":20,"layer":"stop"}},{"type":"Feature","geometry":{"type":"Point","coordinates":[141.319123,43.055688]},"properties":{"name":"円山公園","original_ids":"[22]","id":21,"layer":"stop"}},{"type":"Feature","geometry":{"type":"Point","coordinates":[141.330239,43.057193]},"properties":{"name":"西１８丁目","original_ids":"[23]","id":22,"layer":"stop"}},{"type":"Feature","geometry":{"type":"Point","coordinates":[141.341112,43.058635]},"properties":{"name":"西１１丁目","original_ids":"[24]","id":23,"layer":"stop"}},{"type":"Feature","geometry":{"type":"Point","coordinates":[141.360553,43.061328]},"properties":{"name":"バスセンター前","original_ids":"[25]","id":24,"layer":"stop"}},{"type":"Feature","geometry":{"type":"Point","coordinates":[141.372837,43.057206]},"properties":{"name":"菊水","original_ids":"[26]","id":25,"layer":"stop"}},{"type":"Feature","geometry":{"type":"Point","coordinates":[141.384773,43.051795]},"properties":{"name":"東札幌","original_ids":"[27]","id":26,"layer":"stop"}},{"type":"Feature","geometry":{"type":"Point","coordinates":[141.3965,43.046142]},"properties":{"name":"白石","original_ids":"[28]","id":27,"layer":"stop"}},{"type":"Feature","geometry":{"type":"Point","coordinates":[141.411799,43.039979]},"properties":{"name":"南郷７丁目","original_ids":"[29]","id":28,"layer":"stop"}},{"type":"Feature","geometry":{"type":"Point","coordinates":[141.422743,43.035768]},"properties":{"name":"南郷１３丁目","original_ids":"[30]","id":29,"layer":"stop"}},{"type":"Feature","geometry":{"type":"Point","coordinates":[141.435124,43.030306]},"properties":{"name":"南郷１８丁目","original_ids":"[31]","id":30,"layer":"stop"}},{"type":"Feature","geometry":{"type":"Point","coordinates":[141.453068,43.027886]},"properties":{"name":"大谷地","original_ids":"[32]","id":31,"layer":"stop"}},{"type":"Feature","geometry":{"type":"Point","coordinates":[141.464623,43.032271]},"properties":{"name":"ひばりが丘","original_ids":"[33]","id":32,"layer":"stop"}},{"type":"Feature","geometry":{"type":"Point","coordinates":[141.473748,43.038023]},"properties":{"name":"新さっぽろ","original_ids":"[34]","id":33,"layer":"stop"}},{"type":"Feature","geometry":{"type":"Point","coordinates":[141.36714,43.11301]},"properties":{"name":"栄町","original_ids":"[35]","id":34,"layer":"stop"}},{"type":"Feature","geometry":{"type":"Point","coordinates":[141.369131,43.104625]},"properties":{"name":"新道東","original_ids":"[36]","id":35,"layer":"stop"}},{"type":"Feature","geometry":{"type":"Point","coordinates":[141.371625,43.094336]},"properties":{"name":"元町","original_ids":"[37]","id":36,"layer":"stop"}},{"type":"Feature","geometry":{"type":"Point","coordinates":[141.374597,43.081866]},"properties":{"name":"環状通東","original_ids":"[38]","id":37,"layer":"stop"}},{"type":"Feature","geometry":{"type":"Point","coordinates":[141.36493,43.078183]},"properties":{"name":"東区役所前","original_ids":"[39]","id":38,"layer":"stop"}},{"type":"Feature","geometry":{"type":"Point","coordinates":[141.354952,43.076839]},"properties":{"name":"北１３条東","original_ids":"[40]","id":39,"layer":"stop"}},{"type":"Feature","geometry":{"type":"Point","coordinates":[141.356792,43.054837]},"properties":{"name":"豊水すすきの","original_ids":"[41]","id":40,"layer":"stop"}},{"type":"Feature","geometry":{"type":"Point","coordinates":[141.369029,43.047444]},"properties":{"name":"学園前","original_ids":"[42]","id":41,"layer":"stop"}},{"type":"Feature","geometry":{"type":"Point","coordinates":[141.376728,43.041756]},"properties":{"name":"豊平公園","original_ids":"[43]","id":42,"layer":"stop"}},{"type":"Feature","geometry":{"type":"Point","coordinates":[141.38565,43.036337]},"properties":{"name":"美園","original_ids":"[44]","id":43,"layer":"stop"}},{"type":"Feature","geometry":{"type":"Point","coordinates":[141.396291,43.030529]},"properties":{"name":"月寒中央","original_ids":"[45]","id":44,"layer":"stop"}},{"type":"Feature","geometry":{"type":"Point","coordinates":[141.403195,43.021545]},"properties":{"name":"福住","original_ids":"[46]","id":45,"layer":"stop"}},{"type":"Feature","properties":{"shape_id":"{}","direction_id":"{\"0\": 50}","headsign":"{}","duration_avg":120,"n_vehicles":50,"d":1200,"route_I_counts":"{\"1\": 50}","source":0,"target":1,"layer":"L","from":"麻生","to":"北３４条"},"geometry":{"type":"LineString","coordinates":[[141.338248,43.109102],[141.342121,43.099882]]}},{"type":"Feature","properties":{"shape_id":"{}","direction_id":"{\"1\": 50}","headsign":"{}","duration_avg":120,"n_vehicles":50,"d":1200,"route_I_counts":"{\"1\": 50}","source":1,"target":0,"layer":"L","from":"北３４条","to":"麻生"},"geometry":{"type":"LineString","coordinates":[[141.342121,43.099882],[141.338248,43.109102]]}},{"type":"Feature","properties":{"shape_id":"{}","direction_id":"{\"0\": 50}","headsign":"{}","duration_avg":120,"n_vehicles":50,"d":1200,"route_I_counts":"{\"1\": 50}","source":1,"target":2,"layer":"L","from":"北３４条","to":"北２４条"},"geometry":{"type":"LineString","coordinates":[[141.342121,43.099882],[141.344645,43.089944]]}},{"type":"Feature","properties":{"shape_id":"{}","direction_id":"{\"1\": 50}","headsign":"{}","duration_avg":120,"n_vehicles":50,"d":1200,"route_I_counts":"{\"1\": 50}","source":2,"target":1,"layer":"L","from":"北２４条","to":"北３４条"},"geometry":{"type":"LineString","coordinates":[[141.344645,43.089944],[141.342121,43.099882]]}},{"type":"Feature","properties":{"shape_id":"{}","direction_id":"{\"0\": 50}","headsign":"{}","duration_avg":80,"n_vehicles":50,"d":800,"route_I_counts":"{\"1\": 50}","source":2,"target":3,"layer":"L","from":"北２４条","to":"北１８条"},"geometry":{"type":"LineString","coordinates":[[141.344645,43.089944],[141.346766,43.08156]]}},{"type":"Feature","properties":{"shape_id":"{}","direction_id":"{\"1\": 50}","headsign":"{}","duration_avg":80,"n_vehicles":50,"d":800,"route_I_counts":"{\"1\": 50}","source":3,"target":2,"layer":"L","from":"北１８条","to":"北２４条"},"geometry":{"type":"LineString","coordinates":[[141.346766,43.08156],[141.344645,43.089944]]}},{"type":"Feature","properties":{"shape_id":"{}","direction_id":"{\"0\": 50}","headsign":"{}","duration_avg":100,"n_vehicles":50,"d":1000,"route_I_counts":"{\"1\": 50}","source":3,"target":4,"layer":"L","from":"北１８条","to":"北１２条"},"geometry":{"type":"LineString","coordinates":[[141.346766,43.08156],[141.348467,43.074825]]}},{"type":"Feature","properties":{"shape_id":"{}","direction_id":"{\"1\": 50}","headsign":"{}","duration_avg":100,"n_vehicles":50,"d":1000,"route_I_counts":"{\"1\": 50}","source":4,"target":3,"layer":"L","from":"北１２条","to":"北１８条"},"geometry":{"type":"LineString","coordinates":[[141.348467,43.074825],[141.346766,43.08156]]}},{"type":"Feature","properties":{"shape_id":"{}","direction_id":"{\"0\": 50}","headsign":"{}","duration_avg":140,"n_vehicles":50,"d":1400,"route_I_counts":"{\"1\": 50}","source":4,"target":5,"layer":"L","from":"北１２条","to":"さっぽろ"},"geometry":{"type":"LineString","coordinates":[[141.348467,43.074825],[141.352273,43.066197]]}},{"type":"Feature","properties":{"shape_id":"{}","direction_id":"{\"1\": 50}","headsign":"{}","duration_avg":141,"n_vehicles":50,"d":1400,"route_I_counts":"{\"1\": 50}","source":5,"target":4,"layer":"L","from":"さっぽろ","to":"北１２条"},"geometry":{"type":"LineString","coordinates":[[141.352273,43.066197],[141.348467,43.074825]]}},{"type":"Feature","properties":{"shape_id":"{}","direction_id":"{\"0\": 50}","headsign":"{}","duration_avg":100,"n_vehicles":50,"d":1000,"route_I_counts":"{\"1\": 50, \"3\": 50}","source":5,"target":6,"layer":"L","from":"さっぽろ","to":"大通"},"geometry":{"type":"LineString","coordinates":[[141.352273,43.066197],[141.353713,43.060454]]}},{"type":"Feature","properties":{"shape_id":"{}","direction_id":"{\"1\": 50}","headsign":"{}","duration_avg":100,"n_vehicles":50,"d":1000,"route_I_counts":"{\"1\": 50, \"3\": 50}","source":6,"target":5,"layer":"L","from":"大通","to":"さっぽろ"},"geometry":{"type":"LineString","coordinates":[[141.353713,43.060454],[141.352273,43.066197]]}},{"type":"Feature","properties":{"shape_id":"{}","direction_id":"{\"0\": 50}","headsign":"{}","duration_avg":100,"n_vehicles":50,"d":1000,"route_I_counts":"{\"1\": 50}","source":6,"target":7,"layer":"L","from":"大通","to":"すすきの"},"geometry":{"type":"LineString","coordinates":[[141.353713,43.060454],[141.353306,43.055609]]}},{"type":"Feature","properties":{"shape_id":"{}","direction_id":"{\"1\": 50}","headsign":"{}","duration_avg":100,"n_vehicles":50,"d":1000,"route_I_counts":"{\"1\": 50}","source":7,"target":6,"layer":"L","from":"すすきの","to":"大通"},"geometry":{"type":"LineString","coordinates":[[141.353306,43.055609],[141.353713,43.060454]]}},{"type":"Feature","properties":{"shape_id":"{}","direction_id":"{\"0\": 50}","headsign":"{}","duration_avg":100,"n_vehicles":50,"d":1000,"route_I_counts":"{\"1\": 50}","source":7,"target":8,"layer":"L","from":"すすきの","to":"中島公園"},"geometry":{"type":"LineString","coordinates":[[141.353306,43.055609],[141.354995,43.048875]]}},{"type":"Feature","properties":{"shape_id":"{}","direction_id":"{\"1\": 50}","headsign":"{}","duration_avg":100,"n_vehicles":50,"d":1000,"route_I_counts":"{\"1\": 50}","source":8,"target":7,"layer":"L","from":"中島公園","to":"すすきの"},"geometry":{"type":"LineString","coordinates":[[141.354995,43.048875],[141.353306,43.055609]]}},{"type":"Feature","properties":{"shape_id":"{}","direction_id":"{\"0\": 50}","headsign":"{}","duration_avg":83,"n_vehicles":50,"d":830,"route_I_counts":"{\"1\": 50}","source":8,"target":9,"layer":"L","from":"中島公園","to":"幌平橋"},"geometry":{"type":"LineString","coordinates":[[141.354995,43.048875],[141.356074,43.04016]]}},{"type":"Feature","properties":{"shape_id":"{}","direction_id":"{\"1\": 50}","headsign":"{}","duration_avg":100,"n_vehicles":50,"d":830,"route_I_counts":"{\"1\": 50}","source":9,"target":8,"layer":"L","from":"幌平橋","to":"中島公園"},"geometry":{"type":"LineString","coordinates":[[141.356074,43.04016],[141.354995,43.048875]]}},{"type":"Feature","properties":{"shape_id":"{}","direction_id":"{\"0\": 50}","headsign":"{}","duration_avg":82,"n_vehicles":50,"d":820,"route_I_counts":"{\"1\": 50}","source":9,"target":10,"layer":"L","from":"幌平橋","to":"中の島"},"geometry":{"type":"LineString","coordinates":[[141.356074,43.04016],[141.360902,43.037678]]}},{"type":"Feature","properties":{"shape_id":"{}","direction_id":"{\"1\": 50}","headsign":"{}","duration_avg":82,"n_vehicles":50,"d":820,"route_I_counts":"{\"1\": 50}","source":10,"target":9,"layer":"L","from":"中の島","to":"幌平橋"},"geometry":{"type":"LineString","coordinates":[[141.360902,43.037678],[141.356074,43.04016]]}},{"type":"Feature","properties":{"shape_id":"{}","direction_id":"{\"0\": 50}","headsign":"{}","duration_avg":80,"n_vehicles":50,"d":800,"route_I_counts":"{\"1\": 50}","source":10,"target":11,"layer":"L","from":"中の島","to":"平岸"},"geometry":{"type":"LineString","coordinates":[[141.360902,43.037678],[141.368203,43.034608]]}},{"type":"Feature","properties":{"shape_id":"{}","direction_id":"{\"1\": 50}","headsign":"{}","duration_avg":81,"n_vehicles":50,"d":800,"route_I_counts":"{\"1\": 50}","source":11,"target":10,"layer":"L","from":"平岸","to":"中の島"},"geometry":{"type":"LineString","coordinates":[[141.368203,43.034608],[141.360902,43.037678]]}},{"type":"Feature","properties":{"shape_id":"{}","direction_id":"{\"0\": 50}","headsign":"{}","duration_avg":100,"n_vehicles":50,"d":1000,"route_I_counts":"{\"1\": 50}","source":11,"target":12,"layer":"L","from":"平岸","to":"南平岸"},"geometry":{"type":"LineString","coordinates":[[141.368203,43.034608],[141.371329,43.026773]]}},{"type":"Feature","properties":{"shape_id":"{}","direction_id":"{\"1\": 50}","headsign":"{}","duration_avg":101,"n_vehicles":50,"d":1000,"route_I_counts":"{\"1\": 50}","source":12,"target":11,"layer":"L","from":"南平岸","to":"平岸"},"geometry":{"type":"LineString","coordinates":[[141.371329,43.026773],[141.368203,43.034608]]}},{"type":"Feature","properties":{"shape_id":"{}","direction_id":"{\"0\": 50}","headsign":"{}","duration_avg":119,"n_vehicles":50,"d":1190,"route_I_counts":"{\"1\": 50}","source":12,"target":13,"layer":"L","from":"南平岸","to":"澄川"},"geometry":{"type":"LineString","coordinates":[[141.371329,43.026773],[141.367317,43.016846]]}},{"type":"Feature","properties":{"shape_id":"{}","direction_id":"{\"1\": 50}","headsign":"{}","duration_avg":120,"n_vehicles":50,"d":1190,"route_I_counts":"{\"1\": 50}","source":13,"target":12,"layer":"L","from":"澄川","to":"南平岸"},"geometry":{"type":"LineString","coordinates":[[141.367317,43.016846],[141.371329,43.026773]]}},{"type":"Feature","properties":{"shape_id":"{}","direction_id":"{\"0\": 50}","headsign":"{}","duration_avg":120,"n_vehicles":50,"d":1200,"route_I_counts":"{\"1\": 50}","source":13,"target":14,"layer":"L","from":"澄川","to":"自衛隊前"},"geometry":{"type":"LineString","coordinates":[[141.367317,43.016846],[141.364823,43.00624]]}},{"type":"Feature","properties":{"shape_id":"{}","direction_id":"{\"1\": 50}","headsign":"{}","duration_avg":120,"n_vehicles":50,"d":1200,"route_I_counts":"{\"1\": 50}","source":14,"target":13,"layer":"L","from":"自衛隊前","to":"澄川"},"geometry":{"type":"LineString","coordinates":[[141.364823,43.00624],[141.367317,43.016846]]}},{"type":"Feature","properties":{"shape_id":"{}","direction_id":"{\"0\": 50}","headsign":"{}","duration_avg":180,"n_vehicles":50,"d":1800,"route_I_counts":"{\"1\": 50}","source":14,"target":15,"layer":"L","from":"自衛隊前","to":"真駒内"},"geometry":{"type":"LineString","coordinates":[[141.364823,43.00624],[141.358412,42.991213]]}},{"type":"Feature","properties":{"shape_id":"{}","direction_id":"{\"1\": 50}","headsign":"{}","duration_avg":180,"n_vehicles":50,"d":1800,"route_I_counts":"{\"1\": 50}","source":15,"target":14,"layer":"L","from":"真駒内","to":"自衛隊前"},"geometry":{"type":"LineString","coordinates":[[141.358412,42.991213],[141.364823,43.00624]]}},{"type":"Feature","properties":{"shape_id":"{}","direction_id":"{\"0\": 50}","headsign":"{}","duration_avg":120,"n_vehicles":50,"d":1200,"route_I_counts":"{\"2\": 50}","source":16,"target":17,"layer":"L","from":"宮の沢","to":"発寒南"},"geometry":{"type":"LineString","coordinates":[[141.277297,43.089979],[141.289828,43.081815]]}},{"type":"Feature","properties":{"shape_id":"{}","direction_id":"{\"1\": 50}","headsign":"{}","duration_avg":120,"n_vehicles":50,"d":1200,"route_I_counts":"{\"2\": 50}","source":17,"target":16,"layer":"L","from":"発寒南","to":"宮の沢"},"geometry":{"type":"LineString","coordinates":[[141.289828,43.081815],[141.277297,43.089979]]}},{"type":"Feature","properties":{"shape_id":"{}","direction_id":"{\"0\": 50}","headsign":"{}","duration_avg":101,"n_vehicles":50,"d":1010,"route_I_counts":"{\"2\": 50}","source":17,"target":18,"layer":"L","from":"発寒南","to":"琴似"},"geometry":{"type":"LineString","coordinates":[[141.289828,43.081815],[141.303854,43.075905]]}},{"type":"Feature","properties":{"shape_id":"{}","direction_id":"{\"1\": 50}","headsign":"{}","duration_avg":101,"n_vehicles":50,"d":1010,"route_I_counts":"{\"2\": 50}","source":18,"target":17,"layer":"L","from":"琴似","to":"発寒南"},"geometry":{"type":"LineString","coordinates":[[141.303854,43.075905],[141.289828,43.081815]]}},{"type":"Feature","properties":{"shape_id":"{}","direction_id":"{\"0\": 50}","headsign":"{}","duration_avg":120,"n_vehicles":50,"d":1200,"route_I_counts":"{\"2\": 50}","source":18,"target":19,"layer":"L","from":"琴似","to":"二十四軒"},"geometry":{"type":"LineString","coordinates":[[141.303854,43.075905],[141.314263,43.070205]]}},{"type":"Feature","properties":{"shape_id":"{}","direction_id":"{\"1\": 50}","headsign":"{}","duration_avg":120,"n_vehicles":50,"d":1200,"route_I_counts":"{\"2\": 50}","source":19,"target":18,"layer":"L","from":"二十四軒","to":"琴似"},"geometry":{"type":"LineString","coordinates":[[141.314263,43.070205],[141.303854,43.075905]]}},{"type":"Feature","properties":{"shape_id":"{}","direction_id":"{\"0\": 50}","headsign":"{}","duration_avg":120,"n_vehicles":50,"d":1200,"route_I_counts":"{\"2\": 50}","source":19,"target":20,"layer":"L","from":"二十四軒","to":"西２８丁目"},"geometry":{"type":"LineString","coordinates":[[141.314263,43.070205],[141.314607,43.060885]]}},{"type":"Feature","properties":{"shape_id":"{}","direction_id":"{\"1\": 50}","headsign":"{}","duration_avg":120,"n_vehicles":50,"d":1200,"route_I_counts":"{\"2\": 50}","source":20,"target":19,"layer":"L","from":"西２８丁目","to":"二十四軒"},"geometry":{"type":"LineString","coordinates":[[141.314607,43.060885],[141.314263,43.070205]]}},{"type":"Feature","properties":{"shape_id":"{}","direction_id":"{\"0\": 50}","headsign":"{}","duration_avg":101,"n_vehicles":50,"d":1010,"route_I_counts":"{\"2\": 50}","source":20,"target":21,"layer":"L","from":"西２８丁目","to":"円山公園"},"geometry":{"type":"LineString","coordinates":[[141.314607,43.060885],[141.319123,43.055688]]}},{"type":"Feature","properties":{"shape_id":"{}","direction_id":"{\"1\": 50}","headsign":"{}","duration_avg":101,"n_vehicles":50,"d":1010,"route_I_counts":"{\"2\": 50}","source":21,"target":20,"layer":"L","from":"円山公園","to":"西２８丁目"},"geometry":{"type":"LineString","coordinates":[[141.319123,43.055688],[141.314607,43.060885]]}},{"type":"Feature","properties":{"shape_id":"{}","direction_id":"{\"0\": 50}","headsign":"{}","duration_avg":119,"n_vehicles":50,"d":1190,"route_I_counts":"{\"2\": 50}","source":21,"target":22,"layer":"L","from":"円山公園","to":"西１８丁目"},"geometry":{"type":"LineString","coordinates":[[141.319123,43.055688],[141.330239,43.057193]]}},{"type":"Feature","properties":{"shape_id":"{}","direction_id":"{\"1\": 50}","headsign":"{}","duration_avg":119,"n_vehicles":50,"d":1190,"route_I_counts":"{\"2\": 50}","source":22,"target":21,"layer":"L","from":"西１８丁目","to":"円山公園"},"geometry":{"type":"LineString","coordinates":[[141.330239,43.057193],[141.319123,43.055688]]}},{"type":"Feature","properties":{"shape_id":"{}","direction_id":"{\"0\": 50}","headsign":"{}","duration_avg":101,"n_vehicles":50,"d":1010,"route_I_counts":"{\"2\": 50}","source":22,"target":23,"layer":"L","from":"西１８丁目","to":"西１１丁目"},"geometry":{"type":"LineString","coordinates":[[141.330239,43.057193],[141.341112,43.058635]]}},{"type":"Feature","properties":{"shape_id":"{}","direction_id":"{\"1\": 50}","headsign":"{}","duration_avg":100,"n_vehicles":50,"d":1010,"route_I_counts":"{\"2\": 50}","source":23,"target":22,"layer":"L","from":"西１１丁目","to":"西１８丁目"},"geometry":{"type":"LineString","coordinates":[[141.341112,43.058635],[141.330239,43.057193]]}},{"type":"Feature","properties":{"shape_id":"{}","direction_id":"{\"0\": 50}","headsign":"{}","duration_avg":80,"n_vehicles":50,"d":800,"route_I_counts":"{\"2\": 50}","source":23,"target":6,"layer":"L","from":"西１１丁目","to":"大通"},"geometry":{"type":"LineString","coordinates":[[141.341112,43.058635],[141.353713,43.060454]]}},{"type":"Feature","properties":{"shape_id":"{}","direction_id":"{\"1\": 50}","headsign":"{}","duration_avg":80,"n_vehicles":50,"d":800,"route_I_counts":"{\"2\": 50}","source":6,"target":23,"layer":"L","from":"大通","to":"西１１丁目"},"geometry":{"type":"LineString","coordinates":[[141.353713,43.060454],[141.341112,43.058635]]}},{"type":"Feature","properties":{"shape_id":"{}","direction_id":"{\"0\": 50}","headsign":"{}","duration_avg":100,"n_vehicles":50,"d":1000,"route_I_counts":"{\"2\": 50}","source":6,"target":24,"layer":"L","from":"大通","to":"バスセンター前"},"geometry":{"type":"LineString","coordinates":[[141.353713,43.060454],[141.360553,43.061328]]}},{"type":"Feature","properties":{"shape_id":"{}","direction_id":"{\"1\": 50}","headsign":"{}","duration_avg":100,"n_vehicles":50,"d":1000,"route_I_counts":"{\"2\": 50}","source":24,"target":6,"layer":"L","from":"バスセンター前","to":"大通"},"geometry":{"type":"LineString","coordinates":[[141.360553,43.061328],[141.353713,43.060454]]}},{"type":"Feature","properties":{"shape_id":"{}","direction_id":"{\"0\": 50}","headsign":"{}","duration_avg":120,"n_vehicles":50,"d":1200,"route_I_counts":"{\"2\": 50}","source":24,"target":25,"layer":"L","from":"バスセンター前","to":"菊水"},"geometry":{"type":"LineString","coordinates":[[141.360553,43.061328],[141.372837,43.057206]]}},{"type":"Feature","properties":{"shape_id":"{}","direction_id":"{\"1\": 50}","headsign":"{}","duration_avg":120,"n_vehicles":50,"d":1200,"route_I_counts":"{\"2\": 50}","source":25,"target":24,"layer":"L","from":"菊水","to":"バスセンター前"},"geometry":{"type":"LineString","coordinates":[[141.372837,43.057206],[141.360553,43.061328]]}},{"type":"Feature","properties":{"shape_id":"{}","direction_id":"{\"0\": 50}","headsign":"{}","duration_avg":119,"n_vehicles":50,"d":1190,"route_I_counts":"{\"2\": 50}","source":25,"target":26,"layer":"L","from":"菊水","to":"東札幌"},"geometry":{"type":"LineString","coordinates":[[141.372837,43.057206],[141.384773,43.051795]]}},{"type":"Feature","properties":{"shape_id":"{}","direction_id":"{\"1\": 50}","headsign":"{}","duration_avg":119,"n_vehicles":50,"d":1190,"route_I_counts":"{\"2\": 50}","source":26,"target":25,"layer":"L","from":"東札幌","to":"菊水"},"geometry":{"type":"LineString","coordinates":[[141.384773,43.051795],[141.372837,43.057206]]}},{"type":"Feature","properties":{"shape_id":"{}","direction_id":"{\"0\": 50}","headsign":"{}","duration_avg":101,"n_vehicles":50,"d":1010,"route_I_counts":"{\"2\": 50}","source":26,"target":27,"layer":"L","from":"東札幌","to":"白石"},"geometry":{"type":"LineString","coordinates":[[141.384773,43.051795],[141.3965,43.046142]]}},{"type":"Feature","properties":{"shape_id":"{}","direction_id":"{\"1\": 50}","headsign":"{}","duration_avg":101,"n_vehicles":50,"d":1010,"route_I_counts":"{\"2\": 50}","source":27,"target":26,"layer":"L","from":"白石","to":"東札幌"},"geometry":{"type":"LineString","coordinates":[[141.3965,43.046142],[141.384773,43.051795]]}},{"type":"Feature","properties":{"shape_id":"{}","direction_id":"{\"0\": 50}","headsign":"{}","duration_avg":100,"n_vehicles":50,"d":1000,"route_I_counts":"{\"2\": 50}","source":27,"target":28,"layer":"L","from":"白石","to":"南郷７丁目"},"geometry":{"type":"LineString","coordinates":[[141.3965,43.046142],[141.411799,43.039979]]}},{"type":"Feature","properties":{"shape_id":"{}","direction_id":"{\"1\": 50}","headsign":"{}","duration_avg":100,"n_vehicles":50,"d":1000,"route_I_counts":"{\"2\": 50}","source":28,"target":27,"layer":"L","from":"南郷７丁目","to":"白石"},"geometry":{"type":"LineString","coordinates":[[141.411799,43.039979],[141.3965,43.046142]]}},{"type":"Feature","properties":{"shape_id":"{}","direction_id":"{\"0\": 50}","headsign":"{}","duration_avg":101,"n_vehicles":50,"d":1010,"route_I_counts":"{\"2\": 50}","source":28,"target":29,"layer":"L","from":"南郷７丁目","to":"南郷１３丁目"},"geometry":{"type":"LineString","coordinates":[[141.411799,43.039979],[141.422743,43.035768]]}},{"type":"Feature","properties":{"shape_id":"{}","direction_id":"{\"1\": 50}","headsign":"{}","duration_avg":101,"n_vehicles":50,"d":1010,"route_I_counts":"{\"2\": 50}","source":29,"target":28,"layer":"L","from":"南郷１３丁目","to":"南郷７丁目"},"geometry":{"type":"LineString","coordinates":[[141.422743,43.035768],[141.411799,43.039979]]}},{"type":"Feature","properties":{"shape_id":"{}","direction_id":"{\"0\": 50}","headsign":"{}","duration_avg":120,"n_vehicles":50,"d":1200,"route_I_counts":"{\"2\": 50}","source":29,"target":30,"layer":"L","from":"南郷１３丁目","to":"南郷１８丁目"},"geometry":{"type":"LineString","coordinates":[[141.422743,43.035768],[141.435124,43.030306]]}},{"type":"Feature","properties":{"shape_id":"{}","direction_id":"{\"1\": 50}","headsign":"{}","duration_avg":120,"n_vehicles":50,"d":1200,"route_I_counts":"{\"2\": 50}","source":30,"target":29,"layer":"L","from":"南郷１８丁目","to":"南郷１３丁目"},"geometry":{"type":"LineString","coordinates":[[141.435124,43.030306],[141.422743,43.035768]]}},{"type":"Feature","properties":{"shape_id":"{}","direction_id":"{\"0\": 50}","headsign":"{}","duration_avg":140,"n_vehicles":50,"d":1400,"route_I_counts":"{\"2\": 50}","source":30,"target":31,"layer":"L","from":"南郷１８丁目","to":"大谷地"},"geometry":{"type":"LineString","coordinates":[[141.435124,43.030306],[141.453068,43.027886]]}},{"type":"Feature","properties":{"shape_id":"{}","direction_id":"{\"1\": 50}","headsign":"{}","duration_avg":140,"n_vehicles":50,"d":1400,"route_I_counts":"{\"2\": 50}","source":31,"target":30,"layer":"L","from":"大谷地","to":"南郷１８丁目"},"geometry":{"type":"LineString","coordinates":[[141.453068,43.027886],[141.435124,43.030306]]}},{"type":"Feature","properties":{"shape_id":"{}","direction_id":"{\"0\": 50}","headsign":"{}","duration_avg":100,"n_vehicles":50,"d":1000,"route_I_counts":"{\"2\": 50}","source":31,"target":32,"layer":"L","from":"大谷地","to":"ひばりが丘"},"geometry":{"type":"LineString","coordinates":[[141.453068,43.027886],[141.464623,43.032271]]}},{"type":"Feature","properties":{"shape_id":"{}","direction_id":"{\"1\": 50}","headsign":"{}","duration_avg":100,"n_vehicles":50,"d":1000,"route_I_counts":"{\"2\": 50}","source":32,"target":31,"layer":"L","from":"ひばりが丘","to":"大谷地"},"geometry":{"type":"LineString","coordinates":[[141.464623,43.032271],[141.453068,43.027886]]}},{"type":"Feature","properties":{"shape_id":"{}","direction_id":"{\"0\": 50}","headsign":"{}","duration_avg":140,"n_vehicles":50,"d":1400,"route_I_counts":"{\"2\": 50}","source":32,"target":33,"layer":"L","from":"ひばりが丘","to":"新さっぽろ"},"geometry":{"type":"LineString","coordinates":[[141.464623,43.032271],[141.473748,43.038023]]}},{"type":"Feature","properties":{"shape_id":"{}","direction_id":"{\"1\": 50}","headsign":"{}","duration_avg":140,"n_vehicles":50,"d":1400,"route_I_counts":"{\"2\": 50}","source":33,"target":32,"layer":"L","from":"新さっぽろ","to":"ひばりが丘"},"geometry":{"type":"LineString","coordinates":[[141.473748,43.038023],[141.464623,43.032271]]}},{"type":"Feature","properties":{"shape_id":"{}","direction_id":"{\"0\": 50}","headsign":"{}","duration_avg":119,"n_vehicles":50,"d":1190,"route_I_counts":"{\"3\": 50}","source":34,"target":35,"layer":"L","from":"栄町","to":"新道東"},"geometry":{"type":"LineString","coordinates":[[141.36714,43.11301],[141.369131,43.104625]]}},{"type":"Feature","properties":{"shape_id":"{}","direction_id":"{\"1\": 50}","headsign":"{}","duration_avg":119,"n_vehicles":50,"d":1190,"route_I_counts":"{\"3\": 50}","source":35,"target":34,"layer":"L","from":"新道東","to":"栄町"},"geometry":{"type":"LineString","coordinates":[[141.369131,43.104625],[141.36714,43.11301]]}},{"type":"Feature","properties":{"shape_id":"{}","direction_id":"{\"0\": 50}","headsign":"{}","duration_avg":100,"n_vehicles":50,"d":1000,"route_I_counts":"{\"3\": 50}","source":35,"target":36,"layer":"L","from":"新道東","to":"元町"},"geometry":{"type":"LineString","coordinates":[[141.369131,43.104625],[141.371625,43.094336]]}},{"type":"Feature","properties":{"shape_id":"{}","direction_id":"{\"1\": 50}","headsign":"{}","duration_avg":100,"n_vehicles":50,"d":1000,"route_I_counts":"{\"3\": 50}","source":36,"target":35,"layer":"L","from":"元町","to":"新道東"},"geometry":{"type":"LineString","coordinates":[[141.371625,43.094336],[141.369131,43.104625]]}},{"type":"Feature","properties":{"shape_id":"{}","direction_id":"{\"0\": 50}","headsign":"{}","duration_avg":120,"n_vehicles":50,"d":1200,"route_I_counts":"{\"3\": 50}","source":36,"target":37,"layer":"L","from":"元町","to":"環状通東"},"geometry":{"type":"LineString","coordinates":[[141.371625,43.094336],[141.374597,43.081866]]}},{"type":"Feature","properties":{"shape_id":"{}","direction_id":"{\"1\": 50}","headsign":"{}","duration_avg":120,"n_vehicles":50,"d":1200,"route_I_counts":"{\"3\": 50}","source":37,"target":36,"layer":"L","from":"環状通東","to":"元町"},"geometry":{"type":"LineString","coordinates":[[141.374597,43.081866],[141.371625,43.094336]]}},{"type":"Feature","properties":{"shape_id":"{}","direction_id":"{\"0\": 50}","headsign":"{}","duration_avg":100,"n_vehicles":50,"d":1000,"route_I_counts":"{\"3\": 50}","source":37,"target":38,"layer":"L","from":"環状通東","to":"東区役所前"},"geometry":{"type":"LineString","coordinates":[[141.374597,43.081866],[141.36493,43.078183]]}},{"type":"Feature","properties":{"shape_id":"{}","direction_id":"{\"1\": 50}","headsign":"{}","duration_avg":100,"n_vehicles":50,"d":1000,"route_I_counts":"{\"3\": 50}","source":38,"target":37,"layer":"L","from":"東区役所前","to":"環状通東"},"geometry":{"type":"LineString","coordinates":[[141.36493,43.078183],[141.374597,43.081866]]}},{"type":"Feature","properties":{"shape_id":"{}","direction_id":"{\"0\": 50}","headsign":"{}","duration_avg":100,"n_vehicles":50,"d":1000,"route_I_counts":"{\"3\": 50}","source":38,"target":39,"layer":"L","from":"東区役所前","to":"北１３条東"},"geometry":{"type":"LineString","coordinates":[[141.36493,43.078183],[141.354952,43.076839]]}},{"type":"Feature","properties":{"shape_id":"{}","direction_id":"{\"1\": 50}","headsign":"{}","duration_avg":100,"n_vehicles":50,"d":1000,"route_I_counts":"{\"3\": 50}","source":39,"target":38,"layer":"L","from":"北１３条東","to":"東区役所前"},"geometry":{"type":"LineString","coordinates":[[141.354952,43.076839],[141.36493,43.078183]]}},{"type":"Feature","properties":{"shape_id":"{}","direction_id":"{\"0\": 50}","headsign":"{}","duration_avg":100,"n_vehicles":50,"d":1000,"route_I_counts":"{\"3\": 50}","source":39,"target":5,"layer":"L","from":"北１３条東","to":"さっぽろ"},"geometry":{"type":"LineString","coordinates":[[141.354952,43.076839],[141.352273,43.066197]]}},{"type":"Feature","properties":{"shape_id":"{}","direction_id":"{\"1\": 50}","headsign":"{}","duration_avg":100,"n_vehicles":50,"d":1000,"route_I_counts":"{\"3\": 50}","source":5,"target":39,"layer":"L","from":"さっぽろ","to":"北１３条東"},"geometry":{"type":"LineString","coordinates":[[141.352273,43.066197],[141.354952,43.076839]]}},{"type":"Feature","properties":{"shape_id":"{}","direction_id":"{\"0\": 50}","headsign":"{}","duration_avg":100,"n_vehicles":50,"d":1000,"route_I_counts":"{\"3\": 50}","source":6,"target":40,"layer":"L","from":"大通","to":"豊水すすきの"},"geometry":{"type":"LineString","coordinates":[[141.353713,43.060454],[141.356792,43.054837]]}},{"type":"Feature","properties":{"shape_id":"{}","direction_id":"{\"1\": 50}","headsign":"{}","duration_avg":100,"n_vehicles":50,"d":1000,"route_I_counts":"{\"3\": 50}","source":40,"target":6,"layer":"L","from":"豊水すすきの","to":"大通"},"geometry":{"type":"LineString","coordinates":[[141.356792,43.054837],[141.353713,43.060454]]}},{"type":"Feature","properties":{"shape_id":"{}","direction_id":"{\"0\": 50}","headsign":"{}","duration_avg":82,"n_vehicles":50,"d":820,"route_I_counts":"{\"3\": 50}","source":40,"target":41,"layer":"L","from":"豊水すすきの","to":"学園前"},"geometry":{"type":"LineString","coordinates":[[141.356792,43.054837],[141.369029,43.047444]]}},{"type":"Feature","properties":{"shape_id":"{}","direction_id":"{\"1\": 50}","headsign":"{}","duration_avg":101,"n_vehicles":50,"d":820,"route_I_counts":"{\"3\": 50}","source":41,"target":40,"layer":"L","from":"学園前","to":"豊水すすきの"},"geometry":{"type":"LineString","coordinates":[[141.369029,43.047444],[141.356792,43.054837]]}},{"type":"Feature","properties":{"shape_id":"{}","direction_id":"{\"0\": 50}","headsign":"{}","duration_avg":101,"n_vehicles":50,"d":1010,"route_I_counts":"{\"3\": 50}","source":41,"target":42,"layer":"L","from":"学園前","to":"豊平公園"},"geometry":{"type":"LineString","coordinates":[[141.369029,43.047444],[141.376728,43.041756]]}},{"type":"Feature","properties":{"shape_id":"{}","direction_id":"{\"1\": 50}","headsign":"{}","duration_avg":100,"n_vehicles":50,"d":1010,"route_I_counts":"{\"3\": 50}","source":42,"target":41,"layer":"L","from":"豊平公園","to":"学園前"},"geometry":{"type":"LineString","coordinates":[[141.376728,43.041756],[141.369029,43.047444]]}},{"type":"Feature","properties":{"shape_id":"{}","direction_id":"{\"0\": 50}","headsign":"{}","duration_avg":100,"n_vehicles":50,"d":1000,"route_I_counts":"{\"3\": 50}","source":42,"target":43,"layer":"L","from":"豊平公園","to":"美園"},"geometry":{"type":"LineString","coordinates":[[141.376728,43.041756],[141.38565,43.036337]]}},{"type":"Feature","properties":{"shape_id":"{}","direction_id":"{\"1\": 50}","headsign":"{}","duration_avg":100,"n_vehicles":50,"d":1000,"route_I_counts":"{\"3\": 50}","source":43,"target":42,"layer":"L","from":"美園","to":"豊平公園"},"geometry":{"type":"LineString","coordinates":[[141.38565,43.036337],[141.376728,43.041756]]}},{"type":"Feature","properties":{"shape_id":"{}","direction_id":"{\"0\": 50}","headsign":"{}","duration_avg":101,"n_vehicles":50,"d":1010,"route_I_counts":"{\"3\": 50}","source":43,"target":44,"layer":"L","from":"美園","to":"月寒中央"},"geometry":{"type":"LineString","coordinates":[[141.38565,43.036337],[141.396291,43.030529]]}},{"type":"Feature","properties":{"shape_id":"{}","direction_id":"{\"1\": 50}","headsign":"{}","duration_avg":100,"n_vehicles":50,"d":1010,"route_I_counts":"{\"3\": 50}","source":44,"target":43,"layer":"L","from":"月寒中央","to":"美園"},"geometry":{"type":"LineString","coordinates":[[141.396291,43.030529],[141.38565,43.036337]]}},{"type":"Feature","properties":{"shape_id":"{}","direction_id":"{\"0\": 50}","headsign":"{}","duration_avg":140,"n_vehicles":50,"d":1400,"route_I_counts":"{\"3\": 50}","source":44,"target":45,"layer":"L","from":"月寒中央","to":"福住"},"geometry":{"type":"LineString","coordinates":[[141.396291,43.030529],[141.403195,43.021545]]}},{"type":"Feature","properties":{"shape_id":"{}","direction_id":"{\"1\": 50}","headsign":"{}","duration_avg":140,"n_vehicles":50,"d":1400,"route_I_counts":"{\"3\": 50}","source":45,"target":44,"layer":"L","from":"福住","to":"月寒中央"},"geometry":{"type":"LineString","coordinates":[[141.403195,43.021545],[141.396291,43.030529]]}}]}