{"type":"FeatureCollection","features":[{"type":"Feature","geometry":{"type":"Point","coordinates":[140.880739,38.323217]},"properties":{"name":"泉中央駅","original_ids":"[1]","id":0,"layer":"stop"}},{"type":"Feature","geometry":{"type":"Point","coordinates":[140.884059,38.312827]},"properties":{"name":"八乙女駅","original_ids":"[2]","id":1,"layer":"stop"}},{"type":"Feature","geometry":{"type":"Point","coordinates":[140.886438,38.303179]},"properties":{"name":"黒松駅","original_ids":"[3]","id":2,"layer":"stop"}},{"type":"Feature","geometry":{"type":"Point","coordinates":[140.883619,38.295644]},"properties":{"name":"旭ヶ丘駅","original_ids":"[4]","id":3,"layer":"stop"}},{"type":"Feature","geometry":{"type":"Point","coordinates":[140.878573,38.288422]},"properties":{"name":"台原駅","original_ids":"[5]","id":4,"layer":"stop"}},{"type":"Feature","geometry":{"type":"Point","coordinates":[140.868686,38.28244]},"properties":{"name":"北仙台駅","original_ids":"[6]","id":5,"layer":"stop"}},{"type":"Feature","geometry":{"type":"Point","coordinates":[140.869054,38.272177]},"properties":{"name":"北四番丁駅","original_ids":"[7]","id":6,"layer":"stop"}},{"type":"Feature","geometry":{"type":"Point","coordinates":[140.87122,38.26644]},"properties":{"name":"勾当台公園駅","original_ids":"[8]","id":7,"layer":"stop"}},{"type":"Feature","geometry":{"type":"Point","coordinates":[140.875467,38.262943]},"properties":{"name":"広瀬通駅","original_ids":"[9]","id":8,"layer":"stop"}},{"type":"Feature","geometry":{"type":"Point","coordinates":[140.879868,38.259897]},"properties":{"name":"仙台駅","original_ids":"[10]","id":9,"layer":"stop"}},{"type":"Feature","geometry":{"type":"Point","coordinates":[140.881148,38.252196]},"properties":{"name":"五橋駅","original_ids":"[11]","id":10,"layer":"stop"}},{"type":"Feature","geometry":{"type":"Point","coordinates":[140.882089,38.247327]},"properties":{"name":"愛宕橋駅","original_ids":"[12]","id":11,"layer":"stop"}},{"type":"Feature","geometry":{"type":"Point","coordinates":[140.887744,38.241133]},"properties":{"name":"河原町駅","original_ids":"[13]","id":12,"layer":"stop"}},{"type":"Feature","geometry":{"type":"Point","coordinates":[140.887561,38.234255]},"properties":{"name":"長町一丁目駅","original_ids":"[14]","id":13,"layer":"stop"}},{"type":"Feature","geometry":{"type":"Point","coordinates":[140.88492,38.228295]},"properties":{"name":"長町駅","original_ids":"[15]","id":14,"layer":"stop"}},{"type":"Feature","geometry":{"type":"Point","coordinates":[140.876407,38.224634]},"properties":{"name":"長町南駅","original_ids":"[16]","id":15,"layer":"stop"}},{"type":"Feature","geometry":{"type":"Point","coordinates":[140.870622,38.21422]},"properties":{"name":"富沢駅","original_ids":"[17]","id":16,"layer":"stop"}},{"type":"Feature","geometry":{"type":"Point","coordinates":[140.843747,38.243196]},"properties":{"name":"八木山動物公園駅","original_ids":"[18]","id":17,"layer":"stop"}},{"type":"Feature","geometry":{"type":"Point","coordinates":[140.835615,38.255746]},"properties":{"name":"青葉山駅","original_ids":"[19]","id":18,"layer":"stop"}},{"type":"Feature","geometry":{"type":"Point","coordinates":[140.850235,38.260784]},"properties":{"name":"川内駅","original_ids":"[20]","id":19,"layer":"stop"}},{"type":"Feature","geometry":{"type":"Point","coordinates":[140.856765,38.260215]},"properties":{"name":"国際センター駅","original_ids":"[21]","id":20,"layer":"stop"}},{"type":"Feature","geometry":{"type":"Point","coordinates":[140.864329,38.258971]},"properties":{"name":"大町西公園駅","original_ids":"[22]","id":21,"layer":"stop"}},{"type":"Feature","geometry":{"type":"Point","coordinates":[140.872329,38.259738]},"properties":{"name":"青葉通一番町駅","original_ids":"[23]","id":22,"layer":"stop"}},{"type":"Feature","geometry":{"type":"Point","coordinates":[140.885815,38.258025]},"properties":{"name":"宮城野通駅","original_ids":"[24]","id":23,"layer":"stop"}},{"type":"Feature","geometry":{"type":"Point","coordinates":[140.893187,38.251151]},"properties":{"name":"連坊駅","original_ids":"[25]","id":24,"layer":"stop"}},{"type":"Feature","geometry":{"type":"Point","coordinates":[140.906057,38.249562]},"properties":{"name":"薬師堂駅","original_ids":"[26]","id":25,"layer":"stop"}},{"type":"Feature","geometry":{"type":"Point","coordinates":[140.920797,38.251501]},"properties":{"name":"卸町駅","original_ids":"[27]","id":26,"layer":"stop"}},{"type":"Feature","geometry":{"type":"Point","coordinates":[140.935553,38.250893]},"properties":{"name":"六丁の目駅","original_ids":"[28]","id":27,"layer":"stop"}},{"type":"Feature","geometry":{"type":"Point","coordinates":[140.948613,38.244865]},"properties":{"name":"荒井駅","original_ids":"[29]","id":28,"layer":"stop"}},{"type":"Feature","properties":{"shape_id":"{}","direction_id":"{\"0\": 50}","headsign":"{}","duration_avg":120,"n_vehicles":50,"d":1200,"route_I_counts":"{\"1\": 50}","source":0,"target":1,"layer":"L","from":"泉中央駅","to":"八乙女駅"},"geometry":{"type":"LineString","coordinates":[[140.880739,38.323217],[140.884059,38.312827]]}},{"type":"Feature","properties":{"shape_id":"{}","direction_id":"{\"1\": 50}","headsign":"{}","duration_avg":120,"n_vehicles":50,"d":1200,"route_I_counts":"{\"1\": 50}","source":1,"target":0,"layer":"L","from":"八乙女駅","to":"泉中央駅"},"geometry":{"type":"LineString","coordinates":[[140.884059,38.312827],[140.880739,38.323217]]}},{"type":"Feature","properties":{"shape_id":"{}","direction_id":"{\"0\": 50}","headsign":"{}","duration_avg":120,"n_vehicles":50,"d":1200,"route_I_counts":"{\"1\": 50}","source":1,"target":2,"layer":"L","from":"八乙女駅","to":"黒松駅"},"geometry":{"type":"LineString","coordinates":[[140.884059,38.312827],[140.886438,38.303179]]}},{"type":"Feature","properties":{"shape_id":"{}","direction_id":"{\"1\": 50}","headsign":"{}","duration_avg":120,"n_vehicles":50,"d":1200,"route_I_counts":"{\"1\": 50}","source":2,"target":1,"layer":"L","from":"黒松駅","to":"八乙女駅"},"geometry":{"type":"LineString","coordinates":[[140.886438,38.303179],[140.884059,38.312827]]}},{"type":"Feature","properties":{"shape_id":"{}","direction_id":"{\"0\": 50}","headsign":"{}","duration_avg":92,"n_vehicles":50,"d":920,"route_I_counts":"{\"1\": 50}","source":2,"target":3,"layer":"L","from":"黒松駅","to":"旭ヶ丘駅"},"geometry":{"type":"LineString","coordinates":[[140.886438,38.303179],[140.883619,38.295644]]}},{"type":"Feature","properties":{"shape_id":"{}","direction_id":"{\"1\": 50}","headsign":"{}","duration_avg":92,"n_vehicles":50,"d":920,"route_I_counts":"{\"1\": 50}","source":3,"target":2,"layer":"L","from":"旭ヶ丘駅","to":"黒松駅"},"geometry":{"type":"LineString","coordinates":[[140.883619,38.295644],[140.886438,38.303179]]}},{"type":"Feature","properties":{"shape_id":"{}","direction_id":"{\"0\": 50}","headsign":"{}","duration_avg":89,"n_vehicles":50,"d":890,"route_I_counts":"{\"1\": 50}","source":3,"target":4,"layer":"L","from":"旭ヶ丘駅","to":"台原駅"},"geometry":{"type":"LineString","coordinates":[[140.883619,38.295644],[140.878573,38.288422]]}},{"type":"Feature","properties":{"shape_id":"{}","direction_id":"{\"1\": 50}","headsign":"{}","duration_avg":89,"n_vehicles":50,"d":890,"route_I_counts":"{\"1\": 50}","source":4,"target":3,"layer":"L","from":"台原駅","to":"旭ヶ丘駅"},"geometry":{"type":"LineString","coordinates":[[140.878573,38.288422],[140.883619,38.295644]]}},{"type":"Feature","properties":{"shape_id":"{}","direction_id":"{\"0\": 50}","headsign":"{}","duration_avg":120,"n_vehicles":50,"d":1200,"route_I_counts":"{\"1\": 50}","source":4,"target":5,"layer":"L","from":"台原駅","to":"北仙台駅"},"geometry":{"type":"LineString","coordinates":[[140.878573,38.288422],[140.868686,38.28244]]}},{"type":"Feature","properties":{"shape_id":"{}","direction_id":"{\"1\": 50}","headsign":"{}","duration_avg":120,"n_vehicles":50,"d":1200,"route_I_counts":"{\"1\": 50}","source":5,"target":4,"layer":"L","from":"北仙台駅","to":"台原駅"},"geometry":{"type":"LineString","coordinates":[[140.868686,38.28244],[140.878573,38.288422]]}},{"type":"Feature","properties":{"shape_id":"{}","direction_id":"{\"0\": 50}","headsign":"{}","duration_avg":96,"n_vehicles":50,"d":960,"route_I_counts":"{\"1\": 50}","source":5,"target":6,"layer":"L","from":"北仙台駅","to":"北四番丁駅"},"geometry":{"type":"LineString","coordinates":[[140.868686,38.28244],[140.869054,38.272177]]}},{"type":"Feature","properties":{"shape_id":"{}","direction_id":"{\"1\": 50}","headsign":"{}","duration_avg":96,"n_vehicles":50,"d":960,"route_I_counts":"{\"1\": 50}","source":6,"target":5,"layer":"L","from":"北四番丁駅","to":"北仙台駅"},"geometry":{"type":"LineString","coordinates":[[140.869054,38.272177],[140.868686,38.28244]]}},{"type":"Feature","properties":{"shape_id":"{}","direction_id":"{\"0\": 50}","headsign":"{}","duration_avg":119,"n_vehicles":50,"d":1190,"route_I_counts":"{\"1\": 50}","source":6,"target":7,"layer":"L","from":"北四番丁駅","to":"勾当台公園駅"},"geometry":{"type":"LineString","coordinates":[[140.869054,38.272177],[140.87122,38.26644]]}},{"type":"Feature","properties":{"shape_id":"{}","direction_id":"{\"1\": 50}","headsign":"{}","duration_avg":119,"n_vehicles":50,"d":1190,"route_I_counts":"{\"1\": 50}","source":7,"target":6,"layer":"L","from":"勾当台公園駅","to":"北四番丁駅"},"geometry":{"type":"LineString","coordinates":[[140.87122,38.26644],[140.869054,38.272177]]}},{"type":"Feature","properties":{"shape_id":"{}","direction_id":"{\"0\": 50}","headsign":"{}","duration_avg":88,"n_vehicles":50,"d":880,"route_I_counts":"{\"1\": 50}","source":7,"target":8,"layer":"L","from":"勾当台公園駅","to":"広瀬通駅"},"geometry":{"type":"LineString","coordinates":[[140.87122,38.26644],[140.875467,38.262943]]}},{"type":"Feature","properties":{"shape_id":"{}","direction_id":"{\"1\": 50}","headsign":"{}","duration_avg":88,"n_vehicles":50,"d":880,"route_I_counts":"{\"1\": 50}","source":8,"target":7,"layer":"L","from":"広瀬通駅","to":"勾当台公園駅"},"geometry":{"type":"LineString","coordinates":[[140.875467,38.262943],[140.87122,38.26644]]}},{"type":"Feature","properties":{"shape_id":"{}","direction_id":"{\"0\": 50}","headsign":"{}","duration_avg":96,"n_vehicles":50,"d":960,"route_I_counts":"{\"1\": 50}","source":8,"target":9,"layer":"L","from":"広瀬通駅","to":"仙台駅"},"geometry":{"type":"LineString","coordinates":[[140.875467,38.262943],[140.879868,38.259897]]}},{"type":"Feature","properties":{"shape_id":"{}","direction_id":"{\"1\": 50}","headsign":"{}","duration_avg":96,"n_vehicles":50,"d":960,"route_I_counts":"{\"1\": 50}","source":9,"target":8,"layer":"L","from":"仙台駅","to":"広瀬通駅"},"geometry":{"type":"LineString","coordinates":[[140.879868,38.259897],[140.875467,38.262943]]}},{"type":"Feature","properties":{"shape_id":"{}","direction_id":"{\"0\": 50}","headsign":"{}","duration_avg":117,"n_vehicles":50,"d":1170,"route_I_counts":"{\"1\": 50}","source":9,"target":10,"layer":"L","from":"仙台駅","to":"五橋駅"},"geometry":{"type":"LineString","coordinates":[[140.879868,38.259897],[140.881148,38.252196]]}},{"type":"Feature","properties":{"shape_id":"{}","direction_id":"{\"1\": 50}","headsign":"{}","duration_avg":117,"n_vehicles":50,"d":1170,"route_I_counts":"{\"1\": 50}","source":10,"target":9,"layer":"L","from":"五橋駅","to":"仙台駅"},"geometry":{"type":"LineString","coordinates":[[140.881148,38.252196],[140.879868,38.259897]]}},{"type":"Feature","properties":{"shape_id":"{}","direction_id":"{\"0\": 50}","headsign":"{}","duration_avg":88,"n_vehicles":50,"d":880,"route_I_counts":"{\"1\": 50}","source":10,"target":11,"layer":"L","from":"五橋駅","to":"愛宕橋駅"},"geometry":{"type":"LineString","coordinates":[[140.881148,38.252196],[140.882089,38.247327]]}},{"type":"Feature","properties":{"shape_id":"{}","direction_id":"{\"1\": 50}","headsign":"{}","duration_avg":88,"n_vehicles":50,"d":880,"route_I_counts":"{\"1\": 50}","source":11,"target":10,"layer":"L","from":"愛宕橋駅","to":"五橋駅"},"geometry":{"type":"LineString","coordinates":[[140.882089,38.247327],[140.881148,38.252196]]}},{"type":"Feature","properties":{"shape_id":"{}","direction_id":"{\"0\": 50}","headsign":"{}","duration_avg":93,"n_vehicles":50,"d":930,"route_I_counts":"{\"1\": 50}","source":11,"target":12,"layer":"L","from":"愛宕橋駅","to":"河原町駅"},"geometry":{"type":"LineString","coordinates":[[140.882089,38.247327],[140.887744,38.241133]]}},{"type":"Feature","properties":{"shape_id":"{}","direction_id":"{\"1\": 50}","headsign":"{}","duration_avg":93,"n_vehicles":50,"d":930,"route_I_counts":"{\"1\": 50}","source":12,"target":11,"layer":"L","from":"河原町駅","to":"愛宕橋駅"},"geometry":{"type":"LineString","coordinates":[[140.887744,38.241133],[140.882089,38.247327]]}},{"type":"Feature","properties":{"shape_id":"{}","direction_id":"{\"0\": 50}","headsign":"{}","duration_avg":90,"n_vehicles":50,"d":900,"route_I_counts":"{\"1\": 50}","source":12,"target":13,"layer":"L","from":"河原町駅","to":"長町一丁目駅"},"geometry":{"type":"LineString","coordinates":[[140.887744,38.241133],[140.887561,38.234255]]}},{"type":"Feature","properties":{"shape_id":"{}","direction_id":"{\"1\": 50}","headsign":"{}","duration_avg":90,"n_vehicles":50,"d":900,"route_I_counts":"{\"1\": 50}","source":13,"target":12,"layer":"L","from":"長町一丁目駅","to":"河原町駅"},"geometry":{"type":"LineString","coordinates":[[140.887561,38.234255],[140.887744,38.241133]]}},{"type":"Feature","properties":{"shape_id":"{}","direction_id":"{\"0\": 50}","headsign":"{}","duration_avg":92,"n_vehicles":50,"d":920,"route_I_counts":"{\"1\": 50}","source":13,"target":14,"layer":"L","from":"長町一丁目駅","to":"長町駅"},"geometry":{"type":"LineString","coordinates":[[140.887561,38.234255],[140.88492,38.228295]]}},{"type":"Feature","properties":{"shape_id":"{}","direction_id":"{\"1\": 50}","headsign":"{}","duration_avg":92,"n_vehicles":50,"d":920,"route_I_counts":"{\"1\": 50}","source":14,"target":13,"layer":"L","from":"長町駅","to":"長町一丁目駅"},"geometry":{"type":"LineString","coordinates":[[140.88492,38.228295],[140.887561,38.234255]]}},{"type":"Feature","properties":{"shape_id":"{}","direction_id":"{\"0\": 50}","headsign":"{}","duration_avg":118,"n_vehicles":50,"d":1180,"route_I_counts":"{\"1\": 50}","source":14,"target":15,"layer":"L","from":"長町駅","to":"長町南駅"},"geometry":{"type":"LineString","coordinates":[[140.88492,38.228295],[140.876407,38.224634]]}},{"type":"Feature","properties":{"shape_id":"{}","direction_id":"{\"1\": 50}","headsign":"{}","duration_avg":118,"n_vehicles":50,"d":1180,"route_I_counts":"{\"1\": 50}","source":15,"target":14,"layer":"L","from":"長町南駅","to":"長町駅"},"geometry":{"type":"LineString","coordinates":[[140.876407,38.224634],[140.88492,38.228295]]}},{"type":"Feature","properties":{"shape_id":"{}","direction_id":"{\"0\": 50}","headsign":"{}","duration_avg":150,"n_vehicles":50,"d":1500,"route_I_counts":"{\"1\": 50}","source":15,"target":16,"layer":"L","from":"長町南駅","to":"富沢駅"},"geometry":{"type":"LineString","coordinates":[[140.876407,38.224634],[140.870622,38.21422]]}},{"type":"Feature","properties":{"shape_id":"{}","direction_id":"{\"1\": 50}","headsign":"{}","duration_avg":150,"n_vehicles":50,"d":1500,"route_I_counts":"{\"1\": 50}","source":16,"target":15,"layer":"L","from":"富沢駅","to":"長町南駅"},"geometry":{"type":"LineString","coordinates":[[140.870622,38.21422],[140.876407,38.224634]]}},{"type":"Feature","properties":{"shape_id":"{}","direction_id":"{\"0\": 50}","headsign":"{}","duration_avg":180,"n_vehicles":50,"d":1800,"route_I_counts":"{\"2\": 50}","source":17,"target":18,"layer":"L","from":"八木山動物公園駅","to":"青葉山駅"},"geometry":{"type":"LineString","coordinates":[[140.843747,38.243196],[140.835615,38.255746]]}},{"type":"Feature","properties":{"shape_id":"{}","direction_id":"{\"1\": 50}","headsign":"{}","duration_avg":180,"n_vehicles":50,"d":1800,"route_I_counts":"{\"2\": 50}","source":18,"target":17,"layer":"L","from":"青葉山駅","to":"八木山動物公園駅"},"geometry":{"type":"LineString","coordinates":[[140.835615,38.255746],[140.843747,38.243196]]}},{"type":"Feature","properties":{"shape_id":"{}","direction_id":"{\"0\": 50}","headsign":"{}","duration_avg":158,"n_vehicles":50,"d":1580,"route_I_counts":"{\"2\": 50}","source":18,"target":19,"layer":"L","from":"青葉山駅","to":"川内駅"},"geometry":{"type":"LineString","coordinates":[[140.835615,38.255746],[140.850235,38.260784]]}},{"type":"Feature","properties":{"shape_id":"{}","direction_id":"{\"1\": 50}","headsign":"{}","duration_avg":158,"n_vehicles":50,"d":1580,"route_I_counts":"{\"2\": 50}","source":19,"target":18,"layer":"L","from":"川内駅","to":"青葉山駅"},"geometry":{"type":"LineString","coordinates":[[140.850235,38.260784],[140.835615,38.255746]]}},{"type":"Feature","properties":{"shape_id":"{}","direction_id":"{\"0\": 50}","headsign":"{}","duration_avg":120,"n_vehicles":50,"d":1200,"route_I_counts":"{\"2\": 50}","source":19,"target":20,"layer":"L","from":"川内駅","to":"国際センター駅"},"geometry":{"type":"LineString","coordinates":[[140.850235,38.260784],[140.856765,38.260215]]}},{"type":"Feature","properties":{"shape_id":"{}","direction_id":"{\"1\": 50}","headsign":"{}","duration_avg":120,"n_vehicles":50,"d":1200,"route_I_counts":"{\"2\": 50}","source":20,"target":19,"layer":"L","from":"国際センター駅","to":"川内駅"},"geometry":{"type":"LineString","coordinates":[[140.856765,38.260215],[140.850235,38.260784]]}},{"type":"Feature","properties":{"shape_id":"{}","direction_id":"{\"0\": 50}","headsign":"{}","duration_avg":82,"n_vehicles":50,"d":820,"route_I_counts":"{\"2\": 50}","source":20,"target":21,"layer":"L","from":"国際センター駅","to":"大町西公園駅"},"geometry":{"type":"LineString","coordinates":[[140.856765,38.260215],[140.864329,38.258971]]}},{"type":"Feature","properties":{"shape_id":"{}","direction_id":"{\"1\": 50}","headsign":"{}","duration_avg":82,"n_vehicles":50,"d":820,"route_I_counts":"{\"2\": 50}","source":21,"target":20,"layer":"L","from":"大町西公園駅","to":"国際センター駅"},"geometry":{"type":"LineString","coordinates":[[140.864329,38.258971],[140.856765,38.260215]]}},{"type":"Feature","properties":{"shape_id":"{}","direction_id":"{\"0\": 50}","headsign":"{}","duration_avg":98,"n_vehicles":50,"d":980,"route_I_counts":"{\"2\": 50}","source":21,"target":22,"layer":"L","from":"大町西公園駅","to":"青葉通一番町駅"},"geometry":{"type":"LineString","coordinates":[[140.864329,38.258971],[140.872329,38.259738]]}},{"type":"Feature","properties":{"shape_id":"{}","direction_id":"{\"1\": 50}","headsign":"{}","duration_avg":98,"n_vehicles":50,"d":980,"route_I_counts":"{\"2\": 50}","source":22,"target":21,"layer":"L","from":"青葉通一番町駅","to":"大町西公園駅"},"geometry":{"type":"LineString","coordinates":[[140.872329,38.259738],[140.864329,38.258971]]}},{"type":"Feature","properties":{"shape_id":"{}","direction_id":"{\"0\": 50}","headsign":"{}","duration_avg":123,"n_vehicles":50,"d":1230,"route_I_counts":"{\"2\": 50}","source":22,"target":9,"layer":"L","from":"青葉通一番町駅","to":"仙台駅"},"geometry":{"type":"LineString","coordinates":[[140.872329,38.259738],[140.879868,38.259897]]}},{"type":"Feature","properties":{"shape_id":"{}","direction_id":"{\"1\": 50}","headsign":"{}","duration_avg":123,"n_vehicles":50,"d":1230,"route_I_counts":"{\"2\": 50}","source":9,"target":22,"layer":"L","from":"仙台駅","to":"青葉通一番町駅"},"geometry":{"type":"LineString","coordinates":[[140.879868,38.259897],[140.872329,38.259738]]}},{"type":"Feature","properties":{"shape_id":"{}","direction_id":"{\"0\": 50}","headsign":"{}","duration_avg":117,"n_vehicles":50,"d":1170,"route_I_counts":"{\"2\": 50}","source":9,"target":23,"layer":"L","from":"仙台駅","to":"宮城野通駅"},"geometry":{"type":"LineString","coordinates":[[140.879868,38.259897],[140.885815,38.258025]]}},{"type":"Feature","properties":{"shape_id":"{}","direction_id":"{\"1\": 50}","headsign":"{}","duration_avg":117,"n_vehicles":50,"d":1170,"route_I_counts":"{\"2\": 50}","source":23,"target":9,"layer":"L","from":"宮城野通駅","to":"仙台駅"},"geometry":{"type":"LineString","coordinates":[[140.885815,38.258025],[140.879868,38.259897]]}},{"type":"Feature","properties":{"shape_id":"{}","direction_id":"{\"0\": 50}","headsign":"{}","duration_avg":142,"n_vehicles":50,"d":1420,"route_I_counts":"{\"2\": 50}","source":23,"target":24,"layer":"L","from":"宮城野通駅","to":"連坊駅"},"geometry":{"type":"LineString","coordinates":[[140.885815,38.258025],[140.893187,38.251151]]}},{"type":"Feature","properties":{"shape_id":"{}","direction_id":"{\"1\": 50}","headsign":"{}","duration_avg":142,"n_vehicles":50,"d":1420,"route_I_counts":"{\"2\": 50}","source":24,"target":23,"layer":"L","from":"連坊駅","to":"宮城野通駅"},"geometry":{"type":"LineString","coordinates":[[140.893187,38.251151],[140.885815,38.258025]]}},{"type":"Feature","properties":{"shape_id":"{}","direction_id":"{\"0\": 50}","headsign":"{}","duration_avg":120,"n_vehicles":50,"d":1200,"route_I_counts":"{\"2\": 50}","source":24,"target":25,"layer":"L","from":"連坊駅","to":"薬師堂駅"},"geometry":{"type":"LineString","coordinates":[[140.893187,38.251151],[140.906057,38.249562]]}},{"type":"Feature","properties":{"shape_id":"{}","direction_id":"{\"1\": 50}","headsign":"{}","duration_avg":120,"n_vehicles":50,"d":1200,"route_I_counts":"{\"2\": 50}","source":25,"target":24,"layer":"L","from":"薬師堂駅","to":"連坊駅"},"geometry":{"type":"LineString","coordinates":[[140.906057,38.249562],[140.893187,38.251151]]}},{"type":"Feature","properties":{"shape_id":"{}","direction_id":"{\"0\": 50}","headsign":"{}","duration_avg":162,"n_vehicles":50,"d":1620,"route_I_counts":"{\"2\": 50}","source":25,"target":26,"layer":"L","from":"薬師堂駅","to":"卸町駅"},"geometry":{"type":"LineString","coordinates":[[140.906057,38.249562],[140.920797,38.251501]]}},{"type":"Feature","properties":{"shape_id":"{}","direction_id":"{\"1\": 50}","headsign":"{}","duration_avg":162,"n_vehicles":50,"d":1620,"route_I_counts":"{\"2\": 50}","source":26,"target":25,"layer":"L","from":"卸町駅","to":"薬師堂駅"},"geometry":{"type":"LineString","coordinates":[[140.920797,38.251501],[140.906057,38.249562]]}},{"type":"Feature","properties":{"shape_id":"{}","direction_id":"{\"0\": 50}","headsign":"{}","duration_avg":120,"n_vehicles":50,"d":1200,"route_I_counts":"{\"2\": 50}","source":26,"target":27,"layer":"L","from":"卸町駅","to":"六丁の目駅"},"geometry":{"type":"LineString","coordinates":[[140.920797,38.251501],[140.935553,38.250893]]}},{"type":"Feature","properties":{"shape_id":"{}","direction_id":"{\"1\": 50}","headsign":"{}","duration_avg":120,"n_vehicles":50,"d":1200,"route_I_counts":"{\"2\": 50}","source":27,"target":26,"layer":"L","from":"六丁の目駅","to":"卸町駅"},"geometry":{"type":"LineString","coordinates":[[140.935553,38.250893],[140.920797,38.251501]]}},{"type":"Feature","properties":{"shape_id":"{}","direction_id":"{\"0\": 50}","headsign":"{}","duration_avg":177,"n_vehicles":50,"d":1770,"route_I_counts":"{\"2\": 50}","source":27,"target":28,"layer":"L","from":"六丁の目駅","to":"荒井駅"},"geometry":{"type":"LineString","coordinates":[[140.935553,38.250893],[140.948613,38.244865]]}},{"type":"Feature","properties":{"shape_id":"{}","direction_id":"{\"1\": 50}","headsign":"{}","duration_avg":177,"n_vehicles":50,"d":1770,"route_I_counts":"{\"2\": 50}","source":28,"target":27,"layer":"L","from":"荒井駅","to":"六丁の目駅"},"geometry":{"type":"LineString","coordinates":[[140.948613,38.244865],[140.935553,38.250893]]}}]}