{"type":"FeatureCollection","features":[{"type":"Feature","geometry":{"type":"Point","coordinates":[120.325788,30.178362]},"properties":{"name":"绍兴姑娘桥(地铁站)","original_ids":"[1]","id":0,"layer":"stop"}},{"type":"Feature","geometry":{"type":"Point","coordinates":[120.355412,30.165494]},"properties":{"name":"绍兴衙前(地铁站)","original_ids":"[2]","id":1,"layer":"stop"}},{"type":"Feature","geometry":{"type":"Point","coordinates":[120.360814,30.146714]},"properties":{"name":"绍兴杨汛桥(地铁站)","original_ids":"[3]","id":2,"layer":"stop"}},{"type":"Feature","geometry":{"type":"Point","coordinates":[120.389532,30.12625]},"properties":{"name":"绍兴前梅(地铁站)","original_ids":"[4]","id":3,"layer":"stop"}},{"type":"Feature","geometry":{"type":"Point","coordinates":[120.406738,30.124365]},"properties":{"name":"绍兴钱清(地铁站)","original_ids":"[5]","id":4,"layer":"stop"}},{"type":"Feature","geometry":{"type":"Point","coordinates":[120.4218,30.119771]},"properties":{"name":"绍兴西沙路(地铁站)","original_ids":"[6]","id":5,"layer":"stop"}},{"type":"Feature","geometry":{"type":"Point","coordinates":[120.436299,30.11262]},"properties":{"name":"绍兴临杭大道(地铁站)","original_ids":"[7]","id":6,"layer":"stop"}},{"type":"Feature","geometry":{"type":"Point","coordinates":[120.452593,30.100978]},"properties":{"name":"绍兴鉴水路(地铁站)","original_ids":"[8]","id":7,"layer":"stop"}},{"type":"Feature","geometry":{"type":"Point","coordinates":[120.475913,30.089466]},"properties":{"name":"绍兴越州大道(地铁站)","original_ids":"[9]","id":8,"layer":"stop"}},{"type":"Feature","geometry":{"type":"Point","coordinates":[120.483524,30.084971]},"properties":{"name":"绍兴中国轻纺城(地铁站)","original_ids":"[10]","id":9,"layer":"stop"}},{"type":"Feature","geometry":{"type":"Point","coordinates":[120.491547,30.08182]},"properties":{"name":"绍兴明珠广场(地铁站)","original_ids":"[11]","id":10,"layer":"stop"}},{"type":"Feature","geometry":{"type":"Point","coordinates":[120.504534,30.076905]},"properties":{"name":"绍兴瓜渚湖(地铁站)","original_ids":"[12]","id":11,"layer":"stop"}},{"type":"Feature","geometry":{"type":"Point","coordinates":[120.51727,30.071145]},"properties":{"name":"绍兴镜水路(地铁站)","original_ids":"[13]","id":12,"layer":"stop"}},{"type":"Feature","geometry":{"type":"Point","coordinates":[120.535522,30.060643]},"properties":{"name":"绍兴黄酒小镇(地铁站)","original_ids":"[14]","id":13,"layer":"stop"}},{"type":"Feature","geometry":{"type":"Point","coordinates":[120.550236,30.055757]},"properties":{"name":"绍兴张墅(地铁站)","original_ids":"[15]","id":14,"layer":"stop"}},{"type":"Feature","geometry":{"type":"Point","coordinates":[120.565716,30.058866]},"properties":{"name":"绍兴奥体中心(地铁站)","original_ids":"[16]","id":15,"layer":"stop"}},{"type":"Feature","geometry":{"type":"Point","coordinates":[120.572832,30.051034]},"properties":{"name":"绍兴梅山广场(地铁站)","original_ids":"[17]","id":16,"layer":"stop"}},{"type":"Feature","geometry":{"type":"Point","coordinates":[120.577601,30.039681]},"properties":{"name":"绍兴凤林(地铁站)","original_ids":"[18]","id":17,"layer":"stop"}},{"type":"Feature","geometry":{"type":"Point","coordinates":[120.578495,30.026063]},"properties":{"name":"绍兴大滩(地铁站)","original_ids":"[19]","id":18,"layer":"stop"}},{"type":"Feature","geometry":{"type":"Point","coordinates":[120.577159,30.015783]},"properties":{"name":"绍兴火车站(地铁站)","original_ids":"[20]","id":19,"layer":"stop"}},{"type":"Feature","geometry":{"type":"Point","coordinates":[120.577218,30.006732]},"properties":{"name":"绍兴城市广场(地铁站)","original_ids":"[21]","id":20,"layer":"stop"}},{"type":"Feature","geometry":{"type":"Point","coordinates":[120.576483,29.994242]},"properties":{"name":"绍兴鲁迅故里(地铁站)","original_ids":"[22]","id":21,"layer":"stop"}},{"type":"Feature","geometry":{"type":"Point","coordinates":[120.576334,29.978497]},"properties":{"name":"绍兴城南大道(地铁站)","original_ids":"[23]","id":22,"layer":"stop"}},{"type":"Feature","geometry":{"type":"Point","coordinates":[120.573708,29.96516]},"properties":{"name":"绍兴凤凰山(地铁站)","original_ids":"[24]","id":23,"layer":"stop"}},{"type":"Feature","geometry":{"type":"Point","coordinates":[120.572958,29.954516]},"properties":{"name":"绍兴劳家葑(地铁站)","original_ids":"[25]","id":24,"layer":"stop"}},{"type":"Feature","geometry":{"type":"Point","coordinates":[120.571727,29.941945]},"properties":{"name":"绍兴南池(地铁站)","original_ids":"[26]","id":25,"layer":"stop"}},{"type":"Feature","geometry":{"type":"Point","coordinates":[120.571315,29.931432]},"properties":{"name":"绍兴栖湖(地铁站)","original_ids":"[27]","id":26,"layer":"stop"}},{"type":"Feature","geometry":{"type":"Point","coordinates":[120.566865,29.920875]},"properties":{"name":"绍兴芳泉(地铁站)","original_ids":"[28]","id":27,"layer":"stop"}},{"type":"Feature","geometry":{"type":"Point","coordinates":[120.533831,30.069811]},"properties":{"name":"绍兴绍兴一中(地铁站)","original_ids":"[29]","id":28,"layer":"stop"}},{"type":"Feature","geometry":{"type":"Point","coordinates":[120.533854,30.081091]},"properties":{"name":"绍兴湖西(地铁站)","original_ids":"[30]","id":29,"layer":"stop"}},{"type":"Feature","geometry":{"type":"Point","coordinates":[120.534008,30.090649]},"properties":{"name":"绍兴大庆寺(地铁站)","original_ids":"[31]","id":30,"layer":"stop"}},{"type":"Feature","geometry":{"type":"Point","coordinates":[120.533333,30.101403]},"properties":{"name":"绍兴绍兴北站(地铁站)","original_ids":"[32]","id":31,"layer":"stop"}},{"type":"Feature","geometry":{"type":"Point","coordinates":[120.512938,30.103459]},"properties":{"name":"绍兴会展中心(地铁站)","original_ids":"[33]","id":32,"layer":"stop"}},{"type":"Feature","geometry":{"type":"Point","coordinates":[120.554919,30.046889]},"properties":{"name":"人民医院总院","original_ids":"[34]","id":33,"layer":"stop"}},{"type":"Feature","geometry":{"type":"Point","coordinates":[120.585731,30.052269]},"properties":{"name":"后墅路","original_ids":"[35]","id":34,"layer":"stop"}},{"type":"Feature","geometry":{"type":"Point","coordinates":[120.5973,30.052081]},"properties":{"name":"袍谷","original_ids":"[36]","id":35,"layer":"stop"}},{"type":"Feature","geometry":{"type":"Point","coordinates":[120.607711,30.05225]},"properties":{"name":"袍中路","original_ids":"[37]","id":36,"layer":"stop"}},{"type":"Feature","geometry":{"type":"Point","coordinates":[120.6232,30.052189]},"properties":{"name":"洋泾湖","original_ids":"[38]","id":37,"layer":"stop"}},{"type":"Feature","geometry":{"type":"Point","coordinates":[120.634511,30.05205]},"properties":{"name":"恂南","original_ids":"[39]","id":38,"layer":"stop"}},{"type":"Feature","geometry":{"type":"Point","coordinates":[120.645339,30.050539]},"properties":{"name":"豆姜（兼停车场）","original_ids":"[40]","id":39,"layer":"stop"}},{"type":"Feature","geometry":{"type":"Point","coordinates":[120.658161,30.047011]},"properties":{"name":"檀渎","original_ids":"[41]","id":40,"layer":"stop"}},{"type":"Feature","properties":{"shape_id":"{}","direction_id":"{\"0\": 50}","headsign":"{}","duration_avg":240,"n_vehicles":50,"d":2400,"route_I_counts":"{\"1\": 50}","source":0,"target":1,"layer":"L","from":"绍兴姑娘桥(地铁站)","to":"绍兴衙前(地铁站)"},"geometry":{"type":"LineString","coordinates":[[120.325788,30.178362],[120.355412,30.165494]]}},{"type":"Feature","properties":{"shape_id":"{}","direction_id":"{\"1\": 50}","headsign":"{}","duration_avg":240,"n_vehicles":50,"d":2400,"route_I_counts":"{\"1\": 50}","source":1,"target":0,"layer":"L","from":"绍兴衙前(地铁站)","to":"绍兴姑娘桥(地铁站)"},"geometry":{"type":"LineString","coordinates":[[120.355412,30.165494],[120.325788,30.178362]]}},{"type":"Feature","properties":{"shape_id":"{}","direction_id":"{\"0\": 50}","headsign":"{}","duration_avg":180,"n_vehicles":50,"d":1800,"route_I_counts":"{\"1\": 50}","source":1,"target":2,"layer":"L","from":"绍兴衙前(地铁站)","to":"绍兴杨汛桥(地铁站)"},"geometry":{"type":"LineString","coordinates":[[120.355412,30.165494],[120.360814,30.146714]]}},{"type":"Feature","properties":{"shape_id":"{}","direction_id":"{\"1\": 50}","headsign":"{}","duration_avg":180,"n_vehicles":50,"d":1800,"route_I_counts":"{\"1\": 50}","source":2,"target":1,"layer":"L","from":"绍兴杨汛桥(地铁站)","to":"绍兴衙前(地铁站)"},"geometry":{"type":"LineString","coordinates":[[120.360814,30.146714],[120.355412,30.165494]]}},{"type":"Feature","properties":{"shape_id":"{}","direction_id":"{\"0\": 50}","headsign":"{}","duration_avg":240,"n_vehicles":50,"d":2400,"route_I_counts":"{\"1\": 50}","source":2,"target":3,"layer":"L","from":"绍兴杨汛桥(地铁站)","to":"绍兴前梅(地铁站)"},"geometry":{"type":"LineString","coordinates":[[120.360814,30.146714],[120.389532,30.12625]]}},{"type":"Feature","properties":{"shape_id":"{}","direction_id":"{\"1\": 50}","headsign":"{}","duration_avg":240,"n_vehicles":50,"d":2400,"route_I_counts":"{\"1\": 50}","source":3,"target":2,"layer":"L","from":"绍兴前梅(地铁站)","to":"绍兴杨汛桥(地铁站)"},"geometry":{"type":"LineString","coordinates":[[120.389532,30.12625],[120.360814,30.146714]]}},{"type":"Feature","properties":{"shape_id":"{}","direction_id":"{\"0\": 50}","headsign":"{}","duration_avg":180,"n_vehicles":50,"d":1800,"route_I_counts":"{\"1\": 50}","source":3,"target":4,"layer":"L","from":"绍兴前梅(地铁站)","to":"绍兴钱清(地铁站)"},"geometry":{"type":"LineString","coordinates":[[120.389532,30.12625],[120.406738,30.124365]]}},{"type":"Feature","properties":{"shape_id":"{}","direction_id":"{\"1\": 50}","headsign":"{}","duration_avg":180,"n_vehicles":50,"d":1800,"route_I_counts":"{\"1\": 50}","source":4,"target":3,"layer":"L","from":"绍兴钱清(地铁站)","to":"绍兴前梅(地铁站)"},"geometry":{"type":"LineString","coordinates":[[120.406738,30.124365],[120.389532,30.12625]]}},{"type":"Feature","properties":{"shape_id":"{}","direction_id":"{\"0\": 50}","headsign":"{}","duration_avg":120,"n_vehicles":50,"d":1200,"route_I_counts":"{\"1\": 50}","source":4,"target":5,"layer":"L","from":"绍兴钱清(地铁站)","to":"绍兴西沙路(地铁站)"},"geometry":{"type":"LineString","coordinates":[[120.406738,30.124365],[120.4218,30.119771]]}},{"type":"Feature","properties":{"shape_id":"{}","direction_id":"{\"1\": 50}","headsign":"{}","duration_avg":120,"n_vehicles":50,"d":1200,"route_I_counts":"{\"1\": 50}","source":5,"target":4,"layer":"L","from":"绍兴西沙路(地铁站)","to":"绍兴钱清(地铁站)"},"geometry":{"type":"LineString","coordinates":[[120.4218,30.119771],[120.406738,30.124365]]}},{"type":"Feature","properties":{"shape_id":"{}","direction_id":"{\"0\": 50}","headsign":"{}","duration_avg":180,"n_vehicles":50,"d":1800,"route_I_counts":"{\"1\": 50}","source":5,"target":6,"layer":"L","from":"绍兴西沙路(地铁站)","to":"绍兴临杭大道(地铁站)"},"geometry":{"type":"LineString","coordinates":[[120.4218,30.119771],[120.436299,30.11262]]}},{"type":"Feature","properties":{"shape_id":"{}","direction_id":"{\"1\": 50}","headsign":"{}","duration_avg":180,"n_vehicles":50,"d":1800,"route_I_counts":"{\"1\": 50}","source":6,"target":5,"layer":"L","from":"绍兴临杭大道(地铁站)","to":"绍兴西沙路(地铁站)"},"geometry":{"type":"LineString","coordinates":[[120.436299,30.11262],[120.4218,30.119771]]}},{"type":"Feature","properties":{"shape_id":"{}","direction_id":"{\"0\": 50}","headsign":"{}","duration_avg":120,"n_vehicles":50,"d":1200,"route_I_counts":"{\"1\": 50}","source":6,"target":7,"layer":"L","from":"绍兴临杭大道(地铁站)","to":"绍兴鉴水路(地铁站)"},"geometry":{"type":"LineString","coordinates":[[120.436299,30.11262],[120.452593,30.100978]]}},{"type":"Feature","properties":{"shape_id":"{}","direction_id":"{\"1\": 50}","headsign":"{}","duration_avg":120,"n_vehicles":50,"d":1200,"route_I_counts":"{\"1\": 50}","source":7,"target":6,"layer":"L","from":"绍兴鉴水路(地铁站)","to":"绍兴临杭大道(地铁站)"},"geometry":{"type":"LineString","coordinates":[[120.452593,30.100978],[120.436299,30.11262]]}},{"type":"Feature","properties":{"shape_id":"{}","direction_id":"{\"0\": 50}","headsign":"{}","duration_avg":180,"n_vehicles":50,"d":1800,"route_I_counts":"{\"1\": 50}","source":7,"target":8,"layer":"L","from":"绍兴鉴水路(地铁站)","to":"绍兴越州大道(地铁站)"},"geometry":{"type":"LineString","coordinates":[[120.452593,30.100978],[120.475913,30.089466]]}},{"type":"Feature","properties":{"shape_id":"{}","direction_id":"{\"1\": 50}","headsign":"{}","duration_avg":180,"n_vehicles":50,"d":1800,"route_I_counts":"{\"1\": 50}","source":8,"target":7,"layer":"L","from":"绍兴越州大道(地铁站)","to":"绍兴鉴水路(地铁站)"},"geometry":{"type":"LineString","coordinates":[[120.475913,30.089466],[120.452593,30.100978]]}},{"type":"Feature","properties":{"shape_id":"{}","direction_id":"{\"0\": 50}","headsign":"{}","duration_avg":120,"n_vehicles":50,"d":1200,"route_I_counts":"{\"1\": 50}","source":8,"target":9,"layer":"L","from":"绍兴越州大道(地铁站)","to":"绍兴中国轻纺城(地铁站)"},"geometry":{"type":"LineString","coordinates":[[120.475913,30.089466],[120.483524,30.084971]]}},{"type":"Feature","properties":{"shape_id":"{}","direction_id":"{\"1\": 50}","headsign":"{}","duration_avg":120,"n_vehicles":50,"d":1200,"route_I_counts":"{\"1\": 50}","source":9,"target":8,"layer":"L","from":"绍兴中国轻纺城(地铁站)","to":"绍兴越州大道(地铁站)"},"geometry":{"type":"LineString","coordinates":[[120.483524,30.084971],[120.475913,30.089466]]}},{"type":"Feature","properties":{"shape_id":"{}","direction_id":"{\"0\": 50}","headsign":"{}","duration_avg":120,"n_vehicles":50,"d":1200,"route_I_counts":"{\"1\": 50}","source":9,"target":10,"layer":"L","from":"绍兴中国轻纺城(地铁站)","to":"绍兴明珠广场(地铁站)"},"geometry":{"type":"LineString","coordinates":[[120.483524,30.084971],[120.491547,30.08182]]}},{"type":"Feature","properties":{"shape_id":"{}","direction_id":"{\"1\": 50}","headsign":"{}","duration_avg":120,"n_vehicles":50,"d":1200,"route_I_counts":"{\"1\": 50}","source":10,"target":9,"layer":"L","from":"绍兴明珠广场(地铁站)","to":"绍兴中国轻纺城(地铁站)"},"geometry":{"type":"LineString","coordinates":[[120.491547,30.08182],[120.483524,30.084971]]}},{"type":"Feature","properties":{"shape_id":"{}","direction_id":"{\"0\": 50}","headsign":"{}","duration_avg":180,"n_vehicles":50,"d":1800,"route_I_counts":"{\"1\": 50}","source":10,"target":11,"layer":"L","from":"绍兴明珠广场(地铁站)","to":"绍兴瓜渚湖(地铁站)"},"geometry":{"type":"LineString","coordinates":[[120.491547,30.08182],[120.504534,30.076905]]}},{"type":"Feature","properties":{"shape_id":"{}","direction_id":"{\"1\": 50}","headsign":"{}","duration_avg":180,"n_vehicles":50,"d":1800,"route_I_counts":"{\"1\": 50}","source":11,"target":10,"layer":"L","from":"绍兴瓜渚湖(地铁站)","to":"绍兴明珠广场(地铁站)"},"geometry":{"type":"LineString","coordinates":[[120.504534,30.076905],[120.491547,30.08182]]}},{"type":"Feature","properties":{"shape_id":"{}","direction_id":"{\"0\": 50}","headsign":"{}","duration_avg":120,"n_vehicles":50,"d":1200,"route_I_counts":"{\"1\": 50}","source":11,"target":12,"layer":"L","from":"绍兴瓜渚湖(地铁站)","to":"绍兴镜水路(地铁站)"},"geometry":{"type":"LineString","coordinates":[[120.504534,30.076905],[120.51727,30.071145]]}},{"type":"Feature","properties":{"shape_id":"{}","direction_id":"{\"1\": 50}","headsign":"{}","duration_avg":120,"n_vehicles":50,"d":1200,"route_I_counts":"{\"1\": 50}","source":12,"target":11,"layer":"L","from":"绍兴镜水路(地铁站)","to":"绍兴瓜渚湖(地铁站)"},"geometry":{"type":"LineString","coordinates":[[120.51727,30.071145],[120.504534,30.076905]]}},{"type":"Feature","properties":{"shape_id":"{}","direction_id":"{\"0\": 50}","headsign":"{}","duration_avg":240,"n_vehicles":50,"d":2400,"route_I_counts":"{\"1\": 50}","source":12,"target":13,"layer":"L","from":"绍兴镜水路(地铁站)","to":"绍兴黄酒小镇(地铁站)"},"geometry":{"type":"LineString","coordinates":[[120.51727,30.071145],[120.535522,30.060643]]}},{"type":"Feature","properties":{"shape_id":"{}","direction_id":"{\"1\": 50}","headsign":"{}","duration_avg":240,"n_vehicles":50,"d":2400,"route_I_counts":"{\"1\": 50}","source":13,"target":12,"layer":"L","from":"绍兴黄酒小镇(地铁站)","to":"绍兴镜水路(地铁站)"},"geometry":{"type":"LineString","coordinates":[[120.535522,30.060643],[120.51727,30.071145]]}},{"type":"Feature","properties":{"shape_id":"{}","direction_id":"{\"0\": 50}","headsign":"{}","duration_avg":180,"n_vehicles":50,"d":1800,"route_I_counts":"{\"1\": 50}","source":13,"target":14,"layer":"L","from":"绍兴黄酒小镇(地铁站)","to":"绍兴张墅(地铁站)"},"geometry":{"type":"LineString","coordinates":[[120.535522,30.060643],[120.550236,30.055757]]}},{"type":"Feature","properties":{"shape_id":"{}","direction_id":"{\"1\": 50}","headsign":"{}","duration_avg":180,"n_vehicles":50,"d":1800,"route_I_counts":"{\"1\": 50}","source":14,"target":13,"layer":"L","from":"绍兴张墅(地铁站)","to":"绍兴黄酒小镇(地铁站)"},"geometry":{"type":"LineString","coordinates":[[120.550236,30.055757],[120.535522,30.060643]]}},{"type":"Feature","properties":{"shape_id":"{}","direction_id":"{\"0\": 50}","headsign":"{}","duration_avg":180,"n_vehicles":50,"d":1800,"route_I_counts":"{\"1\": 50}","source":14,"target":15,"layer":"L","from":"绍兴张墅(地铁站)","to":"绍兴奥体中心(地铁站)"},"geometry":{"type":"LineString","coordinates":[[120.550236,30.055757],[120.565716,30.058866]]}},{"type":"Feature","properties":{"shape_id":"{}","direction_id":"{\"1\": 50}","headsign":"{}","duration_avg":180,"n_vehicles":50,"d":1800,"route_I_counts":"{\"1\": 50}","source":15,"target":14,"layer":"L","from":"绍兴奥体中心(地铁站)","to":"绍兴张墅(地铁站)"},"geometry":{"type":"LineString","coordinates":[[120.565716,30.058866],[120.550236,30.055757]]}},{"type":"Feature","properties":{"shape_id":"{}","direction_id":"{\"0\": 50}","headsign":"{}","duration_avg":120,"n_vehicles":50,"d":1200,"route_I_counts":"{\"1\": 50}","source":15,"target":16,"layer":"L","from":"绍兴奥体中心(地铁站)","to":"绍兴梅山广场(地铁站)"},"geometry":{"type":"LineString","coordinates":[[120.565716,30.058866],[120.572832,30.051034]]}},{"type":"Feature","properties":{"shape_id":"{}","direction_id":"{\"1\": 50}","headsign":"{}","duration_avg":120,"n_vehicles":50,"d":1200,"route_I_counts":"{\"1\": 50}","source":16,"target":15,"layer":"L","from":"绍兴梅山广场(地铁站)","to":"绍兴奥体中心(地铁站)"},"geometry":{"type":"LineString","coordinates":[[120.572832,30.051034],[120.565716,30.058866]]}},{"type":"Feature","properties":{"shape_id":"{}","direction_id":"{\"0\": 50}","headsign":"{}","duration_avg":180,"n_vehicles":50,"d":1800,"route_I_counts":"{\"1\": 50}","source":16,"target":17,"layer":"L","from":"绍兴梅山广场(地铁站)","to":"绍兴凤林(地铁站)"},"geometry":{"type":"LineString","coordinates":[[120.572832,30.051034],[120.577601,30.039681]]}},{"type":"Feature","properties":{"shape_id":"{}","direction_id":"{\"1\": 50}","headsign":"{}","duration_avg":180,"n_vehicles":50,"d":1800,"route_I_counts":"{\"1\": 50}","source":17,"target":16,"layer":"L","from":"绍兴凤林(地铁站)","to":"绍兴梅山广场(地铁站)"},"geometry":{"type":"LineString","coordinates":[[120.577601,30.039681],[120.572832,30.051034]]}},{"type":"Feature","properties":{"shape_id":"{}","direction_id":"{\"0\": 50}","headsign":"{}","duration_avg":120,"n_vehicles":50,"d":1200,"route_I_counts":"{\"1\": 50}","source":17,"target":18,"layer":"L","from":"绍兴凤林(地铁站)","to":"绍兴大滩(地铁站)"},"geometry":{"type":"LineString","coordinates":[[120.577601,30.039681],[120.578495,30.026063]]}},{"type":"Feature","properties":{"shape_id":"{}","direction_id":"{\"1\": 50}","headsign":"{}","duration_avg":120,"n_vehicles":50,"d":1200,"route_I_counts":"{\"1\": 50}","source":18,"target":17,"layer":"L","from":"绍兴大滩(地铁站)","to":"绍兴凤林(地铁站)"},"geometry":{"type":"LineString","coordinates":[[120.578495,30.026063],[120.577601,30.039681]]}},{"type":"Feature","properties":{"shape_id":"{}","direction_id":"{\"0\": 50}","headsign":"{}","duration_avg":180,"n_vehicles":50,"d":1800,"route_I_counts":"{\"1\": 50}","source":18,"target":19,"layer":"L","from":"绍兴大滩(地铁站)","to":"绍兴火车站(地铁站)"},"geometry":{"type":"LineString","coordinates":[[120.578495,30.026063],[120.577159,30.015783]]}},{"type":"Feature","properties":{"shape_id":"{}","direction_id":"{\"1\": 50}","headsign":"{}","duration_avg":180,"n_vehicles":50,"d":1800,"route_I_counts":"{\"1\": 50}","source":19,"target":18,"layer":"L","from":"绍兴火车站(地铁站)","to":"绍兴大滩(地铁站)"},"geometry":{"type":"LineString","coordinates":[[120.577159,30.015783],[120.578495,30.026063]]}},{"type":"Feature","properties":{"shape_id":"{}","direction_id":"{\"0\": 50}","headsign":"{}","duration_avg":120,"n_vehicles":50,"d":1200,"route_I_counts":"{\"1\": 50}","source":19,"target":20,"layer":"L","from":"绍兴火车站(地铁站)","to":"绍兴城市广场(地铁站)"},"geometry":{"type":"LineString","coordinates":[[120.577159,30.015783],[120.577218,30.006732]]}},{"type":"Feature","properties":{"shape_id":"{}","direction_id":"{\"1\": 50}","headsign":"{}","duration_avg":120,"n_vehicles":50,"d":1200,"route_I_counts":"{\"1\": 50}","source":20,"target":19,"layer":"L","from":"绍兴城市广场(地铁站)","to":"绍兴火车站(地铁站)"},"geometry":{"type":"LineString","coordinates":[[120.577218,30.006732],[120.577159,30.015783]]}},{"type":"Feature","properties":{"shape_id":"{}","direction_id":"{\"0\": 50}","headsign":"{}","duration_avg":120,"n_vehicles":50,"d":1200,"route_I_counts":"{\"1\": 50}","source":20,"target":21,"layer":"L","from":"绍兴城市广场(地铁站)","to":"绍兴鲁迅故里(地铁站)"},"geometry":{"type":"LineString","coordinates":[[120.577218,30.006732],[120.576483,29.994242]]}},{"type":"Feature","properties":{"shape_id":"{}","direction_id":"{\"1\": 50}","headsign":"{}","duration_avg":120,"n_vehicles":50,"d":1200,"route_I_counts":"{\"1\": 50}","source":21,"target":20,"layer":"L","from":"绍兴鲁迅故里(地铁站)","to":"绍兴城市广场(地铁站)"},"geometry":{"type":"LineString","coordinates":[[120.576483,29.994242],[120.577218,30.006732]]}},{"type":"Feature","properties":{"shape_id":"{}","direction_id":"{\"0\": 50}","headsign":"{}","duration_avg":180,"n_vehicles":50,"d":1800,"route_I_counts":"{\"1\": 50}","source":21,"target":22,"layer":"L","from":"绍兴鲁迅故里(地铁站)","to":"绍兴城南大道(地铁站)"},"geometry":{"type":"LineString","coordinates":[[120.576483,29.994242],[120.576334,29.978497]]}},{"type":"Feature","properties":{"shape_id":"{}","direction_id":"{\"1\": 50}","headsign":"{}","duration_avg":180,"n_vehicles":50,"d":1800,"route_I_counts":"{\"1\": 50}","source":22,"target":21,"layer":"L","from":"绍兴城南大道(地铁站)","to":"绍兴鲁迅故里(地铁站)"},"geometry":{"type":"LineString","coordinates":[[120.576334,29.978497],[120.576483,29.994242]]}},{"type":"Feature","properties":{"shape_id":"{}","direction_id":"{\"0\": 50}","headsign":"{}","duration_avg":180,"n_vehicles":50,"d":1800,"route_I_counts":"{\"1\": 50}","source":22,"target":23,"layer":"L","from":"绍兴城南大道(地铁站)","to":"绍兴凤凰山(地铁站)"},"geometry":{"type":"LineString","coordinates":[[120.576334,29.978497],[120.573708,29.96516]]}},{"type":"Feature","properties":{"shape_id":"{}","direction_id":"{\"1\": 50}","headsign":"{}","duration_avg":180,"n_vehicles":50,"d":1800,"route_I_counts":"{\"1\": 50}","source":23,"target":22,"layer":"L","from":"绍兴凤凰山(地铁站)","to":"绍兴城南大道(地铁站)"},"geometry":{"type":"LineString","coordinates":[[120.573708,29.96516],[120.576334,29.978497]]}},{"type":"Feature","properties":{"shape_id":"{}","direction_id":"{\"0\": 50}","headsign":"{}","duration_avg":180,"n_vehicles":50,"d":1800,"route_I_counts":"{\"1\": 50}","source":23,"target":24,"layer":"L","from":"绍兴凤凰山(地铁站)","to":"绍兴劳家葑(地铁站)"},"geometry":{"type":"LineString","coordinates":[[120.573708,29.96516],[120.572958,29.954516]]}},{"type":"Feature","properties":{"shape_id":"{}","direction_id":"{\"1\": 50}","headsign":"{}","duration_avg":180,"n_vehicles":50,"d":1800,"route_I_counts":"{\"1\": 50}","source":24,"target":23,"layer":"L","from":"绍兴劳家葑(地铁站)","to":"绍兴凤凰山(地铁站)"},"geometry":{"type":"LineString","coordinates":[[120.572958,29.954516],[120.573708,29.96516]]}},{"type":"Feature","properties":{"shape_id":"{}","direction_id":"{\"0\": 50}","headsign":"{}","duration_avg":180,"n_vehicles":50,"d":1800,"route_I_counts":"{\"1\": 50}","source":24,"target":25,"layer":"L","from":"绍兴劳家葑(地铁站)","to":"绍兴南池(地铁站)"},"geometry":{"type":"LineString","coordinates":[[120.572958,29.954516],[120.571727,29.941945]]}},{"type":"Feature","properties":{"shape_id":"{}","direction_id":"{\"1\": 50}","headsign":"{}","duration_avg":180,"n_vehicles":50,"d":1800,"route_I_counts":"{\"1\": 50}","source":25,"target":24,"layer":"L","from":"绍兴南池(地铁站)","to":"绍兴劳家葑(地铁站)"},"geometry":{"type":"LineString","coordinates":[[120.571727,29.941945],[120.572958,29.954516]]}},{"type":"Feature","properties":{"shape_id":"{}","direction_id":"{\"0\": 50}","headsign":"{}","duration_avg":120,"n_vehicles":50,"d":1200,"route_I_counts":"{\"1\": 50}","source":25,"target":26,"layer":"L","from":"绍兴南池(地铁站)","to":"绍兴栖湖(地铁站)"},"geometry":{"type":"LineString","coordinates":[[120.571727,29.941945],[120.571315,29.931432]]}},{"type":"Feature","properties":{"shape_id":"{}","direction_id":"{\"1\": 50}","headsign":"{}","duration_avg":120,"n_vehicles":50,"d":1200,"route_I_counts":"{\"1\": 50}","source":26,"target":25,"layer":"L","from":"绍兴栖湖(地铁站)","to":"绍兴南池(地铁站)"},"geometry":{"type":"LineString","coordinates":[[120.571315,29.931432],[120.571727,29.941945]]}},{"type":"Feature","properties":{"shape_id":"{}","direction_id":"{\"0\": 50}","headsign":"{}","duration_avg":180,"n_vehicles":50,"d":1800,"route_I_counts":"{\"1\": 50}","source":26,"target":27,"layer":"L","from":"绍兴栖湖(地铁站)","to":"绍兴芳泉(地铁站)"},"geometry":{"type":"LineString","coordinates":[[120.571315,29.931432],[120.566865,29.920875]]}},{"type":"Feature","properties":{"shape_id":"{}","direction_id":"{\"1\": 50}","headsign":"{}","duration_avg":180,"n_vehicles":50,"d":1800,"route_I_counts":"{\"1\": 50}","source":27,"target":26,"layer":"L","from":"绍兴芳泉(地铁站)","to":"绍兴栖湖(地铁站)"},"geometry":{"type":"LineString","coordinates":[[120.566865,29.920875],[120.571315,29.931432]]}},{"type":"Feature","properties":{"shape_id":"{}","direction_id":"{\"0\": 50}","headsign":"{}","duration_avg":120,"n_vehicles":50,"d":1200,"route_I_counts":"{\"1\": 50}","source":13,"target":28,"layer":"L","from":"绍兴黄酒小镇(地铁站)","to":"绍兴绍兴一中(地铁站)"},"geometry":{"type":"LineString","coordinates":[[120.535522,30.060643],[120.533831,30.069811]]}},{"type":"Feature","properties":{"shape_id":"{}","direction_id":"{\"1\": 50}","headsign":"{}","duration_avg":120,"n_vehicles":50,"d":1200,"route_I_counts":"{\"1\": 50}","source":28,"target":13,"layer":"L","from":"绍兴绍兴一中(地铁站)","to":"绍兴黄酒小镇(地铁站)"},"geometry":{"type":"LineString","coordinates":[[120.533831,30.069811],[120.535522,30.060643]]}},{"type":"Feature","properties":{"shape_id":"{}","direction_id":"{\"0\": 50}","headsign":"{}","duration_avg":120,"n_vehicles":50,"d":1200,"route_I_counts":"{\"1\": 50}","source":28,"target":29,"layer":"L","from":"绍兴绍兴一中(地铁站)","to":"绍兴湖西(地铁站)"},"geometry":{"type":"LineString","coordinates":[[120.533831,30.069811],[120.533854,30.081091]]}},{"type":"Feature","properties":{"shape_id":"{}","direction_id":"{\"1\": 50}","headsign":"{}","duration_avg":120,"n_vehicles":50,"d":1200,"route_I_counts":"{\"1\": 50}","source":29,"target":28,"layer":"L","from":"绍兴湖西(地铁站)","to":"绍兴绍兴一中(地铁站)"},"geometry":{"type":"LineString","coordinates":[[120.533854,30.081091],[120.533831,30.069811]]}},{"type":"Feature","properties":{"shape_id":"{}","direction_id":"{\"0\": 50}","headsign":"{}","duration_avg":120,"n_vehicles":50,"d":1200,"route_I_counts":"{\"1\": 50}","source":29,"target":30,"layer":"L","from":"绍兴湖西(地铁站)","to":"绍兴大庆寺(地铁站)"},"geometry":{"type":"LineString","coordinates":[[120.533854,30.081091],[120.534008,30.090649]]}},{"type":"Feature","properties":{"shape_id":"{}","direction_id":"{\"1\": 50}","headsign":"{}","duration_avg":120,"n_vehicles":50,"d":1200,"route_I_counts":"{\"1\": 50}","source":30,"target":29,"layer":"L","from":"绍兴大庆寺(地铁站)","to":"绍兴湖西(地铁站)"},"geometry":{"type":"LineString","coordinates":[[120.534008,30.090649],[120.533854,30.081091]]}},{"type":"Feature","properties":{"shape_id":"{}","direction_id":"{\"0\": 50}","headsign":"{}","duration_avg":120,"n_vehicles":50,"d":1200,"route_I_counts":"{\"1\": 50}","source":30,"target":31,"layer":"L","from":"绍兴大庆寺(地铁站)","to":"绍兴绍兴北站(地铁站)"},"geometry":{"type":"LineString","coordinates":[[120.534008,30.090649],[120.533333,30.101403]]}},{"type":"Feature","properties":{"shape_id":"{}","direction_id":"{\"1\": 50}","headsign":"{}","duration_avg":120,"n_vehicles":50,"d":1200,"route_I_counts":"{\"1\": 50}","source":31,"target":30,"layer":"L","from":"绍兴绍兴北站(地铁站)","to":"绍兴大庆寺(地铁站)"},"geometry":{"type":"LineString","coordinates":[[120.533333,30.101403],[120.534008,30.090649]]}},{"type":"Feature","properties":{"shape_id":"{}","direction_id":"{\"0\": 50}","headsign":"{}","duration_avg":120,"n_vehicles":50,"d":1200,"route_I_counts":"{\"1\": 50}","source":31,"target":32,"layer":"L","from":"绍兴绍兴北站(地铁站)","to":"绍兴会展中心(地铁站)"},"geometry":{"type":"LineString","coordinates":[[120.533333,30.101403],[120.512938,30.103459]]}},{"type":"Feature","properties":{"shape_id":"{}","direction_id":"{\"1\": 50}","headsign":"{}","duration_avg":120,"n_vehicles":50,"d":1200,"route_I_counts":"{\"1\": 50}","source":32,"target":31,"layer":"L","from":"绍兴会展中心(地铁站)","to":"绍兴绍兴北站(地铁站)"},"geometry":{"type":"LineString","coordinates":[[120.512938,30.103459],[120.533333,30.101403]]}},{"type":"Feature","properties":{"shape_id":"{}","direction_id":"{\"0\": 50}","headsign":"{}","duration_avg":120,"n_vehicles":50,"d":1200,"route_I_counts":"{\"2\": 50}","source":33,"target":16,"layer":"L","from":"人民医院总院","to":"绍兴梅山广场(地铁站)"},"geometry":{"type":"LineString","coordinates":[[120.554919,30.046889],[120.572832,30.051034]]}},{"type":"Feature","properties":{"shape_id":"{}","direction_id":"{\"1\": 50}","headsign":"{}","duration_avg":120,"n_vehicles":50,"d":1200,"route_I_counts":"{\"2\": 50}","source":16,"target":33,"layer":"L","from":"绍兴梅山广场(地铁站)","to":"人民医院总院"},"geometry":{"type":"LineString","coordinates":[[120.572832,30.051034],[120.554919,30.046889]]}},{"type":"Feature","properties":{"shape_id":"{}","direction_id":"{\"0\": 50}","headsign":"{}","duration_avg":120,"n_vehicles":50,"d":1200,"route_I_counts":"{\"2\": 50}","source":16,"target":34,"layer":"L","from":"绍兴梅山广场(地铁站)","to":"后墅路"},"geometry":{"type":"LineString","coordinates":[[120.572832,30.051034],[120.585731,30.052269]]}},{"type":"Feature","properties":{"shape_id":"{}","direction_id":"{\"1\": 50}","headsign":"{}","duration_avg":120,"n_vehicles":50,"d":1200,"route_I_counts":"{\"2\": 50}","source":34,"target":16,"layer":"L","from":"后墅路","to":"绍兴梅山广场(地铁站)"},"geometry":{"type":"LineString","coordinates":[[120.585731,30.052269],[120.572832,30.051034]]}},{"type":"Feature","properties":{"shape_id":"{}","direction_id":"{\"0\": 50}","headsign":"{}","duration_avg":120,"n_vehicles":50,"d":1200,"route_I_counts":"{\"2\": 50}","source":34,"target":35,"layer":"L","from":"后墅路","to":"袍谷"},"geometry":{"type":"LineString","coordinates":[[120.585731,30.052269],[120.5973,30.052081]]}},{"type":"Feature","properties":{"shape_id":"{}","direction_id":"{\"1\": 50}","headsign":"{}","duration_avg":120,"n_vehicles":50,"d":1200,"route_I_counts":"{\"2\": 50}","source":35,"target":34,"layer":"L","from":"袍谷","to":"后墅路"},"geometry":{"type":"LineString","coordinates":[[120.5973,30.052081],[120.585731,30.052269]]}},{"type":"Feature","properties":{"shape_id":"{}","direction_id":"{\"0\": 50}","headsign":"{}","duration_avg":180,"n_vehicles":50,"d":1800,"route_I_counts":"{\"2\": 50}","source":35,"target":36,"layer":"L","from":"袍谷","to":"袍中路"},"geometry":{"type":"LineString","coordinates":[[120.5973,30.052081],[120.607711,30.05225]]}},{"type":"Feature","properties":{"shape_id":"{}","direction_id":"{\"1\": 50}","headsign":"{}","duration_avg":180,"n_vehicles":50,"d":1800,"route_I_counts":"{\"2\": 50}","source":36,"target":35,"layer":"L","from":"袍中路","to":"袍谷"},"geometry":{"type":"LineString","coordinates":[[120.607711,30.05225],[120.5973,30.052081]]}},{"type":"Feature","properties":{"shape_id":"{}","direction_id":"{\"0\": 50}","headsign":"{}","duration_avg":120,"n_vehicles":50,"d":1200,"route_I_counts":"{\"2\": 50}","source":36,"target":37,"layer":"L","from":"袍中路","to":"洋泾湖"},"geometry":{"type":"LineString","coordinates":[[120.607711,30.05225],[120.6232,30.052189]]}},{"type":"Feature","properties":{"shape_id":"{}","direction_id":"{\"1\": 50}","headsign":"{}","duration_avg":120,"n_vehicles":50,"d":1200,"route_I_counts":"{\"2\": 50}","source":37,"target":36,"layer":"L","from":"洋泾湖","to":"袍中路"},"geometry":{"type":"LineString","coordinates":[[120.6232,30.052189],[120.607711,30.05225]]}},{"type":"Feature","properties":{"shape_id":"{}","direction_id":"{\"0\": 50}","headsign":"{}","duration_avg":120,"n_vehicles":50,"d":1200,"route_I_counts":"{\"2\": 50}","source":37,"target":38,"layer":"L","from":"洋泾湖","to":"恂南"},"geometry":{"type":"LineString","coordinates":[[120.6232,30.052189],[120.634511,30.05205]]}},{"type":"Feature","properties":{"shape_id":"{}","direction_id":"{\"1\": 50}","headsign":"{}","duration_avg":120,"n_vehicles":50,"d":1200,"route_I_counts":"{\"2\": 50}","source":38,"target":37,"layer":"L","from":"恂南","to":"洋泾湖"},"geometry":{"type":"LineString","coordinates":[[120.634511,30.05205],[120.6232,30.052189]]}},{"type":"Feature","properties":{"shape_id":"{}","direction_id":"{\"0\": 50}","headsign":"{}","duration_avg":120,"n_vehicles":50,"d":1200,"route_I_counts":"{\"2\": 50}","source":38,"target":39,"layer":"L","from":"恂南","to":"豆姜（兼停车场）"},"geometry":{"type":"LineString","coordinates":[[120.634511,30.05205],[120.645339,30.050539]]}},{"type":"Feature","properties":{"shape_id":"{}","direction_id":"{\"1\": 50}","headsign":"{}","duration_avg":120,"n_vehicles":50,"d":1200,"route_I_counts":"{\"2\": 50}","source":39,"target":38,"layer":"L","from":"豆姜（兼停车场）","to":"恂南"},"geometry":{"type":"LineString","coordinates":[[120.645339,30.050539],[120.634511,30.05205]]}},{"type":"Feature","properties":{"shape_id":"{}","direction_id":"{\"0\": 50}","headsign":"{}","duration_avg":120,"n_vehicles":50,"d":1200,"route_I_counts":"{\"2\": 50}","source":39,"target":40,"layer":"L","from":"豆姜（兼停车场）","to":"檀渎"},"geometry":{"type":"LineString","coordinates":[[120.645339,30.050539],[120.658161,30.047011]]}},{"type":"Feature","properties":{"shape_id":"{}","direction_id":"{\"1\": 50}","headsign":"{}","duration_avg":120,"n_vehicles":50,"d":1200,"route_I_counts":"{\"2\": 50}","source":40,"target":39,"layer":"L","from":"檀渎","to":"豆姜（兼停车场）"},"geometry":{"type":"LineString","coordinates":[[120.658161,30.047011],[120.645339,30.050539]]}}]}