{"type":"FeatureCollection","features":[{"type":"Feature","geometry":{"type":"Point","coordinates":[114.515369,38.090726]},"properties":{"name":"石家庄柳辛庄(地铁站)","original_ids":"[1]","id":0,"layer":"stop"}},{"type":"Feature","geometry":{"type":"Point","coordinates":[114.511777,38.084252]},"properties":{"name":"石家庄庄窠·铁道大学(地铁站)","original_ids":"[2]","id":1,"layer":"stop"}},{"type":"Feature","geometry":{"type":"Point","coordinates":[114.505738,38.072367]},"properties":{"name":"石家庄义堂(地铁站)","original_ids":"[3]","id":2,"layer":"stop"}},{"type":"Feature","geometry":{"type":"Point","coordinates":[114.505711,38.058643]},"properties":{"name":"石家庄建和桥(地铁站)","original_ids":"[4]","id":3,"layer":"stop"}},{"type":"Feature","geometry":{"type":"Point","coordinates":[114.505812,38.04938]},"properties":{"name":"石家庄长安公园(地铁站)","original_ids":"[5]","id":4,"layer":"stop"}},{"type":"Feature","geometry":{"type":"Point","coordinates":[114.505803,38.043197]},"properties":{"name":"石家庄北国商城(地铁站)","original_ids":"[6]","id":5,"layer":"stop"}},{"type":"Feature","geometry":{"type":"Point","coordinates":[114.505956,38.034973]},"properties":{"name":"石家庄裕华路(地铁站)","original_ids":"[7]","id":6,"layer":"stop"}},{"type":"Feature","geometry":{"type":"Point","coordinates":[114.506116,38.02795]},"properties":{"name":"石家庄槐中路(地铁站)","original_ids":"[8]","id":7,"layer":"stop"}},{"type":"Feature","geometry":{"type":"Point","coordinates":[114.504717,38.01852]},"properties":{"name":"石家庄欧韵公园(地铁站)","original_ids":"[9]","id":8,"layer":"stop"}},{"type":"Feature","geometry":{"type":"Point","coordinates":[114.494787,38.014845]},"properties":{"name":"石家庄元村(地铁站)","original_ids":"[10]","id":9,"layer":"stop"}},{"type":"Feature","geometry":{"type":"Point","coordinates":[114.479608,38.009473]},"properties":{"name":"石家庄石家庄站(地铁站)","original_ids":"[11]","id":10,"layer":"stop"}},{"type":"Feature","geometry":{"type":"Point","coordinates":[114.486599,37.999183]},"properties":{"name":"石家庄塔坛(地铁站)","original_ids":"[12]","id":11,"layer":"stop"}},{"type":"Feature","geometry":{"type":"Point","coordinates":[114.488495,37.99116]},"properties":{"name":"石家庄仓丰路留村(地铁站)","original_ids":"[13]","id":12,"layer":"stop"}},{"type":"Feature","geometry":{"type":"Point","coordinates":[114.490419,37.98191]},"properties":{"name":"石家庄南位(地铁站)","original_ids":"[14]","id":13,"layer":"stop"}},{"type":"Feature","geometry":{"type":"Point","coordinates":[114.492305,37.973489]},"properties":{"name":"石家庄嘉华路(地铁站)","original_ids":"[15]","id":14,"layer":"stop"}},{"type":"Feature","geometry":{"type":"Point","coordinates":[114.442025,38.078601]},"properties":{"name":"石家庄西三庄(地铁站)","original_ids":"[16]","id":15,"layer":"stop"}},{"type":"Feature","geometry":{"type":"Point","coordinates":[114.457065,38.078372]},"properties":{"name":"石家庄高柱(地铁站)","original_ids":"[17]","id":16,"layer":"stop"}},{"type":"Feature","geometry":{"type":"Point","coordinates":[114.472367,38.074809]},"properties":{"name":"石家庄柏林庄(地铁站)","original_ids":"[18]","id":17,"layer":"stop"}},{"type":"Feature","geometry":{"type":"Point","coordinates":[114.471305,38.062817]},"properties":{"name":"石家庄市庄(地铁站)","original_ids":"[19]","id":18,"layer":"stop"}},{"type":"Feature","geometry":{"type":"Point","coordinates":[114.471157,38.052008]},"properties":{"name":"石家庄市二中(地铁站)","original_ids":"[20]","id":19,"layer":"stop"}},{"type":"Feature","geometry":{"type":"Point","coordinates":[114.471174,38.042041]},"properties":{"name":"石家庄新百广场(地铁站)","original_ids":"[21]","id":20,"layer":"stop"}},{"type":"Feature","geometry":{"type":"Point","coordinates":[114.471204,38.036083]},"properties":{"name":"石家庄东里(地铁站)","original_ids":"[22]","id":21,"layer":"stop"}},{"type":"Feature","geometry":{"type":"Point","coordinates":[114.471218,38.027069]},"properties":{"name":"石家庄槐安桥(地铁站)","original_ids":"[23]","id":22,"layer":"stop"}},{"type":"Feature","geometry":{"type":"Point","coordinates":[114.471269,38.016065]},"properties":{"name":"石家庄西三教(地铁站)","original_ids":"[24]","id":23,"layer":"stop"}},{"type":"Feature","geometry":{"type":"Point","coordinates":[114.495011,38.009682]},"properties":{"name":"石家庄汇通路(地铁站)","original_ids":"[25]","id":24,"layer":"stop"}},{"type":"Feature","geometry":{"type":"Point","coordinates":[114.506811,38.009479]},"properties":{"name":"石家庄孙村(地铁站)","original_ids":"[26]","id":25,"layer":"stop"}},{"type":"Feature","geometry":{"type":"Point","coordinates":[114.517982,38.009712]},"properties":{"name":"石家庄塔冢(地铁站)","original_ids":"[27]","id":26,"layer":"stop"}},{"type":"Feature","geometry":{"type":"Point","coordinates":[114.528126,38.009902]},"properties":{"name":"石家庄东王(地铁站)","original_ids":"[28]","id":27,"layer":"stop"}},{"type":"Feature","geometry":{"type":"Point","coordinates":[114.540812,38.010158]},"properties":{"name":"石家庄南王(地铁站)","original_ids":"[29]","id":28,"layer":"stop"}},{"type":"Feature","geometry":{"type":"Point","coordinates":[114.557473,38.010541]},"properties":{"name":"石家庄位同(地铁站)","original_ids":"[30]","id":29,"layer":"stop"}},{"type":"Feature","geometry":{"type":"Point","coordinates":[114.572201,38.010862]},"properties":{"name":"石家庄东二环南路(地铁站)","original_ids":"[31]","id":30,"layer":"stop"}},{"type":"Feature","geometry":{"type":"Point","coordinates":[114.588279,38.008035]},"properties":{"name":"石家庄西仰陵(地铁站)","original_ids":"[32]","id":31,"layer":"stop"}},{"type":"Feature","geometry":{"type":"Point","coordinates":[114.6036,38.008258]},"properties":{"name":"石家庄中仰陵(地铁站)","original_ids":"[33]","id":32,"layer":"stop"}},{"type":"Feature","geometry":{"type":"Point","coordinates":[114.614577,38.008447]},"properties":{"name":"石家庄南豆(地铁站)","original_ids":"[34]","id":33,"layer":"stop"}},{"type":"Feature","geometry":{"type":"Point","coordinates":[114.631787,38.008782]},"properties":{"name":"石家庄太行南大街(地铁站)","original_ids":"[35]","id":34,"layer":"stop"}},{"type":"Feature","geometry":{"type":"Point","coordinates":[114.653442,38.007964]},"properties":{"name":"石家庄乐乡(地铁站)","original_ids":"[36]","id":35,"layer":"stop"}},{"type":"Feature","geometry":{"type":"Point","coordinates":[114.4025,38.03917]},"properties":{"name":"西王","original_ids":"[37]","id":36,"layer":"stop"}},{"type":"Feature","geometry":{"type":"Point","coordinates":[114.41472,38.03944]},"properties":{"name":"时光街","original_ids":"[38]","id":37,"layer":"stop"}},{"type":"Feature","geometry":{"type":"Point","coordinates":[114.42722,38.03972]},"properties":{"name":"长城桥","original_ids":"[39]","id":38,"layer":"stop"}},{"type":"Feature","geometry":{"type":"Point","coordinates":[114.43972,38.04]},"properties":{"name":"和平医院","original_ids":"[40]","id":39,"layer":"stop"}},{"type":"Feature","geometry":{"type":"Point","coordinates":[114.46333,38.04056]},"properties":{"name":"烈士陵园","original_ids":"[41]","id":40,"layer":"stop"}},{"type":"Feature","geometry":{"type":"Point","coordinates":[114.471381,38.042531]},"properties":{"name":"新百广场","original_ids":"[42]","id":41,"layer":"stop"}},{"type":"Feature","geometry":{"type":"Point","coordinates":[114.481611,38.042639]},"properties":{"name":"解放广场","original_ids":"[43]","id":42,"layer":"stop"}},{"type":"Feature","geometry":{"type":"Point","coordinates":[114.4955,38.042806]},"properties":{"name":"平安大街","original_ids":"[44]","id":43,"layer":"stop"}},{"type":"Feature","geometry":{"type":"Point","coordinates":[114.516439,38.042231]},"properties":{"name":"博物院","original_ids":"[45]","id":44,"layer":"stop"}},{"type":"Feature","geometry":{"type":"Point","coordinates":[114.52645,38.042439]},"properties":{"name":"体育场","original_ids":"[46]","id":45,"layer":"stop"}},{"type":"Feature","geometry":{"type":"Point","coordinates":[114.5407,38.042989]},"properties":{"name":"北宋","original_ids":"[47]","id":46,"layer":"stop"}},{"type":"Feature","geometry":{"type":"Point","coordinates":[114.557669,38.043361]},"properties":{"name":"谈固","original_ids":"[48]","id":47,"layer":"stop"}},{"type":"Feature","geometry":{"type":"Point","coordinates":[114.571389,38.043631]},"properties":{"name":"朝晖桥","original_ids":"[49]","id":48,"layer":"stop"}},{"type":"Feature","geometry":{"type":"Point","coordinates":[114.581119,38.043789]},"properties":{"name":"白佛","original_ids":"[50]","id":49,"layer":"stop"}},{"type":"Feature","geometry":{"type":"Point","coordinates":[114.602233,38.036956]},"properties":{"name":"留村","original_ids":"[51]","id":50,"layer":"stop"}},{"type":"Feature","geometry":{"type":"Point","coordinates":[114.619389,38.0373]},"properties":{"name":"火炬广场","original_ids":"[52]","id":51,"layer":"stop"}},{"type":"Feature","geometry":{"type":"Point","coordinates":[114.62337,38.049339]},"properties":{"name":"石家庄东站","original_ids":"[53]","id":52,"layer":"stop"}},{"type":"Feature","geometry":{"type":"Point","coordinates":[114.62298,38.05915]},"properties":{"name":"南村","original_ids":"[54]","id":53,"layer":"stop"}},{"type":"Feature","geometry":{"type":"Point","coordinates":[114.6226,38.068789]},"properties":{"name":"洨河大道","original_ids":"[55]","id":54,"layer":"stop"}},{"type":"Feature","geometry":{"type":"Point","coordinates":[114.622461,38.080561]},"properties":{"name":"西庄","original_ids":"[56]","id":55,"layer":"stop"}},{"type":"Feature","geometry":{"type":"Point","coordinates":[114.6214,38.093161]},"properties":{"name":"东庄","original_ids":"[57]","id":56,"layer":"stop"}},{"type":"Feature","geometry":{"type":"Point","coordinates":[114.608469,38.12313]},"properties":{"name":"会展中心","original_ids":"[58]","id":57,"layer":"stop"}},{"type":"Feature","geometry":{"type":"Point","coordinates":[114.614989,38.132411]},"properties":{"name":"商务中心","original_ids":"[59]","id":58,"layer":"stop"}},{"type":"Feature","geometry":{"type":"Point","coordinates":[114.614981,38.143889]},"properties":{"name":"园博园","original_ids":"[60]","id":59,"layer":"stop"}},{"type":"Feature","geometry":{"type":"Point","coordinates":[114.615311,38.153611]},"properties":{"name":"福泽","original_ids":"[61]","id":60,"layer":"stop"}},{"type":"Feature","properties":{"shape_id":"{}","direction_id":"{\"0\": 50}","headsign":"{}","duration_avg":60,"n_vehicles":50,"d":600,"route_I_counts":"{\"1\": 50}","source":0,"target":1,"layer":"L","from":"石家庄柳辛庄(地铁站)","to":"石家庄庄窠·铁道大学(地铁站)"},"geometry":{"type":"LineString","coordinates":[[114.515369,38.090726],[114.511777,38.084252]]}},{"type":"Feature","properties":{"shape_id":"{}","direction_id":"{\"1\": 50}","headsign":"{}","duration_avg":60,"n_vehicles":50,"d":600,"route_I_counts":"{\"1\": 50}","source":1,"target":0,"layer":"L","from":"石家庄庄窠·铁道大学(地铁站)","to":"石家庄柳辛庄(地铁站)"},"geometry":{"type":"LineString","coordinates":[[114.511777,38.084252],[114.515369,38.090726]]}},{"type":"Feature","properties":{"shape_id":"{}","direction_id":"{\"0\": 50}","headsign":"{}","duration_avg":180,"n_vehicles":50,"d":1800,"route_I_counts":"{\"1\": 50}","source":1,"target":2,"layer":"L","from":"石家庄庄窠·铁道大学(地铁站)","to":"石家庄义堂(地铁站)"},"geometry":{"type":"LineString","coordinates":[[114.511777,38.084252],[114.505738,38.072367]]}},{"type":"Feature","properties":{"shape_id":"{}","direction_id":"{\"1\": 50}","headsign":"{}","duration_avg":180,"n_vehicles":50,"d":1800,"route_I_counts":"{\"1\": 50}","source":2,"target":1,"layer":"L","from":"石家庄义堂(地铁站)","to":"石家庄庄窠·铁道大学(地铁站)"},"geometry":{"type":"LineString","coordinates":[[114.505738,38.072367],[114.511777,38.084252]]}},{"type":"Feature","properties":{"shape_id":"{}","direction_id":"{\"0\": 50}","headsign":"{}","duration_avg":180,"n_vehicles":50,"d":1800,"route_I_counts":"{\"1\": 50}","source":2,"target":3,"layer":"L","from":"石家庄义堂(地铁站)","to":"石家庄建和桥(地铁站)"},"geometry":{"type":"LineString","coordinates":[[114.505738,38.072367],[114.505711,38.058643]]}},{"type":"Feature","properties":{"shape_id":"{}","direction_id":"{\"1\": 50}","headsign":"{}","duration_avg":180,"n_vehicles":50,"d":1800,"route_I_counts":"{\"1\": 50}","source":3,"target":2,"layer":"L","from":"石家庄建和桥(地铁站)","to":"石家庄义堂(地铁站)"},"geometry":{"type":"LineString","coordinates":[[114.505711,38.058643],[114.505738,38.072367]]}},{"type":"Feature","properties":{"shape_id":"{}","direction_id":"{\"0\": 50}","headsign":"{}","duration_avg":120,"n_vehicles":50,"d":1200,"route_I_counts":"{\"1\": 50}","source":3,"target":4,"layer":"L","from":"石家庄建和桥(地铁站)","to":"石家庄长安公园(地铁站)"},"geometry":{"type":"LineString","coordinates":[[114.505711,38.058643],[114.505812,38.04938]]}},{"type":"Feature","properties":{"shape_id":"{}","direction_id":"{\"1\": 50}","headsign":"{}","duration_avg":120,"n_vehicles":50,"d":1200,"route_I_counts":"{\"1\": 50}","source":4,"target":3,"layer":"L","from":"石家庄长安公园(地铁站)","to":"石家庄建和桥(地铁站)"},"geometry":{"type":"LineString","coordinates":[[114.505812,38.04938],[114.505711,38.058643]]}},{"type":"Feature","properties":{"shape_id":"{}","direction_id":"{\"0\": 50}","headsign":"{}","duration_avg":60,"n_vehicles":50,"d":600,"route_I_counts":"{\"1\": 50}","source":4,"target":5,"layer":"L","from":"石家庄长安公园(地铁站)","to":"石家庄北国商城(地铁站)"},"geometry":{"type":"LineString","coordinates":[[114.505812,38.04938],[114.505803,38.043197]]}},{"type":"Feature","properties":{"shape_id":"{}","direction_id":"{\"1\": 50}","headsign":"{}","duration_avg":60,"n_vehicles":50,"d":600,"route_I_counts":"{\"1\": 50}","source":5,"target":4,"layer":"L","from":"石家庄北国商城(地铁站)","to":"石家庄长安公园(地铁站)"},"geometry":{"type":"LineString","coordinates":[[114.505803,38.043197],[114.505812,38.04938]]}},{"type":"Feature","properties":{"shape_id":"{}","direction_id":"{\"0\": 50}","headsign":"{}","duration_avg":120,"n_vehicles":50,"d":1200,"route_I_counts":"{\"1\": 50}","source":5,"target":6,"layer":"L","from":"石家庄北国商城(地铁站)","to":"石家庄裕华路(地铁站)"},"geometry":{"type":"LineString","coordinates":[[114.505803,38.043197],[114.505956,38.034973]]}},{"type":"Feature","properties":{"shape_id":"{}","direction_id":"{\"1\": 50}","headsign":"{}","duration_avg":120,"n_vehicles":50,"d":1200,"route_I_counts":"{\"1\": 50}","source":6,"target":5,"layer":"L","from":"石家庄裕华路(地铁站)","to":"石家庄北国商城(地铁站)"},"geometry":{"type":"LineString","coordinates":[[114.505956,38.034973],[114.505803,38.043197]]}},{"type":"Feature","properties":{"shape_id":"{}","direction_id":"{\"0\": 50}","headsign":"{}","duration_avg":120,"n_vehicles":50,"d":1200,"route_I_counts":"{\"1\": 50}","source":6,"target":7,"layer":"L","from":"石家庄裕华路(地铁站)","to":"石家庄槐中路(地铁站)"},"geometry":{"type":"LineString","coordinates":[[114.505956,38.034973],[114.506116,38.02795]]}},{"type":"Feature","properties":{"shape_id":"{}","direction_id":"{\"1\": 50}","headsign":"{}","duration_avg":120,"n_vehicles":50,"d":1200,"route_I_counts":"{\"1\": 50}","source":7,"target":6,"layer":"L","from":"石家庄槐中路(地铁站)","to":"石家庄裕华路(地铁站)"},"geometry":{"type":"LineString","coordinates":[[114.506116,38.02795],[114.505956,38.034973]]}},{"type":"Feature","properties":{"shape_id":"{}","direction_id":"{\"0\": 50}","headsign":"{}","duration_avg":120,"n_vehicles":50,"d":1200,"route_I_counts":"{\"1\": 50}","source":7,"target":8,"layer":"L","from":"石家庄槐中路(地铁站)","to":"石家庄欧韵公园(地铁站)"},"geometry":{"type":"LineString","coordinates":[[114.506116,38.02795],[114.504717,38.01852]]}},{"type":"Feature","properties":{"shape_id":"{}","direction_id":"{\"1\": 50}","headsign":"{}","duration_avg":120,"n_vehicles":50,"d":1200,"route_I_counts":"{\"1\": 50}","source":8,"target":7,"layer":"L","from":"石家庄欧韵公园(地铁站)","to":"石家庄槐中路(地铁站)"},"geometry":{"type":"LineString","coordinates":[[114.504717,38.01852],[114.506116,38.02795]]}},{"type":"Feature","properties":{"shape_id":"{}","direction_id":"{\"0\": 50}","headsign":"{}","duration_avg":180,"n_vehicles":50,"d":1800,"route_I_counts":"{\"1\": 50}","source":8,"target":9,"layer":"L","from":"石家庄欧韵公园(地铁站)","to":"石家庄元村(地铁站)"},"geometry":{"type":"LineString","coordinates":[[114.504717,38.01852],[114.494787,38.014845]]}},{"type":"Feature","properties":{"shape_id":"{}","direction_id":"{\"1\": 50}","headsign":"{}","duration_avg":180,"n_vehicles":50,"d":1800,"route_I_counts":"{\"1\": 50}","source":9,"target":8,"layer":"L","from":"石家庄元村(地铁站)","to":"石家庄欧韵公园(地铁站)"},"geometry":{"type":"LineString","coordinates":[[114.494787,38.014845],[114.504717,38.01852]]}},{"type":"Feature","properties":{"shape_id":"{}","direction_id":"{\"0\": 50}","headsign":"{}","duration_avg":120,"n_vehicles":50,"d":1200,"route_I_counts":"{\"1\": 50}","source":9,"target":10,"layer":"L","from":"石家庄元村(地铁站)","to":"石家庄石家庄站(地铁站)"},"geometry":{"type":"LineString","coordinates":[[114.494787,38.014845],[114.479608,38.009473]]}},{"type":"Feature","properties":{"shape_id":"{}","direction_id":"{\"1\": 50}","headsign":"{}","duration_avg":120,"n_vehicles":50,"d":1200,"route_I_counts":"{\"1\": 50}","source":10,"target":9,"layer":"L","from":"石家庄石家庄站(地铁站)","to":"石家庄元村(地铁站)"},"geometry":{"type":"LineString","coordinates":[[114.479608,38.009473],[114.494787,38.014845]]}},{"type":"Feature","properties":{"shape_id":"{}","direction_id":"{\"0\": 50}","headsign":"{}","duration_avg":180,"n_vehicles":50,"d":1800,"route_I_counts":"{\"1\": 50}","source":10,"target":11,"layer":"L","from":"石家庄石家庄站(地铁站)","to":"石家庄塔坛(地铁站)"},"geometry":{"type":"LineString","coordinates":[[114.479608,38.009473],[114.486599,37.999183]]}},{"type":"Feature","properties":{"shape_id":"{}","direction_id":"{\"1\": 50}","headsign":"{}","duration_avg":180,"n_vehicles":50,"d":1800,"route_I_counts":"{\"1\": 50}","source":11,"target":10,"layer":"L","from":"石家庄塔坛(地铁站)","to":"石家庄石家庄站(地铁站)"},"geometry":{"type":"LineString","coordinates":[[114.486599,37.999183],[114.479608,38.009473]]}},{"type":"Feature","properties":{"shape_id":"{}","direction_id":"{\"0\": 50}","headsign":"{}","duration_avg":120,"n_vehicles":50,"d":1200,"route_I_counts":"{\"1\": 50}","source":11,"target":12,"layer":"L","from":"石家庄塔坛(地铁站)","to":"石家庄仓丰路留村(地铁站)"},"geometry":{"type":"LineString","coordinates":[[114.486599,37.999183],[114.488495,37.99116]]}},{"type":"Feature","properties":{"shape_id":"{}","direction_id":"{\"1\": 50}","headsign":"{}","duration_avg":120,"n_vehicles":50,"d":1200,"route_I_counts":"{\"1\": 50}","source":12,"target":11,"layer":"L","from":"石家庄仓丰路留村(地铁站)","to":"石家庄塔坛(地铁站)"},"geometry":{"type":"LineString","coordinates":[[114.488495,37.99116],[114.486599,37.999183]]}},{"type":"Feature","properties":{"shape_id":"{}","direction_id":"{\"0\": 50}","headsign":"{}","duration_avg":120,"n_vehicles":50,"d":1200,"route_I_counts":"{\"1\": 50}","source":12,"target":13,"layer":"L","from":"石家庄仓丰路留村(地铁站)","to":"石家庄南位(地铁站)"},"geometry":{"type":"LineString","coordinates":[[114.488495,37.99116],[114.490419,37.98191]]}},{"type":"Feature","properties":{"shape_id":"{}","direction_id":"{\"1\": 50}","headsign":"{}","duration_avg":120,"n_vehicles":50,"d":1200,"route_I_counts":"{\"1\": 50}","source":13,"target":12,"layer":"L","from":"石家庄南位(地铁站)","to":"石家庄仓丰路留村(地铁站)"},"geometry":{"type":"LineString","coordinates":[[114.490419,37.98191],[114.488495,37.99116]]}},{"type":"Feature","properties":{"shape_id":"{}","direction_id":"{\"0\": 50}","headsign":"{}","duration_avg":60,"n_vehicles":50,"d":600,"route_I_counts":"{\"1\": 50}","source":13,"target":14,"layer":"L","from":"石家庄南位(地铁站)","to":"石家庄嘉华路(地铁站)"},"geometry":{"type":"LineString","coordinates":[[114.490419,37.98191],[114.492305,37.973489]]}},{"type":"Feature","properties":{"shape_id":"{}","direction_id":"{\"1\": 50}","headsign":"{}","duration_avg":60,"n_vehicles":50,"d":600,"route_I_counts":"{\"1\": 50}","source":14,"target":13,"layer":"L","from":"石家庄嘉华路(地铁站)","to":"石家庄南位(地铁站)"},"geometry":{"type":"LineString","coordinates":[[114.492305,37.973489],[114.490419,37.98191]]}},{"type":"Feature","properties":{"shape_id":"{}","direction_id":"{\"0\": 50}","headsign":"{}","duration_avg":120,"n_vehicles":50,"d":1200,"route_I_counts":"{\"2\": 50}","source":15,"target":16,"layer":"L","from":"石家庄西三庄(地铁站)","to":"石家庄高柱(地铁站)"},"geometry":{"type":"LineString","coordinates":[[114.442025,38.078601],[114.457065,38.078372]]}},{"type":"Feature","properties":{"shape_id":"{}","direction_id":"{\"1\": 50}","headsign":"{}","duration_avg":120,"n_vehicles":50,"d":1200,"route_I_counts":"{\"2\": 50}","source":16,"target":15,"layer":"L","from":"石家庄高柱(地铁站)","to":"石家庄西三庄(地铁站)"},"geometry":{"type":"LineString","coordinates":[[114.457065,38.078372],[114.442025,38.078601]]}},{"type":"Feature","properties":{"shape_id":"{}","direction_id":"{\"0\": 50}","headsign":"{}","duration_avg":180,"n_vehicles":50,"d":1800,"route_I_counts":"{\"2\": 50}","source":16,"target":17,"layer":"L","from":"石家庄高柱(地铁站)","to":"石家庄柏林庄(地铁站)"},"geometry":{"type":"LineString","coordinates":[[114.457065,38.078372],[114.472367,38.074809]]}},{"type":"Feature","properties":{"shape_id":"{}","direction_id":"{\"1\": 50}","headsign":"{}","duration_avg":180,"n_vehicles":50,"d":1800,"route_I_counts":"{\"2\": 50}","source":17,"target":16,"layer":"L","from":"石家庄柏林庄(地铁站)","to":"石家庄高柱(地铁站)"},"geometry":{"type":"LineString","coordinates":[[114.472367,38.074809],[114.457065,38.078372]]}},{"type":"Feature","properties":{"shape_id":"{}","direction_id":"{\"0\": 50}","headsign":"{}","duration_avg":120,"n_vehicles":50,"d":1200,"route_I_counts":"{\"2\": 50}","source":17,"target":18,"layer":"L","from":"石家庄柏林庄(地铁站)","to":"石家庄市庄(地铁站)"},"geometry":{"type":"LineString","coordinates":[[114.472367,38.074809],[114.471305,38.062817]]}},{"type":"Feature","properties":{"shape_id":"{}","direction_id":"{\"1\": 50}","headsign":"{}","duration_avg":120,"n_vehicles":50,"d":1200,"route_I_counts":"{\"2\": 50}","source":18,"target":17,"layer":"L","from":"石家庄市庄(地铁站)","to":"石家庄柏林庄(地铁站)"},"geometry":{"type":"LineString","coordinates":[[114.471305,38.062817],[114.472367,38.074809]]}},{"type":"Feature","properties":{"shape_id":"{}","direction_id":"{\"0\": 50}","headsign":"{}","duration_avg":120,"n_vehicles":50,"d":1200,"route_I_counts":"{\"2\": 50}","source":18,"target":19,"layer":"L","from":"石家庄市庄(地铁站)","to":"石家庄市二中(地铁站)"},"geometry":{"type":"LineString","coordinates":[[114.471305,38.062817],[114.471157,38.052008]]}},{"type":"Feature","properties":{"shape_id":"{}","direction_id":"{\"1\": 50}","headsign":"{}","duration_avg":120,"n_vehicles":50,"d":1200,"route_I_counts":"{\"2\": 50}","source":19,"target":18,"layer":"L","from":"石家庄市二中(地铁站)","to":"石家庄市庄(地铁站)"},"geometry":{"type":"LineString","coordinates":[[114.471157,38.052008],[114.471305,38.062817]]}},{"type":"Feature","properties":{"shape_id":"{}","direction_id":"{\"0\": 50}","headsign":"{}","duration_avg":120,"n_vehicles":50,"d":1200,"route_I_counts":"{\"2\": 50}","source":19,"target":20,"layer":"L","from":"石家庄市二中(地铁站)","to":"石家庄新百广场(地铁站)"},"geometry":{"type":"LineString","coordinates":[[114.471157,38.052008],[114.471174,38.042041]]}},{"type":"Feature","properties":{"shape_id":"{}","direction_id":"{\"1\": 50}","headsign":"{}","duration_avg":120,"n_vehicles":50,"d":1200,"route_I_counts":"{\"2\": 50}","source":20,"target":19,"layer":"L","from":"石家庄新百广场(地铁站)","to":"石家庄市二中(地铁站)"},"geometry":{"type":"LineString","coordinates":[[114.471174,38.042041],[114.471157,38.052008]]}},{"type":"Feature","properties":{"shape_id":"{}","direction_id":"{\"0\": 50}","headsign":"{}","duration_avg":120,"n_vehicles":50,"d":1200,"route_I_counts":"{\"2\": 50}","source":20,"target":21,"layer":"L","from":"石家庄新百广场(地铁站)","to":"石家庄东里(地铁站)"},"geometry":{"type":"LineString","coordinates":[[114.471174,38.042041],[114.471204,38.036083]]}},{"type":"Feature","properties":{"shape_id":"{}","direction_id":"{\"1\": 50}","headsign":"{}","duration_avg":120,"n_vehicles":50,"d":1200,"route_I_counts":"{\"2\": 50}","source":21,"target":20,"layer":"L","from":"石家庄东里(地铁站)","to":"石家庄新百广场(地铁站)"},"geometry":{"type":"LineString","coordinates":[[114.471204,38.036083],[114.471174,38.042041]]}},{"type":"Feature","properties":{"shape_id":"{}","direction_id":"{\"0\": 50}","headsign":"{}","duration_avg":120,"n_vehicles":50,"d":1200,"route_I_counts":"{\"2\": 50}","source":21,"target":22,"layer":"L","from":"石家庄东里(地铁站)","to":"石家庄槐安桥(地铁站)"},"geometry":{"type":"LineString","coordinates":[[114.471204,38.036083],[114.471218,38.027069]]}},{"type":"Feature","properties":{"shape_id":"{}","direction_id":"{\"1\": 50}","headsign":"{}","duration_avg":120,"n_vehicles":50,"d":1200,"route_I_counts":"{\"2\": 50}","source":22,"target":21,"layer":"L","from":"石家庄槐安桥(地铁站)","to":"石家庄东里(地铁站)"},"geometry":{"type":"LineString","coordinates":[[114.471218,38.027069],[114.471204,38.036083]]}},{"type":"Feature","properties":{"shape_id":"{}","direction_id":"{\"0\": 50}","headsign":"{}","duration_avg":120,"n_vehicles":50,"d":1200,"route_I_counts":"{\"2\": 50}","source":22,"target":23,"layer":"L","from":"石家庄槐安桥(地铁站)","to":"石家庄西三教(地铁站)"},"geometry":{"type":"LineString","coordinates":[[114.471218,38.027069],[114.471269,38.016065]]}},{"type":"Feature","properties":{"shape_id":"{}","direction_id":"{\"1\": 50}","headsign":"{}","duration_avg":120,"n_vehicles":50,"d":1200,"route_I_counts":"{\"2\": 50}","source":23,"target":22,"layer":"L","from":"石家庄西三教(地铁站)","to":"石家庄槐安桥(地铁站)"},"geometry":{"type":"LineString","coordinates":[[114.471269,38.016065],[114.471218,38.027069]]}},{"type":"Feature","properties":{"shape_id":"{}","direction_id":"{\"0\": 50}","headsign":"{}","duration_avg":180,"n_vehicles":50,"d":1800,"route_I_counts":"{\"2\": 50}","source":23,"target":10,"layer":"L","from":"石家庄西三教(地铁站)","to":"石家庄石家庄站(地铁站)"},"geometry":{"type":"LineString","coordinates":[[114.471269,38.016065],[114.479608,38.009473]]}},{"type":"Feature","properties":{"shape_id":"{}","direction_id":"{\"1\": 50}","headsign":"{}","duration_avg":180,"n_vehicles":50,"d":1800,"route_I_counts":"{\"2\": 50}","source":10,"target":23,"layer":"L","from":"石家庄石家庄站(地铁站)","to":"石家庄西三教(地铁站)"},"geometry":{"type":"LineString","coordinates":[[114.479608,38.009473],[114.471269,38.016065]]}},{"type":"Feature","properties":{"shape_id":"{}","direction_id":"{\"0\": 50}","headsign":"{}","duration_avg":120,"n_vehicles":50,"d":1200,"route_I_counts":"{\"2\": 50}","source":10,"target":24,"layer":"L","from":"石家庄石家庄站(地铁站)","to":"石家庄汇通路(地铁站)"},"geometry":{"type":"LineString","coordinates":[[114.479608,38.009473],[114.495011,38.009682]]}},{"type":"Feature","properties":{"shape_id":"{}","direction_id":"{\"1\": 50}","headsign":"{}","duration_avg":120,"n_vehicles":50,"d":1200,"route_I_counts":"{\"2\": 50}","source":24,"target":10,"layer":"L","from":"石家庄汇通路(地铁站)","to":"石家庄石家庄站(地铁站)"},"geometry":{"type":"LineString","coordinates":[[114.495011,38.009682],[114.479608,38.009473]]}},{"type":"Feature","properties":{"shape_id":"{}","direction_id":"{\"0\": 50}","headsign":"{}","duration_avg":120,"n_vehicles":50,"d":1200,"route_I_counts":"{\"2\": 50}","source":24,"target":25,"layer":"L","from":"石家庄汇通路(地铁站)","to":"石家庄孙村(地铁站)"},"geometry":{"type":"LineString","coordinates":[[114.495011,38.009682],[114.506811,38.009479]]}},{"type":"Feature","properties":{"shape_id":"{}","direction_id":"{\"1\": 50}","headsign":"{}","duration_avg":120,"n_vehicles":50,"d":1200,"route_I_counts":"{\"2\": 50}","source":25,"target":24,"layer":"L","from":"石家庄孙村(地铁站)","to":"石家庄汇通路(地铁站)"},"geometry":{"type":"LineString","coordinates":[[114.506811,38.009479],[114.495011,38.009682]]}},{"type":"Feature","properties":{"shape_id":"{}","direction_id":"{\"0\": 50}","headsign":"{}","duration_avg":120,"n_vehicles":50,"d":1200,"route_I_counts":"{\"2\": 50}","source":25,"target":26,"layer":"L","from":"石家庄孙村(地铁站)","to":"石家庄塔冢(地铁站)"},"geometry":{"type":"LineString","coordinates":[[114.506811,38.009479],[114.517982,38.009712]]}},{"type":"Feature","properties":{"shape_id":"{}","direction_id":"{\"1\": 50}","headsign":"{}","duration_avg":120,"n_vehicles":50,"d":1200,"route_I_counts":"{\"2\": 50}","source":26,"target":25,"layer":"L","from":"石家庄塔冢(地铁站)","to":"石家庄孙村(地铁站)"},"geometry":{"type":"LineString","coordinates":[[114.517982,38.009712],[114.506811,38.009479]]}},{"type":"Feature","properties":{"shape_id":"{}","direction_id":"{\"0\": 50}","headsign":"{}","duration_avg":120,"n_vehicles":50,"d":1200,"route_I_counts":"{\"2\": 50}","source":26,"target":27,"layer":"L","from":"石家庄塔冢(地铁站)","to":"石家庄东王(地铁站)"},"geometry":{"type":"LineString","coordinates":[[114.517982,38.009712],[114.528126,38.009902]]}},{"type":"Feature","properties":{"shape_id":"{}","direction_id":"{\"1\": 50}","headsign":"{}","duration_avg":120,"n_vehicles":50,"d":1200,"route_I_counts":"{\"2\": 50}","source":27,"target":26,"layer":"L","from":"石家庄东王(地铁站)","to":"石家庄塔冢(地铁站)"},"geometry":{"type":"LineString","coordinates":[[114.528126,38.009902],[114.517982,38.009712]]}},{"type":"Feature","properties":{"shape_id":"{}","direction_id":"{\"0\": 50}","headsign":"{}","duration_avg":120,"n_vehicles":50,"d":1200,"route_I_counts":"{\"2\": 50}","source":27,"target":28,"layer":"L","from":"石家庄东王(地铁站)","to":"石家庄南王(地铁站)"},"geometry":{"type":"LineString","coordinates":[[114.528126,38.009902],[114.540812,38.010158]]}},{"type":"Feature","properties":{"shape_id":"{}","direction_id":"{\"1\": 50}","headsign":"{}","duration_avg":120,"n_vehicles":50,"d":1200,"route_I_counts":"{\"2\": 50}","source":28,"target":27,"layer":"L","from":"石家庄南王(地铁站)","to":"石家庄东王(地铁站)"},"geometry":{"type":"LineString","coordinates":[[114.540812,38.010158],[114.528126,38.009902]]}},{"type":"Feature","properties":{"shape_id":"{}","direction_id":"{\"0\": 50}","headsign":"{}","duration_avg":180,"n_vehicles":50,"d":1800,"route_I_counts":"{\"2\": 50}","source":28,"target":29,"layer":"L","from":"石家庄南王(地铁站)","to":"石家庄位同(地铁站)"},"geometry":{"type":"LineString","coordinates":[[114.540812,38.010158],[114.557473,38.010541]]}},{"type":"Feature","properties":{"shape_id":"{}","direction_id":"{\"1\": 50}","headsign":"{}","duration_avg":180,"n_vehicles":50,"d":1800,"route_I_counts":"{\"2\": 50}","source":29,"target":28,"layer":"L","from":"石家庄位同(地铁站)","to":"石家庄南王(地铁站)"},"geometry":{"type":"LineString","coordinates":[[114.557473,38.010541],[114.540812,38.010158]]}},{"type":"Feature","properties":{"shape_id":"{}","direction_id":"{\"0\": 50}","headsign":"{}","duration_avg":120,"n_vehicles":50,"d":1200,"route_I_counts":"{\"2\": 50}","source":29,"target":30,"layer":"L","from":"石家庄位同(地铁站)","to":"石家庄东二环南路(地铁站)"},"geometry":{"type":"LineString","coordinates":[[114.557473,38.010541],[114.572201,38.010862]]}},{"type":"Feature","properties":{"shape_id":"{}","direction_id":"{\"1\": 50}","headsign":"{}","duration_avg":120,"n_vehicles":50,"d":1200,"route_I_counts":"{\"2\": 50}","source":30,"target":29,"layer":"L","from":"石家庄东二环南路(地铁站)","to":"石家庄位同(地铁站)"},"geometry":{"type":"LineString","coordinates":[[114.572201,38.010862],[114.557473,38.010541]]}},{"type":"Feature","properties":{"shape_id":"{}","direction_id":"{\"0\": 50}","headsign":"{}","duration_avg":120,"n_vehicles":50,"d":1200,"route_I_counts":"{\"2\": 50}","source":30,"target":31,"layer":"L","from":"石家庄东二环南路(地铁站)","to":"石家庄西仰陵(地铁站)"},"geometry":{"type":"LineString","coordinates":[[114.572201,38.010862],[114.588279,38.008035]]}},{"type":"Feature","properties":{"shape_id":"{}","direction_id":"{\"1\": 50}","headsign":"{}","duration_avg":120,"n_vehicles":50,"d":1200,"route_I_counts":"{\"2\": 50}","source":31,"target":30,"layer":"L","from":"石家庄西仰陵(地铁站)","to":"石家庄东二环南路(地铁站)"},"geometry":{"type":"LineString","coordinates":[[114.588279,38.008035],[114.572201,38.010862]]}},{"type":"Feature","properties":{"shape_id":"{}","direction_id":"{\"0\": 50}","headsign":"{}","duration_avg":180,"n_vehicles":50,"d":1800,"route_I_counts":"{\"2\": 50}","source":31,"target":32,"layer":"L","from":"石家庄西仰陵(地铁站)","to":"石家庄中仰陵(地铁站)"},"geometry":{"type":"LineString","coordinates":[[114.588279,38.008035],[114.6036,38.008258]]}},{"type":"Feature","properties":{"shape_id":"{}","direction_id":"{\"1\": 50}","headsign":"{}","duration_avg":180,"n_vehicles":50,"d":1800,"route_I_counts":"{\"2\": 50}","source":32,"target":31,"layer":"L","from":"石家庄中仰陵(地铁站)","to":"石家庄西仰陵(地铁站)"},"geometry":{"type":"LineString","coordinates":[[114.6036,38.008258],[114.588279,38.008035]]}},{"type":"Feature","properties":{"shape_id":"{}","direction_id":"{\"0\": 50}","headsign":"{}","duration_avg":120,"n_vehicles":50,"d":1200,"route_I_counts":"{\"2\": 50}","source":32,"target":33,"layer":"L","from":"石家庄中仰陵(地铁站)","to":"石家庄南豆(地铁站)"},"geometry":{"type":"LineString","coordinates":[[114.6036,38.008258],[114.614577,38.008447]]}},{"type":"Feature","properties":{"shape_id":"{}","direction_id":"{\"1\": 50}","headsign":"{}","duration_avg":120,"n_vehicles":50,"d":1200,"route_I_counts":"{\"2\": 50}","source":33,"target":32,"layer":"L","from":"石家庄南豆(地铁站)","to":"石家庄中仰陵(地铁站)"},"geometry":{"type":"LineString","coordinates":[[114.614577,38.008447],[114.6036,38.008258]]}},{"type":"Feature","properties":{"shape_id":"{}","direction_id":"{\"0\": 50}","headsign":"{}","duration_avg":120,"n_vehicles":50,"d":1200,"route_I_counts":"{\"2\": 50}","source":33,"target":34,"layer":"L","from":"石家庄南豆(地铁站)","to":"石家庄太行南大街(地铁站)"},"geometry":{"type":"LineString","coordinates":[[114.614577,38.008447],[114.631787,38.008782]]}},{"type":"Feature","properties":{"shape_id":"{}","direction_id":"{\"1\": 50}","headsign":"{}","duration_avg":120,"n_vehicles":50,"d":1200,"route_I_counts":"{\"2\": 50}","source":34,"target":33,"layer":"L","from":"石家庄太行南大街(地铁站)","to":"石家庄南豆(地铁站)"},"geometry":{"type":"LineString","coordinates":[[114.631787,38.008782],[114.614577,38.008447]]}},{"type":"Feature","properties":{"shape_id":"{}","direction_id":"{\"0\": 50}","headsign":"{}","duration_avg":120,"n_vehicles":50,"d":1200,"route_I_counts":"{\"2\": 50}","source":34,"target":35,"layer":"L","from":"石家庄太行南大街(地铁站)","to":"石家庄乐乡(地铁站)"},"geometry":{"type":"LineString","coordinates":[[114.631787,38.008782],[114.653442,38.007964]]}},{"type":"Feature","properties":{"shape_id":"{}","direction_id":"{\"1\": 50}","headsign":"{}","duration_avg":120,"n_vehicles":50,"d":1200,"route_I_counts":"{\"2\": 50}","source":35,"target":34,"layer":"L","from":"石家庄乐乡(地铁站)","to":"石家庄太行南大街(地铁站)"},"geometry":{"type":"LineString","coordinates":[[114.653442,38.007964],[114.631787,38.008782]]}},{"type":"Feature","properties":{"shape_id":"{}","direction_id":"{\"0\": 50}","headsign":"{}","duration_avg":120,"n_vehicles":50,"d":1200,"route_I_counts":"{\"3\": 50}","source":36,"target":37,"layer":"L","from":"西王","to":"时光街"},"geometry":{"type":"LineString","coordinates":[[114.4025,38.03917],[114.41472,38.03944]]}},{"type":"Feature","properties":{"shape_id":"{}","direction_id":"{\"1\": 50}","headsign":"{}","duration_avg":120,"n_vehicles":50,"d":1200,"route_I_counts":"{\"3\": 50}","source":37,"target":36,"layer":"L","from":"时光街","to":"西王"},"geometry":{"type":"LineString","coordinates":[[114.41472,38.03944],[114.4025,38.03917]]}},{"type":"Feature","properties":{"shape_id":"{}","direction_id":"{\"0\": 50}","headsign":"{}","duration_avg":120,"n_vehicles":50,"d":1200,"route_I_counts":"{\"3\": 50}","source":37,"target":38,"layer":"L","from":"时光街","to":"长城桥"},"geometry":{"type":"LineString","coordinates":[[114.41472,38.03944],[114.42722,38.03972]]}},{"type":"Feature","properties":{"shape_id":"{}","direction_id":"{\"1\": 50}","headsign":"{}","duration_avg":120,"n_vehicles":50,"d":1200,"route_I_counts":"{\"3\": 50}","source":38,"target":37,"layer":"L","from":"长城桥","to":"时光街"},"geometry":{"type":"LineString","coordinates":[[114.42722,38.03972],[114.41472,38.03944]]}},{"type":"Feature","properties":{"shape_id":"{}","direction_id":"{\"0\": 50}","headsign":"{}","duration_avg":120,"n_vehicles":50,"d":1200,"route_I_counts":"{\"3\": 50}","source":38,"target":39,"layer":"L","from":"长城桥","to":"和平医院"},"geometry":{"type":"LineString","coordinates":[[114.42722,38.03972],[114.43972,38.04]]}},{"type":"Feature","properties":{"shape_id":"{}","direction_id":"{\"1\": 50}","headsign":"{}","duration_avg":120,"n_vehicles":50,"d":1200,"route_I_counts":"{\"3\": 50}","source":39,"target":38,"layer":"L","from":"和平医院","to":"长城桥"},"geometry":{"type":"LineString","coordinates":[[114.43972,38.04],[114.42722,38.03972]]}},{"type":"Feature","properties":{"shape_id":"{}","direction_id":"{\"0\": 50}","headsign":"{}","duration_avg":120,"n_vehicles":50,"d":1200,"route_I_counts":"{\"3\": 50}","source":39,"target":40,"layer":"L","from":"和平医院","to":"烈士陵园"},"geometry":{"type":"LineString","coordinates":[[114.43972,38.04],[114.46333,38.04056]]}},{"type":"Feature","properties":{"shape_id":"{}","direction_id":"{\"1\": 50}","headsign":"{}","duration_avg":120,"n_vehicles":50,"d":1200,"route_I_counts":"{\"3\": 50}","source":40,"target":39,"layer":"L","from":"烈士陵园","to":"和平医院"},"geometry":{"type":"LineString","coordinates":[[114.46333,38.04056],[114.43972,38.04]]}},{"type":"Feature","properties":{"shape_id":"{}","direction_id":"{\"0\": 50}","headsign":"{}","duration_avg":180,"n_vehicles":50,"d":1800,"route_I_counts":"{\"3\": 50}","source":40,"target":41,"layer":"L","from":"烈士陵园","to":"新百广场"},"geometry":{"type":"LineString","coordinates":[[114.46333,38.04056],[114.471381,38.042531]]}},{"type":"Feature","properties":{"shape_id":"{}","direction_id":"{\"1\": 50}","headsign":"{}","duration_avg":180,"n_vehicles":50,"d":1800,"route_I_counts":"{\"3\": 50}","source":41,"target":40,"layer":"L","from":"新百广场","to":"烈士陵园"},"geometry":{"type":"LineString","coordinates":[[114.471381,38.042531],[114.46333,38.04056]]}},{"type":"Feature","properties":{"shape_id":"{}","direction_id":"{\"0\": 50}","headsign":"{}","duration_avg":120,"n_vehicles":50,"d":1200,"route_I_counts":"{\"3\": 50}","source":41,"target":42,"layer":"L","from":"新百广场","to":"解放广场"},"geometry":{"type":"LineString","coordinates":[[114.471381,38.042531],[114.481611,38.042639]]}},{"type":"Feature","properties":{"shape_id":"{}","direction_id":"{\"1\": 50}","headsign":"{}","duration_avg":120,"n_vehicles":50,"d":1200,"route_I_counts":"{\"3\": 50}","source":42,"target":41,"layer":"L","from":"解放广场","to":"新百广场"},"geometry":{"type":"LineString","coordinates":[[114.481611,38.042639],[114.471381,38.042531]]}},{"type":"Feature","properties":{"shape_id":"{}","direction_id":"{\"0\": 50}","headsign":"{}","duration_avg":120,"n_vehicles":50,"d":1200,"route_I_counts":"{\"3\": 50}","source":42,"target":43,"layer":"L","from":"解放广场","to":"平安大街"},"geometry":{"type":"LineString","coordinates":[[114.481611,38.042639],[114.4955,38.042806]]}},{"type":"Feature","properties":{"shape_id":"{}","direction_id":"{\"1\": 50}","headsign":"{}","duration_avg":120,"n_vehicles":50,"d":1200,"route_I_counts":"{\"3\": 50}","source":43,"target":42,"layer":"L","from":"平安大街","to":"解放广场"},"geometry":{"type":"LineString","coordinates":[[114.4955,38.042806],[114.481611,38.042639]]}},{"type":"Feature","properties":{"shape_id":"{}","direction_id":"{\"0\": 50}","headsign":"{}","duration_avg":120,"n_vehicles":50,"d":1200,"route_I_counts":"{\"3\": 50}","source":43,"target":5,"layer":"L","from":"平安大街","to":"石家庄北国商城(地铁站)"},"geometry":{"type":"LineString","coordinates":[[114.4955,38.042806],[114.505803,38.043197]]}},{"type":"Feature","properties":{"shape_id":"{}","direction_id":"{\"1\": 50}","headsign":"{}","duration_avg":120,"n_vehicles":50,"d":1200,"route_I_counts":"{\"3\": 50}","source":5,"target":43,"layer":"L","from":"石家庄北国商城(地铁站)","to":"平安大街"},"geometry":{"type":"LineString","coordinates":[[114.505803,38.043197],[114.4955,38.042806]]}},{"type":"Feature","properties":{"shape_id":"{}","direction_id":"{\"0\": 50}","headsign":"{}","duration_avg":120,"n_vehicles":50,"d":1200,"route_I_counts":"{\"3\": 50}","source":5,"target":44,"layer":"L","from":"石家庄北国商城(地铁站)","to":"博物院"},"geometry":{"type":"LineString","coordinates":[[114.505803,38.043197],[114.516439,38.042231]]}},{"type":"Feature","properties":{"shape_id":"{}","direction_id":"{\"1\": 50}","headsign":"{}","duration_avg":120,"n_vehicles":50,"d":1200,"route_I_counts":"{\"3\": 50}","source":44,"target":5,"layer":"L","from":"博物院","to":"石家庄北国商城(地铁站)"},"geometry":{"type":"LineString","coordinates":[[114.516439,38.042231],[114.505803,38.043197]]}},{"type":"Feature","properties":{"shape_id":"{}","direction_id":"{\"0\": 50}","headsign":"{}","duration_avg":120,"n_vehicles":50,"d":1200,"route_I_counts":"{\"3\": 50}","source":44,"target":45,"layer":"L","from":"博物院","to":"体育场"},"geometry":{"type":"LineString","coordinates":[[114.516439,38.042231],[114.52645,38.042439]]}},{"type":"Feature","properties":{"shape_id":"{}","direction_id":"{\"1\": 50}","headsign":"{}","duration_avg":120,"n_vehicles":50,"d":1200,"route_I_counts":"{\"3\": 50}","source":45,"target":44,"layer":"L","from":"体育场","to":"博物院"},"geometry":{"type":"LineString","coordinates":[[114.52645,38.042439],[114.516439,38.042231]]}},{"type":"Feature","properties":{"shape_id":"{}","direction_id":"{\"0\": 50}","headsign":"{}","duration_avg":180,"n_vehicles":50,"d":1800,"route_I_counts":"{\"3\": 50}","source":45,"target":46,"layer":"L","from":"体育场","to":"北宋"},"geometry":{"type":"LineString","coordinates":[[114.52645,38.042439],[114.5407,38.042989]]}},{"type":"Feature","properties":{"shape_id":"{}","direction_id":"{\"1\": 50}","headsign":"{}","duration_avg":180,"n_vehicles":50,"d":1800,"route_I_counts":"{\"3\": 50}","source":46,"target":45,"layer":"L","from":"北宋","to":"体育场"},"geometry":{"type":"LineString","coordinates":[[114.5407,38.042989],[114.52645,38.042439]]}},{"type":"Feature","properties":{"shape_id":"{}","direction_id":"{\"0\": 50}","headsign":"{}","duration_avg":120,"n_vehicles":50,"d":1200,"route_I_counts":"{\"3\": 50}","source":46,"target":47,"layer":"L","from":"北宋","to":"谈固"},"geometry":{"type":"LineString","coordinates":[[114.5407,38.042989],[114.557669,38.043361]]}},{"type":"Feature","properties":{"shape_id":"{}","direction_id":"{\"1\": 50}","headsign":"{}","duration_avg":120,"n_vehicles":50,"d":1200,"route_I_counts":"{\"3\": 50}","source":47,"target":46,"layer":"L","from":"谈固","to":"北宋"},"geometry":{"type":"LineString","coordinates":[[114.557669,38.043361],[114.5407,38.042989]]}},{"type":"Feature","properties":{"shape_id":"{}","direction_id":"{\"0\": 50}","headsign":"{}","duration_avg":180,"n_vehicles":50,"d":1800,"route_I_counts":"{\"3\": 50}","source":47,"target":48,"layer":"L","from":"谈固","to":"朝晖桥"},"geometry":{"type":"LineString","coordinates":[[114.557669,38.043361],[114.571389,38.043631]]}},{"type":"Feature","properties":{"shape_id":"{}","direction_id":"{\"1\": 50}","headsign":"{}","duration_avg":180,"n_vehicles":50,"d":1800,"route_I_counts":"{\"3\": 50}","source":48,"target":47,"layer":"L","from":"朝晖桥","to":"谈固"},"geometry":{"type":"LineString","coordinates":[[114.571389,38.043631],[114.557669,38.043361]]}},{"type":"Feature","properties":{"shape_id":"{}","direction_id":"{\"0\": 50}","headsign":"{}","duration_avg":120,"n_vehicles":50,"d":1200,"route_I_counts":"{\"3\": 50}","source":48,"target":49,"layer":"L","from":"朝晖桥","to":"白佛"},"geometry":{"type":"LineString","coordinates":[[114.571389,38.043631],[114.581119,38.043789]]}},{"type":"Feature","properties":{"shape_id":"{}","direction_id":"{\"1\": 50}","headsign":"{}","duration_avg":120,"n_vehicles":50,"d":1200,"route_I_counts":"{\"3\": 50}","source":49,"target":48,"layer":"L","from":"白佛","to":"朝晖桥"},"geometry":{"type":"LineString","coordinates":[[114.581119,38.043789],[114.571389,38.043631]]}},{"type":"Feature","properties":{"shape_id":"{}","direction_id":"{\"0\": 50}","headsign":"{}","duration_avg":180,"n_vehicles":50,"d":1800,"route_I_counts":"{\"3\": 50}","source":49,"target":50,"layer":"L","from":"白佛","to":"留村"},"geometry":{"type":"LineString","coordinates":[[114.581119,38.043789],[114.602233,38.036956]]}},{"type":"Feature","properties":{"shape_id":"{}","direction_id":"{\"1\": 50}","headsign":"{}","duration_avg":180,"n_vehicles":50,"d":1800,"route_I_counts":"{\"3\": 50}","source":50,"target":49,"layer":"L","from":"留村","to":"白佛"},"geometry":{"type":"LineString","coordinates":[[114.602233,38.036956],[114.581119,38.043789]]}},{"type":"Feature","properties":{"shape_id":"{}","direction_id":"{\"0\": 50}","headsign":"{}","duration_avg":180,"n_vehicles":50,"d":1800,"route_I_counts":"{\"3\": 50}","source":50,"target":51,"layer":"L","from":"留村","to":"火炬广场"},"geometry":{"type":"LineString","coordinates":[[114.602233,38.036956],[114.619389,38.0373]]}},{"type":"Feature","properties":{"shape_id":"{}","direction_id":"{\"1\": 50}","headsign":"{}","duration_avg":180,"n_vehicles":50,"d":1800,"route_I_counts":"{\"3\": 50}","source":51,"target":50,"layer":"L","from":"火炬广场","to":"留村"},"geometry":{"type":"LineString","coordinates":[[114.619389,38.0373],[114.602233,38.036956]]}},{"type":"Feature","properties":{"shape_id":"{}","direction_id":"{\"0\": 50}","headsign":"{}","duration_avg":120,"n_vehicles":50,"d":1200,"route_I_counts":"{\"3\": 50}","source":51,"target":52,"layer":"L","from":"火炬广场","to":"石家庄东站"},"geometry":{"type":"LineString","coordinates":[[114.619389,38.0373],[114.62337,38.049339]]}},{"type":"Feature","properties":{"shape_id":"{}","direction_id":"{\"1\": 50}","headsign":"{}","duration_avg":120,"n_vehicles":50,"d":1200,"route_I_counts":"{\"3\": 50}","source":52,"target":51,"layer":"L","from":"石家庄东站","to":"火炬广场"},"geometry":{"type":"LineString","coordinates":[[114.62337,38.049339],[114.619389,38.0373]]}},{"type":"Feature","properties":{"shape_id":"{}","direction_id":"{\"0\": 50}","headsign":"{}","duration_avg":120,"n_vehicles":50,"d":1200,"route_I_counts":"{\"3\": 50}","source":52,"target":53,"layer":"L","from":"石家庄东站","to":"南村"},"geometry":{"type":"LineString","coordinates":[[114.62337,38.049339],[114.62298,38.05915]]}},{"type":"Feature","properties":{"shape_id":"{}","direction_id":"{\"1\": 50}","headsign":"{}","duration_avg":120,"n_vehicles":50,"d":1200,"route_I_counts":"{\"3\": 50}","source":53,"target":52,"layer":"L","from":"南村","to":"石家庄东站"},"geometry":{"type":"LineString","coordinates":[[114.62298,38.05915],[114.62337,38.049339]]}},{"type":"Feature","properties":{"shape_id":"{}","direction_id":"{\"0\": 50}","headsign":"{}","duration_avg":180,"n_vehicles":50,"d":1800,"route_I_counts":"{\"3\": 50}","source":53,"target":54,"layer":"L","from":"南村","to":"洨河大道"},"geometry":{"type":"LineString","coordinates":[[114.62298,38.05915],[114.6226,38.068789]]}},{"type":"Feature","properties":{"shape_id":"{}","direction_id":"{\"1\": 50}","headsign":"{}","duration_avg":180,"n_vehicles":50,"d":1800,"route_I_counts":"{\"3\": 50}","source":54,"target":53,"layer":"L","from":"洨河大道","to":"南村"},"geometry":{"type":"LineString","coordinates":[[114.6226,38.068789],[114.62298,38.05915]]}},{"type":"Feature","properties":{"shape_id":"{}","direction_id":"{\"0\": 50}","headsign":"{}","duration_avg":120,"n_vehicles":50,"d":1200,"route_I_counts":"{\"3\": 50}","source":54,"target":55,"layer":"L","from":"洨河大道","to":"西庄"},"geometry":{"type":"LineString","coordinates":[[114.6226,38.068789],[114.622461,38.080561]]}},{"type":"Feature","properties":{"shape_id":"{}","direction_id":"{\"1\": 50}","headsign":"{}","duration_avg":120,"n_vehicles":50,"d":1200,"route_I_counts":"{\"3\": 50}","source":55,"target":54,"layer":"L","from":"西庄","to":"洨河大道"},"geometry":{"type":"LineString","coordinates":[[114.622461,38.080561],[114.6226,38.068789]]}},{"type":"Feature","properties":{"shape_id":"{}","direction_id":"{\"0\": 50}","headsign":"{}","duration_avg":120,"n_vehicles":50,"d":1200,"route_I_counts":"{\"3\": 50}","source":55,"target":56,"layer":"L","from":"西庄","to":"东庄"},"geometry":{"type":"LineString","coordinates":[[114.622461,38.080561],[114.6214,38.093161]]}},{"type":"Feature","properties":{"shape_id":"{}","direction_id":"{\"1\": 50}","headsign":"{}","duration_avg":120,"n_vehicles":50,"d":1200,"route_I_counts":"{\"3\": 50}","source":56,"target":55,"layer":"L","from":"东庄","to":"西庄"},"geometry":{"type":"LineString","coordinates":[[114.6214,38.093161],[114.622461,38.080561]]}},{"type":"Feature","properties":{"shape_id":"{}","direction_id":"{\"0\": 50}","headsign":"{}","duration_avg":240,"n_vehicles":50,"d":2400,"route_I_counts":"{\"3\": 50}","source":56,"target":57,"layer":"L","from":"东庄","to":"会展中心"},"geometry":{"type":"LineString","coordinates":[[114.6214,38.093161],[114.608469,38.12313]]}},{"type":"Feature","properties":{"shape_id":"{}","direction_id":"{\"1\": 50}","headsign":"{}","duration_avg":240,"n_vehicles":50,"d":2400,"route_I_counts":"{\"3\": 50}","source":57,"target":56,"layer":"L","from":"会展中心","to":"东庄"},"geometry":{"type":"LineString","coordinates":[[114.608469,38.12313],[114.6214,38.093161]]}},{"type":"Feature","properties":{"shape_id":"{}","direction_id":"{\"0\": 50}","headsign":"{}","duration_avg":180,"n_vehicles":50,"d":1800,"route_I_counts":"{\"3\": 50}","source":57,"target":58,"layer":"L","from":"会展中心","to":"商务中心"},"geometry":{"type":"LineString","coordinates":[[114.608469,38.12313],[114.614989,38.132411]]}},{"type":"Feature","properties":{"shape_id":"{}","direction_id":"{\"1\": 50}","headsign":"{}","duration_avg":180,"n_vehicles":50,"d":1800,"route_I_counts":"{\"3\": 50}","source":58,"target":57,"layer":"L","from":"商务中心","to":"会展中心"},"geometry":{"type":"LineString","coordinates":[[114.614989,38.132411],[114.608469,38.12313]]}},{"type":"Feature","properties":{"shape_id":"{}","direction_id":"{\"0\": 50}","headsign":"{}","duration_avg":120,"n_vehicles":50,"d":1200,"route_I_counts":"{\"3\": 50}","source":58,"target":59,"layer":"L","from":"商务中心","to":"园博园"},"geometry":{"type":"LineString","coordinates":[[114.614989,38.132411],[114.614981,38.143889]]}},{"type":"Feature","properties":{"shape_id":"{}","direction_id":"{\"1\": 50}","headsign":"{}","duration_avg":120,"n_vehicles":50,"d":1200,"route_I_counts":"{\"3\": 50}","source":59,"target":58,"layer":"L","from":"园博园","to":"商务中心"},"geometry":{"type":"LineString","coordinates":[[114.614981,38.143889],[114.614989,38.132411]]}},{"type":"Feature","properties":{"shape_id":"{}","direction_id":"{\"0\": 50}","headsign":"{}","duration_avg":120,"n_vehicles":50,"d":1200,"route_I_counts":"{\"3\": 50}","source":59,"target":60,"layer":"L","from":"园博园","to":"福泽"},"geometry":{"type":"LineString","coordinates":[[114.614981,38.143889],[114.615311,38.153611]]}},{"type":"Feature","properties":{"shape_id":"{}","direction_id":"{\"1\": 50}","headsign":"{}","duration_avg":120,"n_vehicles":50,"d":1200,"route_I_counts":"{\"3\": 50}","source":60,"target":59,"layer":"L","from":"福泽","to":"园博园"},"geometry":{"type":"LineString","coordinates":[[114.615311,38.153611],[114.614981,38.143889]]}}]}