{"type":"FeatureCollection","features":[{"type":"Feature","geometry":{"type":"Point","coordinates":[120.70864,24.18913]},"properties":{"name":"Beitun Main Station","original_ids":"[1]","id":0,"layer":"stop"}},{"type":"Feature","geometry":{"type":"Point","coordinates":[120.70729,24.18228]},"properties":{"name":"Jiushe","original_ids":"[2]","id":1,"layer":"stop"}},{"type":"Feature","geometry":{"type":"Point","coordinates":[120.70145,24.1808]},"properties":{"name":"Songzhu","original_ids":"[3]","id":2,"layer":"stop"}},{"type":"Feature","geometry":{"type":"Point","coordinates":[120.69329,24.17124]},"properties":{"name":"Sihwei Elementary School (Erfenpu)","original_ids":"[4]","id":3,"layer":"stop"}},{"type":"Feature","geometry":{"type":"Point","coordinates":[120.68486,24.17219]},"properties":{"name":"Wenxin Chongde","original_ids":"[5]","id":4,"layer":"stop"}},{"type":"Feature","geometry":{"type":"Point","coordinates":[120.67059,24.17368]},"properties":{"name":"Wenxin Zhongqing (Tianjin Shopping District)","original_ids":"[6]","id":5,"layer":"stop"}},{"type":"Feature","geometry":{"type":"Point","coordinates":[120.66045,24.17141]},"properties":{"name":"Wenhua Senior High School","original_ids":"[7]","id":6,"layer":"stop"}},{"type":"Feature","geometry":{"type":"Point","coordinates":[120.65367,24.16763]},"properties":{"name":"Wenxin Yinghua","original_ids":"[8]","id":7,"layer":"stop"}},{"type":"Feature","geometry":{"type":"Point","coordinates":[120.64903,24.16199]},"properties":{"name":"Taichung City Hall","original_ids":"[9]","id":8,"layer":"stop"}},{"type":"Feature","geometry":{"type":"Point","coordinates":[120.64668,24.15311]},"properties":{"name":"Shui-an Temple","original_ids":"[10]","id":9,"layer":"stop"}},{"type":"Feature","geometry":{"type":"Point","coordinates":[120.6466,24.1454]},"properties":{"name":"Wenxin Forest Park","original_ids":"[11]","id":10,"layer":"stop"}},{"type":"Feature","geometry":{"type":"Point","coordinates":[120.6466,24.1405]},"properties":{"name":"Nantun (Wenxin Wuquan W.)","original_ids":"[12]","id":11,"layer":"stop"}},{"type":"Feature","geometry":{"type":"Point","coordinates":[120.64635,24.1326]},"properties":{"name":"Feng-le Park","original_ids":"[13]","id":12,"layer":"stop"}},{"type":"Feature","geometry":{"type":"Point","coordinates":[120.6476,24.1191]},"properties":{"name":"Daqing (Chungshan Medical University)","original_ids":"[14]","id":13,"layer":"stop"}},{"type":"Feature","geometry":{"type":"Point","coordinates":[120.6401,24.1145]},"properties":{"name":"Jiuzhangli","original_ids":"[15]","id":14,"layer":"stop"}},{"type":"Feature","geometry":{"type":"Point","coordinates":[120.63448,24.11104]},"properties":{"name":"Jiude","original_ids":"[16]","id":15,"layer":"stop"}},{"type":"Feature","geometry":{"type":"Point","coordinates":[120.6249,24.1089]},"properties":{"name":"Wuri","original_ids":"[17]","id":16,"layer":"stop"}},{"type":"Feature","geometry":{"type":"Point","coordinates":[120.61405,24.11011]},"properties":{"name":"HSR Taichung Station","original_ids":"[18]","id":17,"layer":"stop"}},{"type":"Feature","properties":{"shape_id":"{}","direction_id":"{\"0\": 50}","headsign":"{}","duration_avg":124,"n_vehicles":50,"d":1240,"route_I_counts":"{\"1\": 50}","source":0,"target":1,"layer":"L","from":"Beitun Main Station","to":"Jiushe"},"geometry":{"type":"LineString","coordinates":[[120.70864,24.18913],[120.70729,24.18228]]}},{"type":"Feature","properties":{"shape_id":"{}","direction_id":"{\"1\": 50}","headsign":"{}","duration_avg":124,"n_vehicles":50,"d":1240,"route_I_counts":"{\"1\": 50}","source":1,"target":0,"layer":"L","from":"Jiushe","to":"Beitun Main Station"},"geometry":{"type":"LineString","coordinates":[[120.70729,24.18228],[120.70864,24.18913]]}},{"type":"Feature","properties":{"shape_id":"{}","direction_id":"{\"0\": 50}","headsign":"{}","duration_avg":105,"n_vehicles":50,"d":1050,"route_I_counts":"{\"1\": 50}","source":1,"target":2,"layer":"L","from":"Jiushe","to":"Songzhu"},"geometry":{"type":"LineString","coordinates":[[120.70729,24.18228],[120.70145,24.1808]]}},{"type":"Feature","properties":{"shape_id":"{}","direction_id":"{\"1\": 50}","headsign":"{}","duration_avg":105,"n_vehicles":50,"d":1050,"route_I_counts":"{\"1\": 50}","source":2,"target":1,"layer":"L","from":"Songzhu","to":"Jiushe"},"geometry":{"type":"LineString","coordinates":[[120.70145,24.1808],[120.70729,24.18228]]}},{"type":"Feature","properties":{"shape_id":"{}","direction_id":"{\"0\": 50}","headsign":"{}","duration_avg":190,"n_vehicles":50,"d":1900,"route_I_counts":"{\"1\": 50}","source":2,"target":3,"layer":"L","from":"Songzhu","to":"Sihwei Elementary School (Erfenpu)"},"geometry":{"type":"LineString","coordinates":[[120.70145,24.1808],[120.69329,24.17124]]}},{"type":"Feature","properties":{"shape_id":"{}","direction_id":"{\"1\": 50}","headsign":"{}","duration_avg":190,"n_vehicles":50,"d":1900,"route_I_counts":"{\"1\": 50}","source":3,"target":2,"layer":"L","from":"Sihwei Elementary School (Erfenpu)","to":"Songzhu"},"geometry":{"type":"LineString","coordinates":[[120.69329,24.17124],[120.70145,24.1808]]}},{"type":"Feature","properties":{"shape_id":"{}","direction_id":"{\"0\": 50}","headsign":"{}","duration_avg":107,"n_vehicles":50,"d":1070,"route_I_counts":"{\"1\": 50}","source":3,"target":4,"layer":"L","from":"Sihwei Elementary School (Erfenpu)","to":"Wenxin Chongde"},"geometry":{"type":"LineString","coordinates":[[120.69329,24.17124],[120.68486,24.17219]]}},{"type":"Feature","properties":{"shape_id":"{}","direction_id":"{\"1\": 50}","headsign":"{}","duration_avg":107,"n_vehicles":50,"d":1070,"route_I_counts":"{\"1\": 50}","source":4,"target":3,"layer":"L","from":"Wenxin Chongde","to":"Sihwei Elementary School (Erfenpu)"},"geometry":{"type":"LineString","coordinates":[[120.68486,24.17219],[120.69329,24.17124]]}},{"type":"Feature","properties":{"shape_id":"{}","direction_id":"{\"0\": 50}","headsign":"{}","duration_avg":144,"n_vehicles":50,"d":1440,"route_I_counts":"{\"1\": 50}","source":4,"target":5,"layer":"L","from":"Wenxin Chongde","to":"Wenxin Zhongqing (Tianjin Shopping District)"},"geometry":{"type":"LineString","coordinates":[[120.68486,24.17219],[120.67059,24.17368]]}},{"type":"Feature","properties":{"shape_id":"{}","direction_id":"{\"1\": 50}","headsign":"{}","duration_avg":144,"n_vehicles":50,"d":1440,"route_I_counts":"{\"1\": 50}","source":5,"target":4,"layer":"L","from":"Wenxin Zhongqing (Tianjin Shopping District)","to":"Wenxin Chongde"},"geometry":{"type":"LineString","coordinates":[[120.67059,24.17368],[120.68486,24.17219]]}},{"type":"Feature","properties":{"shape_id":"{}","direction_id":"{\"0\": 50}","headsign":"{}","duration_avg":122,"n_vehicles":50,"d":1220,"route_I_counts":"{\"1\": 50}","source":5,"target":6,"layer":"L","from":"Wenxin Zhongqing (Tianjin Shopping District)","to":"Wenhua Senior High School"},"geometry":{"type":"LineString","coordinates":[[120.67059,24.17368],[120.66045,24.17141]]}},{"type":"Feature","properties":{"shape_id":"{}","direction_id":"{\"1\": 50}","headsign":"{}","duration_avg":122,"n_vehicles":50,"d":1220,"route_I_counts":"{\"1\": 50}","source":6,"target":5,"layer":"L","from":"Wenhua Senior High School","to":"Wenxin Zhongqing (Tianjin Shopping District)"},"geometry":{"type":"LineString","coordinates":[[120.66045,24.17141],[120.67059,24.17368]]}},{"type":"Feature","properties":{"shape_id":"{}","direction_id":"{\"0\": 50}","headsign":"{}","duration_avg":104,"n_vehicles":50,"d":1040,"route_I_counts":"{\"1\": 50}","source":6,"target":7,"layer":"L","from":"Wenhua Senior High School","to":"Wenxin Yinghua"},"geometry":{"type":"LineString","coordinates":[[120.66045,24.17141],[120.65367,24.16763]]}},{"type":"Feature","properties":{"shape_id":"{}","direction_id":"{\"1\": 50}","headsign":"{}","duration_avg":104,"n_vehicles":50,"d":1040,"route_I_counts":"{\"1\": 50}","source":7,"target":6,"layer":"L","from":"Wenxin Yinghua","to":"Wenhua Senior High School"},"geometry":{"type":"LineString","coordinates":[[120.65367,24.16763],[120.66045,24.17141]]}},{"type":"Feature","properties":{"shape_id":"{}","direction_id":"{\"0\": 50}","headsign":"{}","duration_avg":103,"n_vehicles":50,"d":1030,"route_I_counts":"{\"1\": 50}","source":7,"target":8,"layer":"L","from":"Wenxin Yinghua","to":"Taichung City Hall"},"geometry":{"type":"LineString","coordinates":[[120.65367,24.16763],[120.64903,24.16199]]}},{"type":"Feature","properties":{"shape_id":"{}","direction_id":"{\"1\": 50}","headsign":"{}","duration_avg":103,"n_vehicles":50,"d":1030,"route_I_counts":"{\"1\": 50}","source":8,"target":7,"layer":"L","from":"Taichung City Hall","to":"Wenxin Yinghua"},"geometry":{"type":"LineString","coordinates":[[120.64903,24.16199],[120.65367,24.16763]]}},{"type":"Feature","properties":{"shape_id":"{}","direction_id":"{\"0\": 50}","headsign":"{}","duration_avg":152,"n_vehicles":50,"d":1520,"route_I_counts":"{\"1\": 50}","source":8,"target":9,"layer":"L","from":"Taichung City Hall","to":"Shui-an Temple"},"geometry":{"type":"LineString","coordinates":[[120.64903,24.16199],[120.64668,24.15311]]}},{"type":"Feature","properties":{"shape_id":"{}","direction_id":"{\"1\": 50}","headsign":"{}","duration_avg":152,"n_vehicles":50,"d":1520,"route_I_counts":"{\"1\": 50}","source":9,"target":8,"layer":"L","from":"Shui-an Temple","to":"Taichung City Hall"},"geometry":{"type":"LineString","coordinates":[[120.64668,24.15311],[120.64903,24.16199]]}},{"type":"Feature","properties":{"shape_id":"{}","direction_id":"{\"0\": 50}","headsign":"{}","duration_avg":111,"n_vehicles":50,"d":1110,"route_I_counts":"{\"1\": 50}","source":9,"target":10,"layer":"L","from":"Shui-an Temple","to":"Wenxin Forest Park"},"geometry":{"type":"LineString","coordinates":[[120.64668,24.15311],[120.6466,24.1454]]}},{"type":"Feature","properties":{"shape_id":"{}","direction_id":"{\"1\": 50}","headsign":"{}","duration_avg":111,"n_vehicles":50,"d":1110,"route_I_counts":"{\"1\": 50}","source":10,"target":9,"layer":"L","from":"Wenxin Forest Park","to":"Shui-an Temple"},"geometry":{"type":"LineString","coordinates":[[120.6466,24.1454],[120.64668,24.15311]]}},{"type":"Feature","properties":{"shape_id":"{}","direction_id":"{\"0\": 50}","headsign":"{}","duration_avg":94,"n_vehicles":50,"d":940,"route_I_counts":"{\"1\": 50}","source":10,"target":11,"layer":"L","from":"Wenxin Forest Park","to":"Nantun (Wenxin Wuquan W.)"},"geometry":{"type":"LineString","coordinates":[[120.6466,24.1454],[120.6466,24.1405]]}},{"type":"Feature","properties":{"shape_id":"{}","direction_id":"{\"1\": 50}","headsign":"{}","duration_avg":94,"n_vehicles":50,"d":940,"route_I_counts":"{\"1\": 50}","source":11,"target":10,"layer":"L","from":"Nantun (Wenxin Wuquan W.)","to":"Wenxin Forest Park"},"geometry":{"type":"LineString","coordinates":[[120.6466,24.1405],[120.6466,24.1454]]}},{"type":"Feature","properties":{"shape_id":"{}","direction_id":"{\"0\": 50}","headsign":"{}","duration_avg":108,"n_vehicles":50,"d":1080,"route_I_counts":"{\"1\": 50}","source":11,"target":12,"layer":"L","from":"Nantun (Wenxin Wuquan W.)","to":"Feng-le Park"},"geometry":{"type":"LineString","coordinates":[[120.6466,24.1405],[120.64635,24.1326]]}},{"type":"Feature","properties":{"shape_id":"{}","direction_id":"{\"1\": 50}","headsign":"{}","duration_avg":108,"n_vehicles":50,"d":1080,"route_I_counts":"{\"1\": 50}","source":12,"target":11,"layer":"L","from":"Feng-le Park","to":"Nantun (Wenxin Wuquan W.)"},"geometry":{"type":"LineString","coordinates":[[120.64635,24.1326],[120.6466,24.1405]]}},{"type":"Feature","properties":{"shape_id":"{}","direction_id":"{\"0\": 50}","headsign":"{}","duration_avg":187,"n_vehicles":50,"d":1870,"route_I_counts":"{\"1\": 50}","source":12,"target":13,"layer":"L","from":"Feng-le Park","to":"Daqing (Chungshan Medical University)"},"geometry":{"type":"LineString","coordinates":[[120.64635,24.1326],[120.6476,24.1191]]}},{"type":"Feature","properties":{"shape_id":"{}","direction_id":"{\"1\": 50}","headsign":"{}","duration_avg":187,"n_vehicles":50,"d":1870,"route_I_counts":"{\"1\": 50}","source":13,"target":12,"layer":"L","from":"Daqing (Chungshan Medical University)","to":"Feng-le Park"},"geometry":{"type":"LineString","coordinates":[[120.6476,24.1191],[120.64635,24.1326]]}},{"type":"Feature","properties":{"shape_id":"{}","direction_id":"{\"0\": 50}","headsign":"{}","duration_avg":116,"n_vehicles":50,"d":1160,"route_I_counts":"{\"1\": 50}","source":13,"target":14,"layer":"L","from":"Daqing (Chungshan Medical University)","to":"Jiuzhangli"},"geometry":{"type":"LineString","coordinates":[[120.6476,24.1191],[120.6401,24.1145]]}},{"type":"Feature","properties":{"shape_id":"{}","direction_id":"{\"1\": 50}","headsign":"{}","duration_avg":116,"n_vehicles":50,"d":1160,"route_I_counts":"{\"1\": 50}","source":14,"target":13,"layer":"L","from":"Jiuzhangli","to":"Daqing (Chungshan Medical University)"},"geometry":{"type":"LineString","coordinates":[[120.6401,24.1145],[120.6476,24.1191]]}},{"type":"Feature","properties":{"shape_id":"{}","direction_id":"{\"0\": 50}","headsign":"{}","duration_avg":92,"n_vehicles":50,"d":920,"route_I_counts":"{\"1\": 50}","source":14,"target":15,"layer":"L","from":"Jiuzhangli","to":"Jiude"},"geometry":{"type":"LineString","coordinates":[[120.6401,24.1145],[120.63448,24.11104]]}},{"type":"Feature","properties":{"shape_id":"{}","direction_id":"{\"1\": 50}","headsign":"{}","duration_avg":92,"n_vehicles":50,"d":920,"route_I_counts":"{\"1\": 50}","source":15,"target":14,"layer":"L","from":"Jiude","to":"Jiuzhangli"},"geometry":{"type":"LineString","coordinates":[[120.63448,24.11104],[120.6401,24.1145]]}},{"type":"Feature","properties":{"shape_id":"{}","direction_id":"{\"0\": 50}","headsign":"{}","duration_avg":116,"n_vehicles":50,"d":1160,"route_I_counts":"{\"1\": 50}","source":15,"target":16,"layer":"L","from":"Jiude","to":"Wuri"},"geometry":{"type":"LineString","coordinates":[[120.63448,24.11104],[120.6249,24.1089]]}},{"type":"Feature","properties":{"shape_id":"{}","direction_id":"{\"1\": 50}","headsign":"{}","duration_avg":116,"n_vehicles":50,"d":1160,"route_I_counts":"{\"1\": 50}","source":16,"target":15,"layer":"L","from":"Wuri","to":"Jiude"},"geometry":{"type":"LineString","coordinates":[[120.6249,24.1089],[120.63448,24.11104]]}},{"type":"Feature","properties":{"shape_id":"{}","direction_id":"{\"0\": 50}","headsign":"{}","duration_avg":153,"n_vehicles":50,"d":1530,"route_I_counts":"{\"1\": 50}","source":16,"target":17,"layer":"L","from":"Wuri","to":"HSR Taichung Station"},"geometry":{"type":"LineString","coordinates":[[120.6249,24.1089],[120.61405,24.11011]]}},{"type":"Feature","properties":{"shape_id":"{}","direction_id":"{\"1\": 50}","headsign":"{}","duration_avg":153,"n_vehicles":50,"d":1530,"route_I_counts":"{\"1\": 50}","source":17,"target":16,"layer":"L","from":"HSR Taichung Station","to":"Wuri"},"geometry":{"type":"LineString","coordinates":[[120.61405,24.11011],[120.6249,24.1089]]}}]}