{"type":"FeatureCollection","features":[{"type":"Feature","geometry":{"type":"Point","coordinates":[112.437656,37.846957]},"properties":{"name":"太原河龙湾(地铁站)","original_ids":"[1]","id":0,"layer":"stop"}},{"type":"Feature","geometry":{"type":"Point","coordinates":[112.449752,37.852598]},"properties":{"name":"太原西铭路(地铁站)","original_ids":"[2]","id":1,"layer":"stop"}},{"type":"Feature","geometry":{"type":"Point","coordinates":[112.466236,37.856191]},"properties":{"name":"太原西客站(地铁站)","original_ids":"[3]","id":2,"layer":"stop"}},{"type":"Feature","geometry":{"type":"Point","coordinates":[112.477138,37.85644]},"properties":{"name":"太原金阳路(地铁站)","original_ids":"[4]","id":3,"layer":"stop"}},{"type":"Feature","geometry":{"type":"Point","coordinates":[112.494046,37.856826]},"properties":{"name":"太原闫家沟(小井峪路)(地铁站)","original_ids":"[5]","id":4,"layer":"stop"}},{"type":"Feature","geometry":{"type":"Point","coordinates":[112.504386,37.857036]},"properties":{"name":"太原下元(地铁站)","original_ids":"[6]","id":5,"layer":"stop"}},{"type":"Feature","geometry":{"type":"Point","coordinates":[112.52012,37.857416]},"properties":{"name":"太原太原理工大学(地铁站)","original_ids":"[7]","id":6,"layer":"stop"}},{"type":"Feature","geometry":{"type":"Point","coordinates":[112.538866,37.858253]},"properties":{"name":"太原桃园路(地铁站)","original_ids":"[8]","id":7,"layer":"stop"}},{"type":"Feature","geometry":{"type":"Point","coordinates":[112.553617,37.858695]},"properties":{"name":"太原大南门(地铁站)","original_ids":"[9]","id":8,"layer":"stop"}},{"type":"Feature","geometry":{"type":"Point","coordinates":[112.56055,37.859377]},"properties":{"name":"太原柳南(地铁站)","original_ids":"[10]","id":9,"layer":"stop"}},{"type":"Feature","geometry":{"type":"Point","coordinates":[112.567573,37.859707]},"properties":{"name":"太原五一广场(地铁站)","original_ids":"[11]","id":10,"layer":"stop"}},{"type":"Feature","geometry":{"type":"Point","coordinates":[112.576379,37.85987]},"properties":{"name":"太原太原站西广场(地铁站)","original_ids":"[12]","id":11,"layer":"stop"}},{"type":"Feature","geometry":{"type":"Point","coordinates":[112.584081,37.8599]},"properties":{"name":"太原太原站东广场(地铁站)","original_ids":"[13]","id":12,"layer":"stop"}},{"type":"Feature","geometry":{"type":"Point","coordinates":[112.592077,37.860114]},"properties":{"name":"太原郝家沟(地铁站)","original_ids":"[14]","id":13,"layer":"stop"}},{"type":"Feature","geometry":{"type":"Point","coordinates":[112.598408,37.855054]},"properties":{"name":"太原朝阳街(地铁站)","original_ids":"[15]","id":14,"layer":"stop"}},{"type":"Feature","geometry":{"type":"Point","coordinates":[112.598345,37.839743]},"properties":{"name":"太原双塔(地铁站)","original_ids":"[16]","id":15,"layer":"stop"}},{"type":"Feature","geometry":{"type":"Point","coordinates":[112.599868,37.829802]},"properties":{"name":"太原南十方街(地铁站)","original_ids":"[17]","id":16,"layer":"stop"}},{"type":"Feature","geometry":{"type":"Point","coordinates":[112.603976,37.817779]},"properties":{"name":"太原长风东街(地铁站)","original_ids":"[18]","id":17,"layer":"stop"}},{"type":"Feature","geometry":{"type":"Point","coordinates":[112.603691,37.809353]},"properties":{"name":"太原学府东街(地铁站)","original_ids":"[19]","id":18,"layer":"stop"}},{"type":"Feature","geometry":{"type":"Point","coordinates":[112.603306,37.801203]},"properties":{"name":"太原许坦东街(地铁站)","original_ids":"[20]","id":19,"layer":"stop"}},{"type":"Feature","geometry":{"type":"Point","coordinates":[112.606193,37.792271]},"properties":{"name":"太原太原南站(地铁站)","original_ids":"[21]","id":20,"layer":"stop"}},{"type":"Feature","geometry":{"type":"Point","coordinates":[112.614308,37.785702]},"properties":{"name":"太原北营(地铁站)","original_ids":"[22]","id":21,"layer":"stop"}},{"type":"Feature","geometry":{"type":"Point","coordinates":[112.60554,37.773141]},"properties":{"name":"太原黄陵(地铁站)","original_ids":"[23]","id":22,"layer":"stop"}},{"type":"Feature","geometry":{"type":"Point","coordinates":[112.627759,37.755866]},"properties":{"name":"太原武宿1号2号航站楼(地铁站)","original_ids":"[24]","id":23,"layer":"stop"}},{"type":"Feature","geometry":{"type":"Point","coordinates":[112.556638,37.915215]},"properties":{"name":"太原尖草坪(地铁站)","original_ids":"[25]","id":24,"layer":"stop"}},{"type":"Feature","geometry":{"type":"Point","coordinates":[112.556943,37.905166]},"properties":{"name":"太原涧河(地铁站)","original_ids":"[26]","id":25,"layer":"stop"}},{"type":"Feature","geometry":{"type":"Point","coordinates":[112.555974,37.896885]},"properties":{"name":"太原胜利街(地铁站)","original_ids":"[27]","id":26,"layer":"stop"}},{"type":"Feature","geometry":{"type":"Point","coordinates":[112.555753,37.887642]},"properties":{"name":"太原大北门(地铁站)","original_ids":"[28]","id":27,"layer":"stop"}},{"type":"Feature","geometry":{"type":"Point","coordinates":[112.555591,37.878313]},"properties":{"name":"太原缉虎营(地铁站)","original_ids":"[29]","id":28,"layer":"stop"}},{"type":"Feature","geometry":{"type":"Point","coordinates":[112.554721,37.871615]},"properties":{"name":"太原府西街(地铁站)","original_ids":"[30]","id":29,"layer":"stop"}},{"type":"Feature","geometry":{"type":"Point","coordinates":[112.553878,37.864557]},"properties":{"name":"太原开化寺街(地铁站)","original_ids":"[31]","id":30,"layer":"stop"}},{"type":"Feature","geometry":{"type":"Point","coordinates":[112.554785,37.845233]},"properties":{"name":"太原体育馆(地铁站)","original_ids":"[32]","id":31,"layer":"stop"}},{"type":"Feature","geometry":{"type":"Point","coordinates":[112.555057,37.835739]},"properties":{"name":"太原南内环(地铁站)","original_ids":"[33]","id":32,"layer":"stop"}},{"type":"Feature","geometry":{"type":"Point","coordinates":[112.555298,37.829956]},"properties":{"name":"太原王村南街(地铁站)","original_ids":"[34]","id":33,"layer":"stop"}},{"type":"Feature","geometry":{"type":"Point","coordinates":[112.555546,37.816276]},"properties":{"name":"太原长风街(地铁站)","original_ids":"[35]","id":34,"layer":"stop"}},{"type":"Feature","geometry":{"type":"Point","coordinates":[112.555578,37.806409]},"properties":{"name":"太原学府街(地铁站)","original_ids":"[36]","id":35,"layer":"stop"}},{"type":"Feature","geometry":{"type":"Point","coordinates":[112.555553,37.793766]},"properties":{"name":"太原南中环(地铁站)","original_ids":"[37]","id":36,"layer":"stop"}},{"type":"Feature","geometry":{"type":"Point","coordinates":[112.555546,37.787939]},"properties":{"name":"太原晋阳街(地铁站)","original_ids":"[38]","id":37,"layer":"stop"}},{"type":"Feature","geometry":{"type":"Point","coordinates":[112.555259,37.781125]},"properties":{"name":"太原龙兴街(地铁站)","original_ids":"[39]","id":38,"layer":"stop"}},{"type":"Feature","geometry":{"type":"Point","coordinates":[112.554919,37.773153]},"properties":{"name":"太原龙城公园(地铁站)","original_ids":"[40]","id":39,"layer":"stop"}},{"type":"Feature","geometry":{"type":"Point","coordinates":[112.555963,37.763592]},"properties":{"name":"太原嘉节(地铁站)","original_ids":"[41]","id":40,"layer":"stop"}},{"type":"Feature","geometry":{"type":"Point","coordinates":[112.558651,37.751762]},"properties":{"name":"太原电子西街(地铁站)","original_ids":"[42]","id":41,"layer":"stop"}},{"type":"Feature","geometry":{"type":"Point","coordinates":[112.561191,37.742364]},"properties":{"name":"太原康宁街(地铁站)","original_ids":"[43]","id":42,"layer":"stop"}},{"type":"Feature","geometry":{"type":"Point","coordinates":[112.562321,37.729789]},"properties":{"name":"太原通达街(地铁站)","original_ids":"[44]","id":43,"layer":"stop"}},{"type":"Feature","geometry":{"type":"Point","coordinates":[112.561673,37.717358]},"properties":{"name":"太原化章西街(地铁站)","original_ids":"[45]","id":44,"layer":"stop"}},{"type":"Feature","geometry":{"type":"Point","coordinates":[112.556588,37.707451]},"properties":{"name":"太原西桥(地铁站)","original_ids":"[46]","id":45,"layer":"stop"}},{"type":"Feature","properties":{"shape_id":"{}","direction_id":"{\"0\": 50}","headsign":"{}","duration_avg":120,"n_vehicles":50,"d":1200,"route_I_counts":"{\"1\": 50}","source":0,"target":1,"layer":"L","from":"太原河龙湾(地铁站)","to":"太原西铭路(地铁站)"},"geometry":{"type":"LineString","coordinates":[[112.437656,37.846957],[112.449752,37.852598]]}},{"type":"Feature","properties":{"shape_id":"{}","direction_id":"{\"1\": 50}","headsign":"{}","duration_avg":120,"n_vehicles":50,"d":1200,"route_I_counts":"{\"1\": 50}","source":1,"target":0,"layer":"L","from":"太原西铭路(地铁站)","to":"太原河龙湾(地铁站)"},"geometry":{"type":"LineString","coordinates":[[112.449752,37.852598],[112.437656,37.846957]]}},{"type":"Feature","properties":{"shape_id":"{}","direction_id":"{\"0\": 50}","headsign":"{}","duration_avg":120,"n_vehicles":50,"d":1200,"route_I_counts":"{\"1\": 50}","source":1,"target":2,"layer":"L","from":"太原西铭路(地铁站)","to":"太原西客站(地铁站)"},"geometry":{"type":"LineString","coordinates":[[112.449752,37.852598],[112.466236,37.856191]]}},{"type":"Feature","properties":{"shape_id":"{}","direction_id":"{\"1\": 50}","headsign":"{}","duration_avg":120,"n_vehicles":50,"d":1200,"route_I_counts":"{\"1\": 50}","source":2,"target":1,"layer":"L","from":"太原西客站(地铁站)","to":"太原西铭路(地铁站)"},"geometry":{"type":"LineString","coordinates":[[112.466236,37.856191],[112.449752,37.852598]]}},{"type":"Feature","properties":{"shape_id":"{}","direction_id":"{\"0\": 50}","headsign":"{}","duration_avg":120,"n_vehicles":50,"d":1200,"route_I_counts":"{\"1\": 50}","source":2,"target":3,"layer":"L","from":"太原西客站(地铁站)","to":"太原金阳路(地铁站)"},"geometry":{"type":"LineString","coordinates":[[112.466236,37.856191],[112.477138,37.85644]]}},{"type":"Feature","properties":{"shape_id":"{}","direction_id":"{\"1\": 50}","headsign":"{}","duration_avg":120,"n_vehicles":50,"d":1200,"route_I_counts":"{\"1\": 50}","source":3,"target":2,"layer":"L","from":"太原金阳路(地铁站)","to":"太原西客站(地铁站)"},"geometry":{"type":"LineString","coordinates":[[112.477138,37.85644],[112.466236,37.856191]]}},{"type":"Feature","properties":{"shape_id":"{}","direction_id":"{\"0\": 50}","headsign":"{}","duration_avg":180,"n_vehicles":50,"d":1800,"route_I_counts":"{\"1\": 50}","source":3,"target":4,"layer":"L","from":"太原金阳路(地铁站)","to":"太原闫家沟(小井峪路)(地铁站)"},"geometry":{"type":"LineString","coordinates":[[112.477138,37.85644],[112.494046,37.856826]]}},{"type":"Feature","properties":{"shape_id":"{}","direction_id":"{\"1\": 50}","headsign":"{}","duration_avg":180,"n_vehicles":50,"d":1800,"route_I_counts":"{\"1\": 50}","source":4,"target":3,"layer":"L","from":"太原闫家沟(小井峪路)(地铁站)","to":"太原金阳路(地铁站)"},"geometry":{"type":"LineString","coordinates":[[112.494046,37.856826],[112.477138,37.85644]]}},{"type":"Feature","properties":{"shape_id":"{}","direction_id":"{\"0\": 50}","headsign":"{}","duration_avg":60,"n_vehicles":50,"d":600,"route_I_counts":"{\"1\": 50}","source":4,"target":5,"layer":"L","from":"太原闫家沟(小井峪路)(地铁站)","to":"太原下元(地铁站)"},"geometry":{"type":"LineString","coordinates":[[112.494046,37.856826],[112.504386,37.857036]]}},{"type":"Feature","properties":{"shape_id":"{}","direction_id":"{\"1\": 50}","headsign":"{}","duration_avg":60,"n_vehicles":50,"d":600,"route_I_counts":"{\"1\": 50}","source":5,"target":4,"layer":"L","from":"太原下元(地铁站)","to":"太原闫家沟(小井峪路)(地铁站)"},"geometry":{"type":"LineString","coordinates":[[112.504386,37.857036],[112.494046,37.856826]]}},{"type":"Feature","properties":{"shape_id":"{}","direction_id":"{\"0\": 50}","headsign":"{}","duration_avg":120,"n_vehicles":50,"d":1200,"route_I_counts":"{\"1\": 50}","source":5,"target":6,"layer":"L","from":"太原下元(地铁站)","to":"太原太原理工大学(地铁站)"},"geometry":{"type":"LineString","coordinates":[[112.504386,37.857036],[112.52012,37.857416]]}},{"type":"Feature","properties":{"shape_id":"{}","direction_id":"{\"1\": 50}","headsign":"{}","duration_avg":120,"n_vehicles":50,"d":1200,"route_I_counts":"{\"1\": 50}","source":6,"target":5,"layer":"L","from":"太原太原理工大学(地铁站)","to":"太原下元(地铁站)"},"geometry":{"type":"LineString","coordinates":[[112.52012,37.857416],[112.504386,37.857036]]}},{"type":"Feature","properties":{"shape_id":"{}","direction_id":"{\"0\": 50}","headsign":"{}","duration_avg":120,"n_vehicles":50,"d":1200,"route_I_counts":"{\"1\": 50}","source":6,"target":7,"layer":"L","from":"太原太原理工大学(地铁站)","to":"太原桃园路(地铁站)"},"geometry":{"type":"LineString","coordinates":[[112.52012,37.857416],[112.538866,37.858253]]}},{"type":"Feature","properties":{"shape_id":"{}","direction_id":"{\"1\": 50}","headsign":"{}","duration_avg":120,"n_vehicles":50,"d":1200,"route_I_counts":"{\"1\": 50}","source":7,"target":6,"layer":"L","from":"太原桃园路(地铁站)","to":"太原太原理工大学(地铁站)"},"geometry":{"type":"LineString","coordinates":[[112.538866,37.858253],[112.52012,37.857416]]}},{"type":"Feature","properties":{"shape_id":"{}","direction_id":"{\"0\": 50}","headsign":"{}","duration_avg":180,"n_vehicles":50,"d":1800,"route_I_counts":"{\"1\": 50}","source":7,"target":8,"layer":"L","from":"太原桃园路(地铁站)","to":"太原大南门(地铁站)"},"geometry":{"type":"LineString","coordinates":[[112.538866,37.858253],[112.553617,37.858695]]}},{"type":"Feature","properties":{"shape_id":"{}","direction_id":"{\"1\": 50}","headsign":"{}","duration_avg":180,"n_vehicles":50,"d":1800,"route_I_counts":"{\"1\": 50}","source":8,"target":7,"layer":"L","from":"太原大南门(地铁站)","to":"太原桃园路(地铁站)"},"geometry":{"type":"LineString","coordinates":[[112.553617,37.858695],[112.538866,37.858253]]}},{"type":"Feature","properties":{"shape_id":"{}","direction_id":"{\"0\": 50}","headsign":"{}","duration_avg":60,"n_vehicles":50,"d":600,"route_I_counts":"{\"1\": 50}","source":8,"target":9,"layer":"L","from":"太原大南门(地铁站)","to":"太原柳南(地铁站)"},"geometry":{"type":"LineString","coordinates":[[112.553617,37.858695],[112.56055,37.859377]]}},{"type":"Feature","properties":{"shape_id":"{}","direction_id":"{\"1\": 50}","headsign":"{}","duration_avg":60,"n_vehicles":50,"d":600,"route_I_counts":"{\"1\": 50}","source":9,"target":8,"layer":"L","from":"太原柳南(地铁站)","to":"太原大南门(地铁站)"},"geometry":{"type":"LineString","coordinates":[[112.56055,37.859377],[112.553617,37.858695]]}},{"type":"Feature","properties":{"shape_id":"{}","direction_id":"{\"0\": 50}","headsign":"{}","duration_avg":120,"n_vehicles":50,"d":1200,"route_I_counts":"{\"1\": 50}","source":9,"target":10,"layer":"L","from":"太原柳南(地铁站)","to":"太原五一广场(地铁站)"},"geometry":{"type":"LineString","coordinates":[[112.56055,37.859377],[112.567573,37.859707]]}},{"type":"Feature","properties":{"shape_id":"{}","direction_id":"{\"1\": 50}","headsign":"{}","duration_avg":120,"n_vehicles":50,"d":1200,"route_I_counts":"{\"1\": 50}","source":10,"target":9,"layer":"L","from":"太原五一广场(地铁站)","to":"太原柳南(地铁站)"},"geometry":{"type":"LineString","coordinates":[[112.567573,37.859707],[112.56055,37.859377]]}},{"type":"Feature","properties":{"shape_id":"{}","direction_id":"{\"0\": 50}","headsign":"{}","duration_avg":120,"n_vehicles":50,"d":1200,"route_I_counts":"{\"1\": 50}","source":10,"target":11,"layer":"L","from":"太原五一广场(地铁站)","to":"太原太原站西广场(地铁站)"},"geometry":{"type":"LineString","coordinates":[[112.567573,37.859707],[112.576379,37.85987]]}},{"type":"Feature","properties":{"shape_id":"{}","direction_id":"{\"1\": 50}","headsign":"{}","duration_avg":120,"n_vehicles":50,"d":1200,"route_I_counts":"{\"1\": 50}","source":11,"target":10,"layer":"L","from":"太原太原站西广场(地铁站)","to":"太原五一广场(地铁站)"},"geometry":{"type":"LineString","coordinates":[[112.576379,37.85987],[112.567573,37.859707]]}},{"type":"Feature","properties":{"shape_id":"{}","direction_id":"{\"0\": 50}","headsign":"{}","duration_avg":120,"n_vehicles":50,"d":1200,"route_I_counts":"{\"1\": 50}","source":11,"target":12,"layer":"L","from":"太原太原站西广场(地铁站)","to":"太原太原站东广场(地铁站)"},"geometry":{"type":"LineString","coordinates":[[112.576379,37.85987],[112.584081,37.8599]]}},{"type":"Feature","properties":{"shape_id":"{}","direction_id":"{\"1\": 50}","headsign":"{}","duration_avg":120,"n_vehicles":50,"d":1200,"route_I_counts":"{\"1\": 50}","source":12,"target":11,"layer":"L","from":"太原太原站东广场(地铁站)","to":"太原太原站西广场(地铁站)"},"geometry":{"type":"LineString","coordinates":[[112.584081,37.8599],[112.576379,37.85987]]}},{"type":"Feature","properties":{"shape_id":"{}","direction_id":"{\"0\": 50}","headsign":"{}","duration_avg":60,"n_vehicles":50,"d":600,"route_I_counts":"{\"1\": 50}","source":12,"target":13,"layer":"L","from":"太原太原站东广场(地铁站)","to":"太原郝家沟(地铁站)"},"geometry":{"type":"LineString","coordinates":[[112.584081,37.8599],[112.592077,37.860114]]}},{"type":"Feature","properties":{"shape_id":"{}","direction_id":"{\"1\": 50}","headsign":"{}","duration_avg":60,"n_vehicles":50,"d":600,"route_I_counts":"{\"1\": 50}","source":13,"target":12,"layer":"L","from":"太原郝家沟(地铁站)","to":"太原太原站东广场(地铁站)"},"geometry":{"type":"LineString","coordinates":[[112.592077,37.860114],[112.584081,37.8599]]}},{"type":"Feature","properties":{"shape_id":"{}","direction_id":"{\"0\": 50}","headsign":"{}","duration_avg":180,"n_vehicles":50,"d":1800,"route_I_counts":"{\"1\": 50}","source":13,"target":14,"layer":"L","from":"太原郝家沟(地铁站)","to":"太原朝阳街(地铁站)"},"geometry":{"type":"LineString","coordinates":[[112.592077,37.860114],[112.598408,37.855054]]}},{"type":"Feature","properties":{"shape_id":"{}","direction_id":"{\"1\": 50}","headsign":"{}","duration_avg":180,"n_vehicles":50,"d":1800,"route_I_counts":"{\"1\": 50}","source":14,"target":13,"layer":"L","from":"太原朝阳街(地铁站)","to":"太原郝家沟(地铁站)"},"geometry":{"type":"LineString","coordinates":[[112.598408,37.855054],[112.592077,37.860114]]}},{"type":"Feature","properties":{"shape_id":"{}","direction_id":"{\"0\": 50}","headsign":"{}","duration_avg":120,"n_vehicles":50,"d":1200,"route_I_counts":"{\"1\": 50}","source":14,"target":15,"layer":"L","from":"太原朝阳街(地铁站)","to":"太原双塔(地铁站)"},"geometry":{"type":"LineString","coordinates":[[112.598408,37.855054],[112.598345,37.839743]]}},{"type":"Feature","properties":{"shape_id":"{}","direction_id":"{\"1\": 50}","headsign":"{}","duration_avg":120,"n_vehicles":50,"d":1200,"route_I_counts":"{\"1\": 50}","source":15,"target":14,"layer":"L","from":"太原双塔(地铁站)","to":"太原朝阳街(地铁站)"},"geometry":{"type":"LineString","coordinates":[[112.598345,37.839743],[112.598408,37.855054]]}},{"type":"Feature","properties":{"shape_id":"{}","direction_id":"{\"0\": 50}","headsign":"{}","duration_avg":120,"n_vehicles":50,"d":1200,"route_I_counts":"{\"1\": 50}","source":15,"target":16,"layer":"L","from":"太原双塔(地铁站)","to":"太原南十方街(地铁站)"},"geometry":{"type":"LineString","coordinates":[[112.598345,37.839743],[112.599868,37.829802]]}},{"type":"Feature","properties":{"shape_id":"{}","direction_id":"{\"1\": 50}","headsign":"{}","duration_avg":120,"n_vehicles":50,"d":1200,"route_I_counts":"{\"1\": 50}","source":16,"target":15,"layer":"L","from":"太原南十方街(地铁站)","to":"太原双塔(地铁站)"},"geometry":{"type":"LineString","coordinates":[[112.599868,37.829802],[112.598345,37.839743]]}},{"type":"Feature","properties":{"shape_id":"{}","direction_id":"{\"0\": 50}","headsign":"{}","duration_avg":180,"n_vehicles":50,"d":1800,"route_I_counts":"{\"1\": 50}","source":16,"target":17,"layer":"L","from":"太原南十方街(地铁站)","to":"太原长风东街(地铁站)"},"geometry":{"type":"LineString","coordinates":[[112.599868,37.829802],[112.603976,37.817779]]}},{"type":"Feature","properties":{"shape_id":"{}","direction_id":"{\"1\": 50}","headsign":"{}","duration_avg":180,"n_vehicles":50,"d":1800,"route_I_counts":"{\"1\": 50}","source":17,"target":16,"layer":"L","from":"太原长风东街(地铁站)","to":"太原南十方街(地铁站)"},"geometry":{"type":"LineString","coordinates":[[112.603976,37.817779],[112.599868,37.829802]]}},{"type":"Feature","properties":{"shape_id":"{}","direction_id":"{\"0\": 50}","headsign":"{}","duration_avg":60,"n_vehicles":50,"d":600,"route_I_counts":"{\"1\": 50}","source":17,"target":18,"layer":"L","from":"太原长风东街(地铁站)","to":"太原学府东街(地铁站)"},"geometry":{"type":"LineString","coordinates":[[112.603976,37.817779],[112.603691,37.809353]]}},{"type":"Feature","properties":{"shape_id":"{}","direction_id":"{\"1\": 50}","headsign":"{}","duration_avg":60,"n_vehicles":50,"d":600,"route_I_counts":"{\"1\": 50}","source":18,"target":17,"layer":"L","from":"太原学府东街(地铁站)","to":"太原长风东街(地铁站)"},"geometry":{"type":"LineString","coordinates":[[112.603691,37.809353],[112.603976,37.817779]]}},{"type":"Feature","properties":{"shape_id":"{}","direction_id":"{\"0\": 50}","headsign":"{}","duration_avg":120,"n_vehicles":50,"d":1200,"route_I_counts":"{\"1\": 50}","source":18,"target":19,"layer":"L","from":"太原学府东街(地铁站)","to":"太原许坦东街(地铁站)"},"geometry":{"type":"LineString","coordinates":[[112.603691,37.809353],[112.603306,37.801203]]}},{"type":"Feature","properties":{"shape_id":"{}","direction_id":"{\"1\": 50}","headsign":"{}","duration_avg":120,"n_vehicles":50,"d":1200,"route_I_counts":"{\"1\": 50}","source":19,"target":18,"layer":"L","from":"太原许坦东街(地铁站)","to":"太原学府东街(地铁站)"},"geometry":{"type":"LineString","coordinates":[[112.603306,37.801203],[112.603691,37.809353]]}},{"type":"Feature","properties":{"shape_id":"{}","direction_id":"{\"0\": 50}","headsign":"{}","duration_avg":120,"n_vehicles":50,"d":1200,"route_I_counts":"{\"1\": 50}","source":19,"target":20,"layer":"L","from":"太原许坦东街(地铁站)","to":"太原太原南站(地铁站)"},"geometry":{"type":"LineString","coordinates":[[112.603306,37.801203],[112.606193,37.792271]]}},{"type":"Feature","properties":{"shape_id":"{}","direction_id":"{\"1\": 50}","headsign":"{}","duration_avg":120,"n_vehicles":50,"d":1200,"route_I_counts":"{\"1\": 50}","source":20,"target":19,"layer":"L","from":"太原太原南站(地铁站)","to":"太原许坦东街(地铁站)"},"geometry":{"type":"LineString","coordinates":[[112.606193,37.792271],[112.603306,37.801203]]}},{"type":"Feature","properties":{"shape_id":"{}","direction_id":"{\"0\": 50}","headsign":"{}","duration_avg":120,"n_vehicles":50,"d":1200,"route_I_counts":"{\"1\": 50}","source":20,"target":21,"layer":"L","from":"太原太原南站(地铁站)","to":"太原北营(地铁站)"},"geometry":{"type":"LineString","coordinates":[[112.606193,37.792271],[112.614308,37.785702]]}},{"type":"Feature","properties":{"shape_id":"{}","direction_id":"{\"1\": 50}","headsign":"{}","duration_avg":120,"n_vehicles":50,"d":1200,"route_I_counts":"{\"1\": 50}","source":21,"target":20,"layer":"L","from":"太原北营(地铁站)","to":"太原太原南站(地铁站)"},"geometry":{"type":"LineString","coordinates":[[112.614308,37.785702],[112.606193,37.792271]]}},{"type":"Feature","properties":{"shape_id":"{}","direction_id":"{\"0\": 50}","headsign":"{}","duration_avg":180,"n_vehicles":50,"d":1800,"route_I_counts":"{\"1\": 50}","source":21,"target":22,"layer":"L","from":"太原北营(地铁站)","to":"太原黄陵(地铁站)"},"geometry":{"type":"LineString","coordinates":[[112.614308,37.785702],[112.60554,37.773141]]}},{"type":"Feature","properties":{"shape_id":"{}","direction_id":"{\"1\": 50}","headsign":"{}","duration_avg":180,"n_vehicles":50,"d":1800,"route_I_counts":"{\"1\": 50}","source":22,"target":21,"layer":"L","from":"太原黄陵(地铁站)","to":"太原北营(地铁站)"},"geometry":{"type":"LineString","coordinates":[[112.60554,37.773141],[112.614308,37.785702]]}},{"type":"Feature","properties":{"shape_id":"{}","direction_id":"{\"0\": 50}","headsign":"{}","duration_avg":240,"n_vehicles":50,"d":2400,"route_I_counts":"{\"1\": 50}","source":22,"target":23,"layer":"L","from":"太原黄陵(地铁站)","to":"太原武宿1号2号航站楼(地铁站)"},"geometry":{"type":"LineString","coordinates":[[112.60554,37.773141],[112.627759,37.755866]]}},{"type":"Feature","properties":{"shape_id":"{}","direction_id":"{\"1\": 50}","headsign":"{}","duration_avg":240,"n_vehicles":50,"d":2400,"route_I_counts":"{\"1\": 50}","source":23,"target":22,"layer":"L","from":"太原武宿1号2号航站楼(地铁站)","to":"太原黄陵(地铁站)"},"geometry":{"type":"LineString","coordinates":[[112.627759,37.755866],[112.60554,37.773141]]}},{"type":"Feature","properties":{"shape_id":"{}","direction_id":"{\"0\": 50}","headsign":"{}","duration_avg":125,"n_vehicles":50,"d":1250,"route_I_counts":"{\"2\": 50}","source":24,"target":25,"layer":"L","from":"太原尖草坪(地铁站)","to":"太原涧河(地铁站)"},"geometry":{"type":"LineString","coordinates":[[112.556638,37.915215],[112.556943,37.905166]]}},{"type":"Feature","properties":{"shape_id":"{}","direction_id":"{\"1\": 50}","headsign":"{}","duration_avg":125,"n_vehicles":50,"d":1250,"route_I_counts":"{\"2\": 50}","source":25,"target":24,"layer":"L","from":"太原涧河(地铁站)","to":"太原尖草坪(地铁站)"},"geometry":{"type":"LineString","coordinates":[[112.556943,37.905166],[112.556638,37.915215]]}},{"type":"Feature","properties":{"shape_id":"{}","direction_id":"{\"0\": 50}","headsign":"{}","duration_avg":121,"n_vehicles":50,"d":1210,"route_I_counts":"{\"2\": 50}","source":25,"target":26,"layer":"L","from":"太原涧河(地铁站)","to":"太原胜利街(地铁站)"},"geometry":{"type":"LineString","coordinates":[[112.556943,37.905166],[112.555974,37.896885]]}},{"type":"Feature","properties":{"shape_id":"{}","direction_id":"{\"1\": 50}","headsign":"{}","duration_avg":121,"n_vehicles":50,"d":1210,"route_I_counts":"{\"2\": 50}","source":26,"target":25,"layer":"L","from":"太原胜利街(地铁站)","to":"太原涧河(地铁站)"},"geometry":{"type":"LineString","coordinates":[[112.555974,37.896885],[112.556943,37.905166]]}},{"type":"Feature","properties":{"shape_id":"{}","direction_id":"{\"0\": 50}","headsign":"{}","duration_avg":120,"n_vehicles":50,"d":1200,"route_I_counts":"{\"2\": 50}","source":26,"target":27,"layer":"L","from":"太原胜利街(地铁站)","to":"太原大北门(地铁站)"},"geometry":{"type":"LineString","coordinates":[[112.555974,37.896885],[112.555753,37.887642]]}},{"type":"Feature","properties":{"shape_id":"{}","direction_id":"{\"1\": 50}","headsign":"{}","duration_avg":120,"n_vehicles":50,"d":1200,"route_I_counts":"{\"2\": 50}","source":27,"target":26,"layer":"L","from":"太原大北门(地铁站)","to":"太原胜利街(地铁站)"},"geometry":{"type":"LineString","coordinates":[[112.555753,37.887642],[112.555974,37.896885]]}},{"type":"Feature","properties":{"shape_id":"{}","direction_id":"{\"0\": 50}","headsign":"{}","duration_avg":128,"n_vehicles":50,"d":1280,"route_I_counts":"{\"2\": 50}","source":27,"target":28,"layer":"L","from":"太原大北门(地铁站)","to":"太原缉虎营(地铁站)"},"geometry":{"type":"LineString","coordinates":[[112.555753,37.887642],[112.555591,37.878313]]}},{"type":"Feature","properties":{"shape_id":"{}","direction_id":"{\"1\": 50}","headsign":"{}","duration_avg":128,"n_vehicles":50,"d":1280,"route_I_counts":"{\"2\": 50}","source":28,"target":27,"layer":"L","from":"太原缉虎营(地铁站)","to":"太原大北门(地铁站)"},"geometry":{"type":"LineString","coordinates":[[112.555591,37.878313],[112.555753,37.887642]]}},{"type":"Feature","properties":{"shape_id":"{}","direction_id":"{\"0\": 50}","headsign":"{}","duration_avg":108,"n_vehicles":50,"d":1080,"route_I_counts":"{\"2\": 50}","source":28,"target":29,"layer":"L","from":"太原缉虎营(地铁站)","to":"太原府西街(地铁站)"},"geometry":{"type":"LineString","coordinates":[[112.555591,37.878313],[112.554721,37.871615]]}},{"type":"Feature","properties":{"shape_id":"{}","direction_id":"{\"1\": 50}","headsign":"{}","duration_avg":108,"n_vehicles":50,"d":1080,"route_I_counts":"{\"2\": 50}","source":29,"target":28,"layer":"L","from":"太原府西街(地铁站)","to":"太原缉虎营(地铁站)"},"geometry":{"type":"LineString","coordinates":[[112.554721,37.871615],[112.555591,37.878313]]}},{"type":"Feature","properties":{"shape_id":"{}","direction_id":"{\"0\": 50}","headsign":"{}","duration_avg":108,"n_vehicles":50,"d":1080,"route_I_counts":"{\"2\": 50}","source":29,"target":30,"layer":"L","from":"太原府西街(地铁站)","to":"太原开化寺街(地铁站)"},"geometry":{"type":"LineString","coordinates":[[112.554721,37.871615],[112.553878,37.864557]]}},{"type":"Feature","properties":{"shape_id":"{}","direction_id":"{\"1\": 50}","headsign":"{}","duration_avg":108,"n_vehicles":50,"d":1080,"route_I_counts":"{\"2\": 50}","source":30,"target":29,"layer":"L","from":"太原开化寺街(地铁站)","to":"太原府西街(地铁站)"},"geometry":{"type":"LineString","coordinates":[[112.553878,37.864557],[112.554721,37.871615]]}},{"type":"Feature","properties":{"shape_id":"{}","direction_id":"{\"0\": 50}","headsign":"{}","duration_avg":109,"n_vehicles":50,"d":1090,"route_I_counts":"{\"2\": 50}","source":30,"target":8,"layer":"L","from":"太原开化寺街(地铁站)","to":"太原大南门(地铁站)"},"geometry":{"type":"LineString","coordinates":[[112.553878,37.864557],[112.553617,37.858695]]}},{"type":"Feature","properties":{"shape_id":"{}","direction_id":"{\"1\": 50}","headsign":"{}","duration_avg":109,"n_vehicles":50,"d":1090,"route_I_counts":"{\"2\": 50}","source":8,"target":30,"layer":"L","from":"太原大南门(地铁站)","to":"太原开化寺街(地铁站)"},"geometry":{"type":"LineString","coordinates":[[112.553617,37.858695],[112.553878,37.864557]]}},{"type":"Feature","properties":{"shape_id":"{}","direction_id":"{\"0\": 50}","headsign":"{}","duration_avg":140,"n_vehicles":50,"d":1400,"route_I_counts":"{\"2\": 50}","source":8,"target":31,"layer":"L","from":"太原大南门(地铁站)","to":"太原体育馆(地铁站)"},"geometry":{"type":"LineString","coordinates":[[112.553617,37.858695],[112.554785,37.845233]]}},{"type":"Feature","properties":{"shape_id":"{}","direction_id":"{\"1\": 50}","headsign":"{}","duration_avg":140,"n_vehicles":50,"d":1400,"route_I_counts":"{\"2\": 50}","source":31,"target":8,"layer":"L","from":"太原体育馆(地铁站)","to":"太原大南门(地铁站)"},"geometry":{"type":"LineString","coordinates":[[112.554785,37.845233],[112.553617,37.858695]]}},{"type":"Feature","properties":{"shape_id":"{}","direction_id":"{\"0\": 50}","headsign":"{}","duration_avg":118,"n_vehicles":50,"d":1180,"route_I_counts":"{\"2\": 50}","source":31,"target":32,"layer":"L","from":"太原体育馆(地铁站)","to":"太原南内环(地铁站)"},"geometry":{"type":"LineString","coordinates":[[112.554785,37.845233],[112.555057,37.835739]]}},{"type":"Feature","properties":{"shape_id":"{}","direction_id":"{\"1\": 50}","headsign":"{}","duration_avg":118,"n_vehicles":50,"d":1180,"route_I_counts":"{\"2\": 50}","source":32,"target":31,"layer":"L","from":"太原南内环(地铁站)","to":"太原体育馆(地铁站)"},"geometry":{"type":"LineString","coordinates":[[112.555057,37.835739],[112.554785,37.845233]]}},{"type":"Feature","properties":{"shape_id":"{}","direction_id":"{\"0\": 50}","headsign":"{}","duration_avg":114,"n_vehicles":50,"d":1140,"route_I_counts":"{\"2\": 50}","source":32,"target":33,"layer":"L","from":"太原南内环(地铁站)","to":"太原王村南街(地铁站)"},"geometry":{"type":"LineString","coordinates":[[112.555057,37.835739],[112.555298,37.829956]]}},{"type":"Feature","properties":{"shape_id":"{}","direction_id":"{\"1\": 50}","headsign":"{}","duration_avg":114,"n_vehicles":50,"d":1140,"route_I_counts":"{\"2\": 50}","source":33,"target":32,"layer":"L","from":"太原王村南街(地铁站)","to":"太原南内环(地铁站)"},"geometry":{"type":"LineString","coordinates":[[112.555298,37.829956],[112.555057,37.835739]]}},{"type":"Feature","properties":{"shape_id":"{}","direction_id":"{\"0\": 50}","headsign":"{}","duration_avg":149,"n_vehicles":50,"d":1490,"route_I_counts":"{\"2\": 50}","source":33,"target":34,"layer":"L","from":"太原王村南街(地铁站)","to":"太原长风街(地铁站)"},"geometry":{"type":"LineString","coordinates":[[112.555298,37.829956],[112.555546,37.816276]]}},{"type":"Feature","properties":{"shape_id":"{}","direction_id":"{\"1\": 50}","headsign":"{}","duration_avg":149,"n_vehicles":50,"d":1490,"route_I_counts":"{\"2\": 50}","source":34,"target":33,"layer":"L","from":"太原长风街(地铁站)","to":"太原王村南街(地铁站)"},"geometry":{"type":"LineString","coordinates":[[112.555546,37.816276],[112.555298,37.829956]]}},{"type":"Feature","properties":{"shape_id":"{}","direction_id":"{\"0\": 50}","headsign":"{}","duration_avg":128,"n_vehicles":50,"d":1280,"route_I_counts":"{\"2\": 50}","source":34,"target":35,"layer":"L","from":"太原长风街(地铁站)","to":"太原学府街(地铁站)"},"geometry":{"type":"LineString","coordinates":[[112.555546,37.816276],[112.555578,37.806409]]}},{"type":"Feature","properties":{"shape_id":"{}","direction_id":"{\"1\": 50}","headsign":"{}","duration_avg":128,"n_vehicles":50,"d":1280,"route_I_counts":"{\"2\": 50}","source":35,"target":34,"layer":"L","from":"太原学府街(地铁站)","to":"太原长风街(地铁站)"},"geometry":{"type":"LineString","coordinates":[[112.555578,37.806409],[112.555546,37.816276]]}},{"type":"Feature","properties":{"shape_id":"{}","direction_id":"{\"0\": 50}","headsign":"{}","duration_avg":136,"n_vehicles":50,"d":1360,"route_I_counts":"{\"2\": 50}","source":35,"target":36,"layer":"L","from":"太原学府街(地铁站)","to":"太原南中环(地铁站)"},"geometry":{"type":"LineString","coordinates":[[112.555578,37.806409],[112.555553,37.793766]]}},{"type":"Feature","properties":{"shape_id":"{}","direction_id":"{\"1\": 50}","headsign":"{}","duration_avg":136,"n_vehicles":50,"d":1360,"route_I_counts":"{\"2\": 50}","source":36,"target":35,"layer":"L","from":"太原南中环(地铁站)","to":"太原学府街(地铁站)"},"geometry":{"type":"LineString","coordinates":[[112.555553,37.793766],[112.555578,37.806409]]}},{"type":"Feature","properties":{"shape_id":"{}","direction_id":"{\"0\": 50}","headsign":"{}","duration_avg":105,"n_vehicles":50,"d":1050,"route_I_counts":"{\"2\": 50}","source":36,"target":37,"layer":"L","from":"太原南中环(地铁站)","to":"太原晋阳街(地铁站)"},"geometry":{"type":"LineString","coordinates":[[112.555553,37.793766],[112.555546,37.787939]]}},{"type":"Feature","properties":{"shape_id":"{}","direction_id":"{\"1\": 50}","headsign":"{}","duration_avg":105,"n_vehicles":50,"d":1050,"route_I_counts":"{\"2\": 50}","source":37,"target":36,"layer":"L","from":"太原晋阳街(地铁站)","to":"太原南中环(地铁站)"},"geometry":{"type":"LineString","coordinates":[[112.555546,37.787939],[112.555553,37.793766]]}},{"type":"Feature","properties":{"shape_id":"{}","direction_id":"{\"0\": 50}","headsign":"{}","duration_avg":110,"n_vehicles":50,"d":1100,"route_I_counts":"{\"2\": 50}","source":37,"target":38,"layer":"L","from":"太原晋阳街(地铁站)","to":"太原龙兴街(地铁站)"},"geometry":{"type":"LineString","coordinates":[[112.555546,37.787939],[112.555259,37.781125]]}},{"type":"Feature","properties":{"shape_id":"{}","direction_id":"{\"1\": 50}","headsign":"{}","duration_avg":110,"n_vehicles":50,"d":1100,"route_I_counts":"{\"2\": 50}","source":38,"target":37,"layer":"L","from":"太原龙兴街(地铁站)","to":"太原晋阳街(地铁站)"},"geometry":{"type":"LineString","coordinates":[[112.555259,37.781125],[112.555546,37.787939]]}},{"type":"Feature","properties":{"shape_id":"{}","direction_id":"{\"0\": 50}","headsign":"{}","duration_avg":121,"n_vehicles":50,"d":1210,"route_I_counts":"{\"2\": 50}","source":38,"target":39,"layer":"L","from":"太原龙兴街(地铁站)","to":"太原龙城公园(地铁站)"},"geometry":{"type":"LineString","coordinates":[[112.555259,37.781125],[112.554919,37.773153]]}},{"type":"Feature","properties":{"shape_id":"{}","direction_id":"{\"1\": 50}","headsign":"{}","duration_avg":121,"n_vehicles":50,"d":1210,"route_I_counts":"{\"2\": 50}","source":39,"target":38,"layer":"L","from":"太原龙城公园(地铁站)","to":"太原龙兴街(地铁站)"},"geometry":{"type":"LineString","coordinates":[[112.554919,37.773153],[112.555259,37.781125]]}},{"type":"Feature","properties":{"shape_id":"{}","direction_id":"{\"0\": 50}","headsign":"{}","duration_avg":117,"n_vehicles":50,"d":1170,"route_I_counts":"{\"2\": 50}","source":39,"target":40,"layer":"L","from":"太原龙城公园(地铁站)","to":"太原嘉节(地铁站)"},"geometry":{"type":"LineString","coordinates":[[112.554919,37.773153],[112.555963,37.763592]]}},{"type":"Feature","properties":{"shape_id":"{}","direction_id":"{\"1\": 50}","headsign":"{}","duration_avg":117,"n_vehicles":50,"d":1170,"route_I_counts":"{\"2\": 50}","source":40,"target":39,"layer":"L","from":"太原嘉节(地铁站)","to":"太原龙城公园(地铁站)"},"geometry":{"type":"LineString","coordinates":[[112.555963,37.763592],[112.554919,37.773153]]}},{"type":"Feature","properties":{"shape_id":"{}","direction_id":"{\"0\": 50}","headsign":"{}","duration_avg":138,"n_vehicles":50,"d":1380,"route_I_counts":"{\"2\": 50}","source":40,"target":41,"layer":"L","from":"太原嘉节(地铁站)","to":"太原电子西街(地铁站)"},"geometry":{"type":"LineString","coordinates":[[112.555963,37.763592],[112.558651,37.751762]]}},{"type":"Feature","properties":{"shape_id":"{}","direction_id":"{\"1\": 50}","headsign":"{}","duration_avg":138,"n_vehicles":50,"d":1380,"route_I_counts":"{\"2\": 50}","source":41,"target":40,"layer":"L","from":"太原电子西街(地铁站)","to":"太原嘉节(地铁站)"},"geometry":{"type":"LineString","coordinates":[[112.558651,37.751762],[112.555963,37.763592]]}},{"type":"Feature","properties":{"shape_id":"{}","direction_id":"{\"0\": 50}","headsign":"{}","duration_avg":135,"n_vehicles":50,"d":1350,"route_I_counts":"{\"2\": 50}","source":41,"target":42,"layer":"L","from":"太原电子西街(地铁站)","to":"太原康宁街(地铁站)"},"geometry":{"type":"LineString","coordinates":[[112.558651,37.751762],[112.561191,37.742364]]}},{"type":"Feature","properties":{"shape_id":"{}","direction_id":"{\"1\": 50}","headsign":"{}","duration_avg":135,"n_vehicles":50,"d":1350,"route_I_counts":"{\"2\": 50}","source":42,"target":41,"layer":"L","from":"太原康宁街(地铁站)","to":"太原电子西街(地铁站)"},"geometry":{"type":"LineString","coordinates":[[112.561191,37.742364],[112.558651,37.751762]]}},{"type":"Feature","properties":{"shape_id":"{}","direction_id":"{\"0\": 50}","headsign":"{}","duration_avg":144,"n_vehicles":50,"d":1440,"route_I_counts":"{\"2\": 50}","source":42,"target":43,"layer":"L","from":"太原康宁街(地铁站)","to":"太原通达街(地铁站)"},"geometry":{"type":"LineString","coordinates":[[112.561191,37.742364],[112.562321,37.729789]]}},{"type":"Feature","properties":{"shape_id":"{}","direction_id":"{\"1\": 50}","headsign":"{}","duration_avg":144,"n_vehicles":50,"d":1440,"route_I_counts":"{\"2\": 50}","source":43,"target":42,"layer":"L","from":"太原通达街(地铁站)","to":"太原康宁街(地铁站)"},"geometry":{"type":"LineString","coordinates":[[112.562321,37.729789],[112.561191,37.742364]]}},{"type":"Feature","properties":{"shape_id":"{}","direction_id":"{\"0\": 50}","headsign":"{}","duration_avg":99,"n_vehicles":50,"d":990,"route_I_counts":"{\"2\": 50}","source":43,"target":44,"layer":"L","from":"太原通达街(地铁站)","to":"太原化章西街(地铁站)"},"geometry":{"type":"LineString","coordinates":[[112.562321,37.729789],[112.561673,37.717358]]}},{"type":"Feature","properties":{"shape_id":"{}","direction_id":"{\"1\": 50}","headsign":"{}","duration_avg":99,"n_vehicles":50,"d":990,"route_I_counts":"{\"2\": 50}","source":44,"target":43,"layer":"L","from":"太原化章西街(地铁站)","to":"太原通达街(地铁站)"},"geometry":{"type":"LineString","coordinates":[[112.561673,37.717358],[112.562321,37.729789]]}},{"type":"Feature","properties":{"shape_id":"{}","direction_id":"{\"0\": 50}","headsign":"{}","duration_avg":120,"n_vehicles":50,"d":1200,"route_I_counts":"{\"2\": 50}","source":44,"target":45,"layer":"L","from":"太原化章西街(地铁站)","to":"太原西桥(地铁站)"},"geometry":{"type":"LineString","coordinates":[[112.561673,37.717358],[112.556588,37.707451]]}},{"type":"Feature","properties":{"shape_id":"{}","direction_id":"{\"1\": 50}","headsign":"{}","duration_avg":120,"n_vehicles":50,"d":1200,"route_I_counts":"{\"2\": 50}","source":45,"target":44,"layer":"L","from":"太原西桥(地铁站)","to":"太原化章西街(地铁站)"},"geometry":{"type":"LineString","coordinates":[[112.556588,37.707451],[112.561673,37.717358]]}}]}