{"type":"FeatureCollection","features":[{"type":"Feature","geometry":{"type":"Point","coordinates":[121.369184,28.655846]},"properties":{"name":"台州台州火车站(地铁站)","original_ids":"[1]","id":0,"layer":"stop"}},{"type":"Feature","geometry":{"type":"Point","coordinates":[121.398323,28.640937]},"properties":{"name":"台州学院路(地铁站)","original_ids":"[2]","id":1,"layer":"stop"}},{"type":"Feature","geometry":{"type":"Point","coordinates":[121.395183,28.624096]},"properties":{"name":"台州国博中心(地铁站)","original_ids":"[3]","id":2,"layer":"stop"}},{"type":"Feature","geometry":{"type":"Point","coordinates":[121.384419,28.613561]},"properties":{"name":"台州汇丰路(地铁站)","original_ids":"[4]","id":3,"layer":"stop"}},{"type":"Feature","geometry":{"type":"Point","coordinates":[121.364422,28.601516]},"properties":{"name":"台州锦泰(地铁站)","original_ids":"[5]","id":4,"layer":"stop"}},{"type":"Feature","geometry":{"type":"Point","coordinates":[121.332809,28.590124]},"properties":{"name":"台州恩泽医院(地铁站)","original_ids":"[6]","id":5,"layer":"stop"}},{"type":"Feature","geometry":{"type":"Point","coordinates":[121.324326,28.570803]},"properties":{"name":"台州台州汽车南站(地铁站)","original_ids":"[7]","id":6,"layer":"stop"}},{"type":"Feature","geometry":{"type":"Point","coordinates":[121.333297,28.499237]},"properties":{"name":"台州泽国(地铁站)","original_ids":"[8]","id":7,"layer":"stop"}},{"type":"Feature","geometry":{"type":"Point","coordinates":[121.322234,28.481998]},"properties":{"name":"台州温岭火车站(地铁站)","original_ids":"[9]","id":8,"layer":"stop"}},{"type":"Feature","geometry":{"type":"Point","coordinates":[121.328863,28.436543]},"properties":{"name":"台州汇川王(地铁站)","original_ids":"[10]","id":9,"layer":"stop"}},{"type":"Feature","geometry":{"type":"Point","coordinates":[121.339111,28.407444]},"properties":{"name":"台州温岭第一人民医院(地铁站)","original_ids":"[11]","id":10,"layer":"stop"}},{"type":"Feature","geometry":{"type":"Point","coordinates":[121.355579,28.396042]},"properties":{"name":"台州九龙大道(地铁站)","original_ids":"[12]","id":11,"layer":"stop"}},{"type":"Feature","geometry":{"type":"Point","coordinates":[121.372174,28.380477]},"properties":{"name":"台州万昌路(地铁站)","original_ids":"[13]","id":12,"layer":"stop"}},{"type":"Feature","geometry":{"type":"Point","coordinates":[121.381778,28.366876]},"properties":{"name":"台州南屏(地铁站)","original_ids":"[14]","id":13,"layer":"stop"}},{"type":"Feature","geometry":{"type":"Point","coordinates":[121.410551,28.318505]},"properties":{"name":"台州城南(地铁站)","original_ids":"[15]","id":14,"layer":"stop"}},{"type":"Feature","properties":{"shape_id":"{}","direction_id":"{\"0\": 50}","headsign":"{}","duration_avg":180,"n_vehicles":50,"d":1800,"route_I_counts":"{\"1\": 50}","source":0,"target":1,"layer":"L","from":"台州台州火车站(地铁站)","to":"台州学院路(地铁站)"},"geometry":{"type":"LineString","coordinates":[[121.369184,28.655846],[121.398323,28.640937]]}},{"type":"Feature","properties":{"shape_id":"{}","direction_id":"{\"1\": 50}","headsign":"{}","duration_avg":180,"n_vehicles":50,"d":1800,"route_I_counts":"{\"1\": 50}","source":1,"target":0,"layer":"L","from":"台州学院路(地铁站)","to":"台州台州火车站(地铁站)"},"geometry":{"type":"LineString","coordinates":[[121.398323,28.640937],[121.369184,28.655846]]}},{"type":"Feature","properties":{"shape_id":"{}","direction_id":"{\"0\": 50}","headsign":"{}","duration_avg":180,"n_vehicles":50,"d":1800,"route_I_counts":"{\"1\": 50}","source":1,"target":2,"layer":"L","from":"台州学院路(地铁站)","to":"台州国博中心(地铁站)"},"geometry":{"type":"LineString","coordinates":[[121.398323,28.640937],[121.395183,28.624096]]}},{"type":"Feature","properties":{"shape_id":"{}","direction_id":"{\"1\": 50}","headsign":"{}","duration_avg":180,"n_vehicles":50,"d":1800,"route_I_counts":"{\"1\": 50}","source":2,"target":1,"layer":"L","from":"台州国博中心(地铁站)","to":"台州学院路(地铁站)"},"geometry":{"type":"LineString","coordinates":[[121.395183,28.624096],[121.398323,28.640937]]}},{"type":"Feature","properties":{"shape_id":"{}","direction_id":"{\"0\": 50}","headsign":"{}","duration_avg":180,"n_vehicles":50,"d":1800,"route_I_counts":"{\"1\": 50}","source":2,"target":3,"layer":"L","from":"台州国博中心(地铁站)","to":"台州汇丰路(地铁站)"},"geometry":{"type":"LineString","coordinates":[[121.395183,28.624096],[121.384419,28.613561]]}},{"type":"Feature","properties":{"shape_id":"{}","direction_id":"{\"1\": 50}","headsign":"{}","duration_avg":180,"n_vehicles":50,"d":1800,"route_I_counts":"{\"1\": 50}","source":3,"target":2,"layer":"L","from":"台州汇丰路(地铁站)","to":"台州国博中心(地铁站)"},"geometry":{"type":"LineString","coordinates":[[121.384419,28.613561],[121.395183,28.624096]]}},{"type":"Feature","properties":{"shape_id":"{}","direction_id":"{\"0\": 50}","headsign":"{}","duration_avg":180,"n_vehicles":50,"d":1800,"route_I_counts":"{\"1\": 50}","source":3,"target":4,"layer":"L","from":"台州汇丰路(地铁站)","to":"台州锦泰(地铁站)"},"geometry":{"type":"LineString","coordinates":[[121.384419,28.613561],[121.364422,28.601516]]}},{"type":"Feature","properties":{"shape_id":"{}","direction_id":"{\"1\": 50}","headsign":"{}","duration_avg":180,"n_vehicles":50,"d":1800,"route_I_counts":"{\"1\": 50}","source":4,"target":3,"layer":"L","from":"台州锦泰(地铁站)","to":"台州汇丰路(地铁站)"},"geometry":{"type":"LineString","coordinates":[[121.364422,28.601516],[121.384419,28.613561]]}},{"type":"Feature","properties":{"shape_id":"{}","direction_id":"{\"0\": 50}","headsign":"{}","duration_avg":300,"n_vehicles":50,"d":3000,"route_I_counts":"{\"1\": 50}","source":4,"target":5,"layer":"L","from":"台州锦泰(地铁站)","to":"台州恩泽医院(地铁站)"},"geometry":{"type":"LineString","coordinates":[[121.364422,28.601516],[121.332809,28.590124]]}},{"type":"Feature","properties":{"shape_id":"{}","direction_id":"{\"1\": 50}","headsign":"{}","duration_avg":300,"n_vehicles":50,"d":3000,"route_I_counts":"{\"1\": 50}","source":5,"target":4,"layer":"L","from":"台州恩泽医院(地铁站)","to":"台州锦泰(地铁站)"},"geometry":{"type":"LineString","coordinates":[[121.332809,28.590124],[121.364422,28.601516]]}},{"type":"Feature","properties":{"shape_id":"{}","direction_id":"{\"0\": 50}","headsign":"{}","duration_avg":180,"n_vehicles":50,"d":1800,"route_I_counts":"{\"1\": 50}","source":5,"target":6,"layer":"L","from":"台州恩泽医院(地铁站)","to":"台州台州汽车南站(地铁站)"},"geometry":{"type":"LineString","coordinates":[[121.332809,28.590124],[121.324326,28.570803]]}},{"type":"Feature","properties":{"shape_id":"{}","direction_id":"{\"1\": 50}","headsign":"{}","duration_avg":180,"n_vehicles":50,"d":1800,"route_I_counts":"{\"1\": 50}","source":6,"target":5,"layer":"L","from":"台州台州汽车南站(地铁站)","to":"台州恩泽医院(地铁站)"},"geometry":{"type":"LineString","coordinates":[[121.324326,28.570803],[121.332809,28.590124]]}},{"type":"Feature","properties":{"shape_id":"{}","direction_id":"{\"0\": 50}","headsign":"{}","duration_avg":360,"n_vehicles":50,"d":3600,"route_I_counts":"{\"1\": 50}","source":6,"target":7,"layer":"L","from":"台州台州汽车南站(地铁站)","to":"台州泽国(地铁站)"},"geometry":{"type":"LineString","coordinates":[[121.324326,28.570803],[121.333297,28.499237]]}},{"type":"Feature","properties":{"shape_id":"{}","direction_id":"{\"1\": 50}","headsign":"{}","duration_avg":360,"n_vehicles":50,"d":3600,"route_I_counts":"{\"1\": 50}","source":7,"target":6,"layer":"L","from":"台州泽国(地铁站)","to":"台州台州汽车南站(地铁站)"},"geometry":{"type":"LineString","coordinates":[[121.333297,28.499237],[121.324326,28.570803]]}},{"type":"Feature","properties":{"shape_id":"{}","direction_id":"{\"0\": 50}","headsign":"{}","duration_avg":180,"n_vehicles":50,"d":1800,"route_I_counts":"{\"1\": 50}","source":7,"target":8,"layer":"L","from":"台州泽国(地铁站)","to":"台州温岭火车站(地铁站)"},"geometry":{"type":"LineString","coordinates":[[121.333297,28.499237],[121.322234,28.481998]]}},{"type":"Feature","properties":{"shape_id":"{}","direction_id":"{\"1\": 50}","headsign":"{}","duration_avg":180,"n_vehicles":50,"d":1800,"route_I_counts":"{\"1\": 50}","source":8,"target":7,"layer":"L","from":"台州温岭火车站(地铁站)","to":"台州泽国(地铁站)"},"geometry":{"type":"LineString","coordinates":[[121.322234,28.481998],[121.333297,28.499237]]}},{"type":"Feature","properties":{"shape_id":"{}","direction_id":"{\"0\": 50}","headsign":"{}","duration_avg":300,"n_vehicles":50,"d":3000,"route_I_counts":"{\"1\": 50}","source":8,"target":9,"layer":"L","from":"台州温岭火车站(地铁站)","to":"台州汇川王(地铁站)"},"geometry":{"type":"LineString","coordinates":[[121.322234,28.481998],[121.328863,28.436543]]}},{"type":"Feature","properties":{"shape_id":"{}","direction_id":"{\"1\": 50}","headsign":"{}","duration_avg":300,"n_vehicles":50,"d":3000,"route_I_counts":"{\"1\": 50}","source":9,"target":8,"layer":"L","from":"台州汇川王(地铁站)","to":"台州温岭火车站(地铁站)"},"geometry":{"type":"LineString","coordinates":[[121.328863,28.436543],[121.322234,28.481998]]}},{"type":"Feature","properties":{"shape_id":"{}","direction_id":"{\"0\": 50}","headsign":"{}","duration_avg":180,"n_vehicles":50,"d":1800,"route_I_counts":"{\"1\": 50}","source":9,"target":10,"layer":"L","from":"台州汇川王(地铁站)","to":"台州温岭第一人民医院(地铁站)"},"geometry":{"type":"LineString","coordinates":[[121.328863,28.436543],[121.339111,28.407444]]}},{"type":"Feature","properties":{"shape_id":"{}","direction_id":"{\"1\": 50}","headsign":"{}","duration_avg":180,"n_vehicles":50,"d":1800,"route_I_counts":"{\"1\": 50}","source":10,"target":9,"layer":"L","from":"台州温岭第一人民医院(地铁站)","to":"台州汇川王(地铁站)"},"geometry":{"type":"LineString","coordinates":[[121.339111,28.407444],[121.328863,28.436543]]}},{"type":"Feature","properties":{"shape_id":"{}","direction_id":"{\"0\": 50}","headsign":"{}","duration_avg":180,"n_vehicles":50,"d":1800,"route_I_counts":"{\"1\": 50}","source":10,"target":11,"layer":"L","from":"台州温岭第一人民医院(地铁站)","to":"台州九龙大道(地铁站)"},"geometry":{"type":"LineString","coordinates":[[121.339111,28.407444],[121.355579,28.396042]]}},{"type":"Feature","properties":{"shape_id":"{}","direction_id":"{\"1\": 50}","headsign":"{}","duration_avg":180,"n_vehicles":50,"d":1800,"route_I_counts":"{\"1\": 50}","source":11,"target":10,"layer":"L","from":"台州九龙大道(地铁站)","to":"台州温岭第一人民医院(地铁站)"},"geometry":{"type":"LineString","coordinates":[[121.355579,28.396042],[121.339111,28.407444]]}},{"type":"Feature","properties":{"shape_id":"{}","direction_id":"{\"0\": 50}","headsign":"{}","duration_avg":180,"n_vehicles":50,"d":1800,"route_I_counts":"{\"1\": 50}","source":11,"target":12,"layer":"L","from":"台州九龙大道(地铁站)","to":"台州万昌路(地铁站)"},"geometry":{"type":"LineString","coordinates":[[121.355579,28.396042],[121.372174,28.380477]]}},{"type":"Feature","properties":{"shape_id":"{}","direction_id":"{\"1\": 50}","headsign":"{}","duration_avg":180,"n_vehicles":50,"d":1800,"route_I_counts":"{\"1\": 50}","source":12,"target":11,"layer":"L","from":"台州万昌路(地铁站)","to":"台州九龙大道(地铁站)"},"geometry":{"type":"LineString","coordinates":[[121.372174,28.380477],[121.355579,28.396042]]}},{"type":"Feature","properties":{"shape_id":"{}","direction_id":"{\"0\": 50}","headsign":"{}","duration_avg":180,"n_vehicles":50,"d":1800,"route_I_counts":"{\"1\": 50}","source":12,"target":13,"layer":"L","from":"台州万昌路(地铁站)","to":"台州南屏(地铁站)"},"geometry":{"type":"LineString","coordinates":[[121.372174,28.380477],[121.381778,28.366876]]}},{"type":"Feature","properties":{"shape_id":"{}","direction_id":"{\"1\": 50}","headsign":"{}","duration_avg":180,"n_vehicles":50,"d":1800,"route_I_counts":"{\"1\": 50}","source":13,"target":12,"layer":"L","from":"台州南屏(地铁站)","to":"台州万昌路(地铁站)"},"geometry":{"type":"LineString","coordinates":[[121.381778,28.366876],[121.372174,28.380477]]}},{"type":"Feature","properties":{"shape_id":"{}","direction_id":"{\"0\": 50}","headsign":"{}","duration_avg":240,"n_vehicles":50,"d":2400,"route_I_counts":"{\"1\": 50}","source":13,"target":14,"layer":"L","from":"台州南屏(地铁站)","to":"台州城南(地铁站)"},"geometry":{"type":"LineString","coordinates":[[121.381778,28.366876],[121.410551,28.318505]]}},{"type":"Feature","properties":{"shape_id":"{}","direction_id":"{\"1\": 50}","headsign":"{}","duration_avg":240,"n_vehicles":50,"d":2400,"route_I_counts":"{\"1\": 50}","source":14,"target":13,"layer":"L","from":"台州城南(地铁站)","to":"台州南屏(地铁站)"},"geometry":{"type":"LineString","coordinates":[[121.410551,28.318505],[121.381778,28.366876]]}}]}