{"type":"FeatureCollection","features":[{"type":"Feature","geometry":{"type":"Point","coordinates":[121.51428,25.04869]},"properties":{"name":"Taipei Main Station","original_ids":"[1]","id":0,"layer":"stop"}},{"type":"Feature","geometry":{"type":"Point","coordinates":[121.48273,25.0548]},"properties":{"name":"Sanchong Station","original_ids":"[2]","id":1,"layer":"stop"}},{"type":"Feature","geometry":{"type":"Point","coordinates":[121.45918,25.06171]},"properties":{"name":"New Taipei Industrial Park Station","original_ids":"[3]","id":2,"layer":"stop"}},{"type":"Feature","geometry":{"type":"Point","coordinates":[121.44561,25.05924]},"properties":{"name":"Xinzhuang Fuduxin Station","original_ids":"[4]","id":3,"layer":"stop"}},{"type":"Feature","geometry":{"type":"Point","coordinates":[121.43943,25.05321]},"properties":{"name":"Taishan Station","original_ids":"[5]","id":4,"layer":"stop"}},{"type":"Feature","geometry":{"type":"Point","coordinates":[121.42262,25.03321]},"properties":{"name":"Taishan Guihe Station","original_ids":"[6]","id":5,"layer":"stop"}},{"type":"Feature","geometry":{"type":"Point","coordinates":[121.38543,25.04124]},"properties":{"name":"National Taiwan Sport University Station","original_ids":"[7]","id":6,"layer":"stop"}},{"type":"Feature","geometry":{"type":"Point","coordinates":[121.37073,25.06053]},"properties":{"name":"Chang Gung Memorial Hospital Station","original_ids":"[8]","id":7,"layer":"stop"}},{"type":"Feature","geometry":{"type":"Point","coordinates":[121.36134,25.0658]},"properties":{"name":"Linkou Station","original_ids":"[9]","id":8,"layer":"stop"}},{"type":"Feature","geometry":{"type":"Point","coordinates":[121.28476,25.0808]},"properties":{"name":"Shanbi Station","original_ids":"[10]","id":9,"layer":"stop"}},{"type":"Feature","geometry":{"type":"Point","coordinates":[121.26637,25.08646]},"properties":{"name":"Kengkou Station","original_ids":"[11]","id":10,"layer":"stop"}},{"type":"Feature","geometry":{"type":"Point","coordinates":[121.23783,25.0814]},"properties":{"name":"Airport Terminal 1 Station","original_ids":"[12]","id":11,"layer":"stop"}},{"type":"Feature","geometry":{"type":"Point","coordinates":[121.23213,25.07735]},"properties":{"name":"Airport Terminal 2 Station","original_ids":"[13]","id":12,"layer":"stop"}},{"type":"Feature","geometry":{"type":"Point","coordinates":[121.22142,25.07007]},"properties":{"name":"Airport Hotel Station","original_ids":"[14]","id":13,"layer":"stop"}},{"type":"Feature","geometry":{"type":"Point","coordinates":[121.21048,25.05595]},"properties":{"name":"Dayuan Station","original_ids":"[15]","id":14,"layer":"stop"}},{"type":"Feature","geometry":{"type":"Point","coordinates":[121.21556,25.03665]},"properties":{"name":"Hengshan Station","original_ids":"[16]","id":15,"layer":"stop"}},{"type":"Feature","geometry":{"type":"Point","coordinates":[121.22095,25.02417]},"properties":{"name":"Linghang Station","original_ids":"[17]","id":16,"layer":"stop"}},{"type":"Feature","geometry":{"type":"Point","coordinates":[121.21406,25.01374]},"properties":{"name":"Taoyuan HSR Station","original_ids":"[18]","id":17,"layer":"stop"}},{"type":"Feature","geometry":{"type":"Point","coordinates":[121.20349,25.00199]},"properties":{"name":"Taoyuan Sports Park Station","original_ids":"[19]","id":18,"layer":"stop"}},{"type":"Feature","geometry":{"type":"Point","coordinates":[121.21627,24.98025]},"properties":{"name":"Xingnan Station","original_ids":"[20]","id":19,"layer":"stop"}},{"type":"Feature","geometry":{"type":"Point","coordinates":[121.22114,24.96722]},"properties":{"name":"Huanbei Station","original_ids":"[21]","id":20,"layer":"stop"}},{"type":"Feature","geometry":{"type":"Point","coordinates":[121.21936,24.95823]},"properties":{"name":"Laojie River Station","original_ids":"[22]","id":21,"layer":"stop"}},{"type":"Feature","properties":{"shape_id":"{}","direction_id":"{\"0\": 50}","headsign":"{}","duration_avg":300,"n_vehicles":50,"d":3000,"route_I_counts":"{\"1\": 50}","source":0,"target":1,"layer":"L","from":"Taipei Main Station","to":"Sanchong Station"},"geometry":{"type":"LineString","coordinates":[[121.51428,25.04869],[121.48273,25.0548]]}},{"type":"Feature","properties":{"shape_id":"{}","direction_id":"{\"1\": 50}","headsign":"{}","duration_avg":300,"n_vehicles":50,"d":3000,"route_I_counts":"{\"1\": 50}","source":1,"target":0,"layer":"L","from":"Sanchong Station","to":"Taipei Main Station"},"geometry":{"type":"LineString","coordinates":[[121.48273,25.0548],[121.51428,25.04869]]}},{"type":"Feature","properties":{"shape_id":"{}","direction_id":"{\"0\": 50}","headsign":"{}","duration_avg":180,"n_vehicles":50,"d":1800,"route_I_counts":"{\"1\": 50}","source":1,"target":2,"layer":"L","from":"Sanchong Station","to":"New Taipei Industrial Park Station"},"geometry":{"type":"LineString","coordinates":[[121.48273,25.0548],[121.45918,25.06171]]}},{"type":"Feature","properties":{"shape_id":"{}","direction_id":"{\"1\": 50}","headsign":"{}","duration_avg":180,"n_vehicles":50,"d":1800,"route_I_counts":"{\"1\": 50}","source":2,"target":1,"layer":"L","from":"New Taipei Industrial Park Station","to":"Sanchong Station"},"geometry":{"type":"LineString","coordinates":[[121.45918,25.06171],[121.48273,25.0548]]}},{"type":"Feature","properties":{"shape_id":"{}","direction_id":"{\"0\": 50}","headsign":"{}","duration_avg":180,"n_vehicles":50,"d":1800,"route_I_counts":"{\"1\": 50}","source":2,"target":3,"layer":"L","from":"New Taipei Industrial Park Station","to":"Xinzhuang Fuduxin Station"},"geometry":{"type":"LineString","coordinates":[[121.45918,25.06171],[121.44561,25.05924]]}},{"type":"Feature","properties":{"shape_id":"{}","direction_id":"{\"1\": 50}","headsign":"{}","duration_avg":180,"n_vehicles":50,"d":1800,"route_I_counts":"{\"1\": 50}","source":3,"target":2,"layer":"L","from":"Xinzhuang Fuduxin Station","to":"New Taipei Industrial Park Station"},"geometry":{"type":"LineString","coordinates":[[121.44561,25.05924],[121.45918,25.06171]]}},{"type":"Feature","properties":{"shape_id":"{}","direction_id":"{\"0\": 50}","headsign":"{}","duration_avg":60,"n_vehicles":50,"d":600,"route_I_counts":"{\"1\": 50}","source":3,"target":4,"layer":"L","from":"Xinzhuang Fuduxin Station","to":"Taishan Station"},"geometry":{"type":"LineString","coordinates":[[121.44561,25.05924],[121.43943,25.05321]]}},{"type":"Feature","properties":{"shape_id":"{}","direction_id":"{\"1\": 50}","headsign":"{}","duration_avg":60,"n_vehicles":50,"d":600,"route_I_counts":"{\"1\": 50}","source":4,"target":3,"layer":"L","from":"Taishan Station","to":"Xinzhuang Fuduxin Station"},"geometry":{"type":"LineString","coordinates":[[121.43943,25.05321],[121.44561,25.05924]]}},{"type":"Feature","properties":{"shape_id":"{}","direction_id":"{\"0\": 50}","headsign":"{}","duration_avg":120,"n_vehicles":50,"d":1200,"route_I_counts":"{\"1\": 50}","source":4,"target":5,"layer":"L","from":"Taishan Station","to":"Taishan Guihe Station"},"geometry":{"type":"LineString","coordinates":[[121.43943,25.05321],[121.42262,25.03321]]}},{"type":"Feature","properties":{"shape_id":"{}","direction_id":"{\"1\": 50}","headsign":"{}","duration_avg":120,"n_vehicles":50,"d":1200,"route_I_counts":"{\"1\": 50}","source":5,"target":4,"layer":"L","from":"Taishan Guihe Station","to":"Taishan Station"},"geometry":{"type":"LineString","coordinates":[[121.42262,25.03321],[121.43943,25.05321]]}},{"type":"Feature","properties":{"shape_id":"{}","direction_id":"{\"0\": 50}","headsign":"{}","duration_avg":300,"n_vehicles":50,"d":3000,"route_I_counts":"{\"1\": 50}","source":5,"target":6,"layer":"L","from":"Taishan Guihe Station","to":"National Taiwan Sport University Station"},"geometry":{"type":"LineString","coordinates":[[121.42262,25.03321],[121.38543,25.04124]]}},{"type":"Feature","properties":{"shape_id":"{}","direction_id":"{\"1\": 50}","headsign":"{}","duration_avg":300,"n_vehicles":50,"d":3000,"route_I_counts":"{\"1\": 50}","source":6,"target":5,"layer":"L","from":"National Taiwan Sport University Station","to":"Taishan Guihe Station"},"geometry":{"type":"LineString","coordinates":[[121.38543,25.04124],[121.42262,25.03321]]}},{"type":"Feature","properties":{"shape_id":"{}","direction_id":"{\"0\": 50}","headsign":"{}","duration_avg":240,"n_vehicles":50,"d":2400,"route_I_counts":"{\"1\": 50}","source":6,"target":7,"layer":"L","from":"National Taiwan Sport University Station","to":"Chang Gung Memorial Hospital Station"},"geometry":{"type":"LineString","coordinates":[[121.38543,25.04124],[121.37073,25.06053]]}},{"type":"Feature","properties":{"shape_id":"{}","direction_id":"{\"1\": 50}","headsign":"{}","duration_avg":240,"n_vehicles":50,"d":2400,"route_I_counts":"{\"1\": 50}","source":7,"target":6,"layer":"L","from":"Chang Gung Memorial Hospital Station","to":"National Taiwan Sport University Station"},"geometry":{"type":"LineString","coordinates":[[121.37073,25.06053],[121.38543,25.04124]]}},{"type":"Feature","properties":{"shape_id":"{}","direction_id":"{\"0\": 50}","headsign":"{}","duration_avg":120,"n_vehicles":50,"d":1200,"route_I_counts":"{\"1\": 50}","source":7,"target":8,"layer":"L","from":"Chang Gung Memorial Hospital Station","to":"Linkou Station"},"geometry":{"type":"LineString","coordinates":[[121.37073,25.06053],[121.36134,25.0658]]}},{"type":"Feature","properties":{"shape_id":"{}","direction_id":"{\"1\": 50}","headsign":"{}","duration_avg":120,"n_vehicles":50,"d":1200,"route_I_counts":"{\"1\": 50}","source":8,"target":7,"layer":"L","from":"Linkou Station","to":"Chang Gung Memorial Hospital Station"},"geometry":{"type":"LineString","coordinates":[[121.36134,25.0658],[121.37073,25.06053]]}},{"type":"Feature","properties":{"shape_id":"{}","direction_id":"{\"0\": 50}","headsign":"{}","duration_avg":540,"n_vehicles":50,"d":5400,"route_I_counts":"{\"1\": 50}","source":8,"target":9,"layer":"L","from":"Linkou Station","to":"Shanbi Station"},"geometry":{"type":"LineString","coordinates":[[121.36134,25.0658],[121.28476,25.0808]]}},{"type":"Feature","properties":{"shape_id":"{}","direction_id":"{\"1\": 50}","headsign":"{}","duration_avg":540,"n_vehicles":50,"d":5400,"route_I_counts":"{\"1\": 50}","source":9,"target":8,"layer":"L","from":"Shanbi Station","to":"Linkou Station"},"geometry":{"type":"LineString","coordinates":[[121.28476,25.0808],[121.36134,25.0658]]}},{"type":"Feature","properties":{"shape_id":"{}","direction_id":"{\"0\": 50}","headsign":"{}","duration_avg":120,"n_vehicles":50,"d":1200,"route_I_counts":"{\"1\": 50}","source":9,"target":10,"layer":"L","from":"Shanbi Station","to":"Kengkou Station"},"geometry":{"type":"LineString","coordinates":[[121.28476,25.0808],[121.26637,25.08646]]}},{"type":"Feature","properties":{"shape_id":"{}","direction_id":"{\"1\": 50}","headsign":"{}","duration_avg":120,"n_vehicles":50,"d":1200,"route_I_counts":"{\"1\": 50}","source":10,"target":9,"layer":"L","from":"Kengkou Station","to":"Shanbi Station"},"geometry":{"type":"LineString","coordinates":[[121.26637,25.08646],[121.28476,25.0808]]}},{"type":"Feature","properties":{"shape_id":"{}","direction_id":"{\"0\": 50}","headsign":"{}","duration_avg":180,"n_vehicles":50,"d":1800,"route_I_counts":"{\"1\": 50}","source":10,"target":11,"layer":"L","from":"Kengkou Station","to":"Airport Terminal 1 Station"},"geometry":{"type":"LineString","coordinates":[[121.26637,25.08646],[121.23783,25.0814]]}},{"type":"Feature","properties":{"shape_id":"{}","direction_id":"{\"1\": 50}","headsign":"{}","duration_avg":180,"n_vehicles":50,"d":1800,"route_I_counts":"{\"1\": 50}","source":11,"target":10,"layer":"L","from":"Airport Terminal 1 Station","to":"Kengkou Station"},"geometry":{"type":"LineString","coordinates":[[121.23783,25.0814],[121.26637,25.08646]]}},{"type":"Feature","properties":{"shape_id":"{}","direction_id":"{\"0\": 50}","headsign":"{}","duration_avg":120,"n_vehicles":50,"d":1200,"route_I_counts":"{\"1\": 50}","source":11,"target":12,"layer":"L","from":"Airport Terminal 1 Station","to":"Airport Terminal 2 Station"},"geometry":{"type":"LineString","coordinates":[[121.23783,25.0814],[121.23213,25.07735]]}},{"type":"Feature","properties":{"shape_id":"{}","direction_id":"{\"1\": 50}","headsign":"{}","duration_avg":120,"n_vehicles":50,"d":1200,"route_I_counts":"{\"1\": 50}","source":12,"target":11,"layer":"L","from":"Airport Terminal 2 Station","to":"Airport Terminal 1 Station"},"geometry":{"type":"LineString","coordinates":[[121.23213,25.07735],[121.23783,25.0814]]}},{"type":"Feature","properties":{"shape_id":"{}","direction_id":"{\"0\": 50}","headsign":"{}","duration_avg":180,"n_vehicles":50,"d":1800,"route_I_counts":"{\"1\": 50}","source":12,"target":13,"layer":"L","from":"Airport Terminal 2 Station","to":"Airport Hotel Station"},"geometry":{"type":"LineString","coordinates":[[121.23213,25.07735],[121.22142,25.07007]]}},{"type":"Feature","properties":{"shape_id":"{}","direction_id":"{\"1\": 50}","headsign":"{}","duration_avg":180,"n_vehicles":50,"d":1800,"route_I_counts":"{\"1\": 50}","source":13,"target":12,"layer":"L","from":"Airport Hotel Station","to":"Airport Terminal 2 Station"},"geometry":{"type":"LineString","coordinates":[[121.22142,25.07007],[121.23213,25.07735]]}},{"type":"Feature","properties":{"shape_id":"{}","direction_id":"{\"0\": 50}","headsign":"{}","duration_avg":180,"n_vehicles":50,"d":1800,"route_I_counts":"{\"1\": 50}","source":13,"target":14,"layer":"L","from":"Airport Hotel Station","to":"Dayuan Station"},"geometry":{"type":"LineString","coordinates":[[121.22142,25.07007],[121.21048,25.05595]]}},{"type":"Feature","properties":{"shape_id":"{}","direction_id":"{\"1\": 50}","headsign":"{}","duration_avg":180,"n_vehicles":50,"d":1800,"route_I_counts":"{\"1\": 50}","source":14,"target":13,"layer":"L","from":"Dayuan Station","to":"Airport Hotel Station"},"geometry":{"type":"LineString","coordinates":[[121.21048,25.05595],[121.22142,25.07007]]}},{"type":"Feature","properties":{"shape_id":"{}","direction_id":"{\"0\": 50}","headsign":"{}","duration_avg":180,"n_vehicles":50,"d":1800,"route_I_counts":"{\"1\": 50}","source":14,"target":15,"layer":"L","from":"Dayuan Station","to":"Hengshan Station"},"geometry":{"type":"LineString","coordinates":[[121.21048,25.05595],[121.21556,25.03665]]}},{"type":"Feature","properties":{"shape_id":"{}","direction_id":"{\"1\": 50}","headsign":"{}","duration_avg":180,"n_vehicles":50,"d":1800,"route_I_counts":"{\"1\": 50}","source":15,"target":14,"layer":"L","from":"Hengshan Station","to":"Dayuan Station"},"geometry":{"type":"LineString","coordinates":[[121.21556,25.03665],[121.21048,25.05595]]}},{"type":"Feature","properties":{"shape_id":"{}","direction_id":"{\"0\": 50}","headsign":"{}","duration_avg":180,"n_vehicles":50,"d":1800,"route_I_counts":"{\"1\": 50}","source":15,"target":16,"layer":"L","from":"Hengshan Station","to":"Linghang Station"},"geometry":{"type":"LineString","coordinates":[[121.21556,25.03665],[121.22095,25.02417]]}},{"type":"Feature","properties":{"shape_id":"{}","direction_id":"{\"1\": 50}","headsign":"{}","duration_avg":180,"n_vehicles":50,"d":1800,"route_I_counts":"{\"1\": 50}","source":16,"target":15,"layer":"L","from":"Linghang Station","to":"Hengshan Station"},"geometry":{"type":"LineString","coordinates":[[121.22095,25.02417],[121.21556,25.03665]]}},{"type":"Feature","properties":{"shape_id":"{}","direction_id":"{\"0\": 50}","headsign":"{}","duration_avg":300,"n_vehicles":50,"d":3000,"route_I_counts":"{\"1\": 50}","source":16,"target":17,"layer":"L","from":"Linghang Station","to":"Taoyuan HSR Station"},"geometry":{"type":"LineString","coordinates":[[121.22095,25.02417],[121.21406,25.01374]]}},{"type":"Feature","properties":{"shape_id":"{}","direction_id":"{\"1\": 50}","headsign":"{}","duration_avg":300,"n_vehicles":50,"d":3000,"route_I_counts":"{\"1\": 50}","source":17,"target":16,"layer":"L","from":"Taoyuan HSR Station","to":"Linghang Station"},"geometry":{"type":"LineString","coordinates":[[121.21406,25.01374],[121.22095,25.02417]]}},{"type":"Feature","properties":{"shape_id":"{}","direction_id":"{\"0\": 50}","headsign":"{}","duration_avg":120,"n_vehicles":50,"d":1200,"route_I_counts":"{\"1\": 50}","source":17,"target":18,"layer":"L","from":"Taoyuan HSR Station","to":"Taoyuan Sports Park Station"},"geometry":{"type":"LineString","coordinates":[[121.21406,25.01374],[121.20349,25.00199]]}},{"type":"Feature","properties":{"shape_id":"{}","direction_id":"{\"1\": 50}","headsign":"{}","duration_avg":120,"n_vehicles":50,"d":1200,"route_I_counts":"{\"1\": 50}","source":18,"target":17,"layer":"L","from":"Taoyuan Sports Park Station","to":"Taoyuan HSR Station"},"geometry":{"type":"LineString","coordinates":[[121.20349,25.00199],[121.21406,25.01374]]}},{"type":"Feature","properties":{"shape_id":"{}","direction_id":"{\"0\": 50}","headsign":"{}","duration_avg":240,"n_vehicles":50,"d":2400,"route_I_counts":"{\"1\": 50}","source":18,"target":19,"layer":"L","from":"Taoyuan Sports Park Station","to":"Xingnan Station"},"geometry":{"type":"LineString","coordinates":[[121.20349,25.00199],[121.21627,24.98025]]}},{"type":"Feature","properties":{"shape_id":"{}","direction_id":"{\"1\": 50}","headsign":"{}","duration_avg":240,"n_vehicles":50,"d":2400,"route_I_counts":"{\"1\": 50}","source":19,"target":18,"layer":"L","from":"Xingnan Station","to":"Taoyuan Sports Park Station"},"geometry":{"type":"LineString","coordinates":[[121.21627,24.98025],[121.20349,25.00199]]}},{"type":"Feature","properties":{"shape_id":"{}","direction_id":"{\"0\": 50}","headsign":"{}","duration_avg":240,"n_vehicles":50,"d":2400,"route_I_counts":"{\"1\": 50}","source":19,"target":20,"layer":"L","from":"Xingnan Station","to":"Huanbei Station"},"geometry":{"type":"LineString","coordinates":[[121.21627,24.98025],[121.22114,24.96722]]}},{"type":"Feature","properties":{"shape_id":"{}","direction_id":"{\"1\": 50}","headsign":"{}","duration_avg":240,"n_vehicles":50,"d":2400,"route_I_counts":"{\"1\": 50}","source":20,"target":19,"layer":"L","from":"Huanbei Station","to":"Xingnan Station"},"geometry":{"type":"LineString","coordinates":[[121.22114,24.96722],[121.21627,24.98025]]}},{"type":"Feature","properties":{"shape_id":"{}","direction_id":"{\"0\": 50}","headsign":"{}","duration_avg":120,"n_vehicles":50,"d":1200,"route_I_counts":"{\"1\": 50}","source":20,"target":21,"layer":"L","from":"Huanbei Station","to":"Laojie River Station"},"geometry":{"type":"LineString","coordinates":[[121.22114,24.96722],[121.21936,24.95823]]}},{"type":"Feature","properties":{"shape_id":"{}","direction_id":"{\"1\": 50}","headsign":"{}","duration_avg":120,"n_vehicles":50,"d":1200,"route_I_counts":"{\"1\": 50}","source":21,"target":20,"layer":"L","from":"Laojie River Station","to":"Huanbei Station"},"geometry":{"type":"LineString","coordinates":[[121.21936,24.95823],[121.22114,24.96722]]}}]}