{"type":"FeatureCollection","features":[{"type":"Feature","geometry":{"type":"Point","coordinates":[120.946892,27.92322]},"properties":{"name":"温州双瓯大道(地铁站)","original_ids":"[1]","id":0,"layer":"stop"}},{"type":"Feature","geometry":{"type":"Point","coordinates":[120.930948,27.933902]},"properties":{"name":"温州瓯华(地铁站)","original_ids":"[2]","id":1,"layer":"stop"}},{"type":"Feature","geometry":{"type":"Point","coordinates":[120.915992,27.943772]},"properties":{"name":"温州瓯江口(地铁站)","original_ids":"[3]","id":2,"layer":"stop"}},{"type":"Feature","geometry":{"type":"Point","coordinates":[120.888139,27.956543]},"properties":{"name":"温州灵昆(地铁站)","original_ids":"[4]","id":3,"layer":"stop"}},{"type":"Feature","geometry":{"type":"Point","coordinates":[120.842852,27.909212]},"properties":{"name":"温州机场(地铁站)","original_ids":"[5]","id":4,"layer":"stop"}},{"type":"Feature","geometry":{"type":"Point","coordinates":[120.823983,27.91172]},"properties":{"name":"温州永中(地铁站)","original_ids":"[6]","id":5,"layer":"stop"}},{"type":"Feature","geometry":{"type":"Point","coordinates":[120.806888,27.918806]},"properties":{"name":"温州奥体中心(地铁站)","original_ids":"[7]","id":6,"layer":"stop"}},{"type":"Feature","geometry":{"type":"Point","coordinates":[120.778981,27.933705]},"properties":{"name":"温州瑶溪(地铁站)","original_ids":"[8]","id":7,"layer":"stop"}},{"type":"Feature","geometry":{"type":"Point","coordinates":[120.780296,27.957884]},"properties":{"name":"温州科技城(地铁站)","original_ids":"[9]","id":8,"layer":"stop"}},{"type":"Feature","geometry":{"type":"Point","coordinates":[120.758769,27.961842]},"properties":{"name":"温州龙腾路(地铁站)","original_ids":"[10]","id":9,"layer":"stop"}},{"type":"Feature","geometry":{"type":"Point","coordinates":[120.709847,27.976225]},"properties":{"name":"温州三垟湿地(地铁站)","original_ids":"[11]","id":10,"layer":"stop"}},{"type":"Feature","geometry":{"type":"Point","coordinates":[120.69285,27.982821]},"properties":{"name":"温州惠民路(地铁站)","original_ids":"[12]","id":11,"layer":"stop"}},{"type":"Feature","geometry":{"type":"Point","coordinates":[120.665737,27.982559]},"properties":{"name":"温州龙霞路(地铁站)","original_ids":"[13]","id":12,"layer":"stop"}},{"type":"Feature","geometry":{"type":"Point","coordinates":[120.645989,27.9792]},"properties":{"name":"温州德政(地铁站)","original_ids":"[14]","id":13,"layer":"stop"}},{"type":"Feature","geometry":{"type":"Point","coordinates":[120.623651,27.980803]},"properties":{"name":"温州新桥(地铁站)","original_ids":"[15]","id":14,"layer":"stop"}},{"type":"Feature","geometry":{"type":"Point","coordinates":[120.579953,27.970425]},"properties":{"name":"温州动车南站(地铁站)","original_ids":"[16]","id":15,"layer":"stop"}},{"type":"Feature","geometry":{"type":"Point","coordinates":[120.569972,27.944268]},"properties":{"name":"温州潘桥(地铁站)","original_ids":"[17]","id":16,"layer":"stop"}},{"type":"Feature","geometry":{"type":"Point","coordinates":[120.564865,27.924261]},"properties":{"name":"温州桐岭(地铁站)","original_ids":"[18]","id":17,"layer":"stop"}},{"type":"Feature","geometry":{"type":"Point","coordinates":[120.998816,28.132416]},"properties":{"name":"温州清东路(地铁站)","original_ids":"[19]","id":18,"layer":"stop"}},{"type":"Feature","geometry":{"type":"Point","coordinates":[120.982177,28.111771]},"properties":{"name":"温州旭阳路(地铁站)","original_ids":"[20]","id":19,"layer":"stop"}},{"type":"Feature","geometry":{"type":"Point","coordinates":[120.963892,28.09119]},"properties":{"name":"温州万岙(地铁站)","original_ids":"[21]","id":20,"layer":"stop"}},{"type":"Feature","geometry":{"type":"Point","coordinates":[120.970063,28.067343]},"properties":{"name":"温州盐盆(地铁站)","original_ids":"[22]","id":21,"layer":"stop"}},{"type":"Feature","geometry":{"type":"Point","coordinates":[120.974625,28.042136]},"properties":{"name":"温州新望(地铁站)","original_ids":"[23]","id":22,"layer":"stop"}},{"type":"Feature","geometry":{"type":"Point","coordinates":[120.975568,28.022469]},"properties":{"name":"温州翁垟(地铁站)","original_ids":"[24]","id":23,"layer":"stop"}},{"type":"Feature","geometry":{"type":"Point","coordinates":[120.951205,27.995427]},"properties":{"name":"温州柳市东(地铁站)","original_ids":"[25]","id":24,"layer":"stop"}},{"type":"Feature","geometry":{"type":"Point","coordinates":[120.819162,27.890598]},"properties":{"name":"温州永兴(地铁站)","original_ids":"[26]","id":25,"layer":"stop"}},{"type":"Feature","geometry":{"type":"Point","coordinates":[120.803287,27.874303]},"properties":{"name":"温州沙城(地铁站)","original_ids":"[27]","id":26,"layer":"stop"}},{"type":"Feature","geometry":{"type":"Point","coordinates":[120.787981,27.851406]},"properties":{"name":"温州天河(地铁站)","original_ids":"[28]","id":27,"layer":"stop"}},{"type":"Feature","geometry":{"type":"Point","coordinates":[120.774345,27.829666]},"properties":{"name":"温州海城(地铁站)","original_ids":"[29]","id":28,"layer":"stop"}},{"type":"Feature","geometry":{"type":"Point","coordinates":[120.731313,27.812234]},"properties":{"name":"温州鲍田(地铁站)","original_ids":"[30]","id":29,"layer":"stop"}},{"type":"Feature","geometry":{"type":"Point","coordinates":[120.715314,27.795257]},"properties":{"name":"温州大典下(地铁站)","original_ids":"[31]","id":30,"layer":"stop"}},{"type":"Feature","geometry":{"type":"Point","coordinates":[120.705519,27.786201]},"properties":{"name":"温州汀田(地铁站)","original_ids":"[32]","id":31,"layer":"stop"}},{"type":"Feature","geometry":{"type":"Point","coordinates":[120.691273,27.772363]},"properties":{"name":"温州莘塍(地铁站)","original_ids":"[33]","id":32,"layer":"stop"}},{"type":"Feature","geometry":{"type":"Point","coordinates":[120.679406,27.760785]},"properties":{"name":"温州上望(地铁站)","original_ids":"[34]","id":33,"layer":"stop"}},{"type":"Feature","geometry":{"type":"Point","coordinates":[120.667882,27.758432]},"properties":{"name":"温州上东路(地铁站)","original_ids":"[35]","id":34,"layer":"stop"}},{"type":"Feature","geometry":{"type":"Point","coordinates":[120.651,27.756458]},"properties":{"name":"温州东山(地铁站)","original_ids":"[36]","id":35,"layer":"stop"}},{"type":"Feature","properties":{"shape_id":"{}","direction_id":"{\"0\": 50}","headsign":"{}","duration_avg":120,"n_vehicles":50,"d":1200,"route_I_counts":"{\"1\": 50}","source":0,"target":1,"layer":"L","from":"温州双瓯大道(地铁站)","to":"温州瓯华(地铁站)"},"geometry":{"type":"LineString","coordinates":[[120.946892,27.92322],[120.930948,27.933902]]}},{"type":"Feature","properties":{"shape_id":"{}","direction_id":"{\"1\": 50}","headsign":"{}","duration_avg":120,"n_vehicles":50,"d":1200,"route_I_counts":"{\"1\": 50}","source":1,"target":0,"layer":"L","from":"温州瓯华(地铁站)","to":"温州双瓯大道(地铁站)"},"geometry":{"type":"LineString","coordinates":[[120.930948,27.933902],[120.946892,27.92322]]}},{"type":"Feature","properties":{"shape_id":"{}","direction_id":"{\"0\": 50}","headsign":"{}","duration_avg":180,"n_vehicles":50,"d":1800,"route_I_counts":"{\"1\": 50}","source":1,"target":2,"layer":"L","from":"温州瓯华(地铁站)","to":"温州瓯江口(地铁站)"},"geometry":{"type":"LineString","coordinates":[[120.930948,27.933902],[120.915992,27.943772]]}},{"type":"Feature","properties":{"shape_id":"{}","direction_id":"{\"1\": 50}","headsign":"{}","duration_avg":180,"n_vehicles":50,"d":1800,"route_I_counts":"{\"1\": 50}","source":2,"target":1,"layer":"L","from":"温州瓯江口(地铁站)","to":"温州瓯华(地铁站)"},"geometry":{"type":"LineString","coordinates":[[120.915992,27.943772],[120.930948,27.933902]]}},{"type":"Feature","properties":{"shape_id":"{}","direction_id":"{\"0\": 50}","headsign":"{}","duration_avg":180,"n_vehicles":50,"d":1800,"route_I_counts":"{\"1\": 50}","source":2,"target":3,"layer":"L","from":"温州瓯江口(地铁站)","to":"温州灵昆(地铁站)"},"geometry":{"type":"LineString","coordinates":[[120.915992,27.943772],[120.888139,27.956543]]}},{"type":"Feature","properties":{"shape_id":"{}","direction_id":"{\"1\": 50}","headsign":"{}","duration_avg":180,"n_vehicles":50,"d":1800,"route_I_counts":"{\"1\": 50}","source":3,"target":2,"layer":"L","from":"温州灵昆(地铁站)","to":"温州瓯江口(地铁站)"},"geometry":{"type":"LineString","coordinates":[[120.888139,27.956543],[120.915992,27.943772]]}},{"type":"Feature","properties":{"shape_id":"{}","direction_id":"{\"0\": 50}","headsign":"{}","duration_avg":300,"n_vehicles":50,"d":3000,"route_I_counts":"{\"1\": 50, \"2\": 50}","source":3,"target":4,"layer":"L","from":"温州灵昆(地铁站)","to":"温州机场(地铁站)"},"geometry":{"type":"LineString","coordinates":[[120.888139,27.956543],[120.842852,27.909212]]}},{"type":"Feature","properties":{"shape_id":"{}","direction_id":"{\"1\": 50}","headsign":"{}","duration_avg":300,"n_vehicles":50,"d":3000,"route_I_counts":"{\"1\": 50, \"2\": 50}","source":4,"target":3,"layer":"L","from":"温州机场(地铁站)","to":"温州灵昆(地铁站)"},"geometry":{"type":"LineString","coordinates":[[120.842852,27.909212],[120.888139,27.956543]]}},{"type":"Feature","properties":{"shape_id":"{}","direction_id":"{\"0\": 50}","headsign":"{}","duration_avg":180,"n_vehicles":50,"d":1800,"route_I_counts":"{\"1\": 50}","source":4,"target":5,"layer":"L","from":"温州机场(地铁站)","to":"温州永中(地铁站)"},"geometry":{"type":"LineString","coordinates":[[120.842852,27.909212],[120.823983,27.91172]]}},{"type":"Feature","properties":{"shape_id":"{}","direction_id":"{\"1\": 50}","headsign":"{}","duration_avg":180,"n_vehicles":50,"d":1800,"route_I_counts":"{\"1\": 50}","source":5,"target":4,"layer":"L","from":"温州永中(地铁站)","to":"温州机场(地铁站)"},"geometry":{"type":"LineString","coordinates":[[120.823983,27.91172],[120.842852,27.909212]]}},{"type":"Feature","properties":{"shape_id":"{}","direction_id":"{\"0\": 50}","headsign":"{}","duration_avg":180,"n_vehicles":50,"d":1800,"route_I_counts":"{\"1\": 50}","source":5,"target":6,"layer":"L","from":"温州永中(地铁站)","to":"温州奥体中心(地铁站)"},"geometry":{"type":"LineString","coordinates":[[120.823983,27.91172],[120.806888,27.918806]]}},{"type":"Feature","properties":{"shape_id":"{}","direction_id":"{\"1\": 50}","headsign":"{}","duration_avg":180,"n_vehicles":50,"d":1800,"route_I_counts":"{\"1\": 50}","source":6,"target":5,"layer":"L","from":"温州奥体中心(地铁站)","to":"温州永中(地铁站)"},"geometry":{"type":"LineString","coordinates":[[120.806888,27.918806],[120.823983,27.91172]]}},{"type":"Feature","properties":{"shape_id":"{}","direction_id":"{\"0\": 50}","headsign":"{}","duration_avg":240,"n_vehicles":50,"d":2400,"route_I_counts":"{\"1\": 50}","source":6,"target":7,"layer":"L","from":"温州奥体中心(地铁站)","to":"温州瑶溪(地铁站)"},"geometry":{"type":"LineString","coordinates":[[120.806888,27.918806],[120.778981,27.933705]]}},{"type":"Feature","properties":{"shape_id":"{}","direction_id":"{\"1\": 50}","headsign":"{}","duration_avg":240,"n_vehicles":50,"d":2400,"route_I_counts":"{\"1\": 50}","source":7,"target":6,"layer":"L","from":"温州瑶溪(地铁站)","to":"温州奥体中心(地铁站)"},"geometry":{"type":"LineString","coordinates":[[120.778981,27.933705],[120.806888,27.918806]]}},{"type":"Feature","properties":{"shape_id":"{}","direction_id":"{\"0\": 50}","headsign":"{}","duration_avg":180,"n_vehicles":50,"d":1800,"route_I_counts":"{\"1\": 50}","source":7,"target":8,"layer":"L","from":"温州瑶溪(地铁站)","to":"温州科技城(地铁站)"},"geometry":{"type":"LineString","coordinates":[[120.778981,27.933705],[120.780296,27.957884]]}},{"type":"Feature","properties":{"shape_id":"{}","direction_id":"{\"1\": 50}","headsign":"{}","duration_avg":180,"n_vehicles":50,"d":1800,"route_I_counts":"{\"1\": 50}","source":8,"target":7,"layer":"L","from":"温州科技城(地铁站)","to":"温州瑶溪(地铁站)"},"geometry":{"type":"LineString","coordinates":[[120.780296,27.957884],[120.778981,27.933705]]}},{"type":"Feature","properties":{"shape_id":"{}","direction_id":"{\"0\": 50}","headsign":"{}","duration_avg":180,"n_vehicles":50,"d":1800,"route_I_counts":"{\"1\": 50}","source":8,"target":9,"layer":"L","from":"温州科技城(地铁站)","to":"温州龙腾路(地铁站)"},"geometry":{"type":"LineString","coordinates":[[120.780296,27.957884],[120.758769,27.961842]]}},{"type":"Feature","properties":{"shape_id":"{}","direction_id":"{\"1\": 50}","headsign":"{}","duration_avg":180,"n_vehicles":50,"d":1800,"route_I_counts":"{\"1\": 50}","source":9,"target":8,"layer":"L","from":"温州龙腾路(地铁站)","to":"温州科技城(地铁站)"},"geometry":{"type":"LineString","coordinates":[[120.758769,27.961842],[120.780296,27.957884]]}},{"type":"Feature","properties":{"shape_id":"{}","direction_id":"{\"0\": 50}","headsign":"{}","duration_avg":300,"n_vehicles":50,"d":3000,"route_I_counts":"{\"1\": 50}","source":9,"target":10,"layer":"L","from":"温州龙腾路(地铁站)","to":"温州三垟湿地(地铁站)"},"geometry":{"type":"LineString","coordinates":[[120.758769,27.961842],[120.709847,27.976225]]}},{"type":"Feature","properties":{"shape_id":"{}","direction_id":"{\"1\": 50}","headsign":"{}","duration_avg":300,"n_vehicles":50,"d":3000,"route_I_counts":"{\"1\": 50}","source":10,"target":9,"layer":"L","from":"温州三垟湿地(地铁站)","to":"温州龙腾路(地铁站)"},"geometry":{"type":"LineString","coordinates":[[120.709847,27.976225],[120.758769,27.961842]]}},{"type":"Feature","properties":{"shape_id":"{}","direction_id":"{\"0\": 50}","headsign":"{}","duration_avg":120,"n_vehicles":50,"d":1200,"route_I_counts":"{\"1\": 50}","source":10,"target":11,"layer":"L","from":"温州三垟湿地(地铁站)","to":"温州惠民路(地铁站)"},"geometry":{"type":"LineString","coordinates":[[120.709847,27.976225],[120.69285,27.982821]]}},{"type":"Feature","properties":{"shape_id":"{}","direction_id":"{\"1\": 50}","headsign":"{}","duration_avg":120,"n_vehicles":50,"d":1200,"route_I_counts":"{\"1\": 50}","source":11,"target":10,"layer":"L","from":"温州惠民路(地铁站)","to":"温州三垟湿地(地铁站)"},"geometry":{"type":"LineString","coordinates":[[120.69285,27.982821],[120.709847,27.976225]]}},{"type":"Feature","properties":{"shape_id":"{}","direction_id":"{\"0\": 50}","headsign":"{}","duration_avg":240,"n_vehicles":50,"d":2400,"route_I_counts":"{\"1\": 50}","source":11,"target":12,"layer":"L","from":"温州惠民路(地铁站)","to":"温州龙霞路(地铁站)"},"geometry":{"type":"LineString","coordinates":[[120.69285,27.982821],[120.665737,27.982559]]}},{"type":"Feature","properties":{"shape_id":"{}","direction_id":"{\"1\": 50}","headsign":"{}","duration_avg":240,"n_vehicles":50,"d":2400,"route_I_counts":"{\"1\": 50}","source":12,"target":11,"layer":"L","from":"温州龙霞路(地铁站)","to":"温州惠民路(地铁站)"},"geometry":{"type":"LineString","coordinates":[[120.665737,27.982559],[120.69285,27.982821]]}},{"type":"Feature","properties":{"shape_id":"{}","direction_id":"{\"0\": 50}","headsign":"{}","duration_avg":120,"n_vehicles":50,"d":1200,"route_I_counts":"{\"1\": 50}","source":12,"target":13,"layer":"L","from":"温州龙霞路(地铁站)","to":"温州德政(地铁站)"},"geometry":{"type":"LineString","coordinates":[[120.665737,27.982559],[120.645989,27.9792]]}},{"type":"Feature","properties":{"shape_id":"{}","direction_id":"{\"1\": 50}","headsign":"{}","duration_avg":120,"n_vehicles":50,"d":1200,"route_I_counts":"{\"1\": 50}","source":13,"target":12,"layer":"L","from":"温州德政(地铁站)","to":"温州龙霞路(地铁站)"},"geometry":{"type":"LineString","coordinates":[[120.645989,27.9792],[120.665737,27.982559]]}},{"type":"Feature","properties":{"shape_id":"{}","direction_id":"{\"0\": 50}","headsign":"{}","duration_avg":180,"n_vehicles":50,"d":1800,"route_I_counts":"{\"1\": 50}","source":13,"target":14,"layer":"L","from":"温州德政(地铁站)","to":"温州新桥(地铁站)"},"geometry":{"type":"LineString","coordinates":[[120.645989,27.9792],[120.623651,27.980803]]}},{"type":"Feature","properties":{"shape_id":"{}","direction_id":"{\"1\": 50}","headsign":"{}","duration_avg":180,"n_vehicles":50,"d":1800,"route_I_counts":"{\"1\": 50}","source":14,"target":13,"layer":"L","from":"温州新桥(地铁站)","to":"温州德政(地铁站)"},"geometry":{"type":"LineString","coordinates":[[120.623651,27.980803],[120.645989,27.9792]]}},{"type":"Feature","properties":{"shape_id":"{}","direction_id":"{\"0\": 50}","headsign":"{}","duration_avg":420,"n_vehicles":50,"d":4200,"route_I_counts":"{\"1\": 50}","source":14,"target":15,"layer":"L","from":"温州新桥(地铁站)","to":"温州动车南站(地铁站)"},"geometry":{"type":"LineString","coordinates":[[120.623651,27.980803],[120.579953,27.970425]]}},{"type":"Feature","properties":{"shape_id":"{}","direction_id":"{\"1\": 50}","headsign":"{}","duration_avg":420,"n_vehicles":50,"d":4200,"route_I_counts":"{\"1\": 50}","source":15,"target":14,"layer":"L","from":"温州动车南站(地铁站)","to":"温州新桥(地铁站)"},"geometry":{"type":"LineString","coordinates":[[120.579953,27.970425],[120.623651,27.980803]]}},{"type":"Feature","properties":{"shape_id":"{}","direction_id":"{\"0\": 50}","headsign":"{}","duration_avg":180,"n_vehicles":50,"d":1800,"route_I_counts":"{\"1\": 50}","source":15,"target":16,"layer":"L","from":"温州动车南站(地铁站)","to":"温州潘桥(地铁站)"},"geometry":{"type":"LineString","coordinates":[[120.579953,27.970425],[120.569972,27.944268]]}},{"type":"Feature","properties":{"shape_id":"{}","direction_id":"{\"1\": 50}","headsign":"{}","duration_avg":180,"n_vehicles":50,"d":1800,"route_I_counts":"{\"1\": 50}","source":16,"target":15,"layer":"L","from":"温州潘桥(地铁站)","to":"温州动车南站(地铁站)"},"geometry":{"type":"LineString","coordinates":[[120.569972,27.944268],[120.579953,27.970425]]}},{"type":"Feature","properties":{"shape_id":"{}","direction_id":"{\"0\": 50}","headsign":"{}","duration_avg":180,"n_vehicles":50,"d":1800,"route_I_counts":"{\"1\": 50}","source":16,"target":17,"layer":"L","from":"温州潘桥(地铁站)","to":"温州桐岭(地铁站)"},"geometry":{"type":"LineString","coordinates":[[120.569972,27.944268],[120.564865,27.924261]]}},{"type":"Feature","properties":{"shape_id":"{}","direction_id":"{\"1\": 50}","headsign":"{}","duration_avg":180,"n_vehicles":50,"d":1800,"route_I_counts":"{\"1\": 50}","source":17,"target":16,"layer":"L","from":"温州桐岭(地铁站)","to":"温州潘桥(地铁站)"},"geometry":{"type":"LineString","coordinates":[[120.564865,27.924261],[120.569972,27.944268]]}},{"type":"Feature","properties":{"shape_id":"{}","direction_id":"{\"0\": 50}","headsign":"{}","duration_avg":180,"n_vehicles":50,"d":1800,"route_I_counts":"{\"2\": 50}","source":18,"target":19,"layer":"L","from":"温州清东路(地铁站)","to":"温州旭阳路(地铁站)"},"geometry":{"type":"LineString","coordinates":[[120.998816,28.132416],[120.982177,28.111771]]}},{"type":"Feature","properties":{"shape_id":"{}","direction_id":"{\"1\": 50}","headsign":"{}","duration_avg":180,"n_vehicles":50,"d":1800,"route_I_counts":"{\"2\": 50}","source":19,"target":18,"layer":"L","from":"温州旭阳路(地铁站)","to":"温州清东路(地铁站)"},"geometry":{"type":"LineString","coordinates":[[120.982177,28.111771],[120.998816,28.132416]]}},{"type":"Feature","properties":{"shape_id":"{}","direction_id":"{\"0\": 50}","headsign":"{}","duration_avg":240,"n_vehicles":50,"d":2400,"route_I_counts":"{\"2\": 50}","source":19,"target":20,"layer":"L","from":"温州旭阳路(地铁站)","to":"温州万岙(地铁站)"},"geometry":{"type":"LineString","coordinates":[[120.982177,28.111771],[120.963892,28.09119]]}},{"type":"Feature","properties":{"shape_id":"{}","direction_id":"{\"1\": 50}","headsign":"{}","duration_avg":240,"n_vehicles":50,"d":2400,"route_I_counts":"{\"2\": 50}","source":20,"target":19,"layer":"L","from":"温州万岙(地铁站)","to":"温州旭阳路(地铁站)"},"geometry":{"type":"LineString","coordinates":[[120.963892,28.09119],[120.982177,28.111771]]}},{"type":"Feature","properties":{"shape_id":"{}","direction_id":"{\"0\": 50}","headsign":"{}","duration_avg":180,"n_vehicles":50,"d":1800,"route_I_counts":"{\"2\": 50}","source":20,"target":21,"layer":"L","from":"温州万岙(地铁站)","to":"温州盐盆(地铁站)"},"geometry":{"type":"LineString","coordinates":[[120.963892,28.09119],[120.970063,28.067343]]}},{"type":"Feature","properties":{"shape_id":"{}","direction_id":"{\"1\": 50}","headsign":"{}","duration_avg":180,"n_vehicles":50,"d":1800,"route_I_counts":"{\"2\": 50}","source":21,"target":20,"layer":"L","from":"温州盐盆(地铁站)","to":"温州万岙(地铁站)"},"geometry":{"type":"LineString","coordinates":[[120.970063,28.067343],[120.963892,28.09119]]}},{"type":"Feature","properties":{"shape_id":"{}","direction_id":"{\"0\": 50}","headsign":"{}","duration_avg":240,"n_vehicles":50,"d":2400,"route_I_counts":"{\"2\": 50}","source":21,"target":22,"layer":"L","from":"温州盐盆(地铁站)","to":"温州新望(地铁站)"},"geometry":{"type":"LineString","coordinates":[[120.970063,28.067343],[120.974625,28.042136]]}},{"type":"Feature","properties":{"shape_id":"{}","direction_id":"{\"1\": 50}","headsign":"{}","duration_avg":240,"n_vehicles":50,"d":2400,"route_I_counts":"{\"2\": 50}","source":22,"target":21,"layer":"L","from":"温州新望(地铁站)","to":"温州盐盆(地铁站)"},"geometry":{"type":"LineString","coordinates":[[120.974625,28.042136],[120.970063,28.067343]]}},{"type":"Feature","properties":{"shape_id":"{}","direction_id":"{\"0\": 50}","headsign":"{}","duration_avg":180,"n_vehicles":50,"d":1800,"route_I_counts":"{\"2\": 50}","source":22,"target":23,"layer":"L","from":"温州新望(地铁站)","to":"温州翁垟(地铁站)"},"geometry":{"type":"LineString","coordinates":[[120.974625,28.042136],[120.975568,28.022469]]}},{"type":"Feature","properties":{"shape_id":"{}","direction_id":"{\"1\": 50}","headsign":"{}","duration_avg":180,"n_vehicles":50,"d":1800,"route_I_counts":"{\"2\": 50}","source":23,"target":22,"layer":"L","from":"温州翁垟(地铁站)","to":"温州新望(地铁站)"},"geometry":{"type":"LineString","coordinates":[[120.975568,28.022469],[120.974625,28.042136]]}},{"type":"Feature","properties":{"shape_id":"{}","direction_id":"{\"0\": 50}","headsign":"{}","duration_avg":300,"n_vehicles":50,"d":3000,"route_I_counts":"{\"2\": 50}","source":23,"target":24,"layer":"L","from":"温州翁垟(地铁站)","to":"温州柳市东(地铁站)"},"geometry":{"type":"LineString","coordinates":[[120.975568,28.022469],[120.951205,27.995427]]}},{"type":"Feature","properties":{"shape_id":"{}","direction_id":"{\"1\": 50}","headsign":"{}","duration_avg":300,"n_vehicles":50,"d":3000,"route_I_counts":"{\"2\": 50}","source":24,"target":23,"layer":"L","from":"温州柳市东(地铁站)","to":"温州翁垟(地铁站)"},"geometry":{"type":"LineString","coordinates":[[120.951205,27.995427],[120.975568,28.022469]]}},{"type":"Feature","properties":{"shape_id":"{}","direction_id":"{\"0\": 50}","headsign":"{}","duration_avg":420,"n_vehicles":50,"d":4200,"route_I_counts":"{\"2\": 50}","source":24,"target":3,"layer":"L","from":"温州柳市东(地铁站)","to":"温州灵昆(地铁站)"},"geometry":{"type":"LineString","coordinates":[[120.951205,27.995427],[120.888139,27.956543]]}},{"type":"Feature","properties":{"shape_id":"{}","direction_id":"{\"1\": 50}","headsign":"{}","duration_avg":420,"n_vehicles":50,"d":4200,"route_I_counts":"{\"2\": 50}","source":3,"target":24,"layer":"L","from":"温州灵昆(地铁站)","to":"温州柳市东(地铁站)"},"geometry":{"type":"LineString","coordinates":[[120.888139,27.956543],[120.951205,27.995427]]}},{"type":"Feature","properties":{"shape_id":"{}","direction_id":"{\"0\": 50}","headsign":"{}","duration_avg":240,"n_vehicles":50,"d":2400,"route_I_counts":"{\"2\": 50}","source":4,"target":25,"layer":"L","from":"温州机场(地铁站)","to":"温州永兴(地铁站)"},"geometry":{"type":"LineString","coordinates":[[120.842852,27.909212],[120.819162,27.890598]]}},{"type":"Feature","properties":{"shape_id":"{}","direction_id":"{\"1\": 50}","headsign":"{}","duration_avg":240,"n_vehicles":50,"d":2400,"route_I_counts":"{\"2\": 50}","source":25,"target":4,"layer":"L","from":"温州永兴(地铁站)","to":"温州机场(地铁站)"},"geometry":{"type":"LineString","coordinates":[[120.819162,27.890598],[120.842852,27.909212]]}},{"type":"Feature","properties":{"shape_id":"{}","direction_id":"{\"0\": 50}","headsign":"{}","duration_avg":180,"n_vehicles":50,"d":1800,"route_I_counts":"{\"2\": 50}","source":25,"target":26,"layer":"L","from":"温州永兴(地铁站)","to":"温州沙城(地铁站)"},"geometry":{"type":"LineString","coordinates":[[120.819162,27.890598],[120.803287,27.874303]]}},{"type":"Feature","properties":{"shape_id":"{}","direction_id":"{\"1\": 50}","headsign":"{}","duration_avg":180,"n_vehicles":50,"d":1800,"route_I_counts":"{\"2\": 50}","source":26,"target":25,"layer":"L","from":"温州沙城(地铁站)","to":"温州永兴(地铁站)"},"geometry":{"type":"LineString","coordinates":[[120.803287,27.874303],[120.819162,27.890598]]}},{"type":"Feature","properties":{"shape_id":"{}","direction_id":"{\"0\": 50}","headsign":"{}","duration_avg":180,"n_vehicles":50,"d":1800,"route_I_counts":"{\"2\": 50}","source":26,"target":27,"layer":"L","from":"温州沙城(地铁站)","to":"温州天河(地铁站)"},"geometry":{"type":"LineString","coordinates":[[120.803287,27.874303],[120.787981,27.851406]]}},{"type":"Feature","properties":{"shape_id":"{}","direction_id":"{\"1\": 50}","headsign":"{}","duration_avg":180,"n_vehicles":50,"d":1800,"route_I_counts":"{\"2\": 50}","source":27,"target":26,"layer":"L","from":"温州天河(地铁站)","to":"温州沙城(地铁站)"},"geometry":{"type":"LineString","coordinates":[[120.787981,27.851406],[120.803287,27.874303]]}},{"type":"Feature","properties":{"shape_id":"{}","direction_id":"{\"0\": 50}","headsign":"{}","duration_avg":240,"n_vehicles":50,"d":2400,"route_I_counts":"{\"2\": 50}","source":27,"target":28,"layer":"L","from":"温州天河(地铁站)","to":"温州海城(地铁站)"},"geometry":{"type":"LineString","coordinates":[[120.787981,27.851406],[120.774345,27.829666]]}},{"type":"Feature","properties":{"shape_id":"{}","direction_id":"{\"1\": 50}","headsign":"{}","duration_avg":240,"n_vehicles":50,"d":2400,"route_I_counts":"{\"2\": 50}","source":28,"target":27,"layer":"L","from":"温州海城(地铁站)","to":"温州天河(地铁站)"},"geometry":{"type":"LineString","coordinates":[[120.774345,27.829666],[120.787981,27.851406]]}},{"type":"Feature","properties":{"shape_id":"{}","direction_id":"{\"0\": 50}","headsign":"{}","duration_avg":300,"n_vehicles":50,"d":3000,"route_I_counts":"{\"2\": 50}","source":28,"target":29,"layer":"L","from":"温州海城(地铁站)","to":"温州鲍田(地铁站)"},"geometry":{"type":"LineString","coordinates":[[120.774345,27.829666],[120.731313,27.812234]]}},{"type":"Feature","properties":{"shape_id":"{}","direction_id":"{\"1\": 50}","headsign":"{}","duration_avg":300,"n_vehicles":50,"d":3000,"route_I_counts":"{\"2\": 50}","source":29,"target":28,"layer":"L","from":"温州鲍田(地铁站)","to":"温州海城(地铁站)"},"geometry":{"type":"LineString","coordinates":[[120.731313,27.812234],[120.774345,27.829666]]}},{"type":"Feature","properties":{"shape_id":"{}","direction_id":"{\"0\": 50}","headsign":"{}","duration_avg":180,"n_vehicles":50,"d":1800,"route_I_counts":"{\"2\": 50}","source":29,"target":30,"layer":"L","from":"温州鲍田(地铁站)","to":"温州大典下(地铁站)"},"geometry":{"type":"LineString","coordinates":[[120.731313,27.812234],[120.715314,27.795257]]}},{"type":"Feature","properties":{"shape_id":"{}","direction_id":"{\"1\": 50}","headsign":"{}","duration_avg":180,"n_vehicles":50,"d":1800,"route_I_counts":"{\"2\": 50}","source":30,"target":29,"layer":"L","from":"温州大典下(地铁站)","to":"温州鲍田(地铁站)"},"geometry":{"type":"LineString","coordinates":[[120.715314,27.795257],[120.731313,27.812234]]}},{"type":"Feature","properties":{"shape_id":"{}","direction_id":"{\"0\": 50}","headsign":"{}","duration_avg":180,"n_vehicles":50,"d":1800,"route_I_counts":"{\"2\": 50}","source":30,"target":31,"layer":"L","from":"温州大典下(地铁站)","to":"温州汀田(地铁站)"},"geometry":{"type":"LineString","coordinates":[[120.715314,27.795257],[120.705519,27.786201]]}},{"type":"Feature","properties":{"shape_id":"{}","direction_id":"{\"1\": 50}","headsign":"{}","duration_avg":180,"n_vehicles":50,"d":1800,"route_I_counts":"{\"2\": 50}","source":31,"target":30,"layer":"L","from":"温州汀田(地铁站)","to":"温州大典下(地铁站)"},"geometry":{"type":"LineString","coordinates":[[120.705519,27.786201],[120.715314,27.795257]]}},{"type":"Feature","properties":{"shape_id":"{}","direction_id":"{\"0\": 50}","headsign":"{}","duration_avg":180,"n_vehicles":50,"d":1800,"route_I_counts":"{\"2\": 50}","source":31,"target":32,"layer":"L","from":"温州汀田(地铁站)","to":"温州莘塍(地铁站)"},"geometry":{"type":"LineString","coordinates":[[120.705519,27.786201],[120.691273,27.772363]]}},{"type":"Feature","properties":{"shape_id":"{}","direction_id":"{\"1\": 50}","headsign":"{}","duration_avg":180,"n_vehicles":50,"d":1800,"route_I_counts":"{\"2\": 50}","source":32,"target":31,"layer":"L","from":"温州莘塍(地铁站)","to":"温州汀田(地铁站)"},"geometry":{"type":"LineString","coordinates":[[120.691273,27.772363],[120.705519,27.786201]]}},{"type":"Feature","properties":{"shape_id":"{}","direction_id":"{\"0\": 50}","headsign":"{}","duration_avg":180,"n_vehicles":50,"d":1800,"route_I_counts":"{\"2\": 50}","source":32,"target":33,"layer":"L","from":"温州莘塍(地铁站)","to":"温州上望(地铁站)"},"geometry":{"type":"LineString","coordinates":[[120.691273,27.772363],[120.679406,27.760785]]}},{"type":"Feature","properties":{"shape_id":"{}","direction_id":"{\"1\": 50}","headsign":"{}","duration_avg":180,"n_vehicles":50,"d":1800,"route_I_counts":"{\"2\": 50}","source":33,"target":32,"layer":"L","from":"温州上望(地铁站)","to":"温州莘塍(地铁站)"},"geometry":{"type":"LineString","coordinates":[[120.679406,27.760785],[120.691273,27.772363]]}},{"type":"Feature","properties":{"shape_id":"{}","direction_id":"{\"0\": 50}","headsign":"{}","duration_avg":180,"n_vehicles":50,"d":1800,"route_I_counts":"{\"2\": 50}","source":33,"target":34,"layer":"L","from":"温州上望(地铁站)","to":"温州上东路(地铁站)"},"geometry":{"type":"LineString","coordinates":[[120.679406,27.760785],[120.667882,27.758432]]}},{"type":"Feature","properties":{"shape_id":"{}","direction_id":"{\"1\": 50}","headsign":"{}","duration_avg":180,"n_vehicles":50,"d":1800,"route_I_counts":"{\"2\": 50}","source":34,"target":33,"layer":"L","from":"温州上东路(地铁站)","to":"温州上望(地铁站)"},"geometry":{"type":"LineString","coordinates":[[120.667882,27.758432],[120.679406,27.760785]]}},{"type":"Feature","properties":{"shape_id":"{}","direction_id":"{\"0\": 50}","headsign":"{}","duration_avg":180,"n_vehicles":50,"d":1800,"route_I_counts":"{\"2\": 50}","source":34,"target":35,"layer":"L","from":"温州上东路(地铁站)","to":"温州东山(地铁站)"},"geometry":{"type":"LineString","coordinates":[[120.667882,27.758432],[120.651,27.756458]]}},{"type":"Feature","properties":{"shape_id":"{}","direction_id":"{\"1\": 50}","headsign":"{}","duration_avg":180,"n_vehicles":50,"d":1800,"route_I_counts":"{\"2\": 50}","source":35,"target":34,"layer":"L","from":"温州东山(地铁站)","to":"温州上东路(地铁站)"},"geometry":{"type":"LineString","coordinates":[[120.651,27.756458],[120.667882,27.758432]]}}]}