{"type":"FeatureCollection","features":[{"type":"Feature","geometry":{"type":"Point","coordinates":[118.406869,31.481749]},"properties":{"name":"芜湖保顺路(地铁站)","original_ids":"[1]","id":0,"layer":"stop"}},{"type":"Feature","geometry":{"type":"Point","coordinates":[118.398434,31.472799]},"properties":{"name":"芜湖华山路(地铁站)","original_ids":"[2]","id":1,"layer":"stop"}},{"type":"Feature","geometry":{"type":"Point","coordinates":[118.395486,31.461899]},"properties":{"name":"芜湖泰山路(地铁站)","original_ids":"[3]","id":2,"layer":"stop"}},{"type":"Feature","geometry":{"type":"Point","coordinates":[118.388348,31.453505]},"properties":{"name":"芜湖衡山路(地铁站)","original_ids":"[4]","id":3,"layer":"stop"}},{"type":"Feature","geometry":{"type":"Point","coordinates":[118.376038,31.441918]},"properties":{"name":"芜湖龙山路(地铁站)","original_ids":"[5]","id":4,"layer":"stop"}},{"type":"Feature","geometry":{"type":"Point","coordinates":[118.377566,31.433583]},"properties":{"name":"芜湖鞍山路(地铁站)","original_ids":"[6]","id":5,"layer":"stop"}},{"type":"Feature","geometry":{"type":"Point","coordinates":[118.375556,31.418671]},"properties":{"name":"芜湖港湾路(地铁站)","original_ids":"[7]","id":6,"layer":"stop"}},{"type":"Feature","geometry":{"type":"Point","coordinates":[118.369767,31.411682]},"properties":{"name":"芜湖裕安路(地铁站)","original_ids":"[8]","id":7,"layer":"stop"}},{"type":"Feature","geometry":{"type":"Point","coordinates":[118.368488,31.401179]},"properties":{"name":"芜湖武夷山路(地铁站)","original_ids":"[9]","id":8,"layer":"stop"}},{"type":"Feature","geometry":{"type":"Point","coordinates":[118.367495,31.39334]},"properties":{"name":"芜湖港一路(地铁站)","original_ids":"[10]","id":9,"layer":"stop"}},{"type":"Feature","geometry":{"type":"Point","coordinates":[118.367847,31.380294]},"properties":{"name":"芜湖天柱山路(地铁站)","original_ids":"[11]","id":10,"layer":"stop"}},{"type":"Feature","geometry":{"type":"Point","coordinates":[118.368335,31.371854]},"properties":{"name":"芜湖天门山路(地铁站)","original_ids":"[12]","id":11,"layer":"stop"}},{"type":"Feature","geometry":{"type":"Point","coordinates":[118.368839,31.363837]},"properties":{"name":"芜湖赤铸山路(地铁站)","original_ids":"[13]","id":12,"layer":"stop"}},{"type":"Feature","geometry":{"type":"Point","coordinates":[118.369569,31.353036]},"properties":{"name":"芜湖赭山路(地铁站)","original_ids":"[14]","id":13,"layer":"stop"}},{"type":"Feature","geometry":{"type":"Point","coordinates":[118.367383,31.347001]},"properties":{"name":"芜湖赭山公园(地铁站)","original_ids":"[15]","id":14,"layer":"stop"}},{"type":"Feature","geometry":{"type":"Point","coordinates":[118.363277,31.341612]},"properties":{"name":"芜湖中山北路(地铁站)","original_ids":"[16]","id":15,"layer":"stop"}},{"type":"Feature","geometry":{"type":"Point","coordinates":[118.366752,31.334296]},"properties":{"name":"芜湖鸠兹广场(地铁站)","original_ids":"[17]","id":16,"layer":"stop"}},{"type":"Feature","geometry":{"type":"Point","coordinates":[118.375336,31.326621]},"properties":{"name":"芜湖环城北路(地铁站)","original_ids":"[18]","id":17,"layer":"stop"}},{"type":"Feature","geometry":{"type":"Point","coordinates":[118.373477,31.313237]},"properties":{"name":"芜湖奥体中心(地铁站)","original_ids":"[19]","id":18,"layer":"stop"}},{"type":"Feature","geometry":{"type":"Point","coordinates":[118.374469,31.303527]},"properties":{"name":"芜湖红花山路(地铁站)","original_ids":"[20]","id":19,"layer":"stop"}},{"type":"Feature","geometry":{"type":"Point","coordinates":[118.375493,31.29594]},"properties":{"name":"芜湖博览中心(地铁站)","original_ids":"[21]","id":20,"layer":"stop"}},{"type":"Feature","geometry":{"type":"Point","coordinates":[118.378637,31.285163]},"properties":{"name":"芜湖文津东路(地铁站)","original_ids":"[22]","id":21,"layer":"stop"}},{"type":"Feature","geometry":{"type":"Point","coordinates":[118.383624,31.267059]},"properties":{"name":"芜湖珩琅山路(地铁站)","original_ids":"[23]","id":22,"layer":"stop"}},{"type":"Feature","geometry":{"type":"Point","coordinates":[118.373215,31.252599]},"properties":{"name":"芜湖芜湖南站(地铁站)","original_ids":"[24]","id":23,"layer":"stop"}},{"type":"Feature","geometry":{"type":"Point","coordinates":[118.366983,31.247148]},"properties":{"name":"芜湖白马山(地铁站)","original_ids":"[25]","id":24,"layer":"stop"}},{"type":"Feature","geometry":{"type":"Point","coordinates":[118.378396,31.337331]},"properties":{"name":"芜湖文化路(地铁站)","original_ids":"[26]","id":25,"layer":"stop"}},{"type":"Feature","geometry":{"type":"Point","coordinates":[118.391572,31.339902]},"properties":{"name":"芜湖神山口(地铁站)","original_ids":"[27]","id":26,"layer":"stop"}},{"type":"Feature","geometry":{"type":"Point","coordinates":[118.389387,31.349976]},"properties":{"name":"芜湖芜湖火车站(地铁站)","original_ids":"[28]","id":27,"layer":"stop"}},{"type":"Feature","geometry":{"type":"Point","coordinates":[118.404572,31.359093]},"properties":{"name":"芜湖神山公园(地铁站)","original_ids":"[29]","id":28,"layer":"stop"}},{"type":"Feature","geometry":{"type":"Point","coordinates":[118.416648,31.359213]},"properties":{"name":"芜湖云从路(地铁站)","original_ids":"[30]","id":29,"layer":"stop"}},{"type":"Feature","geometry":{"type":"Point","coordinates":[118.42531,31.359129]},"properties":{"name":"芜湖政务中心(地铁站)","original_ids":"[31]","id":30,"layer":"stop"}},{"type":"Feature","geometry":{"type":"Point","coordinates":[118.435233,31.356803]},"properties":{"name":"芜湖海晏路(地铁站)","original_ids":"[32]","id":31,"layer":"stop"}},{"type":"Feature","geometry":{"type":"Point","coordinates":[118.454442,31.358046]},"properties":{"name":"芜湖方特·徽州路(地铁站)","original_ids":"[33]","id":32,"layer":"stop"}},{"type":"Feature","geometry":{"type":"Point","coordinates":[118.476128,31.353505]},"properties":{"name":"芜湖梦溪路(地铁站)","original_ids":"[34]","id":33,"layer":"stop"}},{"type":"Feature","geometry":{"type":"Point","coordinates":[118.490949,31.364524]},"properties":{"name":"芜湖万春湖路(地铁站)","original_ids":"[35]","id":34,"layer":"stop"}},{"type":"Feature","properties":{"shape_id":"{}","direction_id":"{\"0\": 50}","headsign":"{}","duration_avg":60,"n_vehicles":50,"d":600,"route_I_counts":"{\"1\": 50}","source":0,"target":1,"layer":"L","from":"芜湖保顺路(地铁站)","to":"芜湖华山路(地铁站)"},"geometry":{"type":"LineString","coordinates":[[118.406869,31.481749],[118.398434,31.472799]]}},{"type":"Feature","properties":{"shape_id":"{}","direction_id":"{\"1\": 50}","headsign":"{}","duration_avg":60,"n_vehicles":50,"d":600,"route_I_counts":"{\"1\": 50}","source":1,"target":0,"layer":"L","from":"芜湖华山路(地铁站)","to":"芜湖保顺路(地铁站)"},"geometry":{"type":"LineString","coordinates":[[118.398434,31.472799],[118.406869,31.481749]]}},{"type":"Feature","properties":{"shape_id":"{}","direction_id":"{\"0\": 50}","headsign":"{}","duration_avg":120,"n_vehicles":50,"d":1200,"route_I_counts":"{\"1\": 50}","source":1,"target":2,"layer":"L","from":"芜湖华山路(地铁站)","to":"芜湖泰山路(地铁站)"},"geometry":{"type":"LineString","coordinates":[[118.398434,31.472799],[118.395486,31.461899]]}},{"type":"Feature","properties":{"shape_id":"{}","direction_id":"{\"1\": 50}","headsign":"{}","duration_avg":120,"n_vehicles":50,"d":1200,"route_I_counts":"{\"1\": 50}","source":2,"target":1,"layer":"L","from":"芜湖泰山路(地铁站)","to":"芜湖华山路(地铁站)"},"geometry":{"type":"LineString","coordinates":[[118.395486,31.461899],[118.398434,31.472799]]}},{"type":"Feature","properties":{"shape_id":"{}","direction_id":"{\"0\": 50}","headsign":"{}","duration_avg":180,"n_vehicles":50,"d":1800,"route_I_counts":"{\"1\": 50}","source":2,"target":3,"layer":"L","from":"芜湖泰山路(地铁站)","to":"芜湖衡山路(地铁站)"},"geometry":{"type":"LineString","coordinates":[[118.395486,31.461899],[118.388348,31.453505]]}},{"type":"Feature","properties":{"shape_id":"{}","direction_id":"{\"1\": 50}","headsign":"{}","duration_avg":180,"n_vehicles":50,"d":1800,"route_I_counts":"{\"1\": 50}","source":3,"target":2,"layer":"L","from":"芜湖衡山路(地铁站)","to":"芜湖泰山路(地铁站)"},"geometry":{"type":"LineString","coordinates":[[118.388348,31.453505],[118.395486,31.461899]]}},{"type":"Feature","properties":{"shape_id":"{}","direction_id":"{\"0\": 50}","headsign":"{}","duration_avg":240,"n_vehicles":50,"d":2400,"route_I_counts":"{\"1\": 50}","source":3,"target":4,"layer":"L","from":"芜湖衡山路(地铁站)","to":"芜湖龙山路(地铁站)"},"geometry":{"type":"LineString","coordinates":[[118.388348,31.453505],[118.376038,31.441918]]}},{"type":"Feature","properties":{"shape_id":"{}","direction_id":"{\"1\": 50}","headsign":"{}","duration_avg":240,"n_vehicles":50,"d":2400,"route_I_counts":"{\"1\": 50}","source":4,"target":3,"layer":"L","from":"芜湖龙山路(地铁站)","to":"芜湖衡山路(地铁站)"},"geometry":{"type":"LineString","coordinates":[[118.376038,31.441918],[118.388348,31.453505]]}},{"type":"Feature","properties":{"shape_id":"{}","direction_id":"{\"0\": 50}","headsign":"{}","duration_avg":120,"n_vehicles":50,"d":1200,"route_I_counts":"{\"1\": 50}","source":4,"target":5,"layer":"L","from":"芜湖龙山路(地铁站)","to":"芜湖鞍山路(地铁站)"},"geometry":{"type":"LineString","coordinates":[[118.376038,31.441918],[118.377566,31.433583]]}},{"type":"Feature","properties":{"shape_id":"{}","direction_id":"{\"1\": 50}","headsign":"{}","duration_avg":120,"n_vehicles":50,"d":1200,"route_I_counts":"{\"1\": 50}","source":5,"target":4,"layer":"L","from":"芜湖鞍山路(地铁站)","to":"芜湖龙山路(地铁站)"},"geometry":{"type":"LineString","coordinates":[[118.377566,31.433583],[118.376038,31.441918]]}},{"type":"Feature","properties":{"shape_id":"{}","direction_id":"{\"0\": 50}","headsign":"{}","duration_avg":720,"n_vehicles":50,"d":7200,"route_I_counts":"{\"1\": 50}","source":5,"target":6,"layer":"L","from":"芜湖鞍山路(地铁站)","to":"芜湖港湾路(地铁站)"},"geometry":{"type":"LineString","coordinates":[[118.377566,31.433583],[118.375556,31.418671]]}},{"type":"Feature","properties":{"shape_id":"{}","direction_id":"{\"1\": 50}","headsign":"{}","duration_avg":720,"n_vehicles":50,"d":7200,"route_I_counts":"{\"1\": 50}","source":6,"target":5,"layer":"L","from":"芜湖港湾路(地铁站)","to":"芜湖鞍山路(地铁站)"},"geometry":{"type":"LineString","coordinates":[[118.375556,31.418671],[118.377566,31.433583]]}},{"type":"Feature","properties":{"shape_id":"{}","direction_id":"{\"0\": 50}","headsign":"{}","duration_avg":120,"n_vehicles":50,"d":1200,"route_I_counts":"{\"1\": 50}","source":6,"target":7,"layer":"L","from":"芜湖港湾路(地铁站)","to":"芜湖裕安路(地铁站)"},"geometry":{"type":"LineString","coordinates":[[118.375556,31.418671],[118.369767,31.411682]]}},{"type":"Feature","properties":{"shape_id":"{}","direction_id":"{\"1\": 50}","headsign":"{}","duration_avg":120,"n_vehicles":50,"d":1200,"route_I_counts":"{\"1\": 50}","source":7,"target":6,"layer":"L","from":"芜湖裕安路(地铁站)","to":"芜湖港湾路(地铁站)"},"geometry":{"type":"LineString","coordinates":[[118.369767,31.411682],[118.375556,31.418671]]}},{"type":"Feature","properties":{"shape_id":"{}","direction_id":"{\"0\": 50}","headsign":"{}","duration_avg":120,"n_vehicles":50,"d":1200,"route_I_counts":"{\"1\": 50}","source":7,"target":8,"layer":"L","from":"芜湖裕安路(地铁站)","to":"芜湖武夷山路(地铁站)"},"geometry":{"type":"LineString","coordinates":[[118.369767,31.411682],[118.368488,31.401179]]}},{"type":"Feature","properties":{"shape_id":"{}","direction_id":"{\"1\": 50}","headsign":"{}","duration_avg":120,"n_vehicles":50,"d":1200,"route_I_counts":"{\"1\": 50}","source":8,"target":7,"layer":"L","from":"芜湖武夷山路(地铁站)","to":"芜湖裕安路(地铁站)"},"geometry":{"type":"LineString","coordinates":[[118.368488,31.401179],[118.369767,31.411682]]}},{"type":"Feature","properties":{"shape_id":"{}","direction_id":"{\"0\": 50}","headsign":"{}","duration_avg":60,"n_vehicles":50,"d":600,"route_I_counts":"{\"1\": 50}","source":8,"target":9,"layer":"L","from":"芜湖武夷山路(地铁站)","to":"芜湖港一路(地铁站)"},"geometry":{"type":"LineString","coordinates":[[118.368488,31.401179],[118.367495,31.39334]]}},{"type":"Feature","properties":{"shape_id":"{}","direction_id":"{\"1\": 50}","headsign":"{}","duration_avg":60,"n_vehicles":50,"d":600,"route_I_counts":"{\"1\": 50}","source":9,"target":8,"layer":"L","from":"芜湖港一路(地铁站)","to":"芜湖武夷山路(地铁站)"},"geometry":{"type":"LineString","coordinates":[[118.367495,31.39334],[118.368488,31.401179]]}},{"type":"Feature","properties":{"shape_id":"{}","direction_id":"{\"0\": 50}","headsign":"{}","duration_avg":180,"n_vehicles":50,"d":1800,"route_I_counts":"{\"1\": 50}","source":9,"target":10,"layer":"L","from":"芜湖港一路(地铁站)","to":"芜湖天柱山路(地铁站)"},"geometry":{"type":"LineString","coordinates":[[118.367495,31.39334],[118.367847,31.380294]]}},{"type":"Feature","properties":{"shape_id":"{}","direction_id":"{\"1\": 50}","headsign":"{}","duration_avg":180,"n_vehicles":50,"d":1800,"route_I_counts":"{\"1\": 50}","source":10,"target":9,"layer":"L","from":"芜湖天柱山路(地铁站)","to":"芜湖港一路(地铁站)"},"geometry":{"type":"LineString","coordinates":[[118.367847,31.380294],[118.367495,31.39334]]}},{"type":"Feature","properties":{"shape_id":"{}","direction_id":"{\"0\": 50}","headsign":"{}","duration_avg":60,"n_vehicles":50,"d":600,"route_I_counts":"{\"1\": 50}","source":10,"target":11,"layer":"L","from":"芜湖天柱山路(地铁站)","to":"芜湖天门山路(地铁站)"},"geometry":{"type":"LineString","coordinates":[[118.367847,31.380294],[118.368335,31.371854]]}},{"type":"Feature","properties":{"shape_id":"{}","direction_id":"{\"1\": 50}","headsign":"{}","duration_avg":60,"n_vehicles":50,"d":600,"route_I_counts":"{\"1\": 50}","source":11,"target":10,"layer":"L","from":"芜湖天门山路(地铁站)","to":"芜湖天柱山路(地铁站)"},"geometry":{"type":"LineString","coordinates":[[118.368335,31.371854],[118.367847,31.380294]]}},{"type":"Feature","properties":{"shape_id":"{}","direction_id":"{\"0\": 50}","headsign":"{}","duration_avg":120,"n_vehicles":50,"d":1200,"route_I_counts":"{\"1\": 50}","source":11,"target":12,"layer":"L","from":"芜湖天门山路(地铁站)","to":"芜湖赤铸山路(地铁站)"},"geometry":{"type":"LineString","coordinates":[[118.368335,31.371854],[118.368839,31.363837]]}},{"type":"Feature","properties":{"shape_id":"{}","direction_id":"{\"1\": 50}","headsign":"{}","duration_avg":120,"n_vehicles":50,"d":1200,"route_I_counts":"{\"1\": 50}","source":12,"target":11,"layer":"L","from":"芜湖赤铸山路(地铁站)","to":"芜湖天门山路(地铁站)"},"geometry":{"type":"LineString","coordinates":[[118.368839,31.363837],[118.368335,31.371854]]}},{"type":"Feature","properties":{"shape_id":"{}","direction_id":"{\"0\": 50}","headsign":"{}","duration_avg":660,"n_vehicles":50,"d":6600,"route_I_counts":"{\"1\": 50}","source":12,"target":13,"layer":"L","from":"芜湖赤铸山路(地铁站)","to":"芜湖赭山路(地铁站)"},"geometry":{"type":"LineString","coordinates":[[118.368839,31.363837],[118.369569,31.353036]]}},{"type":"Feature","properties":{"shape_id":"{}","direction_id":"{\"1\": 50}","headsign":"{}","duration_avg":660,"n_vehicles":50,"d":6600,"route_I_counts":"{\"1\": 50}","source":13,"target":12,"layer":"L","from":"芜湖赭山路(地铁站)","to":"芜湖赤铸山路(地铁站)"},"geometry":{"type":"LineString","coordinates":[[118.369569,31.353036],[118.368839,31.363837]]}},{"type":"Feature","properties":{"shape_id":"{}","direction_id":"{\"0\": 50}","headsign":"{}","duration_avg":60,"n_vehicles":50,"d":600,"route_I_counts":"{\"1\": 50}","source":13,"target":14,"layer":"L","from":"芜湖赭山路(地铁站)","to":"芜湖赭山公园(地铁站)"},"geometry":{"type":"LineString","coordinates":[[118.369569,31.353036],[118.367383,31.347001]]}},{"type":"Feature","properties":{"shape_id":"{}","direction_id":"{\"1\": 50}","headsign":"{}","duration_avg":60,"n_vehicles":50,"d":600,"route_I_counts":"{\"1\": 50}","source":14,"target":13,"layer":"L","from":"芜湖赭山公园(地铁站)","to":"芜湖赭山路(地铁站)"},"geometry":{"type":"LineString","coordinates":[[118.367383,31.347001],[118.369569,31.353036]]}},{"type":"Feature","properties":{"shape_id":"{}","direction_id":"{\"0\": 50}","headsign":"{}","duration_avg":120,"n_vehicles":50,"d":1200,"route_I_counts":"{\"1\": 50}","source":14,"target":15,"layer":"L","from":"芜湖赭山公园(地铁站)","to":"芜湖中山北路(地铁站)"},"geometry":{"type":"LineString","coordinates":[[118.367383,31.347001],[118.363277,31.341612]]}},{"type":"Feature","properties":{"shape_id":"{}","direction_id":"{\"1\": 50}","headsign":"{}","duration_avg":120,"n_vehicles":50,"d":1200,"route_I_counts":"{\"1\": 50}","source":15,"target":14,"layer":"L","from":"芜湖中山北路(地铁站)","to":"芜湖赭山公园(地铁站)"},"geometry":{"type":"LineString","coordinates":[[118.363277,31.341612],[118.367383,31.347001]]}},{"type":"Feature","properties":{"shape_id":"{}","direction_id":"{\"0\": 50}","headsign":"{}","duration_avg":120,"n_vehicles":50,"d":1200,"route_I_counts":"{\"1\": 50}","source":15,"target":16,"layer":"L","from":"芜湖中山北路(地铁站)","to":"芜湖鸠兹广场(地铁站)"},"geometry":{"type":"LineString","coordinates":[[118.363277,31.341612],[118.366752,31.334296]]}},{"type":"Feature","properties":{"shape_id":"{}","direction_id":"{\"1\": 50}","headsign":"{}","duration_avg":120,"n_vehicles":50,"d":1200,"route_I_counts":"{\"1\": 50}","source":16,"target":15,"layer":"L","from":"芜湖鸠兹广场(地铁站)","to":"芜湖中山北路(地铁站)"},"geometry":{"type":"LineString","coordinates":[[118.366752,31.334296],[118.363277,31.341612]]}},{"type":"Feature","properties":{"shape_id":"{}","direction_id":"{\"0\": 50}","headsign":"{}","duration_avg":120,"n_vehicles":50,"d":1200,"route_I_counts":"{\"1\": 50}","source":16,"target":17,"layer":"L","from":"芜湖鸠兹广场(地铁站)","to":"芜湖环城北路(地铁站)"},"geometry":{"type":"LineString","coordinates":[[118.366752,31.334296],[118.375336,31.326621]]}},{"type":"Feature","properties":{"shape_id":"{}","direction_id":"{\"1\": 50}","headsign":"{}","duration_avg":120,"n_vehicles":50,"d":1200,"route_I_counts":"{\"1\": 50}","source":17,"target":16,"layer":"L","from":"芜湖环城北路(地铁站)","to":"芜湖鸠兹广场(地铁站)"},"geometry":{"type":"LineString","coordinates":[[118.375336,31.326621],[118.366752,31.334296]]}},{"type":"Feature","properties":{"shape_id":"{}","direction_id":"{\"0\": 50}","headsign":"{}","duration_avg":420,"n_vehicles":50,"d":4200,"route_I_counts":"{\"1\": 50}","source":17,"target":18,"layer":"L","from":"芜湖环城北路(地铁站)","to":"芜湖奥体中心(地铁站)"},"geometry":{"type":"LineString","coordinates":[[118.375336,31.326621],[118.373477,31.313237]]}},{"type":"Feature","properties":{"shape_id":"{}","direction_id":"{\"1\": 50}","headsign":"{}","duration_avg":420,"n_vehicles":50,"d":4200,"route_I_counts":"{\"1\": 50}","source":18,"target":17,"layer":"L","from":"芜湖奥体中心(地铁站)","to":"芜湖环城北路(地铁站)"},"geometry":{"type":"LineString","coordinates":[[118.373477,31.313237],[118.375336,31.326621]]}},{"type":"Feature","properties":{"shape_id":"{}","direction_id":"{\"0\": 50}","headsign":"{}","duration_avg":60,"n_vehicles":50,"d":600,"route_I_counts":"{\"1\": 50}","source":18,"target":19,"layer":"L","from":"芜湖奥体中心(地铁站)","to":"芜湖红花山路(地铁站)"},"geometry":{"type":"LineString","coordinates":[[118.373477,31.313237],[118.374469,31.303527]]}},{"type":"Feature","properties":{"shape_id":"{}","direction_id":"{\"1\": 50}","headsign":"{}","duration_avg":60,"n_vehicles":50,"d":600,"route_I_counts":"{\"1\": 50}","source":19,"target":18,"layer":"L","from":"芜湖红花山路(地铁站)","to":"芜湖奥体中心(地铁站)"},"geometry":{"type":"LineString","coordinates":[[118.374469,31.303527],[118.373477,31.313237]]}},{"type":"Feature","properties":{"shape_id":"{}","direction_id":"{\"0\": 50}","headsign":"{}","duration_avg":120,"n_vehicles":50,"d":1200,"route_I_counts":"{\"1\": 50}","source":19,"target":20,"layer":"L","from":"芜湖红花山路(地铁站)","to":"芜湖博览中心(地铁站)"},"geometry":{"type":"LineString","coordinates":[[118.374469,31.303527],[118.375493,31.29594]]}},{"type":"Feature","properties":{"shape_id":"{}","direction_id":"{\"1\": 50}","headsign":"{}","duration_avg":120,"n_vehicles":50,"d":1200,"route_I_counts":"{\"1\": 50}","source":20,"target":19,"layer":"L","from":"芜湖博览中心(地铁站)","to":"芜湖红花山路(地铁站)"},"geometry":{"type":"LineString","coordinates":[[118.375493,31.29594],[118.374469,31.303527]]}},{"type":"Feature","properties":{"shape_id":"{}","direction_id":"{\"0\": 50}","headsign":"{}","duration_avg":120,"n_vehicles":50,"d":1200,"route_I_counts":"{\"1\": 50}","source":20,"target":21,"layer":"L","from":"芜湖博览中心(地铁站)","to":"芜湖文津东路(地铁站)"},"geometry":{"type":"LineString","coordinates":[[118.375493,31.29594],[118.378637,31.285163]]}},{"type":"Feature","properties":{"shape_id":"{}","direction_id":"{\"1\": 50}","headsign":"{}","duration_avg":120,"n_vehicles":50,"d":1200,"route_I_counts":"{\"1\": 50}","source":21,"target":20,"layer":"L","from":"芜湖文津东路(地铁站)","to":"芜湖博览中心(地铁站)"},"geometry":{"type":"LineString","coordinates":[[118.378637,31.285163],[118.375493,31.29594]]}},{"type":"Feature","properties":{"shape_id":"{}","direction_id":"{\"0\": 50}","headsign":"{}","duration_avg":180,"n_vehicles":50,"d":1800,"route_I_counts":"{\"1\": 50}","source":21,"target":22,"layer":"L","from":"芜湖文津东路(地铁站)","to":"芜湖珩琅山路(地铁站)"},"geometry":{"type":"LineString","coordinates":[[118.378637,31.285163],[118.383624,31.267059]]}},{"type":"Feature","properties":{"shape_id":"{}","direction_id":"{\"1\": 50}","headsign":"{}","duration_avg":180,"n_vehicles":50,"d":1800,"route_I_counts":"{\"1\": 50}","source":22,"target":21,"layer":"L","from":"芜湖珩琅山路(地铁站)","to":"芜湖文津东路(地铁站)"},"geometry":{"type":"LineString","coordinates":[[118.383624,31.267059],[118.378637,31.285163]]}},{"type":"Feature","properties":{"shape_id":"{}","direction_id":"{\"0\": 50}","headsign":"{}","duration_avg":180,"n_vehicles":50,"d":1800,"route_I_counts":"{\"1\": 50}","source":22,"target":23,"layer":"L","from":"芜湖珩琅山路(地铁站)","to":"芜湖芜湖南站(地铁站)"},"geometry":{"type":"LineString","coordinates":[[118.383624,31.267059],[118.373215,31.252599]]}},{"type":"Feature","properties":{"shape_id":"{}","direction_id":"{\"1\": 50}","headsign":"{}","duration_avg":180,"n_vehicles":50,"d":1800,"route_I_counts":"{\"1\": 50}","source":23,"target":22,"layer":"L","from":"芜湖芜湖南站(地铁站)","to":"芜湖珩琅山路(地铁站)"},"geometry":{"type":"LineString","coordinates":[[118.373215,31.252599],[118.383624,31.267059]]}},{"type":"Feature","properties":{"shape_id":"{}","direction_id":"{\"0\": 50}","headsign":"{}","duration_avg":60,"n_vehicles":50,"d":600,"route_I_counts":"{\"1\": 50}","source":23,"target":24,"layer":"L","from":"芜湖芜湖南站(地铁站)","to":"芜湖白马山(地铁站)"},"geometry":{"type":"LineString","coordinates":[[118.373215,31.252599],[118.366983,31.247148]]}},{"type":"Feature","properties":{"shape_id":"{}","direction_id":"{\"1\": 50}","headsign":"{}","duration_avg":60,"n_vehicles":50,"d":600,"route_I_counts":"{\"1\": 50}","source":24,"target":23,"layer":"L","from":"芜湖白马山(地铁站)","to":"芜湖芜湖南站(地铁站)"},"geometry":{"type":"LineString","coordinates":[[118.366983,31.247148],[118.373215,31.252599]]}},{"type":"Feature","properties":{"shape_id":"{}","direction_id":"{\"0\": 50}","headsign":"{}","duration_avg":180,"n_vehicles":50,"d":1800,"route_I_counts":"{\"2\": 50}","source":16,"target":25,"layer":"L","from":"芜湖鸠兹广场(地铁站)","to":"芜湖文化路(地铁站)"},"geometry":{"type":"LineString","coordinates":[[118.366752,31.334296],[118.378396,31.337331]]}},{"type":"Feature","properties":{"shape_id":"{}","direction_id":"{\"1\": 50}","headsign":"{}","duration_avg":180,"n_vehicles":50,"d":1800,"route_I_counts":"{\"2\": 50}","source":25,"target":16,"layer":"L","from":"芜湖文化路(地铁站)","to":"芜湖鸠兹广场(地铁站)"},"geometry":{"type":"LineString","coordinates":[[118.378396,31.337331],[118.366752,31.334296]]}},{"type":"Feature","properties":{"shape_id":"{}","direction_id":"{\"0\": 50}","headsign":"{}","duration_avg":120,"n_vehicles":50,"d":1200,"route_I_counts":"{\"2\": 50}","source":25,"target":26,"layer":"L","from":"芜湖文化路(地铁站)","to":"芜湖神山口(地铁站)"},"geometry":{"type":"LineString","coordinates":[[118.378396,31.337331],[118.391572,31.339902]]}},{"type":"Feature","properties":{"shape_id":"{}","direction_id":"{\"1\": 50}","headsign":"{}","duration_avg":120,"n_vehicles":50,"d":1200,"route_I_counts":"{\"2\": 50}","source":26,"target":25,"layer":"L","from":"芜湖神山口(地铁站)","to":"芜湖文化路(地铁站)"},"geometry":{"type":"LineString","coordinates":[[118.391572,31.339902],[118.378396,31.337331]]}},{"type":"Feature","properties":{"shape_id":"{}","direction_id":"{\"0\": 50}","headsign":"{}","duration_avg":180,"n_vehicles":50,"d":1800,"route_I_counts":"{\"2\": 50}","source":26,"target":27,"layer":"L","from":"芜湖神山口(地铁站)","to":"芜湖芜湖火车站(地铁站)"},"geometry":{"type":"LineString","coordinates":[[118.391572,31.339902],[118.389387,31.349976]]}},{"type":"Feature","properties":{"shape_id":"{}","direction_id":"{\"1\": 50}","headsign":"{}","duration_avg":180,"n_vehicles":50,"d":1800,"route_I_counts":"{\"2\": 50}","source":27,"target":26,"layer":"L","from":"芜湖芜湖火车站(地铁站)","to":"芜湖神山口(地铁站)"},"geometry":{"type":"LineString","coordinates":[[118.389387,31.349976],[118.391572,31.339902]]}},{"type":"Feature","properties":{"shape_id":"{}","direction_id":"{\"0\": 50}","headsign":"{}","duration_avg":180,"n_vehicles":50,"d":1800,"route_I_counts":"{\"2\": 50}","source":27,"target":28,"layer":"L","from":"芜湖芜湖火车站(地铁站)","to":"芜湖神山公园(地铁站)"},"geometry":{"type":"LineString","coordinates":[[118.389387,31.349976],[118.404572,31.359093]]}},{"type":"Feature","properties":{"shape_id":"{}","direction_id":"{\"1\": 50}","headsign":"{}","duration_avg":180,"n_vehicles":50,"d":1800,"route_I_counts":"{\"2\": 50}","source":28,"target":27,"layer":"L","from":"芜湖神山公园(地铁站)","to":"芜湖芜湖火车站(地铁站)"},"geometry":{"type":"LineString","coordinates":[[118.404572,31.359093],[118.389387,31.349976]]}},{"type":"Feature","properties":{"shape_id":"{}","direction_id":"{\"0\": 50}","headsign":"{}","duration_avg":180,"n_vehicles":50,"d":1800,"route_I_counts":"{\"2\": 50}","source":28,"target":29,"layer":"L","from":"芜湖神山公园(地铁站)","to":"芜湖云从路(地铁站)"},"geometry":{"type":"LineString","coordinates":[[118.404572,31.359093],[118.416648,31.359213]]}},{"type":"Feature","properties":{"shape_id":"{}","direction_id":"{\"1\": 50}","headsign":"{}","duration_avg":180,"n_vehicles":50,"d":1800,"route_I_counts":"{\"2\": 50}","source":29,"target":28,"layer":"L","from":"芜湖云从路(地铁站)","to":"芜湖神山公园(地铁站)"},"geometry":{"type":"LineString","coordinates":[[118.416648,31.359213],[118.404572,31.359093]]}},{"type":"Feature","properties":{"shape_id":"{}","direction_id":"{\"0\": 50}","headsign":"{}","duration_avg":120,"n_vehicles":50,"d":1200,"route_I_counts":"{\"2\": 50}","source":29,"target":30,"layer":"L","from":"芜湖云从路(地铁站)","to":"芜湖政务中心(地铁站)"},"geometry":{"type":"LineString","coordinates":[[118.416648,31.359213],[118.42531,31.359129]]}},{"type":"Feature","properties":{"shape_id":"{}","direction_id":"{\"1\": 50}","headsign":"{}","duration_avg":120,"n_vehicles":50,"d":1200,"route_I_counts":"{\"2\": 50}","source":30,"target":29,"layer":"L","from":"芜湖政务中心(地铁站)","to":"芜湖云从路(地铁站)"},"geometry":{"type":"LineString","coordinates":[[118.42531,31.359129],[118.416648,31.359213]]}},{"type":"Feature","properties":{"shape_id":"{}","direction_id":"{\"0\": 50}","headsign":"{}","duration_avg":120,"n_vehicles":50,"d":1200,"route_I_counts":"{\"2\": 50}","source":30,"target":31,"layer":"L","from":"芜湖政务中心(地铁站)","to":"芜湖海晏路(地铁站)"},"geometry":{"type":"LineString","coordinates":[[118.42531,31.359129],[118.435233,31.356803]]}},{"type":"Feature","properties":{"shape_id":"{}","direction_id":"{\"1\": 50}","headsign":"{}","duration_avg":120,"n_vehicles":50,"d":1200,"route_I_counts":"{\"2\": 50}","source":31,"target":30,"layer":"L","from":"芜湖海晏路(地铁站)","to":"芜湖政务中心(地铁站)"},"geometry":{"type":"LineString","coordinates":[[118.435233,31.356803],[118.42531,31.359129]]}},{"type":"Feature","properties":{"shape_id":"{}","direction_id":"{\"0\": 50}","headsign":"{}","duration_avg":180,"n_vehicles":50,"d":1800,"route_I_counts":"{\"2\": 50}","source":31,"target":32,"layer":"L","from":"芜湖海晏路(地铁站)","to":"芜湖方特·徽州路(地铁站)"},"geometry":{"type":"LineString","coordinates":[[118.435233,31.356803],[118.454442,31.358046]]}},{"type":"Feature","properties":{"shape_id":"{}","direction_id":"{\"1\": 50}","headsign":"{}","duration_avg":180,"n_vehicles":50,"d":1800,"route_I_counts":"{\"2\": 50}","source":32,"target":31,"layer":"L","from":"芜湖方特·徽州路(地铁站)","to":"芜湖海晏路(地铁站)"},"geometry":{"type":"LineString","coordinates":[[118.454442,31.358046],[118.435233,31.356803]]}},{"type":"Feature","properties":{"shape_id":"{}","direction_id":"{\"0\": 50}","headsign":"{}","duration_avg":120,"n_vehicles":50,"d":1200,"route_I_counts":"{\"2\": 50}","source":32,"target":33,"layer":"L","from":"芜湖方特·徽州路(地铁站)","to":"芜湖梦溪路(地铁站)"},"geometry":{"type":"LineString","coordinates":[[118.454442,31.358046],[118.476128,31.353505]]}},{"type":"Feature","properties":{"shape_id":"{}","direction_id":"{\"1\": 50}","headsign":"{}","duration_avg":120,"n_vehicles":50,"d":1200,"route_I_counts":"{\"2\": 50}","source":33,"target":32,"layer":"L","from":"芜湖梦溪路(地铁站)","to":"芜湖方特·徽州路(地铁站)"},"geometry":{"type":"LineString","coordinates":[[118.476128,31.353505],[118.454442,31.358046]]}},{"type":"Feature","properties":{"shape_id":"{}","direction_id":"{\"0\": 50}","headsign":"{}","duration_avg":180,"n_vehicles":50,"d":1800,"route_I_counts":"{\"2\": 50}","source":33,"target":34,"layer":"L","from":"芜湖梦溪路(地铁站)","to":"芜湖万春湖路(地铁站)"},"geometry":{"type":"LineString","coordinates":[[118.476128,31.353505],[118.490949,31.364524]]}},{"type":"Feature","properties":{"shape_id":"{}","direction_id":"{\"1\": 50}","headsign":"{}","duration_avg":180,"n_vehicles":50,"d":1800,"route_I_counts":"{\"2\": 50}","source":34,"target":33,"layer":"L","from":"芜湖万春湖路(地铁站)","to":"芜湖梦溪路(地铁站)"},"geometry":{"type":"LineString","coordinates":[[118.490949,31.364524],[118.476128,31.353505]]}}]}