{"type":"FeatureCollection","features":[{"type":"Feature","geometry":{"type":"Point","coordinates":[120.265707,31.438839]},"properties":{"name":"无锡南方泉(地铁站)","original_ids":"[1]","id":0,"layer":"stop"}},{"type":"Feature","geometry":{"type":"Point","coordinates":[120.269695,31.449668]},"properties":{"name":"无锡葛埭桥(地铁站)","original_ids":"[2]","id":1,"layer":"stop"}},{"type":"Feature","geometry":{"type":"Point","coordinates":[120.27505,31.461877]},"properties":{"name":"无锡雪浪(地铁站)","original_ids":"[3]","id":2,"layer":"stop"}},{"type":"Feature","geometry":{"type":"Point","coordinates":[120.272816,31.475309]},"properties":{"name":"无锡长广溪(地铁站)","original_ids":"[4]","id":3,"layer":"stop"}},{"type":"Feature","geometry":{"type":"Point","coordinates":[120.274188,31.485872]},"properties":{"name":"无锡江南大学(地铁站)","original_ids":"[5]","id":4,"layer":"stop"}},{"type":"Feature","geometry":{"type":"Point","coordinates":[120.286596,31.491938]},"properties":{"name":"无锡文化宫(地铁站)","original_ids":"[6]","id":5,"layer":"stop"}},{"type":"Feature","geometry":{"type":"Point","coordinates":[120.302149,31.493457]},"properties":{"name":"无锡市民中心(地铁站)","original_ids":"[7]","id":6,"layer":"stop"}},{"type":"Feature","geometry":{"type":"Point","coordinates":[120.315587,31.49534]},"properties":{"name":"无锡金匮公园(地铁站)","original_ids":"[8]","id":7,"layer":"stop"}},{"type":"Feature","geometry":{"type":"Point","coordinates":[120.321258,31.502643]},"properties":{"name":"无锡塘铁桥(地铁站)","original_ids":"[9]","id":8,"layer":"stop"}},{"type":"Feature","geometry":{"type":"Point","coordinates":[120.319539,31.511651]},"properties":{"name":"无锡南湖家园(地铁站)","original_ids":"[10]","id":9,"layer":"stop"}},{"type":"Feature","geometry":{"type":"Point","coordinates":[120.31987,31.522983]},"properties":{"name":"无锡扬名(地铁站)","original_ids":"[11]","id":10,"layer":"stop"}},{"type":"Feature","geometry":{"type":"Point","coordinates":[120.323352,31.535651]},"properties":{"name":"无锡华清大桥(地铁站)","original_ids":"[12]","id":11,"layer":"stop"}},{"type":"Feature","geometry":{"type":"Point","coordinates":[120.314676,31.5438]},"properties":{"name":"无锡人民医院(地铁站)","original_ids":"[13]","id":12,"layer":"stop"}},{"type":"Feature","geometry":{"type":"Point","coordinates":[120.306661,31.551251]},"properties":{"name":"无锡清名桥(地铁站)","original_ids":"[14]","id":13,"layer":"stop"}},{"type":"Feature","geometry":{"type":"Point","coordinates":[120.300608,31.557087]},"properties":{"name":"无锡太湖广场(地铁站)","original_ids":"[15]","id":14,"layer":"stop"}},{"type":"Feature","geometry":{"type":"Point","coordinates":[120.300525,31.563941]},"properties":{"name":"无锡谈渡桥(地铁站)","original_ids":"[16]","id":15,"layer":"stop"}},{"type":"Feature","geometry":{"type":"Point","coordinates":[120.301553,31.569372]},"properties":{"name":"无锡南禅寺(地铁站)","original_ids":"[17]","id":16,"layer":"stop"}},{"type":"Feature","geometry":{"type":"Point","coordinates":[120.295215,31.577688]},"properties":{"name":"无锡三阳广场(地铁站)","original_ids":"[18]","id":17,"layer":"stop"}},{"type":"Feature","geometry":{"type":"Point","coordinates":[120.2953,31.583845]},"properties":{"name":"无锡胜利门(地铁站)","original_ids":"[19]","id":18,"layer":"stop"}},{"type":"Feature","geometry":{"type":"Point","coordinates":[120.302406,31.591554]},"properties":{"name":"无锡无锡火车站(地铁站)","original_ids":"[20]","id":19,"layer":"stop"}},{"type":"Feature","geometry":{"type":"Point","coordinates":[120.298931,31.602843]},"properties":{"name":"无锡民丰(地铁站)","original_ids":"[21]","id":20,"layer":"stop"}},{"type":"Feature","geometry":{"type":"Point","coordinates":[120.300288,31.611724]},"properties":{"name":"无锡庄前(地铁站)","original_ids":"[22]","id":21,"layer":"stop"}},{"type":"Feature","geometry":{"type":"Point","coordinates":[120.299794,31.62851]},"properties":{"name":"无锡刘潭(地铁站)","original_ids":"[23]","id":22,"layer":"stop"}},{"type":"Feature","geometry":{"type":"Point","coordinates":[120.299733,31.63973]},"properties":{"name":"无锡天一(地铁站)","original_ids":"[24]","id":23,"layer":"stop"}},{"type":"Feature","geometry":{"type":"Point","coordinates":[120.299037,31.647727]},"properties":{"name":"无锡西漳(地铁站)","original_ids":"[25]","id":24,"layer":"stop"}},{"type":"Feature","geometry":{"type":"Point","coordinates":[120.31025,31.664148]},"properties":{"name":"无锡锡北运河(地铁站)","original_ids":"[26]","id":25,"layer":"stop"}},{"type":"Feature","geometry":{"type":"Point","coordinates":[120.31028,31.677432]},"properties":{"name":"无锡堰桥(地铁站)","original_ids":"[27]","id":26,"layer":"stop"}},{"type":"Feature","geometry":{"type":"Point","coordinates":[120.253814,31.925197]},"properties":{"name":"无锡江阴外滩(地铁站)","original_ids":"[28]","id":27,"layer":"stop"}},{"type":"Feature","geometry":{"type":"Point","coordinates":[120.266481,31.908489]},"properties":{"name":"无锡中山公园(地铁站)","original_ids":"[29]","id":28,"layer":"stop"}},{"type":"Feature","geometry":{"type":"Point","coordinates":[120.267157,31.893142]},"properties":{"name":"无锡南门(地铁站)","original_ids":"[30]","id":29,"layer":"stop"}},{"type":"Feature","geometry":{"type":"Point","coordinates":[120.267641,31.877996]},"properties":{"name":"无锡江阴中医院(地铁站)","original_ids":"[31]","id":30,"layer":"stop"}},{"type":"Feature","geometry":{"type":"Point","coordinates":[120.274003,31.864509]},"properties":{"name":"无锡江阴高铁站(地铁站)","original_ids":"[32]","id":31,"layer":"stop"}},{"type":"Feature","geometry":{"type":"Point","coordinates":[120.262624,31.843543]},"properties":{"name":"无锡南闸(地铁站)","original_ids":"[33]","id":32,"layer":"stop"}},{"type":"Feature","geometry":{"type":"Point","coordinates":[120.267626,31.818354]},"properties":{"name":"无锡峭岐(地铁站)","original_ids":"[34]","id":33,"layer":"stop"}},{"type":"Feature","geometry":{"type":"Point","coordinates":[120.289649,31.772479]},"properties":{"name":"无锡青阳(地铁站)","original_ids":"[35]","id":34,"layer":"stop"}},{"type":"Feature","geometry":{"type":"Point","coordinates":[120.297401,31.741773]},"properties":{"name":"无锡霞客湾科学城(地铁站)","original_ids":"[36]","id":35,"layer":"stop"}},{"type":"Feature","geometry":{"type":"Point","coordinates":[120.30648,31.710862]},"properties":{"name":"无锡马镇(地铁站)","original_ids":"[37]","id":36,"layer":"stop"}},{"type":"Feature","geometry":{"type":"Point","coordinates":[120.460208,31.603166]},"properties":{"name":"无锡安镇(地铁站)","original_ids":"[38]","id":37,"layer":"stop"}},{"type":"Feature","geometry":{"type":"Point","coordinates":[120.455518,31.59881]},"properties":{"name":"无锡无锡东站(地铁站)","original_ids":"[39]","id":38,"layer":"stop"}},{"type":"Feature","geometry":{"type":"Point","coordinates":[120.214959,31.552879]},"properties":{"name":"无锡梅园开原寺(地铁站)","original_ids":"[40]","id":39,"layer":"stop"}},{"type":"Feature","geometry":{"type":"Point","coordinates":[120.231896,31.558589]},"properties":{"name":"无锡荣巷(地铁站)","original_ids":"[41]","id":40,"layer":"stop"}},{"type":"Feature","geometry":{"type":"Point","coordinates":[120.244887,31.561146]},"properties":{"name":"无锡小桃源(地铁站)","original_ids":"[42]","id":41,"layer":"stop"}},{"type":"Feature","geometry":{"type":"Point","coordinates":[120.256284,31.563954]},"properties":{"name":"无锡河埒口(地铁站)","original_ids":"[43]","id":42,"layer":"stop"}},{"type":"Feature","geometry":{"type":"Point","coordinates":[120.271087,31.566736]},"properties":{"name":"无锡大王基(地铁站)","original_ids":"[44]","id":43,"layer":"stop"}},{"type":"Feature","geometry":{"type":"Point","coordinates":[120.281783,31.569176]},"properties":{"name":"无锡梁溪大桥(地铁站)","original_ids":"[45]","id":44,"layer":"stop"}},{"type":"Feature","geometry":{"type":"Point","coordinates":[120.285961,31.575541]},"properties":{"name":"无锡五爱广场(地铁站)","original_ids":"[46]","id":45,"layer":"stop"}},{"type":"Feature","geometry":{"type":"Point","coordinates":[120.303782,31.580364]},"properties":{"name":"无锡东林广场(地铁站)","original_ids":"[47]","id":46,"layer":"stop"}},{"type":"Feature","geometry":{"type":"Point","coordinates":[120.316136,31.584229]},"properties":{"name":"无锡上马墩(地铁站)","original_ids":"[48]","id":47,"layer":"stop"}},{"type":"Feature","geometry":{"type":"Point","coordinates":[120.325484,31.585165]},"properties":{"name":"无锡靖海(地铁站)","original_ids":"[49]","id":48,"layer":"stop"}},{"type":"Feature","geometry":{"type":"Point","coordinates":[120.336684,31.58839]},"properties":{"name":"无锡广益(地铁站)","original_ids":"[50]","id":49,"layer":"stop"}},{"type":"Feature","geometry":{"type":"Point","coordinates":[120.346402,31.587803]},"properties":{"name":"无锡柏庄(地铁站)","original_ids":"[51]","id":50,"layer":"stop"}},{"type":"Feature","geometry":{"type":"Point","coordinates":[120.358974,31.583921]},"properties":{"name":"无锡东亭(地铁站)","original_ids":"[52]","id":51,"layer":"stop"}},{"type":"Feature","geometry":{"type":"Point","coordinates":[120.37437,31.579873]},"properties":{"name":"无锡庄桥(地铁站)","original_ids":"[53]","id":52,"layer":"stop"}},{"type":"Feature","geometry":{"type":"Point","coordinates":[120.390326,31.581294]},"properties":{"name":"无锡云林(地铁站)","original_ids":"[54]","id":53,"layer":"stop"}},{"type":"Feature","geometry":{"type":"Point","coordinates":[120.403921,31.582131]},"properties":{"name":"无锡九里河公园(地铁站)","original_ids":"[55]","id":54,"layer":"stop"}},{"type":"Feature","geometry":{"type":"Point","coordinates":[120.426712,31.582897]},"properties":{"name":"无锡查桥(地铁站)","original_ids":"[56]","id":55,"layer":"stop"}},{"type":"Feature","geometry":{"type":"Point","coordinates":[120.445078,31.589027]},"properties":{"name":"无锡映月湖公园(地铁站)","original_ids":"[57]","id":56,"layer":"stop"}},{"type":"Feature","geometry":{"type":"Point","coordinates":[120.449867,31.593432]},"properties":{"name":"无锡迎宾广场(地铁站)","original_ids":"[58]","id":57,"layer":"stop"}},{"type":"Feature","geometry":{"type":"Point","coordinates":[120.211422,31.598707]},"properties":{"name":"无锡苏庙(地铁站)","original_ids":"[59]","id":58,"layer":"stop"}},{"type":"Feature","geometry":{"type":"Point","coordinates":[120.225064,31.598434]},"properties":{"name":"无锡钱桥(地铁站)","original_ids":"[60]","id":59,"layer":"stop"}},{"type":"Feature","geometry":{"type":"Point","coordinates":[120.239503,31.602377]},"properties":{"name":"无锡龙山梢(地铁站)","original_ids":"[61]","id":60,"layer":"stop"}},{"type":"Feature","geometry":{"type":"Point","coordinates":[120.254512,31.599319]},"properties":{"name":"无锡石门路(地铁站)","original_ids":"[62]","id":61,"layer":"stop"}},{"type":"Feature","geometry":{"type":"Point","coordinates":[120.265226,31.594261]},"properties":{"name":"无锡盛岸(地铁站)","original_ids":"[63]","id":62,"layer":"stop"}},{"type":"Feature","geometry":{"type":"Point","coordinates":[120.281375,31.595783]},"properties":{"name":"无锡吴桥(地铁站)","original_ids":"[64]","id":63,"layer":"stop"}},{"type":"Feature","geometry":{"type":"Point","coordinates":[120.292464,31.592851]},"properties":{"name":"无锡北栅口(地铁站)","original_ids":"[65]","id":64,"layer":"stop"}},{"type":"Feature","geometry":{"type":"Point","coordinates":[120.313821,31.590784]},"properties":{"name":"无锡广瑞(地铁站)","original_ids":"[66]","id":65,"layer":"stop"}},{"type":"Feature","geometry":{"type":"Point","coordinates":[120.327792,31.575177]},"properties":{"name":"无锡东风(地铁站)","original_ids":"[67]","id":66,"layer":"stop"}},{"type":"Feature","geometry":{"type":"Point","coordinates":[120.332501,31.56807]},"properties":{"name":"无锡叙丰(地铁站)","original_ids":"[68]","id":67,"layer":"stop"}},{"type":"Feature","geometry":{"type":"Point","coordinates":[120.33932,31.560871]},"properties":{"name":"无锡太湖花园(地铁站)","original_ids":"[69]","id":68,"layer":"stop"}},{"type":"Feature","geometry":{"type":"Point","coordinates":[120.347801,31.551214]},"properties":{"name":"无锡新光路(地铁站)","original_ids":"[70]","id":69,"layer":"stop"}},{"type":"Feature","geometry":{"type":"Point","coordinates":[120.354173,31.542835]},"properties":{"name":"无锡旺庄路(地铁站)","original_ids":"[71]","id":70,"layer":"stop"}},{"type":"Feature","geometry":{"type":"Point","coordinates":[120.365172,31.531508]},"properties":{"name":"无锡黄山路(地铁站)","original_ids":"[72]","id":71,"layer":"stop"}},{"type":"Feature","geometry":{"type":"Point","coordinates":[120.371352,31.525112]},"properties":{"name":"无锡高浪东路(地铁站)","original_ids":"[73]","id":72,"layer":"stop"}},{"type":"Feature","geometry":{"type":"Point","coordinates":[120.380883,31.515487]},"properties":{"name":"无锡周泾巷(地铁站)","original_ids":"[74]","id":73,"layer":"stop"}},{"type":"Feature","geometry":{"type":"Point","coordinates":[120.387443,31.501146]},"properties":{"name":"无锡无锡新区站(地铁站)","original_ids":"[75]","id":74,"layer":"stop"}},{"type":"Feature","geometry":{"type":"Point","coordinates":[120.398526,31.499155]},"properties":{"name":"无锡长江南路(地铁站)","original_ids":"[76]","id":75,"layer":"stop"}},{"type":"Feature","geometry":{"type":"Point","coordinates":[120.426147,31.504367]},"properties":{"name":"无锡硕放机场(地铁站)","original_ids":"[77]","id":76,"layer":"stop"}},{"type":"Feature","geometry":{"type":"Point","coordinates":[120.286161,31.620081]},"properties":{"name":"无锡广石路(地铁站)","original_ids":"[78]","id":77,"layer":"stop"}},{"type":"Feature","geometry":{"type":"Point","coordinates":[120.275369,31.601231]},"properties":{"name":"无锡黄巷(地铁站)","original_ids":"[79]","id":78,"layer":"stop"}},{"type":"Feature","geometry":{"type":"Point","coordinates":[120.272824,31.583935]},"properties":{"name":"无锡惠山古镇(地铁站)","original_ids":"[80]","id":79,"layer":"stop"}},{"type":"Feature","geometry":{"type":"Point","coordinates":[120.269514,31.573912]},"properties":{"name":"无锡青山湾荣院(地铁站)","original_ids":"[81]","id":80,"layer":"stop"}},{"type":"Feature","geometry":{"type":"Point","coordinates":[120.2576,31.550719]},"properties":{"name":"无锡西园弄(地铁站)","original_ids":"[82]","id":81,"layer":"stop"}},{"type":"Feature","geometry":{"type":"Point","coordinates":[120.258319,31.542831]},"properties":{"name":"无锡体育中心(地铁站)","original_ids":"[83]","id":82,"layer":"stop"}},{"type":"Feature","geometry":{"type":"Point","coordinates":[120.258889,31.534111]},"properties":{"name":"无锡夏家边(地铁站)","original_ids":"[84]","id":83,"layer":"stop"}},{"type":"Feature","geometry":{"type":"Point","coordinates":[120.261511,31.524]},"properties":{"name":"无锡蠡湖大桥(地铁站)","original_ids":"[85]","id":84,"layer":"stop"}},{"type":"Feature","geometry":{"type":"Point","coordinates":[120.276811,31.513689]},"properties":{"name":"无锡大剧院(地铁站)","original_ids":"[86]","id":85,"layer":"stop"}},{"type":"Feature","geometry":{"type":"Point","coordinates":[120.282589,31.507719]},"properties":{"name":"无锡五湖大道(地铁站)","original_ids":"[87]","id":86,"layer":"stop"}},{"type":"Feature","geometry":{"type":"Point","coordinates":[120.296689,31.506119]},"properties":{"name":"无锡周新苑(地铁站)","original_ids":"[88]","id":87,"layer":"stop"}},{"type":"Feature","geometry":{"type":"Point","coordinates":[120.303839,31.485219]},"properties":{"name":"无锡吴都路(地铁站)","original_ids":"[89]","id":88,"layer":"stop"}},{"type":"Feature","geometry":{"type":"Point","coordinates":[120.310839,31.476039]},"properties":{"name":"无锡丰润道(地铁站)","original_ids":"[90]","id":89,"layer":"stop"}},{"type":"Feature","geometry":{"type":"Point","coordinates":[120.321,31.478806]},"properties":{"name":"无锡博览中心(地铁站)","original_ids":"[91]","id":90,"layer":"stop"}},{"type":"Feature","properties":{"shape_id":"{}","direction_id":"{\"0\": 50}","headsign":"{}","duration_avg":128,"n_vehicles":50,"d":1280,"route_I_counts":"{\"1\": 50}","source":0,"target":1,"layer":"L","from":"无锡南方泉(地铁站)","to":"无锡葛埭桥(地铁站)"},"geometry":{"type":"LineString","coordinates":[[120.265707,31.438839],[120.269695,31.449668]]}},{"type":"Feature","properties":{"shape_id":"{}","direction_id":"{\"1\": 50}","headsign":"{}","duration_avg":128,"n_vehicles":50,"d":1280,"route_I_counts":"{\"1\": 50}","source":1,"target":0,"layer":"L","from":"无锡葛埭桥(地铁站)","to":"无锡南方泉(地铁站)"},"geometry":{"type":"LineString","coordinates":[[120.269695,31.449668],[120.265707,31.438839]]}},{"type":"Feature","properties":{"shape_id":"{}","direction_id":"{\"0\": 50}","headsign":"{}","duration_avg":150,"n_vehicles":50,"d":1500,"route_I_counts":"{\"1\": 50}","source":1,"target":2,"layer":"L","from":"无锡葛埭桥(地铁站)","to":"无锡雪浪(地铁站)"},"geometry":{"type":"LineString","coordinates":[[120.269695,31.449668],[120.27505,31.461877]]}},{"type":"Feature","properties":{"shape_id":"{}","direction_id":"{\"1\": 50}","headsign":"{}","duration_avg":150,"n_vehicles":50,"d":1500,"route_I_counts":"{\"1\": 50}","source":2,"target":1,"layer":"L","from":"无锡雪浪(地铁站)","to":"无锡葛埭桥(地铁站)"},"geometry":{"type":"LineString","coordinates":[[120.27505,31.461877],[120.269695,31.449668]]}},{"type":"Feature","properties":{"shape_id":"{}","direction_id":"{\"0\": 50}","headsign":"{}","duration_avg":112,"n_vehicles":50,"d":1120,"route_I_counts":"{\"1\": 50}","source":2,"target":3,"layer":"L","from":"无锡雪浪(地铁站)","to":"无锡长广溪(地铁站)"},"geometry":{"type":"LineString","coordinates":[[120.27505,31.461877],[120.272816,31.475309]]}},{"type":"Feature","properties":{"shape_id":"{}","direction_id":"{\"1\": 50}","headsign":"{}","duration_avg":112,"n_vehicles":50,"d":1120,"route_I_counts":"{\"1\": 50}","source":3,"target":2,"layer":"L","from":"无锡长广溪(地铁站)","to":"无锡雪浪(地铁站)"},"geometry":{"type":"LineString","coordinates":[[120.272816,31.475309],[120.27505,31.461877]]}},{"type":"Feature","properties":{"shape_id":"{}","direction_id":"{\"0\": 50}","headsign":"{}","duration_avg":92,"n_vehicles":50,"d":920,"route_I_counts":"{\"1\": 50}","source":3,"target":4,"layer":"L","from":"无锡长广溪(地铁站)","to":"无锡江南大学(地铁站)"},"geometry":{"type":"LineString","coordinates":[[120.272816,31.475309],[120.274188,31.485872]]}},{"type":"Feature","properties":{"shape_id":"{}","direction_id":"{\"1\": 50}","headsign":"{}","duration_avg":92,"n_vehicles":50,"d":920,"route_I_counts":"{\"1\": 50}","source":4,"target":3,"layer":"L","from":"无锡江南大学(地铁站)","to":"无锡长广溪(地铁站)"},"geometry":{"type":"LineString","coordinates":[[120.274188,31.485872],[120.272816,31.475309]]}},{"type":"Feature","properties":{"shape_id":"{}","direction_id":"{\"0\": 50}","headsign":"{}","duration_avg":134,"n_vehicles":50,"d":1340,"route_I_counts":"{\"1\": 50}","source":4,"target":5,"layer":"L","from":"无锡江南大学(地铁站)","to":"无锡文化宫(地铁站)"},"geometry":{"type":"LineString","coordinates":[[120.274188,31.485872],[120.286596,31.491938]]}},{"type":"Feature","properties":{"shape_id":"{}","direction_id":"{\"1\": 50}","headsign":"{}","duration_avg":134,"n_vehicles":50,"d":1340,"route_I_counts":"{\"1\": 50}","source":5,"target":4,"layer":"L","from":"无锡文化宫(地铁站)","to":"无锡江南大学(地铁站)"},"geometry":{"type":"LineString","coordinates":[[120.286596,31.491938],[120.274188,31.485872]]}},{"type":"Feature","properties":{"shape_id":"{}","direction_id":"{\"0\": 50}","headsign":"{}","duration_avg":119,"n_vehicles":50,"d":1190,"route_I_counts":"{\"1\": 50}","source":5,"target":6,"layer":"L","from":"无锡文化宫(地铁站)","to":"无锡市民中心(地铁站)"},"geometry":{"type":"LineString","coordinates":[[120.286596,31.491938],[120.302149,31.493457]]}},{"type":"Feature","properties":{"shape_id":"{}","direction_id":"{\"1\": 50}","headsign":"{}","duration_avg":119,"n_vehicles":50,"d":1190,"route_I_counts":"{\"1\": 50}","source":6,"target":5,"layer":"L","from":"无锡市民中心(地铁站)","to":"无锡文化宫(地铁站)"},"geometry":{"type":"LineString","coordinates":[[120.302149,31.493457],[120.286596,31.491938]]}},{"type":"Feature","properties":{"shape_id":"{}","direction_id":"{\"0\": 50}","headsign":"{}","duration_avg":101,"n_vehicles":50,"d":1010,"route_I_counts":"{\"1\": 50}","source":6,"target":7,"layer":"L","from":"无锡市民中心(地铁站)","to":"无锡金匮公园(地铁站)"},"geometry":{"type":"LineString","coordinates":[[120.302149,31.493457],[120.315587,31.49534]]}},{"type":"Feature","properties":{"shape_id":"{}","direction_id":"{\"1\": 50}","headsign":"{}","duration_avg":101,"n_vehicles":50,"d":1010,"route_I_counts":"{\"1\": 50}","source":7,"target":6,"layer":"L","from":"无锡金匮公园(地铁站)","to":"无锡市民中心(地铁站)"},"geometry":{"type":"LineString","coordinates":[[120.315587,31.49534],[120.302149,31.493457]]}},{"type":"Feature","properties":{"shape_id":"{}","direction_id":"{\"0\": 50}","headsign":"{}","duration_avg":102,"n_vehicles":50,"d":1020,"route_I_counts":"{\"1\": 50}","source":7,"target":8,"layer":"L","from":"无锡金匮公园(地铁站)","to":"无锡塘铁桥(地铁站)"},"geometry":{"type":"LineString","coordinates":[[120.315587,31.49534],[120.321258,31.502643]]}},{"type":"Feature","properties":{"shape_id":"{}","direction_id":"{\"1\": 50}","headsign":"{}","duration_avg":102,"n_vehicles":50,"d":1020,"route_I_counts":"{\"1\": 50}","source":8,"target":7,"layer":"L","from":"无锡塘铁桥(地铁站)","to":"无锡金匮公园(地铁站)"},"geometry":{"type":"LineString","coordinates":[[120.321258,31.502643],[120.315587,31.49534]]}},{"type":"Feature","properties":{"shape_id":"{}","direction_id":"{\"0\": 50}","headsign":"{}","duration_avg":86,"n_vehicles":50,"d":860,"route_I_counts":"{\"1\": 50}","source":8,"target":9,"layer":"L","from":"无锡塘铁桥(地铁站)","to":"无锡南湖家园(地铁站)"},"geometry":{"type":"LineString","coordinates":[[120.321258,31.502643],[120.319539,31.511651]]}},{"type":"Feature","properties":{"shape_id":"{}","direction_id":"{\"1\": 50}","headsign":"{}","duration_avg":86,"n_vehicles":50,"d":860,"route_I_counts":"{\"1\": 50}","source":9,"target":8,"layer":"L","from":"无锡南湖家园(地铁站)","to":"无锡塘铁桥(地铁站)"},"geometry":{"type":"LineString","coordinates":[[120.319539,31.511651],[120.321258,31.502643]]}},{"type":"Feature","properties":{"shape_id":"{}","direction_id":"{\"0\": 50}","headsign":"{}","duration_avg":105,"n_vehicles":50,"d":1050,"route_I_counts":"{\"1\": 50}","source":9,"target":10,"layer":"L","from":"无锡南湖家园(地铁站)","to":"无锡扬名(地铁站)"},"geometry":{"type":"LineString","coordinates":[[120.319539,31.511651],[120.31987,31.522983]]}},{"type":"Feature","properties":{"shape_id":"{}","direction_id":"{\"1\": 50}","headsign":"{}","duration_avg":105,"n_vehicles":50,"d":1050,"route_I_counts":"{\"1\": 50}","source":10,"target":9,"layer":"L","from":"无锡扬名(地铁站)","to":"无锡南湖家园(地铁站)"},"geometry":{"type":"LineString","coordinates":[[120.31987,31.522983],[120.319539,31.511651]]}},{"type":"Feature","properties":{"shape_id":"{}","direction_id":"{\"0\": 50}","headsign":"{}","duration_avg":124,"n_vehicles":50,"d":1240,"route_I_counts":"{\"1\": 50}","source":10,"target":11,"layer":"L","from":"无锡扬名(地铁站)","to":"无锡华清大桥(地铁站)"},"geometry":{"type":"LineString","coordinates":[[120.31987,31.522983],[120.323352,31.535651]]}},{"type":"Feature","properties":{"shape_id":"{}","direction_id":"{\"1\": 50}","headsign":"{}","duration_avg":124,"n_vehicles":50,"d":1240,"route_I_counts":"{\"1\": 50}","source":11,"target":10,"layer":"L","from":"无锡华清大桥(地铁站)","to":"无锡扬名(地铁站)"},"geometry":{"type":"LineString","coordinates":[[120.323352,31.535651],[120.31987,31.522983]]}},{"type":"Feature","properties":{"shape_id":"{}","direction_id":"{\"0\": 50}","headsign":"{}","duration_avg":96,"n_vehicles":50,"d":960,"route_I_counts":"{\"1\": 50}","source":11,"target":12,"layer":"L","from":"无锡华清大桥(地铁站)","to":"无锡人民医院(地铁站)"},"geometry":{"type":"LineString","coordinates":[[120.323352,31.535651],[120.314676,31.5438]]}},{"type":"Feature","properties":{"shape_id":"{}","direction_id":"{\"1\": 50}","headsign":"{}","duration_avg":96,"n_vehicles":50,"d":960,"route_I_counts":"{\"1\": 50}","source":12,"target":11,"layer":"L","from":"无锡人民医院(地铁站)","to":"无锡华清大桥(地铁站)"},"geometry":{"type":"LineString","coordinates":[[120.314676,31.5438],[120.323352,31.535651]]}},{"type":"Feature","properties":{"shape_id":"{}","direction_id":"{\"0\": 50}","headsign":"{}","duration_avg":91,"n_vehicles":50,"d":910,"route_I_counts":"{\"1\": 50}","source":12,"target":13,"layer":"L","from":"无锡人民医院(地铁站)","to":"无锡清名桥(地铁站)"},"geometry":{"type":"LineString","coordinates":[[120.314676,31.5438],[120.306661,31.551251]]}},{"type":"Feature","properties":{"shape_id":"{}","direction_id":"{\"1\": 50}","headsign":"{}","duration_avg":91,"n_vehicles":50,"d":910,"route_I_counts":"{\"1\": 50}","source":13,"target":12,"layer":"L","from":"无锡清名桥(地铁站)","to":"无锡人民医院(地铁站)"},"geometry":{"type":"LineString","coordinates":[[120.306661,31.551251],[120.314676,31.5438]]}},{"type":"Feature","properties":{"shape_id":"{}","direction_id":"{\"0\": 50}","headsign":"{}","duration_avg":79,"n_vehicles":50,"d":790,"route_I_counts":"{\"1\": 50}","source":13,"target":14,"layer":"L","from":"无锡清名桥(地铁站)","to":"无锡太湖广场(地铁站)"},"geometry":{"type":"LineString","coordinates":[[120.306661,31.551251],[120.300608,31.557087]]}},{"type":"Feature","properties":{"shape_id":"{}","direction_id":"{\"1\": 50}","headsign":"{}","duration_avg":79,"n_vehicles":50,"d":790,"route_I_counts":"{\"1\": 50}","source":14,"target":13,"layer":"L","from":"无锡太湖广场(地铁站)","to":"无锡清名桥(地铁站)"},"geometry":{"type":"LineString","coordinates":[[120.300608,31.557087],[120.306661,31.551251]]}},{"type":"Feature","properties":{"shape_id":"{}","direction_id":"{\"0\": 50}","headsign":"{}","duration_avg":80,"n_vehicles":50,"d":800,"route_I_counts":"{\"1\": 50}","source":14,"target":15,"layer":"L","from":"无锡太湖广场(地铁站)","to":"无锡谈渡桥(地铁站)"},"geometry":{"type":"LineString","coordinates":[[120.300608,31.557087],[120.300525,31.563941]]}},{"type":"Feature","properties":{"shape_id":"{}","direction_id":"{\"1\": 50}","headsign":"{}","duration_avg":80,"n_vehicles":50,"d":800,"route_I_counts":"{\"1\": 50}","source":15,"target":14,"layer":"L","from":"无锡谈渡桥(地铁站)","to":"无锡太湖广场(地铁站)"},"geometry":{"type":"LineString","coordinates":[[120.300525,31.563941],[120.300608,31.557087]]}},{"type":"Feature","properties":{"shape_id":"{}","direction_id":"{\"0\": 50}","headsign":"{}","duration_avg":75,"n_vehicles":50,"d":750,"route_I_counts":"{\"1\": 50}","source":15,"target":16,"layer":"L","from":"无锡谈渡桥(地铁站)","to":"无锡南禅寺(地铁站)"},"geometry":{"type":"LineString","coordinates":[[120.300525,31.563941],[120.301553,31.569372]]}},{"type":"Feature","properties":{"shape_id":"{}","direction_id":"{\"1\": 50}","headsign":"{}","duration_avg":75,"n_vehicles":50,"d":750,"route_I_counts":"{\"1\": 50}","source":16,"target":15,"layer":"L","from":"无锡南禅寺(地铁站)","to":"无锡谈渡桥(地铁站)"},"geometry":{"type":"LineString","coordinates":[[120.301553,31.569372],[120.300525,31.563941]]}},{"type":"Feature","properties":{"shape_id":"{}","direction_id":"{\"0\": 50}","headsign":"{}","duration_avg":93,"n_vehicles":50,"d":930,"route_I_counts":"{\"1\": 50}","source":16,"target":17,"layer":"L","from":"无锡南禅寺(地铁站)","to":"无锡三阳广场(地铁站)"},"geometry":{"type":"LineString","coordinates":[[120.301553,31.569372],[120.295215,31.577688]]}},{"type":"Feature","properties":{"shape_id":"{}","direction_id":"{\"1\": 50}","headsign":"{}","duration_avg":93,"n_vehicles":50,"d":930,"route_I_counts":"{\"1\": 50}","source":17,"target":16,"layer":"L","from":"无锡三阳广场(地铁站)","to":"无锡南禅寺(地铁站)"},"geometry":{"type":"LineString","coordinates":[[120.295215,31.577688],[120.301553,31.569372]]}},{"type":"Feature","properties":{"shape_id":"{}","direction_id":"{\"0\": 50}","headsign":"{}","duration_avg":69,"n_vehicles":50,"d":690,"route_I_counts":"{\"1\": 50}","source":17,"target":18,"layer":"L","from":"无锡三阳广场(地铁站)","to":"无锡胜利门(地铁站)"},"geometry":{"type":"LineString","coordinates":[[120.295215,31.577688],[120.2953,31.583845]]}},{"type":"Feature","properties":{"shape_id":"{}","direction_id":"{\"1\": 50}","headsign":"{}","duration_avg":69,"n_vehicles":50,"d":690,"route_I_counts":"{\"1\": 50}","source":18,"target":17,"layer":"L","from":"无锡胜利门(地铁站)","to":"无锡三阳广场(地铁站)"},"geometry":{"type":"LineString","coordinates":[[120.2953,31.583845],[120.295215,31.577688]]}},{"type":"Feature","properties":{"shape_id":"{}","direction_id":"{\"0\": 50}","headsign":"{}","duration_avg":93,"n_vehicles":50,"d":930,"route_I_counts":"{\"1\": 50}","source":18,"target":19,"layer":"L","from":"无锡胜利门(地铁站)","to":"无锡无锡火车站(地铁站)"},"geometry":{"type":"LineString","coordinates":[[120.2953,31.583845],[120.302406,31.591554]]}},{"type":"Feature","properties":{"shape_id":"{}","direction_id":"{\"1\": 50}","headsign":"{}","duration_avg":93,"n_vehicles":50,"d":930,"route_I_counts":"{\"1\": 50}","source":19,"target":18,"layer":"L","from":"无锡无锡火车站(地铁站)","to":"无锡胜利门(地铁站)"},"geometry":{"type":"LineString","coordinates":[[120.302406,31.591554],[120.2953,31.583845]]}},{"type":"Feature","properties":{"shape_id":"{}","direction_id":"{\"0\": 50}","headsign":"{}","duration_avg":122,"n_vehicles":50,"d":1220,"route_I_counts":"{\"1\": 50}","source":19,"target":20,"layer":"L","from":"无锡无锡火车站(地铁站)","to":"无锡民丰(地铁站)"},"geometry":{"type":"LineString","coordinates":[[120.302406,31.591554],[120.298931,31.602843]]}},{"type":"Feature","properties":{"shape_id":"{}","direction_id":"{\"1\": 50}","headsign":"{}","duration_avg":122,"n_vehicles":50,"d":1220,"route_I_counts":"{\"1\": 50}","source":20,"target":19,"layer":"L","from":"无锡民丰(地铁站)","to":"无锡无锡火车站(地铁站)"},"geometry":{"type":"LineString","coordinates":[[120.298931,31.602843],[120.302406,31.591554]]}},{"type":"Feature","properties":{"shape_id":"{}","direction_id":"{\"0\": 50}","headsign":"{}","duration_avg":145,"n_vehicles":50,"d":1450,"route_I_counts":"{\"1\": 50}","source":20,"target":21,"layer":"L","from":"无锡民丰(地铁站)","to":"无锡庄前(地铁站)"},"geometry":{"type":"LineString","coordinates":[[120.298931,31.602843],[120.300288,31.611724]]}},{"type":"Feature","properties":{"shape_id":"{}","direction_id":"{\"1\": 50}","headsign":"{}","duration_avg":145,"n_vehicles":50,"d":1450,"route_I_counts":"{\"1\": 50}","source":21,"target":20,"layer":"L","from":"无锡庄前(地铁站)","to":"无锡民丰(地铁站)"},"geometry":{"type":"LineString","coordinates":[[120.300288,31.611724],[120.298931,31.602843]]}},{"type":"Feature","properties":{"shape_id":"{}","direction_id":"{\"0\": 50}","headsign":"{}","duration_avg":133,"n_vehicles":50,"d":1330,"route_I_counts":"{\"1\": 50}","source":21,"target":22,"layer":"L","from":"无锡庄前(地铁站)","to":"无锡刘潭(地铁站)"},"geometry":{"type":"LineString","coordinates":[[120.300288,31.611724],[120.299794,31.62851]]}},{"type":"Feature","properties":{"shape_id":"{}","direction_id":"{\"1\": 50}","headsign":"{}","duration_avg":133,"n_vehicles":50,"d":1330,"route_I_counts":"{\"1\": 50}","source":22,"target":21,"layer":"L","from":"无锡刘潭(地铁站)","to":"无锡庄前(地铁站)"},"geometry":{"type":"LineString","coordinates":[[120.299794,31.62851],[120.300288,31.611724]]}},{"type":"Feature","properties":{"shape_id":"{}","direction_id":"{\"0\": 50}","headsign":"{}","duration_avg":101,"n_vehicles":50,"d":1010,"route_I_counts":"{\"1\": 50}","source":22,"target":23,"layer":"L","from":"无锡刘潭(地铁站)","to":"无锡天一(地铁站)"},"geometry":{"type":"LineString","coordinates":[[120.299794,31.62851],[120.299733,31.63973]]}},{"type":"Feature","properties":{"shape_id":"{}","direction_id":"{\"1\": 50}","headsign":"{}","duration_avg":101,"n_vehicles":50,"d":1010,"route_I_counts":"{\"1\": 50}","source":23,"target":22,"layer":"L","from":"无锡天一(地铁站)","to":"无锡刘潭(地铁站)"},"geometry":{"type":"LineString","coordinates":[[120.299733,31.63973],[120.299794,31.62851]]}},{"type":"Feature","properties":{"shape_id":"{}","direction_id":"{\"0\": 50}","headsign":"{}","duration_avg":89,"n_vehicles":50,"d":890,"route_I_counts":"{\"1\": 50}","source":23,"target":24,"layer":"L","from":"无锡天一(地铁站)","to":"无锡西漳(地铁站)"},"geometry":{"type":"LineString","coordinates":[[120.299733,31.63973],[120.299037,31.647727]]}},{"type":"Feature","properties":{"shape_id":"{}","direction_id":"{\"1\": 50}","headsign":"{}","duration_avg":89,"n_vehicles":50,"d":890,"route_I_counts":"{\"1\": 50}","source":24,"target":23,"layer":"L","from":"无锡西漳(地铁站)","to":"无锡天一(地铁站)"},"geometry":{"type":"LineString","coordinates":[[120.299037,31.647727],[120.299733,31.63973]]}},{"type":"Feature","properties":{"shape_id":"{}","direction_id":"{\"0\": 50}","headsign":"{}","duration_avg":159,"n_vehicles":50,"d":1590,"route_I_counts":"{\"1\": 50}","source":24,"target":25,"layer":"L","from":"无锡西漳(地铁站)","to":"无锡锡北运河(地铁站)"},"geometry":{"type":"LineString","coordinates":[[120.299037,31.647727],[120.31025,31.664148]]}},{"type":"Feature","properties":{"shape_id":"{}","direction_id":"{\"1\": 50}","headsign":"{}","duration_avg":159,"n_vehicles":50,"d":1590,"route_I_counts":"{\"1\": 50}","source":25,"target":24,"layer":"L","from":"无锡锡北运河(地铁站)","to":"无锡西漳(地铁站)"},"geometry":{"type":"LineString","coordinates":[[120.31025,31.664148],[120.299037,31.647727]]}},{"type":"Feature","properties":{"shape_id":"{}","direction_id":"{\"0\": 50}","headsign":"{}","duration_avg":125,"n_vehicles":50,"d":1250,"route_I_counts":"{\"1\": 50}","source":25,"target":26,"layer":"L","from":"无锡锡北运河(地铁站)","to":"无锡堰桥(地铁站)"},"geometry":{"type":"LineString","coordinates":[[120.31025,31.664148],[120.31028,31.677432]]}},{"type":"Feature","properties":{"shape_id":"{}","direction_id":"{\"1\": 50}","headsign":"{}","duration_avg":125,"n_vehicles":50,"d":1250,"route_I_counts":"{\"1\": 50}","source":26,"target":25,"layer":"L","from":"无锡堰桥(地铁站)","to":"无锡锡北运河(地铁站)"},"geometry":{"type":"LineString","coordinates":[[120.31028,31.677432],[120.31025,31.664148]]}},{"type":"Feature","properties":{"shape_id":"{}","direction_id":"{\"0\": 50}","headsign":"{}","duration_avg":173,"n_vehicles":50,"d":1730,"route_I_counts":"{\"5\": 50}","source":27,"target":28,"layer":"L","from":"无锡江阴外滩(地铁站)","to":"无锡中山公园(地铁站)"},"geometry":{"type":"LineString","coordinates":[[120.253814,31.925197],[120.266481,31.908489]]}},{"type":"Feature","properties":{"shape_id":"{}","direction_id":"{\"1\": 50}","headsign":"{}","duration_avg":173,"n_vehicles":50,"d":1730,"route_I_counts":"{\"5\": 50}","source":28,"target":27,"layer":"L","from":"无锡中山公园(地铁站)","to":"无锡江阴外滩(地铁站)"},"geometry":{"type":"LineString","coordinates":[[120.266481,31.908489],[120.253814,31.925197]]}},{"type":"Feature","properties":{"shape_id":"{}","direction_id":"{\"0\": 50}","headsign":"{}","duration_avg":100,"n_vehicles":50,"d":1000,"route_I_counts":"{\"5\": 50}","source":28,"target":29,"layer":"L","from":"无锡中山公园(地铁站)","to":"无锡南门(地铁站)"},"geometry":{"type":"LineString","coordinates":[[120.266481,31.908489],[120.267157,31.893142]]}},{"type":"Feature","properties":{"shape_id":"{}","direction_id":"{\"1\": 50}","headsign":"{}","duration_avg":100,"n_vehicles":50,"d":1000,"route_I_counts":"{\"5\": 50}","source":29,"target":28,"layer":"L","from":"无锡南门(地铁站)","to":"无锡中山公园(地铁站)"},"geometry":{"type":"LineString","coordinates":[[120.267157,31.893142],[120.266481,31.908489]]}},{"type":"Feature","properties":{"shape_id":"{}","direction_id":"{\"0\": 50}","headsign":"{}","duration_avg":98,"n_vehicles":50,"d":980,"route_I_counts":"{\"5\": 50}","source":29,"target":30,"layer":"L","from":"无锡南门(地铁站)","to":"无锡江阴中医院(地铁站)"},"geometry":{"type":"LineString","coordinates":[[120.267157,31.893142],[120.267641,31.877996]]}},{"type":"Feature","properties":{"shape_id":"{}","direction_id":"{\"1\": 50}","headsign":"{}","duration_avg":98,"n_vehicles":50,"d":980,"route_I_counts":"{\"5\": 50}","source":30,"target":29,"layer":"L","from":"无锡江阴中医院(地铁站)","to":"无锡南门(地铁站)"},"geometry":{"type":"LineString","coordinates":[[120.267641,31.877996],[120.267157,31.893142]]}},{"type":"Feature","properties":{"shape_id":"{}","direction_id":"{\"0\": 50}","headsign":"{}","duration_avg":99,"n_vehicles":50,"d":990,"route_I_counts":"{\"5\": 50}","source":30,"target":31,"layer":"L","from":"无锡江阴中医院(地铁站)","to":"无锡江阴高铁站(地铁站)"},"geometry":{"type":"LineString","coordinates":[[120.267641,31.877996],[120.274003,31.864509]]}},{"type":"Feature","properties":{"shape_id":"{}","direction_id":"{\"1\": 50}","headsign":"{}","duration_avg":99,"n_vehicles":50,"d":990,"route_I_counts":"{\"5\": 50}","source":31,"target":30,"layer":"L","from":"无锡江阴高铁站(地铁站)","to":"无锡江阴中医院(地铁站)"},"geometry":{"type":"LineString","coordinates":[[120.274003,31.864509],[120.267641,31.877996]]}},{"type":"Feature","properties":{"shape_id":"{}","direction_id":"{\"0\": 50}","headsign":"{}","duration_avg":177,"n_vehicles":50,"d":1770,"route_I_counts":"{\"5\": 50}","source":31,"target":32,"layer":"L","from":"无锡江阴高铁站(地铁站)","to":"无锡南闸(地铁站)"},"geometry":{"type":"LineString","coordinates":[[120.274003,31.864509],[120.262624,31.843543]]}},{"type":"Feature","properties":{"shape_id":"{}","direction_id":"{\"1\": 50}","headsign":"{}","duration_avg":177,"n_vehicles":50,"d":1770,"route_I_counts":"{\"5\": 50}","source":32,"target":31,"layer":"L","from":"无锡南闸(地铁站)","to":"无锡江阴高铁站(地铁站)"},"geometry":{"type":"LineString","coordinates":[[120.262624,31.843543],[120.274003,31.864509]]}},{"type":"Feature","properties":{"shape_id":"{}","direction_id":"{\"0\": 50}","headsign":"{}","duration_avg":138,"n_vehicles":50,"d":1380,"route_I_counts":"{\"5\": 50}","source":32,"target":33,"layer":"L","from":"无锡南闸(地铁站)","to":"无锡峭岐(地铁站)"},"geometry":{"type":"LineString","coordinates":[[120.262624,31.843543],[120.267626,31.818354]]}},{"type":"Feature","properties":{"shape_id":"{}","direction_id":"{\"1\": 50}","headsign":"{}","duration_avg":138,"n_vehicles":50,"d":1380,"route_I_counts":"{\"5\": 50}","source":33,"target":32,"layer":"L","from":"无锡峭岐(地铁站)","to":"无锡南闸(地铁站)"},"geometry":{"type":"LineString","coordinates":[[120.267626,31.818354],[120.262624,31.843543]]}},{"type":"Feature","properties":{"shape_id":"{}","direction_id":"{\"0\": 50}","headsign":"{}","duration_avg":229,"n_vehicles":50,"d":2290,"route_I_counts":"{\"5\": 50}","source":33,"target":34,"layer":"L","from":"无锡峭岐(地铁站)","to":"无锡青阳(地铁站)"},"geometry":{"type":"LineString","coordinates":[[120.267626,31.818354],[120.289649,31.772479]]}},{"type":"Feature","properties":{"shape_id":"{}","direction_id":"{\"1\": 50}","headsign":"{}","duration_avg":229,"n_vehicles":50,"d":2290,"route_I_counts":"{\"5\": 50}","source":34,"target":33,"layer":"L","from":"无锡青阳(地铁站)","to":"无锡峭岐(地铁站)"},"geometry":{"type":"LineString","coordinates":[[120.289649,31.772479],[120.267626,31.818354]]}},{"type":"Feature","properties":{"shape_id":"{}","direction_id":"{\"0\": 50}","headsign":"{}","duration_avg":159,"n_vehicles":50,"d":1590,"route_I_counts":"{\"5\": 50}","source":34,"target":35,"layer":"L","from":"无锡青阳(地铁站)","to":"无锡霞客湾科学城(地铁站)"},"geometry":{"type":"LineString","coordinates":[[120.289649,31.772479],[120.297401,31.741773]]}},{"type":"Feature","properties":{"shape_id":"{}","direction_id":"{\"1\": 50}","headsign":"{}","duration_avg":159,"n_vehicles":50,"d":1590,"route_I_counts":"{\"5\": 50}","source":35,"target":34,"layer":"L","from":"无锡霞客湾科学城(地铁站)","to":"无锡青阳(地铁站)"},"geometry":{"type":"LineString","coordinates":[[120.297401,31.741773],[120.289649,31.772479]]}},{"type":"Feature","properties":{"shape_id":"{}","direction_id":"{\"0\": 50}","headsign":"{}","duration_avg":159,"n_vehicles":50,"d":1590,"route_I_counts":"{\"5\": 50}","source":35,"target":36,"layer":"L","from":"无锡霞客湾科学城(地铁站)","to":"无锡马镇(地铁站)"},"geometry":{"type":"LineString","coordinates":[[120.297401,31.741773],[120.30648,31.710862]]}},{"type":"Feature","properties":{"shape_id":"{}","direction_id":"{\"1\": 50}","headsign":"{}","duration_avg":159,"n_vehicles":50,"d":1590,"route_I_counts":"{\"5\": 50}","source":36,"target":35,"layer":"L","from":"无锡马镇(地铁站)","to":"无锡霞客湾科学城(地铁站)"},"geometry":{"type":"LineString","coordinates":[[120.30648,31.710862],[120.297401,31.741773]]}},{"type":"Feature","properties":{"shape_id":"{}","direction_id":"{\"0\": 50}","headsign":"{}","duration_avg":205,"n_vehicles":50,"d":2050,"route_I_counts":"{\"5\": 50}","source":36,"target":26,"layer":"L","from":"无锡马镇(地铁站)","to":"无锡堰桥(地铁站)"},"geometry":{"type":"LineString","coordinates":[[120.30648,31.710862],[120.31028,31.677432]]}},{"type":"Feature","properties":{"shape_id":"{}","direction_id":"{\"1\": 50}","headsign":"{}","duration_avg":205,"n_vehicles":50,"d":2050,"route_I_counts":"{\"5\": 50}","source":26,"target":36,"layer":"L","from":"无锡堰桥(地铁站)","to":"无锡马镇(地铁站)"},"geometry":{"type":"LineString","coordinates":[[120.31028,31.677432],[120.30648,31.710862]]}},{"type":"Feature","properties":{"shape_id":"{}","direction_id":"{\"0\": 50}","headsign":"{}","duration_avg":120,"n_vehicles":50,"d":1200,"route_I_counts":"{\"3\": 50}","source":37,"target":38,"layer":"L","from":"无锡安镇(地铁站)","to":"无锡无锡东站(地铁站)"},"geometry":{"type":"LineString","coordinates":[[120.460208,31.603166],[120.455518,31.59881]]}},{"type":"Feature","properties":{"shape_id":"{}","direction_id":"{\"1\": 50}","headsign":"{}","duration_avg":120,"n_vehicles":50,"d":1200,"route_I_counts":"{\"3\": 50}","source":38,"target":37,"layer":"L","from":"无锡无锡东站(地铁站)","to":"无锡安镇(地铁站)"},"geometry":{"type":"LineString","coordinates":[[120.455518,31.59881],[120.460208,31.603166]]}},{"type":"Feature","properties":{"shape_id":"{}","direction_id":"{\"0\": 50}","headsign":"{}","duration_avg":155,"n_vehicles":50,"d":1550,"route_I_counts":"{\"3\": 50}","source":39,"target":40,"layer":"L","from":"无锡梅园开原寺(地铁站)","to":"无锡荣巷(地铁站)"},"geometry":{"type":"LineString","coordinates":[[120.214959,31.552879],[120.231896,31.558589]]}},{"type":"Feature","properties":{"shape_id":"{}","direction_id":"{\"1\": 50}","headsign":"{}","duration_avg":155,"n_vehicles":50,"d":1550,"route_I_counts":"{\"3\": 50}","source":40,"target":39,"layer":"L","from":"无锡荣巷(地铁站)","to":"无锡梅园开原寺(地铁站)"},"geometry":{"type":"LineString","coordinates":[[120.231896,31.558589],[120.214959,31.552879]]}},{"type":"Feature","properties":{"shape_id":"{}","direction_id":"{\"0\": 50}","headsign":"{}","duration_avg":127,"n_vehicles":50,"d":1270,"route_I_counts":"{\"3\": 50}","source":40,"target":41,"layer":"L","from":"无锡荣巷(地铁站)","to":"无锡小桃源(地铁站)"},"geometry":{"type":"LineString","coordinates":[[120.231896,31.558589],[120.244887,31.561146]]}},{"type":"Feature","properties":{"shape_id":"{}","direction_id":"{\"1\": 50}","headsign":"{}","duration_avg":127,"n_vehicles":50,"d":1270,"route_I_counts":"{\"3\": 50}","source":41,"target":40,"layer":"L","from":"无锡小桃源(地铁站)","to":"无锡荣巷(地铁站)"},"geometry":{"type":"LineString","coordinates":[[120.244887,31.561146],[120.231896,31.558589]]}},{"type":"Feature","properties":{"shape_id":"{}","direction_id":"{\"0\": 50}","headsign":"{}","duration_avg":104,"n_vehicles":50,"d":1040,"route_I_counts":"{\"3\": 50}","source":41,"target":42,"layer":"L","from":"无锡小桃源(地铁站)","to":"无锡河埒口(地铁站)"},"geometry":{"type":"LineString","coordinates":[[120.244887,31.561146],[120.256284,31.563954]]}},{"type":"Feature","properties":{"shape_id":"{}","direction_id":"{\"1\": 50}","headsign":"{}","duration_avg":104,"n_vehicles":50,"d":1040,"route_I_counts":"{\"3\": 50}","source":42,"target":41,"layer":"L","from":"无锡河埒口(地铁站)","to":"无锡小桃源(地铁站)"},"geometry":{"type":"LineString","coordinates":[[120.256284,31.563954],[120.244887,31.561146]]}},{"type":"Feature","properties":{"shape_id":"{}","direction_id":"{\"0\": 50}","headsign":"{}","duration_avg":89,"n_vehicles":50,"d":890,"route_I_counts":"{\"3\": 50}","source":42,"target":43,"layer":"L","from":"无锡河埒口(地铁站)","to":"无锡大王基(地铁站)"},"geometry":{"type":"LineString","coordinates":[[120.256284,31.563954],[120.271087,31.566736]]}},{"type":"Feature","properties":{"shape_id":"{}","direction_id":"{\"1\": 50}","headsign":"{}","duration_avg":89,"n_vehicles":50,"d":890,"route_I_counts":"{\"3\": 50}","source":43,"target":42,"layer":"L","from":"无锡大王基(地铁站)","to":"无锡河埒口(地铁站)"},"geometry":{"type":"LineString","coordinates":[[120.271087,31.566736],[120.256284,31.563954]]}},{"type":"Feature","properties":{"shape_id":"{}","direction_id":"{\"0\": 50}","headsign":"{}","duration_avg":260,"n_vehicles":50,"d":2600,"route_I_counts":"{\"3\": 50}","source":43,"target":44,"layer":"L","from":"无锡大王基(地铁站)","to":"无锡梁溪大桥(地铁站)"},"geometry":{"type":"LineString","coordinates":[[120.271087,31.566736],[120.281783,31.569176]]}},{"type":"Feature","properties":{"shape_id":"{}","direction_id":"{\"1\": 50}","headsign":"{}","duration_avg":260,"n_vehicles":50,"d":2600,"route_I_counts":"{\"3\": 50}","source":44,"target":43,"layer":"L","from":"无锡梁溪大桥(地铁站)","to":"无锡大王基(地铁站)"},"geometry":{"type":"LineString","coordinates":[[120.281783,31.569176],[120.271087,31.566736]]}},{"type":"Feature","properties":{"shape_id":"{}","direction_id":"{\"0\": 50}","headsign":"{}","duration_avg":127,"n_vehicles":50,"d":1270,"route_I_counts":"{\"3\": 50}","source":44,"target":45,"layer":"L","from":"无锡梁溪大桥(地铁站)","to":"无锡五爱广场(地铁站)"},"geometry":{"type":"LineString","coordinates":[[120.281783,31.569176],[120.285961,31.575541]]}},{"type":"Feature","properties":{"shape_id":"{}","direction_id":"{\"1\": 50}","headsign":"{}","duration_avg":127,"n_vehicles":50,"d":1270,"route_I_counts":"{\"3\": 50}","source":45,"target":44,"layer":"L","from":"无锡五爱广场(地铁站)","to":"无锡梁溪大桥(地铁站)"},"geometry":{"type":"LineString","coordinates":[[120.285961,31.575541],[120.281783,31.569176]]}},{"type":"Feature","properties":{"shape_id":"{}","direction_id":"{\"0\": 50}","headsign":"{}","duration_avg":98,"n_vehicles":50,"d":980,"route_I_counts":"{\"3\": 50}","source":45,"target":17,"layer":"L","from":"无锡五爱广场(地铁站)","to":"无锡三阳广场(地铁站)"},"geometry":{"type":"LineString","coordinates":[[120.285961,31.575541],[120.295215,31.577688]]}},{"type":"Feature","properties":{"shape_id":"{}","direction_id":"{\"1\": 50}","headsign":"{}","duration_avg":98,"n_vehicles":50,"d":980,"route_I_counts":"{\"3\": 50}","source":17,"target":45,"layer":"L","from":"无锡三阳广场(地铁站)","to":"无锡五爱广场(地铁站)"},"geometry":{"type":"LineString","coordinates":[[120.295215,31.577688],[120.285961,31.575541]]}},{"type":"Feature","properties":{"shape_id":"{}","direction_id":"{\"0\": 50}","headsign":"{}","duration_avg":80,"n_vehicles":50,"d":800,"route_I_counts":"{\"3\": 50}","source":17,"target":46,"layer":"L","from":"无锡三阳广场(地铁站)","to":"无锡东林广场(地铁站)"},"geometry":{"type":"LineString","coordinates":[[120.295215,31.577688],[120.303782,31.580364]]}},{"type":"Feature","properties":{"shape_id":"{}","direction_id":"{\"1\": 50}","headsign":"{}","duration_avg":80,"n_vehicles":50,"d":800,"route_I_counts":"{\"3\": 50}","source":46,"target":17,"layer":"L","from":"无锡东林广场(地铁站)","to":"无锡三阳广场(地铁站)"},"geometry":{"type":"LineString","coordinates":[[120.303782,31.580364],[120.295215,31.577688]]}},{"type":"Feature","properties":{"shape_id":"{}","direction_id":"{\"0\": 50}","headsign":"{}","duration_avg":130,"n_vehicles":50,"d":1300,"route_I_counts":"{\"3\": 50}","source":46,"target":47,"layer":"L","from":"无锡东林广场(地铁站)","to":"无锡上马墩(地铁站)"},"geometry":{"type":"LineString","coordinates":[[120.303782,31.580364],[120.316136,31.584229]]}},{"type":"Feature","properties":{"shape_id":"{}","direction_id":"{\"1\": 50}","headsign":"{}","duration_avg":130,"n_vehicles":50,"d":1300,"route_I_counts":"{\"3\": 50}","source":47,"target":46,"layer":"L","from":"无锡上马墩(地铁站)","to":"无锡东林广场(地铁站)"},"geometry":{"type":"LineString","coordinates":[[120.316136,31.584229],[120.303782,31.580364]]}},{"type":"Feature","properties":{"shape_id":"{}","direction_id":"{\"0\": 50}","headsign":"{}","duration_avg":126,"n_vehicles":50,"d":1260,"route_I_counts":"{\"3\": 50}","source":47,"target":48,"layer":"L","from":"无锡上马墩(地铁站)","to":"无锡靖海(地铁站)"},"geometry":{"type":"LineString","coordinates":[[120.316136,31.584229],[120.325484,31.585165]]}},{"type":"Feature","properties":{"shape_id":"{}","direction_id":"{\"1\": 50}","headsign":"{}","duration_avg":126,"n_vehicles":50,"d":1260,"route_I_counts":"{\"3\": 50}","source":48,"target":47,"layer":"L","from":"无锡靖海(地铁站)","to":"无锡上马墩(地铁站)"},"geometry":{"type":"LineString","coordinates":[[120.325484,31.585165],[120.316136,31.584229]]}},{"type":"Feature","properties":{"shape_id":"{}","direction_id":"{\"0\": 50}","headsign":"{}","duration_avg":120,"n_vehicles":50,"d":1200,"route_I_counts":"{\"3\": 50}","source":48,"target":49,"layer":"L","from":"无锡靖海(地铁站)","to":"无锡广益(地铁站)"},"geometry":{"type":"LineString","coordinates":[[120.325484,31.585165],[120.336684,31.58839]]}},{"type":"Feature","properties":{"shape_id":"{}","direction_id":"{\"1\": 50}","headsign":"{}","duration_avg":120,"n_vehicles":50,"d":1200,"route_I_counts":"{\"3\": 50}","source":49,"target":48,"layer":"L","from":"无锡广益(地铁站)","to":"无锡靖海(地铁站)"},"geometry":{"type":"LineString","coordinates":[[120.336684,31.58839],[120.325484,31.585165]]}},{"type":"Feature","properties":{"shape_id":"{}","direction_id":"{\"0\": 50}","headsign":"{}","duration_avg":150,"n_vehicles":50,"d":1500,"route_I_counts":"{\"3\": 50}","source":49,"target":50,"layer":"L","from":"无锡广益(地铁站)","to":"无锡柏庄(地铁站)"},"geometry":{"type":"LineString","coordinates":[[120.336684,31.58839],[120.346402,31.587803]]}},{"type":"Feature","properties":{"shape_id":"{}","direction_id":"{\"1\": 50}","headsign":"{}","duration_avg":150,"n_vehicles":50,"d":1500,"route_I_counts":"{\"3\": 50}","source":50,"target":49,"layer":"L","from":"无锡柏庄(地铁站)","to":"无锡广益(地铁站)"},"geometry":{"type":"LineString","coordinates":[[120.346402,31.587803],[120.336684,31.58839]]}},{"type":"Feature","properties":{"shape_id":"{}","direction_id":"{\"0\": 50}","headsign":"{}","duration_avg":120,"n_vehicles":50,"d":1200,"route_I_counts":"{\"3\": 50}","source":50,"target":51,"layer":"L","from":"无锡柏庄(地铁站)","to":"无锡东亭(地铁站)"},"geometry":{"type":"LineString","coordinates":[[120.346402,31.587803],[120.358974,31.583921]]}},{"type":"Feature","properties":{"shape_id":"{}","direction_id":"{\"1\": 50}","headsign":"{}","duration_avg":120,"n_vehicles":50,"d":1200,"route_I_counts":"{\"3\": 50}","source":51,"target":50,"layer":"L","from":"无锡东亭(地铁站)","to":"无锡柏庄(地铁站)"},"geometry":{"type":"LineString","coordinates":[[120.358974,31.583921],[120.346402,31.587803]]}},{"type":"Feature","properties":{"shape_id":"{}","direction_id":"{\"0\": 50}","headsign":"{}","duration_avg":129,"n_vehicles":50,"d":1290,"route_I_counts":"{\"3\": 50}","source":51,"target":52,"layer":"L","from":"无锡东亭(地铁站)","to":"无锡庄桥(地铁站)"},"geometry":{"type":"LineString","coordinates":[[120.358974,31.583921],[120.37437,31.579873]]}},{"type":"Feature","properties":{"shape_id":"{}","direction_id":"{\"1\": 50}","headsign":"{}","duration_avg":129,"n_vehicles":50,"d":1290,"route_I_counts":"{\"3\": 50}","source":52,"target":51,"layer":"L","from":"无锡庄桥(地铁站)","to":"无锡东亭(地铁站)"},"geometry":{"type":"LineString","coordinates":[[120.37437,31.579873],[120.358974,31.583921]]}},{"type":"Feature","properties":{"shape_id":"{}","direction_id":"{\"0\": 50}","headsign":"{}","duration_avg":265,"n_vehicles":50,"d":2650,"route_I_counts":"{\"3\": 50}","source":52,"target":53,"layer":"L","from":"无锡庄桥(地铁站)","to":"无锡云林(地铁站)"},"geometry":{"type":"LineString","coordinates":[[120.37437,31.579873],[120.390326,31.581294]]}},{"type":"Feature","properties":{"shape_id":"{}","direction_id":"{\"1\": 50}","headsign":"{}","duration_avg":265,"n_vehicles":50,"d":2650,"route_I_counts":"{\"3\": 50}","source":53,"target":52,"layer":"L","from":"无锡云林(地铁站)","to":"无锡庄桥(地铁站)"},"geometry":{"type":"LineString","coordinates":[[120.390326,31.581294],[120.37437,31.579873]]}},{"type":"Feature","properties":{"shape_id":"{}","direction_id":"{\"0\": 50}","headsign":"{}","duration_avg":145,"n_vehicles":50,"d":1450,"route_I_counts":"{\"3\": 50}","source":53,"target":54,"layer":"L","from":"无锡云林(地铁站)","to":"无锡九里河公园(地铁站)"},"geometry":{"type":"LineString","coordinates":[[120.390326,31.581294],[120.403921,31.582131]]}},{"type":"Feature","properties":{"shape_id":"{}","direction_id":"{\"1\": 50}","headsign":"{}","duration_avg":145,"n_vehicles":50,"d":1450,"route_I_counts":"{\"3\": 50}","source":54,"target":53,"layer":"L","from":"无锡九里河公园(地铁站)","to":"无锡云林(地铁站)"},"geometry":{"type":"LineString","coordinates":[[120.403921,31.582131],[120.390326,31.581294]]}},{"type":"Feature","properties":{"shape_id":"{}","direction_id":"{\"0\": 50}","headsign":"{}","duration_avg":97,"n_vehicles":50,"d":970,"route_I_counts":"{\"3\": 50}","source":54,"target":55,"layer":"L","from":"无锡九里河公园(地铁站)","to":"无锡查桥(地铁站)"},"geometry":{"type":"LineString","coordinates":[[120.403921,31.582131],[120.426712,31.582897]]}},{"type":"Feature","properties":{"shape_id":"{}","direction_id":"{\"1\": 50}","headsign":"{}","duration_avg":97,"n_vehicles":50,"d":970,"route_I_counts":"{\"3\": 50}","source":55,"target":54,"layer":"L","from":"无锡查桥(地铁站)","to":"无锡九里河公园(地铁站)"},"geometry":{"type":"LineString","coordinates":[[120.426712,31.582897],[120.403921,31.582131]]}},{"type":"Feature","properties":{"shape_id":"{}","direction_id":"{\"0\": 50}","headsign":"{}","duration_avg":176,"n_vehicles":50,"d":1760,"route_I_counts":"{\"3\": 50}","source":55,"target":56,"layer":"L","from":"无锡查桥(地铁站)","to":"无锡映月湖公园(地铁站)"},"geometry":{"type":"LineString","coordinates":[[120.426712,31.582897],[120.445078,31.589027]]}},{"type":"Feature","properties":{"shape_id":"{}","direction_id":"{\"1\": 50}","headsign":"{}","duration_avg":176,"n_vehicles":50,"d":1760,"route_I_counts":"{\"3\": 50}","source":56,"target":55,"layer":"L","from":"无锡映月湖公园(地铁站)","to":"无锡查桥(地铁站)"},"geometry":{"type":"LineString","coordinates":[[120.445078,31.589027],[120.426712,31.582897]]}},{"type":"Feature","properties":{"shape_id":"{}","direction_id":"{\"0\": 50}","headsign":"{}","duration_avg":182,"n_vehicles":50,"d":1820,"route_I_counts":"{\"3\": 50}","source":56,"target":57,"layer":"L","from":"无锡映月湖公园(地铁站)","to":"无锡迎宾广场(地铁站)"},"geometry":{"type":"LineString","coordinates":[[120.445078,31.589027],[120.449867,31.593432]]}},{"type":"Feature","properties":{"shape_id":"{}","direction_id":"{\"1\": 50}","headsign":"{}","duration_avg":182,"n_vehicles":50,"d":1820,"route_I_counts":"{\"3\": 50}","source":57,"target":56,"layer":"L","from":"无锡迎宾广场(地铁站)","to":"无锡映月湖公园(地铁站)"},"geometry":{"type":"LineString","coordinates":[[120.449867,31.593432],[120.445078,31.589027]]}},{"type":"Feature","properties":{"shape_id":"{}","direction_id":"{\"0\": 50}","headsign":"{}","duration_avg":101,"n_vehicles":50,"d":1010,"route_I_counts":"{\"3\": 50}","source":57,"target":38,"layer":"L","from":"无锡迎宾广场(地铁站)","to":"无锡无锡东站(地铁站)"},"geometry":{"type":"LineString","coordinates":[[120.449867,31.593432],[120.455518,31.59881]]}},{"type":"Feature","properties":{"shape_id":"{}","direction_id":"{\"1\": 50}","headsign":"{}","duration_avg":101,"n_vehicles":50,"d":1010,"route_I_counts":"{\"3\": 50}","source":38,"target":57,"layer":"L","from":"无锡无锡东站(地铁站)","to":"无锡迎宾广场(地铁站)"},"geometry":{"type":"LineString","coordinates":[[120.455518,31.59881],[120.449867,31.593432]]}},{"type":"Feature","properties":{"shape_id":"{}","direction_id":"{\"0\": 50}","headsign":"{}","duration_avg":120,"n_vehicles":50,"d":1200,"route_I_counts":"{\"4\": 50}","source":58,"target":59,"layer":"L","from":"无锡苏庙(地铁站)","to":"无锡钱桥(地铁站)"},"geometry":{"type":"LineString","coordinates":[[120.211422,31.598707],[120.225064,31.598434]]}},{"type":"Feature","properties":{"shape_id":"{}","direction_id":"{\"1\": 50}","headsign":"{}","duration_avg":120,"n_vehicles":50,"d":1200,"route_I_counts":"{\"4\": 50}","source":59,"target":58,"layer":"L","from":"无锡钱桥(地铁站)","to":"无锡苏庙(地铁站)"},"geometry":{"type":"LineString","coordinates":[[120.225064,31.598434],[120.211422,31.598707]]}},{"type":"Feature","properties":{"shape_id":"{}","direction_id":"{\"0\": 50}","headsign":"{}","duration_avg":120,"n_vehicles":50,"d":1200,"route_I_counts":"{\"4\": 50}","source":59,"target":60,"layer":"L","from":"无锡钱桥(地铁站)","to":"无锡龙山梢(地铁站)"},"geometry":{"type":"LineString","coordinates":[[120.225064,31.598434],[120.239503,31.602377]]}},{"type":"Feature","properties":{"shape_id":"{}","direction_id":"{\"1\": 50}","headsign":"{}","duration_avg":120,"n_vehicles":50,"d":1200,"route_I_counts":"{\"4\": 50}","source":60,"target":59,"layer":"L","from":"无锡龙山梢(地铁站)","to":"无锡钱桥(地铁站)"},"geometry":{"type":"LineString","coordinates":[[120.239503,31.602377],[120.225064,31.598434]]}},{"type":"Feature","properties":{"shape_id":"{}","direction_id":"{\"0\": 50}","headsign":"{}","duration_avg":120,"n_vehicles":50,"d":1200,"route_I_counts":"{\"4\": 50}","source":60,"target":61,"layer":"L","from":"无锡龙山梢(地铁站)","to":"无锡石门路(地铁站)"},"geometry":{"type":"LineString","coordinates":[[120.239503,31.602377],[120.254512,31.599319]]}},{"type":"Feature","properties":{"shape_id":"{}","direction_id":"{\"1\": 50}","headsign":"{}","duration_avg":120,"n_vehicles":50,"d":1200,"route_I_counts":"{\"4\": 50}","source":61,"target":60,"layer":"L","from":"无锡石门路(地铁站)","to":"无锡龙山梢(地铁站)"},"geometry":{"type":"LineString","coordinates":[[120.254512,31.599319],[120.239503,31.602377]]}},{"type":"Feature","properties":{"shape_id":"{}","direction_id":"{\"0\": 50}","headsign":"{}","duration_avg":60,"n_vehicles":50,"d":600,"route_I_counts":"{\"4\": 50}","source":61,"target":62,"layer":"L","from":"无锡石门路(地铁站)","to":"无锡盛岸(地铁站)"},"geometry":{"type":"LineString","coordinates":[[120.254512,31.599319],[120.265226,31.594261]]}},{"type":"Feature","properties":{"shape_id":"{}","direction_id":"{\"1\": 50}","headsign":"{}","duration_avg":60,"n_vehicles":50,"d":600,"route_I_counts":"{\"4\": 50}","source":62,"target":61,"layer":"L","from":"无锡盛岸(地铁站)","to":"无锡石门路(地铁站)"},"geometry":{"type":"LineString","coordinates":[[120.265226,31.594261],[120.254512,31.599319]]}},{"type":"Feature","properties":{"shape_id":"{}","direction_id":"{\"0\": 50}","headsign":"{}","duration_avg":120,"n_vehicles":50,"d":1200,"route_I_counts":"{\"4\": 50}","source":62,"target":63,"layer":"L","from":"无锡盛岸(地铁站)","to":"无锡吴桥(地铁站)"},"geometry":{"type":"LineString","coordinates":[[120.265226,31.594261],[120.281375,31.595783]]}},{"type":"Feature","properties":{"shape_id":"{}","direction_id":"{\"1\": 50}","headsign":"{}","duration_avg":120,"n_vehicles":50,"d":1200,"route_I_counts":"{\"4\": 50}","source":63,"target":62,"layer":"L","from":"无锡吴桥(地铁站)","to":"无锡盛岸(地铁站)"},"geometry":{"type":"LineString","coordinates":[[120.281375,31.595783],[120.265226,31.594261]]}},{"type":"Feature","properties":{"shape_id":"{}","direction_id":"{\"0\": 50}","headsign":"{}","duration_avg":60,"n_vehicles":50,"d":600,"route_I_counts":"{\"4\": 50}","source":63,"target":64,"layer":"L","from":"无锡吴桥(地铁站)","to":"无锡北栅口(地铁站)"},"geometry":{"type":"LineString","coordinates":[[120.281375,31.595783],[120.292464,31.592851]]}},{"type":"Feature","properties":{"shape_id":"{}","direction_id":"{\"1\": 50}","headsign":"{}","duration_avg":60,"n_vehicles":50,"d":600,"route_I_counts":"{\"4\": 50}","source":64,"target":63,"layer":"L","from":"无锡北栅口(地铁站)","to":"无锡吴桥(地铁站)"},"geometry":{"type":"LineString","coordinates":[[120.292464,31.592851],[120.281375,31.595783]]}},{"type":"Feature","properties":{"shape_id":"{}","direction_id":"{\"0\": 50}","headsign":"{}","duration_avg":60,"n_vehicles":50,"d":600,"route_I_counts":"{\"4\": 50}","source":64,"target":19,"layer":"L","from":"无锡北栅口(地铁站)","to":"无锡无锡火车站(地铁站)"},"geometry":{"type":"LineString","coordinates":[[120.292464,31.592851],[120.302406,31.591554]]}},{"type":"Feature","properties":{"shape_id":"{}","direction_id":"{\"1\": 50}","headsign":"{}","duration_avg":60,"n_vehicles":50,"d":600,"route_I_counts":"{\"4\": 50}","source":19,"target":64,"layer":"L","from":"无锡无锡火车站(地铁站)","to":"无锡北栅口(地铁站)"},"geometry":{"type":"LineString","coordinates":[[120.302406,31.591554],[120.292464,31.592851]]}},{"type":"Feature","properties":{"shape_id":"{}","direction_id":"{\"0\": 50}","headsign":"{}","duration_avg":120,"n_vehicles":50,"d":1200,"route_I_counts":"{\"4\": 50}","source":19,"target":65,"layer":"L","from":"无锡无锡火车站(地铁站)","to":"无锡广瑞(地铁站)"},"geometry":{"type":"LineString","coordinates":[[120.302406,31.591554],[120.313821,31.590784]]}},{"type":"Feature","properties":{"shape_id":"{}","direction_id":"{\"1\": 50}","headsign":"{}","duration_avg":120,"n_vehicles":50,"d":1200,"route_I_counts":"{\"4\": 50}","source":65,"target":19,"layer":"L","from":"无锡广瑞(地铁站)","to":"无锡无锡火车站(地铁站)"},"geometry":{"type":"LineString","coordinates":[[120.313821,31.590784],[120.302406,31.591554]]}},{"type":"Feature","properties":{"shape_id":"{}","direction_id":"{\"0\": 50}","headsign":"{}","duration_avg":60,"n_vehicles":50,"d":600,"route_I_counts":"{\"4\": 50}","source":65,"target":48,"layer":"L","from":"无锡广瑞(地铁站)","to":"无锡靖海(地铁站)"},"geometry":{"type":"LineString","coordinates":[[120.313821,31.590784],[120.325484,31.585165]]}},{"type":"Feature","properties":{"shape_id":"{}","direction_id":"{\"1\": 50}","headsign":"{}","duration_avg":60,"n_vehicles":50,"d":600,"route_I_counts":"{\"4\": 50}","source":48,"target":65,"layer":"L","from":"无锡靖海(地铁站)","to":"无锡广瑞(地铁站)"},"geometry":{"type":"LineString","coordinates":[[120.325484,31.585165],[120.313821,31.590784]]}},{"type":"Feature","properties":{"shape_id":"{}","direction_id":"{\"0\": 50}","headsign":"{}","duration_avg":120,"n_vehicles":50,"d":1200,"route_I_counts":"{\"4\": 50}","source":48,"target":66,"layer":"L","from":"无锡靖海(地铁站)","to":"无锡东风(地铁站)"},"geometry":{"type":"LineString","coordinates":[[120.325484,31.585165],[120.327792,31.575177]]}},{"type":"Feature","properties":{"shape_id":"{}","direction_id":"{\"1\": 50}","headsign":"{}","duration_avg":120,"n_vehicles":50,"d":1200,"route_I_counts":"{\"4\": 50}","source":66,"target":48,"layer":"L","from":"无锡东风(地铁站)","to":"无锡靖海(地铁站)"},"geometry":{"type":"LineString","coordinates":[[120.327792,31.575177],[120.325484,31.585165]]}},{"type":"Feature","properties":{"shape_id":"{}","direction_id":"{\"0\": 50}","headsign":"{}","duration_avg":120,"n_vehicles":50,"d":1200,"route_I_counts":"{\"4\": 50}","source":66,"target":67,"layer":"L","from":"无锡东风(地铁站)","to":"无锡叙丰(地铁站)"},"geometry":{"type":"LineString","coordinates":[[120.327792,31.575177],[120.332501,31.56807]]}},{"type":"Feature","properties":{"shape_id":"{}","direction_id":"{\"1\": 50}","headsign":"{}","duration_avg":120,"n_vehicles":50,"d":1200,"route_I_counts":"{\"4\": 50}","source":67,"target":66,"layer":"L","from":"无锡叙丰(地铁站)","to":"无锡东风(地铁站)"},"geometry":{"type":"LineString","coordinates":[[120.332501,31.56807],[120.327792,31.575177]]}},{"type":"Feature","properties":{"shape_id":"{}","direction_id":"{\"0\": 50}","headsign":"{}","duration_avg":120,"n_vehicles":50,"d":1200,"route_I_counts":"{\"4\": 50}","source":67,"target":68,"layer":"L","from":"无锡叙丰(地铁站)","to":"无锡太湖花园(地铁站)"},"geometry":{"type":"LineString","coordinates":[[120.332501,31.56807],[120.33932,31.560871]]}},{"type":"Feature","properties":{"shape_id":"{}","direction_id":"{\"1\": 50}","headsign":"{}","duration_avg":120,"n_vehicles":50,"d":1200,"route_I_counts":"{\"4\": 50}","source":68,"target":67,"layer":"L","from":"无锡太湖花园(地铁站)","to":"无锡叙丰(地铁站)"},"geometry":{"type":"LineString","coordinates":[[120.33932,31.560871],[120.332501,31.56807]]}},{"type":"Feature","properties":{"shape_id":"{}","direction_id":"{\"0\": 50}","headsign":"{}","duration_avg":120,"n_vehicles":50,"d":1200,"route_I_counts":"{\"4\": 50}","source":68,"target":69,"layer":"L","from":"无锡太湖花园(地铁站)","to":"无锡新光路(地铁站)"},"geometry":{"type":"LineString","coordinates":[[120.33932,31.560871],[120.347801,31.551214]]}},{"type":"Feature","properties":{"shape_id":"{}","direction_id":"{\"1\": 50}","headsign":"{}","duration_avg":120,"n_vehicles":50,"d":1200,"route_I_counts":"{\"4\": 50}","source":69,"target":68,"layer":"L","from":"无锡新光路(地铁站)","to":"无锡太湖花园(地铁站)"},"geometry":{"type":"LineString","coordinates":[[120.347801,31.551214],[120.33932,31.560871]]}},{"type":"Feature","properties":{"shape_id":"{}","direction_id":"{\"0\": 50}","headsign":"{}","duration_avg":60,"n_vehicles":50,"d":600,"route_I_counts":"{\"4\": 50}","source":69,"target":70,"layer":"L","from":"无锡新光路(地铁站)","to":"无锡旺庄路(地铁站)"},"geometry":{"type":"LineString","coordinates":[[120.347801,31.551214],[120.354173,31.542835]]}},{"type":"Feature","properties":{"shape_id":"{}","direction_id":"{\"1\": 50}","headsign":"{}","duration_avg":60,"n_vehicles":50,"d":600,"route_I_counts":"{\"4\": 50}","source":70,"target":69,"layer":"L","from":"无锡旺庄路(地铁站)","to":"无锡新光路(地铁站)"},"geometry":{"type":"LineString","coordinates":[[120.354173,31.542835],[120.347801,31.551214]]}},{"type":"Feature","properties":{"shape_id":"{}","direction_id":"{\"0\": 50}","headsign":"{}","duration_avg":120,"n_vehicles":50,"d":1200,"route_I_counts":"{\"4\": 50}","source":70,"target":71,"layer":"L","from":"无锡旺庄路(地铁站)","to":"无锡黄山路(地铁站)"},"geometry":{"type":"LineString","coordinates":[[120.354173,31.542835],[120.365172,31.531508]]}},{"type":"Feature","properties":{"shape_id":"{}","direction_id":"{\"1\": 50}","headsign":"{}","duration_avg":120,"n_vehicles":50,"d":1200,"route_I_counts":"{\"4\": 50}","source":71,"target":70,"layer":"L","from":"无锡黄山路(地铁站)","to":"无锡旺庄路(地铁站)"},"geometry":{"type":"LineString","coordinates":[[120.365172,31.531508],[120.354173,31.542835]]}},{"type":"Feature","properties":{"shape_id":"{}","direction_id":"{\"0\": 50}","headsign":"{}","duration_avg":60,"n_vehicles":50,"d":600,"route_I_counts":"{\"4\": 50}","source":71,"target":72,"layer":"L","from":"无锡黄山路(地铁站)","to":"无锡高浪东路(地铁站)"},"geometry":{"type":"LineString","coordinates":[[120.365172,31.531508],[120.371352,31.525112]]}},{"type":"Feature","properties":{"shape_id":"{}","direction_id":"{\"1\": 50}","headsign":"{}","duration_avg":60,"n_vehicles":50,"d":600,"route_I_counts":"{\"4\": 50}","source":72,"target":71,"layer":"L","from":"无锡高浪东路(地铁站)","to":"无锡黄山路(地铁站)"},"geometry":{"type":"LineString","coordinates":[[120.371352,31.525112],[120.365172,31.531508]]}},{"type":"Feature","properties":{"shape_id":"{}","direction_id":"{\"0\": 50}","headsign":"{}","duration_avg":120,"n_vehicles":50,"d":1200,"route_I_counts":"{\"4\": 50}","source":72,"target":73,"layer":"L","from":"无锡高浪东路(地铁站)","to":"无锡周泾巷(地铁站)"},"geometry":{"type":"LineString","coordinates":[[120.371352,31.525112],[120.380883,31.515487]]}},{"type":"Feature","properties":{"shape_id":"{}","direction_id":"{\"1\": 50}","headsign":"{}","duration_avg":120,"n_vehicles":50,"d":1200,"route_I_counts":"{\"4\": 50}","source":73,"target":72,"layer":"L","from":"无锡周泾巷(地铁站)","to":"无锡高浪东路(地铁站)"},"geometry":{"type":"LineString","coordinates":[[120.380883,31.515487],[120.371352,31.525112]]}},{"type":"Feature","properties":{"shape_id":"{}","direction_id":"{\"0\": 50}","headsign":"{}","duration_avg":180,"n_vehicles":50,"d":1800,"route_I_counts":"{\"4\": 50}","source":73,"target":74,"layer":"L","from":"无锡周泾巷(地铁站)","to":"无锡无锡新区站(地铁站)"},"geometry":{"type":"LineString","coordinates":[[120.380883,31.515487],[120.387443,31.501146]]}},{"type":"Feature","properties":{"shape_id":"{}","direction_id":"{\"1\": 50}","headsign":"{}","duration_avg":180,"n_vehicles":50,"d":1800,"route_I_counts":"{\"4\": 50}","source":74,"target":73,"layer":"L","from":"无锡无锡新区站(地铁站)","to":"无锡周泾巷(地铁站)"},"geometry":{"type":"LineString","coordinates":[[120.387443,31.501146],[120.380883,31.515487]]}},{"type":"Feature","properties":{"shape_id":"{}","direction_id":"{\"0\": 50}","headsign":"{}","duration_avg":60,"n_vehicles":50,"d":600,"route_I_counts":"{\"4\": 50}","source":74,"target":75,"layer":"L","from":"无锡无锡新区站(地铁站)","to":"无锡长江南路(地铁站)"},"geometry":{"type":"LineString","coordinates":[[120.387443,31.501146],[120.398526,31.499155]]}},{"type":"Feature","properties":{"shape_id":"{}","direction_id":"{\"1\": 50}","headsign":"{}","duration_avg":60,"n_vehicles":50,"d":600,"route_I_counts":"{\"4\": 50}","source":75,"target":74,"layer":"L","from":"无锡长江南路(地铁站)","to":"无锡无锡新区站(地铁站)"},"geometry":{"type":"LineString","coordinates":[[120.398526,31.499155],[120.387443,31.501146]]}},{"type":"Feature","properties":{"shape_id":"{}","direction_id":"{\"0\": 50}","headsign":"{}","duration_avg":240,"n_vehicles":50,"d":2400,"route_I_counts":"{\"4\": 50}","source":75,"target":76,"layer":"L","from":"无锡长江南路(地铁站)","to":"无锡硕放机场(地铁站)"},"geometry":{"type":"LineString","coordinates":[[120.398526,31.499155],[120.426147,31.504367]]}},{"type":"Feature","properties":{"shape_id":"{}","direction_id":"{\"1\": 50}","headsign":"{}","duration_avg":240,"n_vehicles":50,"d":2400,"route_I_counts":"{\"4\": 50}","source":76,"target":75,"layer":"L","from":"无锡硕放机场(地铁站)","to":"无锡长江南路(地铁站)"},"geometry":{"type":"LineString","coordinates":[[120.426147,31.504367],[120.398526,31.499155]]}},{"type":"Feature","properties":{"shape_id":"{}","direction_id":"{\"0\": 50}","headsign":"{}","duration_avg":120,"n_vehicles":50,"d":1200,"route_I_counts":"{\"5\": 50}","source":22,"target":77,"layer":"L","from":"无锡刘潭(地铁站)","to":"无锡广石路(地铁站)"},"geometry":{"type":"LineString","coordinates":[[120.299794,31.62851],[120.286161,31.620081]]}},{"type":"Feature","properties":{"shape_id":"{}","direction_id":"{\"1\": 50}","headsign":"{}","duration_avg":120,"n_vehicles":50,"d":1200,"route_I_counts":"{\"5\": 50}","source":77,"target":22,"layer":"L","from":"无锡广石路(地铁站)","to":"无锡刘潭(地铁站)"},"geometry":{"type":"LineString","coordinates":[[120.286161,31.620081],[120.299794,31.62851]]}},{"type":"Feature","properties":{"shape_id":"{}","direction_id":"{\"0\": 50}","headsign":"{}","duration_avg":180,"n_vehicles":50,"d":1800,"route_I_counts":"{\"5\": 50}","source":77,"target":78,"layer":"L","from":"无锡广石路(地铁站)","to":"无锡黄巷(地铁站)"},"geometry":{"type":"LineString","coordinates":[[120.286161,31.620081],[120.275369,31.601231]]}},{"type":"Feature","properties":{"shape_id":"{}","direction_id":"{\"1\": 50}","headsign":"{}","duration_avg":180,"n_vehicles":50,"d":1800,"route_I_counts":"{\"5\": 50}","source":78,"target":77,"layer":"L","from":"无锡黄巷(地铁站)","to":"无锡广石路(地铁站)"},"geometry":{"type":"LineString","coordinates":[[120.275369,31.601231],[120.286161,31.620081]]}},{"type":"Feature","properties":{"shape_id":"{}","direction_id":"{\"0\": 50}","headsign":"{}","duration_avg":120,"n_vehicles":50,"d":1200,"route_I_counts":"{\"5\": 50}","source":78,"target":62,"layer":"L","from":"无锡黄巷(地铁站)","to":"无锡盛岸(地铁站)"},"geometry":{"type":"LineString","coordinates":[[120.275369,31.601231],[120.265226,31.594261]]}},{"type":"Feature","properties":{"shape_id":"{}","direction_id":"{\"1\": 50}","headsign":"{}","duration_avg":120,"n_vehicles":50,"d":1200,"route_I_counts":"{\"5\": 50}","source":62,"target":78,"layer":"L","from":"无锡盛岸(地铁站)","to":"无锡黄巷(地铁站)"},"geometry":{"type":"LineString","coordinates":[[120.265226,31.594261],[120.275369,31.601231]]}},{"type":"Feature","properties":{"shape_id":"{}","direction_id":"{\"0\": 50}","headsign":"{}","duration_avg":180,"n_vehicles":50,"d":1800,"route_I_counts":"{\"5\": 50}","source":62,"target":79,"layer":"L","from":"无锡盛岸(地铁站)","to":"无锡惠山古镇(地铁站)"},"geometry":{"type":"LineString","coordinates":[[120.265226,31.594261],[120.272824,31.583935]]}},{"type":"Feature","properties":{"shape_id":"{}","direction_id":"{\"1\": 50}","headsign":"{}","duration_avg":180,"n_vehicles":50,"d":1800,"route_I_counts":"{\"5\": 50}","source":79,"target":62,"layer":"L","from":"无锡惠山古镇(地铁站)","to":"无锡盛岸(地铁站)"},"geometry":{"type":"LineString","coordinates":[[120.272824,31.583935],[120.265226,31.594261]]}},{"type":"Feature","properties":{"shape_id":"{}","direction_id":"{\"0\": 50}","headsign":"{}","duration_avg":120,"n_vehicles":50,"d":1200,"route_I_counts":"{\"5\": 50}","source":79,"target":80,"layer":"L","from":"无锡惠山古镇(地铁站)","to":"无锡青山湾荣院(地铁站)"},"geometry":{"type":"LineString","coordinates":[[120.272824,31.583935],[120.269514,31.573912]]}},{"type":"Feature","properties":{"shape_id":"{}","direction_id":"{\"1\": 50}","headsign":"{}","duration_avg":120,"n_vehicles":50,"d":1200,"route_I_counts":"{\"5\": 50}","source":80,"target":79,"layer":"L","from":"无锡青山湾荣院(地铁站)","to":"无锡惠山古镇(地铁站)"},"geometry":{"type":"LineString","coordinates":[[120.269514,31.573912],[120.272824,31.583935]]}},{"type":"Feature","properties":{"shape_id":"{}","direction_id":"{\"0\": 50}","headsign":"{}","duration_avg":120,"n_vehicles":50,"d":1200,"route_I_counts":"{\"5\": 50}","source":80,"target":42,"layer":"L","from":"无锡青山湾荣院(地铁站)","to":"无锡河埒口(地铁站)"},"geometry":{"type":"LineString","coordinates":[[120.269514,31.573912],[120.256284,31.563954]]}},{"type":"Feature","properties":{"shape_id":"{}","direction_id":"{\"1\": 50}","headsign":"{}","duration_avg":120,"n_vehicles":50,"d":1200,"route_I_counts":"{\"5\": 50}","source":42,"target":80,"layer":"L","from":"无锡河埒口(地铁站)","to":"无锡青山湾荣院(地铁站)"},"geometry":{"type":"LineString","coordinates":[[120.256284,31.563954],[120.269514,31.573912]]}},{"type":"Feature","properties":{"shape_id":"{}","direction_id":"{\"0\": 50}","headsign":"{}","duration_avg":120,"n_vehicles":50,"d":1200,"route_I_counts":"{\"5\": 50}","source":42,"target":81,"layer":"L","from":"无锡河埒口(地铁站)","to":"无锡西园弄(地铁站)"},"geometry":{"type":"LineString","coordinates":[[120.256284,31.563954],[120.2576,31.550719]]}},{"type":"Feature","properties":{"shape_id":"{}","direction_id":"{\"1\": 50}","headsign":"{}","duration_avg":120,"n_vehicles":50,"d":1200,"route_I_counts":"{\"5\": 50}","source":81,"target":42,"layer":"L","from":"无锡西园弄(地铁站)","to":"无锡河埒口(地铁站)"},"geometry":{"type":"LineString","coordinates":[[120.2576,31.550719],[120.256284,31.563954]]}},{"type":"Feature","properties":{"shape_id":"{}","direction_id":"{\"0\": 50}","headsign":"{}","duration_avg":60,"n_vehicles":50,"d":600,"route_I_counts":"{\"5\": 50}","source":81,"target":82,"layer":"L","from":"无锡西园弄(地铁站)","to":"无锡体育中心(地铁站)"},"geometry":{"type":"LineString","coordinates":[[120.2576,31.550719],[120.258319,31.542831]]}},{"type":"Feature","properties":{"shape_id":"{}","direction_id":"{\"1\": 50}","headsign":"{}","duration_avg":60,"n_vehicles":50,"d":600,"route_I_counts":"{\"5\": 50}","source":82,"target":81,"layer":"L","from":"无锡体育中心(地铁站)","to":"无锡西园弄(地铁站)"},"geometry":{"type":"LineString","coordinates":[[120.258319,31.542831],[120.2576,31.550719]]}},{"type":"Feature","properties":{"shape_id":"{}","direction_id":"{\"0\": 50}","headsign":"{}","duration_avg":60,"n_vehicles":50,"d":600,"route_I_counts":"{\"5\": 50}","source":82,"target":83,"layer":"L","from":"无锡体育中心(地铁站)","to":"无锡夏家边(地铁站)"},"geometry":{"type":"LineString","coordinates":[[120.258319,31.542831],[120.258889,31.534111]]}},{"type":"Feature","properties":{"shape_id":"{}","direction_id":"{\"1\": 50}","headsign":"{}","duration_avg":60,"n_vehicles":50,"d":600,"route_I_counts":"{\"5\": 50}","source":83,"target":82,"layer":"L","from":"无锡夏家边(地铁站)","to":"无锡体育中心(地铁站)"},"geometry":{"type":"LineString","coordinates":[[120.258889,31.534111],[120.258319,31.542831]]}},{"type":"Feature","properties":{"shape_id":"{}","direction_id":"{\"0\": 50}","headsign":"{}","duration_avg":120,"n_vehicles":50,"d":1200,"route_I_counts":"{\"5\": 50}","source":83,"target":84,"layer":"L","from":"无锡夏家边(地铁站)","to":"无锡蠡湖大桥(地铁站)"},"geometry":{"type":"LineString","coordinates":[[120.258889,31.534111],[120.261511,31.524]]}},{"type":"Feature","properties":{"shape_id":"{}","direction_id":"{\"1\": 50}","headsign":"{}","duration_avg":120,"n_vehicles":50,"d":1200,"route_I_counts":"{\"5\": 50}","source":84,"target":83,"layer":"L","from":"无锡蠡湖大桥(地铁站)","to":"无锡夏家边(地铁站)"},"geometry":{"type":"LineString","coordinates":[[120.261511,31.524],[120.258889,31.534111]]}},{"type":"Feature","properties":{"shape_id":"{}","direction_id":"{\"0\": 50}","headsign":"{}","duration_avg":180,"n_vehicles":50,"d":1800,"route_I_counts":"{\"5\": 50}","source":84,"target":85,"layer":"L","from":"无锡蠡湖大桥(地铁站)","to":"无锡大剧院(地铁站)"},"geometry":{"type":"LineString","coordinates":[[120.261511,31.524],[120.276811,31.513689]]}},{"type":"Feature","properties":{"shape_id":"{}","direction_id":"{\"1\": 50}","headsign":"{}","duration_avg":180,"n_vehicles":50,"d":1800,"route_I_counts":"{\"5\": 50}","source":85,"target":84,"layer":"L","from":"无锡大剧院(地铁站)","to":"无锡蠡湖大桥(地铁站)"},"geometry":{"type":"LineString","coordinates":[[120.276811,31.513689],[120.261511,31.524]]}},{"type":"Feature","properties":{"shape_id":"{}","direction_id":"{\"0\": 50}","headsign":"{}","duration_avg":120,"n_vehicles":50,"d":1200,"route_I_counts":"{\"5\": 50}","source":85,"target":86,"layer":"L","from":"无锡大剧院(地铁站)","to":"无锡五湖大道(地铁站)"},"geometry":{"type":"LineString","coordinates":[[120.276811,31.513689],[120.282589,31.507719]]}},{"type":"Feature","properties":{"shape_id":"{}","direction_id":"{\"1\": 50}","headsign":"{}","duration_avg":120,"n_vehicles":50,"d":1200,"route_I_counts":"{\"5\": 50}","source":86,"target":85,"layer":"L","from":"无锡五湖大道(地铁站)","to":"无锡大剧院(地铁站)"},"geometry":{"type":"LineString","coordinates":[[120.282589,31.507719],[120.276811,31.513689]]}},{"type":"Feature","properties":{"shape_id":"{}","direction_id":"{\"0\": 50}","headsign":"{}","duration_avg":120,"n_vehicles":50,"d":1200,"route_I_counts":"{\"5\": 50}","source":86,"target":87,"layer":"L","from":"无锡五湖大道(地铁站)","to":"无锡周新苑(地铁站)"},"geometry":{"type":"LineString","coordinates":[[120.282589,31.507719],[120.296689,31.506119]]}},{"type":"Feature","properties":{"shape_id":"{}","direction_id":"{\"1\": 50}","headsign":"{}","duration_avg":120,"n_vehicles":50,"d":1200,"route_I_counts":"{\"5\": 50}","source":87,"target":86,"layer":"L","from":"无锡周新苑(地铁站)","to":"无锡五湖大道(地铁站)"},"geometry":{"type":"LineString","coordinates":[[120.296689,31.506119],[120.282589,31.507719]]}},{"type":"Feature","properties":{"shape_id":"{}","direction_id":"{\"0\": 50}","headsign":"{}","duration_avg":120,"n_vehicles":50,"d":1200,"route_I_counts":"{\"5\": 50}","source":87,"target":6,"layer":"L","from":"无锡周新苑(地铁站)","to":"无锡市民中心(地铁站)"},"geometry":{"type":"LineString","coordinates":[[120.296689,31.506119],[120.302149,31.493457]]}},{"type":"Feature","properties":{"shape_id":"{}","direction_id":"{\"1\": 50}","headsign":"{}","duration_avg":120,"n_vehicles":50,"d":1200,"route_I_counts":"{\"5\": 50}","source":6,"target":87,"layer":"L","from":"无锡市民中心(地铁站)","to":"无锡周新苑(地铁站)"},"geometry":{"type":"LineString","coordinates":[[120.302149,31.493457],[120.296689,31.506119]]}},{"type":"Feature","properties":{"shape_id":"{}","direction_id":"{\"0\": 50}","headsign":"{}","duration_avg":120,"n_vehicles":50,"d":1200,"route_I_counts":"{\"5\": 50}","source":6,"target":88,"layer":"L","from":"无锡市民中心(地铁站)","to":"无锡吴都路(地铁站)"},"geometry":{"type":"LineString","coordinates":[[120.302149,31.493457],[120.303839,31.485219]]}},{"type":"Feature","properties":{"shape_id":"{}","direction_id":"{\"1\": 50}","headsign":"{}","duration_avg":120,"n_vehicles":50,"d":1200,"route_I_counts":"{\"5\": 50}","source":88,"target":6,"layer":"L","from":"无锡吴都路(地铁站)","to":"无锡市民中心(地铁站)"},"geometry":{"type":"LineString","coordinates":[[120.303839,31.485219],[120.302149,31.493457]]}},{"type":"Feature","properties":{"shape_id":"{}","direction_id":"{\"0\": 50}","headsign":"{}","duration_avg":120,"n_vehicles":50,"d":1200,"route_I_counts":"{\"5\": 50}","source":88,"target":89,"layer":"L","from":"无锡吴都路(地铁站)","to":"无锡丰润道(地铁站)"},"geometry":{"type":"LineString","coordinates":[[120.303839,31.485219],[120.310839,31.476039]]}},{"type":"Feature","properties":{"shape_id":"{}","direction_id":"{\"1\": 50}","headsign":"{}","duration_avg":120,"n_vehicles":50,"d":1200,"route_I_counts":"{\"5\": 50}","source":89,"target":88,"layer":"L","from":"无锡丰润道(地铁站)","to":"无锡吴都路(地铁站)"},"geometry":{"type":"LineString","coordinates":[[120.310839,31.476039],[120.303839,31.485219]]}},{"type":"Feature","properties":{"shape_id":"{}","direction_id":"{\"0\": 50}","headsign":"{}","duration_avg":60,"n_vehicles":50,"d":600,"route_I_counts":"{\"5\": 50}","source":89,"target":90,"layer":"L","from":"无锡丰润道(地铁站)","to":"无锡博览中心(地铁站)"},"geometry":{"type":"LineString","coordinates":[[120.310839,31.476039],[120.321,31.478806]]}},{"type":"Feature","properties":{"shape_id":"{}","direction_id":"{\"1\": 50}","headsign":"{}","duration_avg":60,"n_vehicles":50,"d":600,"route_I_counts":"{\"5\": 50}","source":90,"target":89,"layer":"L","from":"无锡博览中心(地铁站)","to":"无锡丰润道(地铁站)"},"geometry":{"type":"LineString","coordinates":[[120.321,31.478806],[120.310839,31.476039]]}}]}