{"type":"FeatureCollection","features":[{"type":"Feature","geometry":{"type":"Point","coordinates":[118.077863,24.453141]},"properties":{"name":"厦门镇海路(地铁站)","original_ids":"[1]","id":0,"layer":"stop"}},{"type":"Feature","geometry":{"type":"Point","coordinates":[118.084876,24.458326]},"properties":{"name":"厦门中山公园(地铁站)","original_ids":"[2]","id":1,"layer":"stop"}},{"type":"Feature","geometry":{"type":"Point","coordinates":[118.094863,24.463409]},"properties":{"name":"厦门将军祠(地铁站)","original_ids":"[3]","id":2,"layer":"stop"}},{"type":"Feature","geometry":{"type":"Point","coordinates":[118.098471,24.470347]},"properties":{"name":"厦门文灶(地铁站)","original_ids":"[4]","id":3,"layer":"stop"}},{"type":"Feature","geometry":{"type":"Point","coordinates":[118.105692,24.476675]},"properties":{"name":"厦门湖滨东路(地铁站)","original_ids":"[5]","id":4,"layer":"stop"}},{"type":"Feature","geometry":{"type":"Point","coordinates":[118.113239,24.47876]},"properties":{"name":"厦门莲坂(地铁站)","original_ids":"[6]","id":5,"layer":"stop"}},{"type":"Feature","geometry":{"type":"Point","coordinates":[118.117907,24.486142]},"properties":{"name":"厦门莲花路口(地铁站)","original_ids":"[7]","id":6,"layer":"stop"}},{"type":"Feature","geometry":{"type":"Point","coordinates":[118.123016,24.493345]},"properties":{"name":"厦门吕厝(地铁站)","original_ids":"[8]","id":7,"layer":"stop"}},{"type":"Feature","geometry":{"type":"Point","coordinates":[118.121573,24.50158]},"properties":{"name":"厦门乌石浦(地铁站)","original_ids":"[9]","id":8,"layer":"stop"}},{"type":"Feature","geometry":{"type":"Point","coordinates":[118.117667,24.508964]},"properties":{"name":"厦门塘边(地铁站)","original_ids":"[10]","id":9,"layer":"stop"}},{"type":"Feature","geometry":{"type":"Point","coordinates":[118.11382,24.514537]},"properties":{"name":"厦门火炬园(地铁站)","original_ids":"[11]","id":10,"layer":"stop"}},{"type":"Feature","geometry":{"type":"Point","coordinates":[118.111207,24.527551]},"properties":{"name":"厦门殿前(地铁站)","original_ids":"[12]","id":11,"layer":"stop"}},{"type":"Feature","geometry":{"type":"Point","coordinates":[118.111872,24.54019]},"properties":{"name":"厦门高崎(地铁站)","original_ids":"[13]","id":12,"layer":"stop"}},{"type":"Feature","geometry":{"type":"Point","coordinates":[118.087334,24.566555]},"properties":{"name":"厦门集美学村(地铁站)","original_ids":"[14]","id":13,"layer":"stop"}},{"type":"Feature","geometry":{"type":"Point","coordinates":[118.061877,24.572734]},"properties":{"name":"厦门园博苑(地铁站)","original_ids":"[15]","id":14,"layer":"stop"}},{"type":"Feature","geometry":{"type":"Point","coordinates":[118.056505,24.57971]},"properties":{"name":"厦门杏林村(地铁站)","original_ids":"[16]","id":15,"layer":"stop"}},{"type":"Feature","geometry":{"type":"Point","coordinates":[118.05241,24.583877]},"properties":{"name":"厦门杏锦路(地铁站)","original_ids":"[17]","id":16,"layer":"stop"}},{"type":"Feature","geometry":{"type":"Point","coordinates":[118.053625,24.596324]},"properties":{"name":"厦门官任(地铁站)","original_ids":"[18]","id":17,"layer":"stop"}},{"type":"Feature","geometry":{"type":"Point","coordinates":[118.049091,24.606406]},"properties":{"name":"厦门诚毅广场(地铁站)","original_ids":"[19]","id":18,"layer":"stop"}},{"type":"Feature","geometry":{"type":"Point","coordinates":[118.042987,24.616065]},"properties":{"name":"厦门集美软件园(地铁站)","original_ids":"[20]","id":19,"layer":"stop"}},{"type":"Feature","geometry":{"type":"Point","coordinates":[118.050587,24.62292]},"properties":{"name":"厦门集美大道(地铁站)","original_ids":"[21]","id":20,"layer":"stop"}},{"type":"Feature","geometry":{"type":"Point","coordinates":[118.061199,24.628676]},"properties":{"name":"厦门天水路(地铁站)","original_ids":"[22]","id":21,"layer":"stop"}},{"type":"Feature","geometry":{"type":"Point","coordinates":[118.068999,24.639049]},"properties":{"name":"厦门厦门北站(地铁站)","original_ids":"[23]","id":22,"layer":"stop"}},{"type":"Feature","geometry":{"type":"Point","coordinates":[118.065266,24.645784]},"properties":{"name":"厦门岩内(地铁站)","original_ids":"[24]","id":23,"layer":"stop"}},{"type":"Feature","geometry":{"type":"Point","coordinates":[117.932156,24.581678]},"properties":{"name":"厦门天竺山(地铁站)","original_ids":"[25]","id":24,"layer":"stop"}},{"type":"Feature","geometry":{"type":"Point","coordinates":[117.942837,24.569334]},"properties":{"name":"厦门东孚(地铁站)","original_ids":"[26]","id":25,"layer":"stop"}},{"type":"Feature","geometry":{"type":"Point","coordinates":[117.957054,24.552576]},"properties":{"name":"厦门东瑶(地铁站)","original_ids":"[27]","id":26,"layer":"stop"}},{"type":"Feature","geometry":{"type":"Point","coordinates":[117.990503,24.540037]},"properties":{"name":"厦门新阳大道(地铁站)","original_ids":"[28]","id":27,"layer":"stop"}},{"type":"Feature","geometry":{"type":"Point","coordinates":[118.001095,24.533607]},"properties":{"name":"厦门新垵(地铁站)","original_ids":"[29]","id":28,"layer":"stop"}},{"type":"Feature","geometry":{"type":"Point","coordinates":[118.009632,24.528928]},"properties":{"name":"厦门翁角路(地铁站)","original_ids":"[30]","id":29,"layer":"stop"}},{"type":"Feature","geometry":{"type":"Point","coordinates":[118.025208,24.49661]},"properties":{"name":"厦门马青路(地铁站)","original_ids":"[31]","id":30,"layer":"stop"}},{"type":"Feature","geometry":{"type":"Point","coordinates":[118.028195,24.490263]},"properties":{"name":"厦门海沧行政中心(地铁站)","original_ids":"[32]","id":31,"layer":"stop"}},{"type":"Feature","geometry":{"type":"Point","coordinates":[118.034442,24.483609]},"properties":{"name":"厦门海沧商务中心(地铁站)","original_ids":"[33]","id":32,"layer":"stop"}},{"type":"Feature","geometry":{"type":"Point","coordinates":[118.045344,24.487344]},"properties":{"name":"厦门海沧湾公园(地铁站)","original_ids":"[34]","id":33,"layer":"stop"}},{"type":"Feature","geometry":{"type":"Point","coordinates":[118.072181,24.487614]},"properties":{"name":"厦门邮轮中心(地铁站)","original_ids":"[35]","id":34,"layer":"stop"}},{"type":"Feature","geometry":{"type":"Point","coordinates":[118.078667,24.480753]},"properties":{"name":"厦门建业路(地铁站)","original_ids":"[36]","id":35,"layer":"stop"}},{"type":"Feature","geometry":{"type":"Point","coordinates":[118.089768,24.483153]},"properties":{"name":"厦门湖滨中路(地铁站)","original_ids":"[37]","id":36,"layer":"stop"}},{"type":"Feature","geometry":{"type":"Point","coordinates":[118.101212,24.486377]},"properties":{"name":"厦门体育中心(地铁站)","original_ids":"[38]","id":37,"layer":"stop"}},{"type":"Feature","geometry":{"type":"Point","coordinates":[118.108097,24.488168]},"properties":{"name":"厦门育秀东路(地铁站)","original_ids":"[39]","id":38,"layer":"stop"}},{"type":"Feature","geometry":{"type":"Point","coordinates":[118.132987,24.495002]},"properties":{"name":"厦门江头(地铁站)","original_ids":"[40]","id":39,"layer":"stop"}},{"type":"Feature","geometry":{"type":"Point","coordinates":[118.140933,24.492445]},"properties":{"name":"厦门后埔(地铁站)","original_ids":"[41]","id":40,"layer":"stop"}},{"type":"Feature","geometry":{"type":"Point","coordinates":[118.148594,24.489859]},"properties":{"name":"厦门蔡塘(地铁站)","original_ids":"[42]","id":41,"layer":"stop"}},{"type":"Feature","geometry":{"type":"Point","coordinates":[118.158783,24.488365]},"properties":{"name":"厦门古地石(地铁站)","original_ids":"[43]","id":42,"layer":"stop"}},{"type":"Feature","geometry":{"type":"Point","coordinates":[118.169023,24.487044]},"properties":{"name":"厦门岭兜(地铁站)","original_ids":"[44]","id":43,"layer":"stop"}},{"type":"Feature","geometry":{"type":"Point","coordinates":[118.180355,24.483283]},"properties":{"name":"厦门软件园二期(地铁站)","original_ids":"[45]","id":44,"layer":"stop"}},{"type":"Feature","geometry":{"type":"Point","coordinates":[118.187879,24.487975]},"properties":{"name":"厦门何厝(地铁站)","original_ids":"[46]","id":45,"layer":"stop"}},{"type":"Feature","geometry":{"type":"Point","coordinates":[118.187998,24.496317]},"properties":{"name":"厦门观音山(地铁站)","original_ids":"[47]","id":46,"layer":"stop"}},{"type":"Feature","geometry":{"type":"Point","coordinates":[118.188113,24.50205]},"properties":{"name":"厦门东宅(地铁站)","original_ids":"[48]","id":47,"layer":"stop"}},{"type":"Feature","geometry":{"type":"Point","coordinates":[118.189202,24.508235]},"properties":{"name":"厦门两岸金融中心(地铁站)","original_ids":"[49]","id":48,"layer":"stop"}},{"type":"Feature","geometry":{"type":"Point","coordinates":[118.184763,24.514388]},"properties":{"name":"厦门五通(地铁站)","original_ids":"[50]","id":49,"layer":"stop"}},{"type":"Feature","geometry":{"type":"Point","coordinates":[118.178762,24.519238]},"properties":{"name":"厦门湿地公园(地铁站)","original_ids":"[51]","id":50,"layer":"stop"}},{"type":"Feature","geometry":{"type":"Point","coordinates":[118.168192,24.52667]},"properties":{"name":"厦门钟宅(地铁站)","original_ids":"[52]","id":51,"layer":"stop"}},{"type":"Feature","geometry":{"type":"Point","coordinates":[118.162209,24.535211]},"properties":{"name":"厦门五缘湾(地铁站)","original_ids":"[53]","id":52,"layer":"stop"}},{"type":"Feature","geometry":{"type":"Point","coordinates":[117.982918,24.548917]},"properties":{"name":"厦门马銮中心(地铁站)","original_ids":"[54]","id":53,"layer":"stop"}},{"type":"Feature","geometry":{"type":"Point","coordinates":[117.96954,24.54995]},"properties":{"name":"厦门鼎美(地铁站)","original_ids":"[55]","id":54,"layer":"stop"}},{"type":"Feature","geometry":{"type":"Point","coordinates":[118.274405,24.575449]},"properties":{"name":"厦门蔡厝(地铁站)","original_ids":"[56]","id":55,"layer":"stop"}},{"type":"Feature","geometry":{"type":"Point","coordinates":[118.266834,24.58299]},"properties":{"name":"厦门后村(地铁站)","original_ids":"[57]","id":56,"layer":"stop"}},{"type":"Feature","geometry":{"type":"Point","coordinates":[118.258538,24.583082]},"properties":{"name":"厦门浦边(地铁站)","original_ids":"[58]","id":57,"layer":"stop"}},{"type":"Feature","geometry":{"type":"Point","coordinates":[118.248809,24.581608]},"properties":{"name":"厦门翔安市民公园(地铁站)","original_ids":"[59]","id":58,"layer":"stop"}},{"type":"Feature","geometry":{"type":"Point","coordinates":[118.239455,24.581313]},"properties":{"name":"厦门鼓锣(地铁站)","original_ids":"[60]","id":59,"layer":"stop"}},{"type":"Feature","geometry":{"type":"Point","coordinates":[118.227242,24.578882]},"properties":{"name":"厦门林前(地铁站)","original_ids":"[61]","id":60,"layer":"stop"}},{"type":"Feature","geometry":{"type":"Point","coordinates":[118.221433,24.573898]},"properties":{"name":"厦门洪坑(地铁站)","original_ids":"[62]","id":61,"layer":"stop"}},{"type":"Feature","geometry":{"type":"Point","coordinates":[118.214708,24.567665]},"properties":{"name":"厦门东界(地铁站)","original_ids":"[63]","id":62,"layer":"stop"}},{"type":"Feature","geometry":{"type":"Point","coordinates":[118.203668,24.559188]},"properties":{"name":"厦门国际博览中心(地铁站)","original_ids":"[64]","id":63,"layer":"stop"}},{"type":"Feature","geometry":{"type":"Point","coordinates":[118.151264,24.525652]},"properties":{"name":"厦门湖里创新园(地铁站)","original_ids":"[65]","id":64,"layer":"stop"}},{"type":"Feature","geometry":{"type":"Point","coordinates":[118.141836,24.521902]},"properties":{"name":"厦门坂尚(地铁站)","original_ids":"[66]","id":65,"layer":"stop"}},{"type":"Feature","geometry":{"type":"Point","coordinates":[118.13346,24.520483]},"properties":{"name":"厦门安兜(地铁站)","original_ids":"[67]","id":66,"layer":"stop"}},{"type":"Feature","geometry":{"type":"Point","coordinates":[118.121018,24.516782]},"properties":{"name":"厦门小东山(地铁站)","original_ids":"[68]","id":67,"layer":"stop"}},{"type":"Feature","geometry":{"type":"Point","coordinates":[118.104319,24.514168]},"properties":{"name":"厦门华荣路(地铁站)","original_ids":"[69]","id":68,"layer":"stop"}},{"type":"Feature","geometry":{"type":"Point","coordinates":[118.100545,24.509382]},"properties":{"name":"厦门湖里公园(地铁站)","original_ids":"[70]","id":69,"layer":"stop"}},{"type":"Feature","geometry":{"type":"Point","coordinates":[118.098305,24.491843]},"properties":{"name":"厦门人才中心(地铁站)","original_ids":"[71]","id":70,"layer":"stop"}},{"type":"Feature","geometry":{"type":"Point","coordinates":[118.109715,24.471907]},"properties":{"name":"厦门厦门火车站(地铁站)","original_ids":"[72]","id":71,"layer":"stop"}},{"type":"Feature","properties":{"shape_id":"{}","direction_id":"{\"0\": 50}","headsign":"{}","duration_avg":60,"n_vehicles":50,"d":600,"route_I_counts":"{\"1\": 50}","source":0,"target":1,"layer":"L","from":"厦门镇海路(地铁站)","to":"厦门中山公园(地铁站)"},"geometry":{"type":"LineString","coordinates":[[118.077863,24.453141],[118.084876,24.458326]]}},{"type":"Feature","properties":{"shape_id":"{}","direction_id":"{\"1\": 50}","headsign":"{}","duration_avg":60,"n_vehicles":50,"d":600,"route_I_counts":"{\"1\": 50}","source":1,"target":0,"layer":"L","from":"厦门中山公园(地铁站)","to":"厦门镇海路(地铁站)"},"geometry":{"type":"LineString","coordinates":[[118.084876,24.458326],[118.077863,24.453141]]}},{"type":"Feature","properties":{"shape_id":"{}","direction_id":"{\"0\": 50}","headsign":"{}","duration_avg":180,"n_vehicles":50,"d":1800,"route_I_counts":"{\"1\": 50}","source":1,"target":2,"layer":"L","from":"厦门中山公园(地铁站)","to":"厦门将军祠(地铁站)"},"geometry":{"type":"LineString","coordinates":[[118.084876,24.458326],[118.094863,24.463409]]}},{"type":"Feature","properties":{"shape_id":"{}","direction_id":"{\"1\": 50}","headsign":"{}","duration_avg":180,"n_vehicles":50,"d":1800,"route_I_counts":"{\"1\": 50}","source":2,"target":1,"layer":"L","from":"厦门将军祠(地铁站)","to":"厦门中山公园(地铁站)"},"geometry":{"type":"LineString","coordinates":[[118.094863,24.463409],[118.084876,24.458326]]}},{"type":"Feature","properties":{"shape_id":"{}","direction_id":"{\"0\": 50}","headsign":"{}","duration_avg":120,"n_vehicles":50,"d":1200,"route_I_counts":"{\"1\": 50}","source":2,"target":3,"layer":"L","from":"厦门将军祠(地铁站)","to":"厦门文灶(地铁站)"},"geometry":{"type":"LineString","coordinates":[[118.094863,24.463409],[118.098471,24.470347]]}},{"type":"Feature","properties":{"shape_id":"{}","direction_id":"{\"1\": 50}","headsign":"{}","duration_avg":120,"n_vehicles":50,"d":1200,"route_I_counts":"{\"1\": 50}","source":3,"target":2,"layer":"L","from":"厦门文灶(地铁站)","to":"厦门将军祠(地铁站)"},"geometry":{"type":"LineString","coordinates":[[118.098471,24.470347],[118.094863,24.463409]]}},{"type":"Feature","properties":{"shape_id":"{}","direction_id":"{\"0\": 50}","headsign":"{}","duration_avg":120,"n_vehicles":50,"d":1200,"route_I_counts":"{\"1\": 50}","source":3,"target":4,"layer":"L","from":"厦门文灶(地铁站)","to":"厦门湖滨东路(地铁站)"},"geometry":{"type":"LineString","coordinates":[[118.098471,24.470347],[118.105692,24.476675]]}},{"type":"Feature","properties":{"shape_id":"{}","direction_id":"{\"1\": 50}","headsign":"{}","duration_avg":120,"n_vehicles":50,"d":1200,"route_I_counts":"{\"1\": 50}","source":4,"target":3,"layer":"L","from":"厦门湖滨东路(地铁站)","to":"厦门文灶(地铁站)"},"geometry":{"type":"LineString","coordinates":[[118.105692,24.476675],[118.098471,24.470347]]}},{"type":"Feature","properties":{"shape_id":"{}","direction_id":"{\"0\": 50}","headsign":"{}","duration_avg":120,"n_vehicles":50,"d":1200,"route_I_counts":"{\"1\": 50}","source":4,"target":5,"layer":"L","from":"厦门湖滨东路(地铁站)","to":"厦门莲坂(地铁站)"},"geometry":{"type":"LineString","coordinates":[[118.105692,24.476675],[118.113239,24.47876]]}},{"type":"Feature","properties":{"shape_id":"{}","direction_id":"{\"1\": 50}","headsign":"{}","duration_avg":120,"n_vehicles":50,"d":1200,"route_I_counts":"{\"1\": 50}","source":5,"target":4,"layer":"L","from":"厦门莲坂(地铁站)","to":"厦门湖滨东路(地铁站)"},"geometry":{"type":"LineString","coordinates":[[118.113239,24.47876],[118.105692,24.476675]]}},{"type":"Feature","properties":{"shape_id":"{}","direction_id":"{\"0\": 50}","headsign":"{}","duration_avg":120,"n_vehicles":50,"d":1200,"route_I_counts":"{\"1\": 50}","source":5,"target":6,"layer":"L","from":"厦门莲坂(地铁站)","to":"厦门莲花路口(地铁站)"},"geometry":{"type":"LineString","coordinates":[[118.113239,24.47876],[118.117907,24.486142]]}},{"type":"Feature","properties":{"shape_id":"{}","direction_id":"{\"1\": 50}","headsign":"{}","duration_avg":120,"n_vehicles":50,"d":1200,"route_I_counts":"{\"1\": 50}","source":6,"target":5,"layer":"L","from":"厦门莲花路口(地铁站)","to":"厦门莲坂(地铁站)"},"geometry":{"type":"LineString","coordinates":[[118.117907,24.486142],[118.113239,24.47876]]}},{"type":"Feature","properties":{"shape_id":"{}","direction_id":"{\"0\": 50}","headsign":"{}","duration_avg":120,"n_vehicles":50,"d":1200,"route_I_counts":"{\"1\": 50}","source":6,"target":7,"layer":"L","from":"厦门莲花路口(地铁站)","to":"厦门吕厝(地铁站)"},"geometry":{"type":"LineString","coordinates":[[118.117907,24.486142],[118.123016,24.493345]]}},{"type":"Feature","properties":{"shape_id":"{}","direction_id":"{\"1\": 50}","headsign":"{}","duration_avg":120,"n_vehicles":50,"d":1200,"route_I_counts":"{\"1\": 50}","source":7,"target":6,"layer":"L","from":"厦门吕厝(地铁站)","to":"厦门莲花路口(地铁站)"},"geometry":{"type":"LineString","coordinates":[[118.123016,24.493345],[118.117907,24.486142]]}},{"type":"Feature","properties":{"shape_id":"{}","direction_id":"{\"0\": 50}","headsign":"{}","duration_avg":120,"n_vehicles":50,"d":1200,"route_I_counts":"{\"1\": 50}","source":7,"target":8,"layer":"L","from":"厦门吕厝(地铁站)","to":"厦门乌石浦(地铁站)"},"geometry":{"type":"LineString","coordinates":[[118.123016,24.493345],[118.121573,24.50158]]}},{"type":"Feature","properties":{"shape_id":"{}","direction_id":"{\"1\": 50}","headsign":"{}","duration_avg":120,"n_vehicles":50,"d":1200,"route_I_counts":"{\"1\": 50}","source":8,"target":7,"layer":"L","from":"厦门乌石浦(地铁站)","to":"厦门吕厝(地铁站)"},"geometry":{"type":"LineString","coordinates":[[118.121573,24.50158],[118.123016,24.493345]]}},{"type":"Feature","properties":{"shape_id":"{}","direction_id":"{\"0\": 50}","headsign":"{}","duration_avg":120,"n_vehicles":50,"d":1200,"route_I_counts":"{\"1\": 50}","source":8,"target":9,"layer":"L","from":"厦门乌石浦(地铁站)","to":"厦门塘边(地铁站)"},"geometry":{"type":"LineString","coordinates":[[118.121573,24.50158],[118.117667,24.508964]]}},{"type":"Feature","properties":{"shape_id":"{}","direction_id":"{\"1\": 50}","headsign":"{}","duration_avg":120,"n_vehicles":50,"d":1200,"route_I_counts":"{\"1\": 50}","source":9,"target":8,"layer":"L","from":"厦门塘边(地铁站)","to":"厦门乌石浦(地铁站)"},"geometry":{"type":"LineString","coordinates":[[118.117667,24.508964],[118.121573,24.50158]]}},{"type":"Feature","properties":{"shape_id":"{}","direction_id":"{\"0\": 50}","headsign":"{}","duration_avg":120,"n_vehicles":50,"d":1200,"route_I_counts":"{\"1\": 50}","source":9,"target":10,"layer":"L","from":"厦门塘边(地铁站)","to":"厦门火炬园(地铁站)"},"geometry":{"type":"LineString","coordinates":[[118.117667,24.508964],[118.11382,24.514537]]}},{"type":"Feature","properties":{"shape_id":"{}","direction_id":"{\"1\": 50}","headsign":"{}","duration_avg":120,"n_vehicles":50,"d":1200,"route_I_counts":"{\"1\": 50}","source":10,"target":9,"layer":"L","from":"厦门火炬园(地铁站)","to":"厦门塘边(地铁站)"},"geometry":{"type":"LineString","coordinates":[[118.11382,24.514537],[118.117667,24.508964]]}},{"type":"Feature","properties":{"shape_id":"{}","direction_id":"{\"0\": 50}","headsign":"{}","duration_avg":120,"n_vehicles":50,"d":1200,"route_I_counts":"{\"1\": 50}","source":10,"target":11,"layer":"L","from":"厦门火炬园(地铁站)","to":"厦门殿前(地铁站)"},"geometry":{"type":"LineString","coordinates":[[118.11382,24.514537],[118.111207,24.527551]]}},{"type":"Feature","properties":{"shape_id":"{}","direction_id":"{\"1\": 50}","headsign":"{}","duration_avg":120,"n_vehicles":50,"d":1200,"route_I_counts":"{\"1\": 50}","source":11,"target":10,"layer":"L","from":"厦门殿前(地铁站)","to":"厦门火炬园(地铁站)"},"geometry":{"type":"LineString","coordinates":[[118.111207,24.527551],[118.11382,24.514537]]}},{"type":"Feature","properties":{"shape_id":"{}","direction_id":"{\"0\": 50}","headsign":"{}","duration_avg":120,"n_vehicles":50,"d":1200,"route_I_counts":"{\"1\": 50}","source":11,"target":12,"layer":"L","from":"厦门殿前(地铁站)","to":"厦门高崎(地铁站)"},"geometry":{"type":"LineString","coordinates":[[118.111207,24.527551],[118.111872,24.54019]]}},{"type":"Feature","properties":{"shape_id":"{}","direction_id":"{\"1\": 50}","headsign":"{}","duration_avg":120,"n_vehicles":50,"d":1200,"route_I_counts":"{\"1\": 50}","source":12,"target":11,"layer":"L","from":"厦门高崎(地铁站)","to":"厦门殿前(地铁站)"},"geometry":{"type":"LineString","coordinates":[[118.111872,24.54019],[118.111207,24.527551]]}},{"type":"Feature","properties":{"shape_id":"{}","direction_id":"{\"0\": 50}","headsign":"{}","duration_avg":300,"n_vehicles":50,"d":3000,"route_I_counts":"{\"1\": 50}","source":12,"target":13,"layer":"L","from":"厦门高崎(地铁站)","to":"厦门集美学村(地铁站)"},"geometry":{"type":"LineString","coordinates":[[118.111872,24.54019],[118.087334,24.566555]]}},{"type":"Feature","properties":{"shape_id":"{}","direction_id":"{\"1\": 50}","headsign":"{}","duration_avg":300,"n_vehicles":50,"d":3000,"route_I_counts":"{\"1\": 50}","source":13,"target":12,"layer":"L","from":"厦门集美学村(地铁站)","to":"厦门高崎(地铁站)"},"geometry":{"type":"LineString","coordinates":[[118.087334,24.566555],[118.111872,24.54019]]}},{"type":"Feature","properties":{"shape_id":"{}","direction_id":"{\"0\": 50}","headsign":"{}","duration_avg":180,"n_vehicles":50,"d":1800,"route_I_counts":"{\"1\": 50}","source":13,"target":14,"layer":"L","from":"厦门集美学村(地铁站)","to":"厦门园博苑(地铁站)"},"geometry":{"type":"LineString","coordinates":[[118.087334,24.566555],[118.061877,24.572734]]}},{"type":"Feature","properties":{"shape_id":"{}","direction_id":"{\"1\": 50}","headsign":"{}","duration_avg":180,"n_vehicles":50,"d":1800,"route_I_counts":"{\"1\": 50}","source":14,"target":13,"layer":"L","from":"厦门园博苑(地铁站)","to":"厦门集美学村(地铁站)"},"geometry":{"type":"LineString","coordinates":[[118.061877,24.572734],[118.087334,24.566555]]}},{"type":"Feature","properties":{"shape_id":"{}","direction_id":"{\"0\": 50}","headsign":"{}","duration_avg":120,"n_vehicles":50,"d":1200,"route_I_counts":"{\"1\": 50}","source":14,"target":15,"layer":"L","from":"厦门园博苑(地铁站)","to":"厦门杏林村(地铁站)"},"geometry":{"type":"LineString","coordinates":[[118.061877,24.572734],[118.056505,24.57971]]}},{"type":"Feature","properties":{"shape_id":"{}","direction_id":"{\"1\": 50}","headsign":"{}","duration_avg":120,"n_vehicles":50,"d":1200,"route_I_counts":"{\"1\": 50}","source":15,"target":14,"layer":"L","from":"厦门杏林村(地铁站)","to":"厦门园博苑(地铁站)"},"geometry":{"type":"LineString","coordinates":[[118.056505,24.57971],[118.061877,24.572734]]}},{"type":"Feature","properties":{"shape_id":"{}","direction_id":"{\"0\": 50}","headsign":"{}","duration_avg":120,"n_vehicles":50,"d":1200,"route_I_counts":"{\"1\": 50}","source":15,"target":16,"layer":"L","from":"厦门杏林村(地铁站)","to":"厦门杏锦路(地铁站)"},"geometry":{"type":"LineString","coordinates":[[118.056505,24.57971],[118.05241,24.583877]]}},{"type":"Feature","properties":{"shape_id":"{}","direction_id":"{\"1\": 50}","headsign":"{}","duration_avg":120,"n_vehicles":50,"d":1200,"route_I_counts":"{\"1\": 50}","source":16,"target":15,"layer":"L","from":"厦门杏锦路(地铁站)","to":"厦门杏林村(地铁站)"},"geometry":{"type":"LineString","coordinates":[[118.05241,24.583877],[118.056505,24.57971]]}},{"type":"Feature","properties":{"shape_id":"{}","direction_id":"{\"0\": 50}","headsign":"{}","duration_avg":120,"n_vehicles":50,"d":1200,"route_I_counts":"{\"1\": 50}","source":16,"target":17,"layer":"L","from":"厦门杏锦路(地铁站)","to":"厦门官任(地铁站)"},"geometry":{"type":"LineString","coordinates":[[118.05241,24.583877],[118.053625,24.596324]]}},{"type":"Feature","properties":{"shape_id":"{}","direction_id":"{\"1\": 50}","headsign":"{}","duration_avg":120,"n_vehicles":50,"d":1200,"route_I_counts":"{\"1\": 50}","source":17,"target":16,"layer":"L","from":"厦门官任(地铁站)","to":"厦门杏锦路(地铁站)"},"geometry":{"type":"LineString","coordinates":[[118.053625,24.596324],[118.05241,24.583877]]}},{"type":"Feature","properties":{"shape_id":"{}","direction_id":"{\"0\": 50}","headsign":"{}","duration_avg":120,"n_vehicles":50,"d":1200,"route_I_counts":"{\"1\": 50}","source":17,"target":18,"layer":"L","from":"厦门官任(地铁站)","to":"厦门诚毅广场(地铁站)"},"geometry":{"type":"LineString","coordinates":[[118.053625,24.596324],[118.049091,24.606406]]}},{"type":"Feature","properties":{"shape_id":"{}","direction_id":"{\"1\": 50}","headsign":"{}","duration_avg":120,"n_vehicles":50,"d":1200,"route_I_counts":"{\"1\": 50}","source":18,"target":17,"layer":"L","from":"厦门诚毅广场(地铁站)","to":"厦门官任(地铁站)"},"geometry":{"type":"LineString","coordinates":[[118.049091,24.606406],[118.053625,24.596324]]}},{"type":"Feature","properties":{"shape_id":"{}","direction_id":"{\"0\": 50}","headsign":"{}","duration_avg":120,"n_vehicles":50,"d":1200,"route_I_counts":"{\"1\": 50}","source":18,"target":19,"layer":"L","from":"厦门诚毅广场(地铁站)","to":"厦门集美软件园(地铁站)"},"geometry":{"type":"LineString","coordinates":[[118.049091,24.606406],[118.042987,24.616065]]}},{"type":"Feature","properties":{"shape_id":"{}","direction_id":"{\"1\": 50}","headsign":"{}","duration_avg":120,"n_vehicles":50,"d":1200,"route_I_counts":"{\"1\": 50}","source":19,"target":18,"layer":"L","from":"厦门集美软件园(地铁站)","to":"厦门诚毅广场(地铁站)"},"geometry":{"type":"LineString","coordinates":[[118.042987,24.616065],[118.049091,24.606406]]}},{"type":"Feature","properties":{"shape_id":"{}","direction_id":"{\"0\": 50}","headsign":"{}","duration_avg":120,"n_vehicles":50,"d":1200,"route_I_counts":"{\"1\": 50}","source":19,"target":20,"layer":"L","from":"厦门集美软件园(地铁站)","to":"厦门集美大道(地铁站)"},"geometry":{"type":"LineString","coordinates":[[118.042987,24.616065],[118.050587,24.62292]]}},{"type":"Feature","properties":{"shape_id":"{}","direction_id":"{\"1\": 50}","headsign":"{}","duration_avg":120,"n_vehicles":50,"d":1200,"route_I_counts":"{\"1\": 50}","source":20,"target":19,"layer":"L","from":"厦门集美大道(地铁站)","to":"厦门集美软件园(地铁站)"},"geometry":{"type":"LineString","coordinates":[[118.050587,24.62292],[118.042987,24.616065]]}},{"type":"Feature","properties":{"shape_id":"{}","direction_id":"{\"0\": 50}","headsign":"{}","duration_avg":180,"n_vehicles":50,"d":1800,"route_I_counts":"{\"1\": 50}","source":20,"target":21,"layer":"L","from":"厦门集美大道(地铁站)","to":"厦门天水路(地铁站)"},"geometry":{"type":"LineString","coordinates":[[118.050587,24.62292],[118.061199,24.628676]]}},{"type":"Feature","properties":{"shape_id":"{}","direction_id":"{\"1\": 50}","headsign":"{}","duration_avg":180,"n_vehicles":50,"d":1800,"route_I_counts":"{\"1\": 50}","source":21,"target":20,"layer":"L","from":"厦门天水路(地铁站)","to":"厦门集美大道(地铁站)"},"geometry":{"type":"LineString","coordinates":[[118.061199,24.628676],[118.050587,24.62292]]}},{"type":"Feature","properties":{"shape_id":"{}","direction_id":"{\"0\": 50}","headsign":"{}","duration_avg":120,"n_vehicles":50,"d":1200,"route_I_counts":"{\"1\": 50}","source":21,"target":22,"layer":"L","from":"厦门天水路(地铁站)","to":"厦门厦门北站(地铁站)"},"geometry":{"type":"LineString","coordinates":[[118.061199,24.628676],[118.068999,24.639049]]}},{"type":"Feature","properties":{"shape_id":"{}","direction_id":"{\"1\": 50}","headsign":"{}","duration_avg":120,"n_vehicles":50,"d":1200,"route_I_counts":"{\"1\": 50}","source":22,"target":21,"layer":"L","from":"厦门厦门北站(地铁站)","to":"厦门天水路(地铁站)"},"geometry":{"type":"LineString","coordinates":[[118.068999,24.639049],[118.061199,24.628676]]}},{"type":"Feature","properties":{"shape_id":"{}","direction_id":"{\"0\": 50}","headsign":"{}","duration_avg":60,"n_vehicles":50,"d":600,"route_I_counts":"{\"1\": 50}","source":22,"target":23,"layer":"L","from":"厦门厦门北站(地铁站)","to":"厦门岩内(地铁站)"},"geometry":{"type":"LineString","coordinates":[[118.068999,24.639049],[118.065266,24.645784]]}},{"type":"Feature","properties":{"shape_id":"{}","direction_id":"{\"1\": 50}","headsign":"{}","duration_avg":60,"n_vehicles":50,"d":600,"route_I_counts":"{\"1\": 50}","source":23,"target":22,"layer":"L","from":"厦门岩内(地铁站)","to":"厦门厦门北站(地铁站)"},"geometry":{"type":"LineString","coordinates":[[118.065266,24.645784],[118.068999,24.639049]]}},{"type":"Feature","properties":{"shape_id":"{}","direction_id":"{\"0\": 50}","headsign":"{}","duration_avg":120,"n_vehicles":50,"d":1200,"route_I_counts":"{\"2\": 50}","source":24,"target":25,"layer":"L","from":"厦门天竺山(地铁站)","to":"厦门东孚(地铁站)"},"geometry":{"type":"LineString","coordinates":[[117.932156,24.581678],[117.942837,24.569334]]}},{"type":"Feature","properties":{"shape_id":"{}","direction_id":"{\"1\": 50}","headsign":"{}","duration_avg":120,"n_vehicles":50,"d":1200,"route_I_counts":"{\"2\": 50}","source":25,"target":24,"layer":"L","from":"厦门东孚(地铁站)","to":"厦门天竺山(地铁站)"},"geometry":{"type":"LineString","coordinates":[[117.942837,24.569334],[117.932156,24.581678]]}},{"type":"Feature","properties":{"shape_id":"{}","direction_id":"{\"0\": 50}","headsign":"{}","duration_avg":240,"n_vehicles":50,"d":2400,"route_I_counts":"{\"2\": 50}","source":25,"target":26,"layer":"L","from":"厦门东孚(地铁站)","to":"厦门东瑶(地铁站)"},"geometry":{"type":"LineString","coordinates":[[117.942837,24.569334],[117.957054,24.552576]]}},{"type":"Feature","properties":{"shape_id":"{}","direction_id":"{\"1\": 50}","headsign":"{}","duration_avg":240,"n_vehicles":50,"d":2400,"route_I_counts":"{\"2\": 50}","source":26,"target":25,"layer":"L","from":"厦门东瑶(地铁站)","to":"厦门东孚(地铁站)"},"geometry":{"type":"LineString","coordinates":[[117.957054,24.552576],[117.942837,24.569334]]}},{"type":"Feature","properties":{"shape_id":"{}","direction_id":"{\"0\": 50}","headsign":"{}","duration_avg":300,"n_vehicles":50,"d":3000,"route_I_counts":"{\"2\": 50}","source":26,"target":27,"layer":"L","from":"厦门东瑶(地铁站)","to":"厦门新阳大道(地铁站)"},"geometry":{"type":"LineString","coordinates":[[117.957054,24.552576],[117.990503,24.540037]]}},{"type":"Feature","properties":{"shape_id":"{}","direction_id":"{\"1\": 50}","headsign":"{}","duration_avg":300,"n_vehicles":50,"d":3000,"route_I_counts":"{\"2\": 50}","source":27,"target":26,"layer":"L","from":"厦门新阳大道(地铁站)","to":"厦门东瑶(地铁站)"},"geometry":{"type":"LineString","coordinates":[[117.990503,24.540037],[117.957054,24.552576]]}},{"type":"Feature","properties":{"shape_id":"{}","direction_id":"{\"0\": 50}","headsign":"{}","duration_avg":1140,"n_vehicles":50,"d":11400,"route_I_counts":"{\"2\": 50}","source":27,"target":28,"layer":"L","from":"厦门新阳大道(地铁站)","to":"厦门新垵(地铁站)"},"geometry":{"type":"LineString","coordinates":[[117.990503,24.540037],[118.001095,24.533607]]}},{"type":"Feature","properties":{"shape_id":"{}","direction_id":"{\"1\": 50}","headsign":"{}","duration_avg":1140,"n_vehicles":50,"d":11400,"route_I_counts":"{\"2\": 50}","source":28,"target":27,"layer":"L","from":"厦门新垵(地铁站)","to":"厦门新阳大道(地铁站)"},"geometry":{"type":"LineString","coordinates":[[118.001095,24.533607],[117.990503,24.540037]]}},{"type":"Feature","properties":{"shape_id":"{}","direction_id":"{\"0\": 50}","headsign":"{}","duration_avg":120,"n_vehicles":50,"d":1200,"route_I_counts":"{\"2\": 50}","source":28,"target":29,"layer":"L","from":"厦门新垵(地铁站)","to":"厦门翁角路(地铁站)"},"geometry":{"type":"LineString","coordinates":[[118.001095,24.533607],[118.009632,24.528928]]}},{"type":"Feature","properties":{"shape_id":"{}","direction_id":"{\"1\": 50}","headsign":"{}","duration_avg":120,"n_vehicles":50,"d":1200,"route_I_counts":"{\"2\": 50}","source":29,"target":28,"layer":"L","from":"厦门翁角路(地铁站)","to":"厦门新垵(地铁站)"},"geometry":{"type":"LineString","coordinates":[[118.009632,24.528928],[118.001095,24.533607]]}},{"type":"Feature","properties":{"shape_id":"{}","direction_id":"{\"0\": 50}","headsign":"{}","duration_avg":240,"n_vehicles":50,"d":2400,"route_I_counts":"{\"2\": 50}","source":29,"target":30,"layer":"L","from":"厦门翁角路(地铁站)","to":"厦门马青路(地铁站)"},"geometry":{"type":"LineString","coordinates":[[118.009632,24.528928],[118.025208,24.49661]]}},{"type":"Feature","properties":{"shape_id":"{}","direction_id":"{\"1\": 50}","headsign":"{}","duration_avg":240,"n_vehicles":50,"d":2400,"route_I_counts":"{\"2\": 50}","source":30,"target":29,"layer":"L","from":"厦门马青路(地铁站)","to":"厦门翁角路(地铁站)"},"geometry":{"type":"LineString","coordinates":[[118.025208,24.49661],[118.009632,24.528928]]}},{"type":"Feature","properties":{"shape_id":"{}","direction_id":"{\"0\": 50}","headsign":"{}","duration_avg":120,"n_vehicles":50,"d":1200,"route_I_counts":"{\"2\": 50}","source":30,"target":31,"layer":"L","from":"厦门马青路(地铁站)","to":"厦门海沧行政中心(地铁站)"},"geometry":{"type":"LineString","coordinates":[[118.025208,24.49661],[118.028195,24.490263]]}},{"type":"Feature","properties":{"shape_id":"{}","direction_id":"{\"1\": 50}","headsign":"{}","duration_avg":120,"n_vehicles":50,"d":1200,"route_I_counts":"{\"2\": 50}","source":31,"target":30,"layer":"L","from":"厦门海沧行政中心(地铁站)","to":"厦门马青路(地铁站)"},"geometry":{"type":"LineString","coordinates":[[118.028195,24.490263],[118.025208,24.49661]]}},{"type":"Feature","properties":{"shape_id":"{}","direction_id":"{\"0\": 50}","headsign":"{}","duration_avg":120,"n_vehicles":50,"d":1200,"route_I_counts":"{\"2\": 50}","source":31,"target":32,"layer":"L","from":"厦门海沧行政中心(地铁站)","to":"厦门海沧商务中心(地铁站)"},"geometry":{"type":"LineString","coordinates":[[118.028195,24.490263],[118.034442,24.483609]]}},{"type":"Feature","properties":{"shape_id":"{}","direction_id":"{\"1\": 50}","headsign":"{}","duration_avg":120,"n_vehicles":50,"d":1200,"route_I_counts":"{\"2\": 50}","source":32,"target":31,"layer":"L","from":"厦门海沧商务中心(地铁站)","to":"厦门海沧行政中心(地铁站)"},"geometry":{"type":"LineString","coordinates":[[118.034442,24.483609],[118.028195,24.490263]]}},{"type":"Feature","properties":{"shape_id":"{}","direction_id":"{\"0\": 50}","headsign":"{}","duration_avg":120,"n_vehicles":50,"d":1200,"route_I_counts":"{\"2\": 50}","source":32,"target":33,"layer":"L","from":"厦门海沧商务中心(地铁站)","to":"厦门海沧湾公园(地铁站)"},"geometry":{"type":"LineString","coordinates":[[118.034442,24.483609],[118.045344,24.487344]]}},{"type":"Feature","properties":{"shape_id":"{}","direction_id":"{\"1\": 50}","headsign":"{}","duration_avg":120,"n_vehicles":50,"d":1200,"route_I_counts":"{\"2\": 50}","source":33,"target":32,"layer":"L","from":"厦门海沧湾公园(地铁站)","to":"厦门海沧商务中心(地铁站)"},"geometry":{"type":"LineString","coordinates":[[118.045344,24.487344],[118.034442,24.483609]]}},{"type":"Feature","properties":{"shape_id":"{}","direction_id":"{\"0\": 50}","headsign":"{}","duration_avg":240,"n_vehicles":50,"d":2400,"route_I_counts":"{\"2\": 50}","source":33,"target":34,"layer":"L","from":"厦门海沧湾公园(地铁站)","to":"厦门邮轮中心(地铁站)"},"geometry":{"type":"LineString","coordinates":[[118.045344,24.487344],[118.072181,24.487614]]}},{"type":"Feature","properties":{"shape_id":"{}","direction_id":"{\"1\": 50}","headsign":"{}","duration_avg":240,"n_vehicles":50,"d":2400,"route_I_counts":"{\"2\": 50}","source":34,"target":33,"layer":"L","from":"厦门邮轮中心(地铁站)","to":"厦门海沧湾公园(地铁站)"},"geometry":{"type":"LineString","coordinates":[[118.072181,24.487614],[118.045344,24.487344]]}},{"type":"Feature","properties":{"shape_id":"{}","direction_id":"{\"0\": 50}","headsign":"{}","duration_avg":120,"n_vehicles":50,"d":1200,"route_I_counts":"{\"2\": 50}","source":34,"target":35,"layer":"L","from":"厦门邮轮中心(地铁站)","to":"厦门建业路(地铁站)"},"geometry":{"type":"LineString","coordinates":[[118.072181,24.487614],[118.078667,24.480753]]}},{"type":"Feature","properties":{"shape_id":"{}","direction_id":"{\"1\": 50}","headsign":"{}","duration_avg":120,"n_vehicles":50,"d":1200,"route_I_counts":"{\"2\": 50}","source":35,"target":34,"layer":"L","from":"厦门建业路(地铁站)","to":"厦门邮轮中心(地铁站)"},"geometry":{"type":"LineString","coordinates":[[118.078667,24.480753],[118.072181,24.487614]]}},{"type":"Feature","properties":{"shape_id":"{}","direction_id":"{\"0\": 50}","headsign":"{}","duration_avg":120,"n_vehicles":50,"d":1200,"route_I_counts":"{\"2\": 50}","source":35,"target":36,"layer":"L","from":"厦门建业路(地铁站)","to":"厦门湖滨中路(地铁站)"},"geometry":{"type":"LineString","coordinates":[[118.078667,24.480753],[118.089768,24.483153]]}},{"type":"Feature","properties":{"shape_id":"{}","direction_id":"{\"1\": 50}","headsign":"{}","duration_avg":120,"n_vehicles":50,"d":1200,"route_I_counts":"{\"2\": 50}","source":36,"target":35,"layer":"L","from":"厦门湖滨中路(地铁站)","to":"厦门建业路(地铁站)"},"geometry":{"type":"LineString","coordinates":[[118.089768,24.483153],[118.078667,24.480753]]}},{"type":"Feature","properties":{"shape_id":"{}","direction_id":"{\"0\": 50}","headsign":"{}","duration_avg":180,"n_vehicles":50,"d":1800,"route_I_counts":"{\"2\": 50}","source":36,"target":37,"layer":"L","from":"厦门湖滨中路(地铁站)","to":"厦门体育中心(地铁站)"},"geometry":{"type":"LineString","coordinates":[[118.089768,24.483153],[118.101212,24.486377]]}},{"type":"Feature","properties":{"shape_id":"{}","direction_id":"{\"1\": 50}","headsign":"{}","duration_avg":180,"n_vehicles":50,"d":1800,"route_I_counts":"{\"2\": 50}","source":37,"target":36,"layer":"L","from":"厦门体育中心(地铁站)","to":"厦门湖滨中路(地铁站)"},"geometry":{"type":"LineString","coordinates":[[118.101212,24.486377],[118.089768,24.483153]]}},{"type":"Feature","properties":{"shape_id":"{}","direction_id":"{\"0\": 50}","headsign":"{}","duration_avg":60,"n_vehicles":50,"d":600,"route_I_counts":"{\"2\": 50}","source":37,"target":38,"layer":"L","from":"厦门体育中心(地铁站)","to":"厦门育秀东路(地铁站)"},"geometry":{"type":"LineString","coordinates":[[118.101212,24.486377],[118.108097,24.488168]]}},{"type":"Feature","properties":{"shape_id":"{}","direction_id":"{\"1\": 50}","headsign":"{}","duration_avg":60,"n_vehicles":50,"d":600,"route_I_counts":"{\"2\": 50}","source":38,"target":37,"layer":"L","from":"厦门育秀东路(地铁站)","to":"厦门体育中心(地铁站)"},"geometry":{"type":"LineString","coordinates":[[118.108097,24.488168],[118.101212,24.486377]]}},{"type":"Feature","properties":{"shape_id":"{}","direction_id":"{\"0\": 50}","headsign":"{}","duration_avg":180,"n_vehicles":50,"d":1800,"route_I_counts":"{\"2\": 50}","source":38,"target":7,"layer":"L","from":"厦门育秀东路(地铁站)","to":"厦门吕厝(地铁站)"},"geometry":{"type":"LineString","coordinates":[[118.108097,24.488168],[118.123016,24.493345]]}},{"type":"Feature","properties":{"shape_id":"{}","direction_id":"{\"1\": 50}","headsign":"{}","duration_avg":180,"n_vehicles":50,"d":1800,"route_I_counts":"{\"2\": 50}","source":7,"target":38,"layer":"L","from":"厦门吕厝(地铁站)","to":"厦门育秀东路(地铁站)"},"geometry":{"type":"LineString","coordinates":[[118.123016,24.493345],[118.108097,24.488168]]}},{"type":"Feature","properties":{"shape_id":"{}","direction_id":"{\"0\": 50}","headsign":"{}","duration_avg":120,"n_vehicles":50,"d":1200,"route_I_counts":"{\"2\": 50}","source":7,"target":39,"layer":"L","from":"厦门吕厝(地铁站)","to":"厦门江头(地铁站)"},"geometry":{"type":"LineString","coordinates":[[118.123016,24.493345],[118.132987,24.495002]]}},{"type":"Feature","properties":{"shape_id":"{}","direction_id":"{\"1\": 50}","headsign":"{}","duration_avg":120,"n_vehicles":50,"d":1200,"route_I_counts":"{\"2\": 50}","source":39,"target":7,"layer":"L","from":"厦门江头(地铁站)","to":"厦门吕厝(地铁站)"},"geometry":{"type":"LineString","coordinates":[[118.132987,24.495002],[118.123016,24.493345]]}},{"type":"Feature","properties":{"shape_id":"{}","direction_id":"{\"0\": 50}","headsign":"{}","duration_avg":120,"n_vehicles":50,"d":1200,"route_I_counts":"{\"2\": 50}","source":39,"target":40,"layer":"L","from":"厦门江头(地铁站)","to":"厦门后埔(地铁站)"},"geometry":{"type":"LineString","coordinates":[[118.132987,24.495002],[118.140933,24.492445]]}},{"type":"Feature","properties":{"shape_id":"{}","direction_id":"{\"1\": 50}","headsign":"{}","duration_avg":120,"n_vehicles":50,"d":1200,"route_I_counts":"{\"2\": 50}","source":40,"target":39,"layer":"L","from":"厦门后埔(地铁站)","to":"厦门江头(地铁站)"},"geometry":{"type":"LineString","coordinates":[[118.140933,24.492445],[118.132987,24.495002]]}},{"type":"Feature","properties":{"shape_id":"{}","direction_id":"{\"0\": 50}","headsign":"{}","duration_avg":120,"n_vehicles":50,"d":1200,"route_I_counts":"{\"2\": 50}","source":40,"target":41,"layer":"L","from":"厦门后埔(地铁站)","to":"厦门蔡塘(地铁站)"},"geometry":{"type":"LineString","coordinates":[[118.140933,24.492445],[118.148594,24.489859]]}},{"type":"Feature","properties":{"shape_id":"{}","direction_id":"{\"1\": 50}","headsign":"{}","duration_avg":120,"n_vehicles":50,"d":1200,"route_I_counts":"{\"2\": 50}","source":41,"target":40,"layer":"L","from":"厦门蔡塘(地铁站)","to":"厦门后埔(地铁站)"},"geometry":{"type":"LineString","coordinates":[[118.148594,24.489859],[118.140933,24.492445]]}},{"type":"Feature","properties":{"shape_id":"{}","direction_id":"{\"0\": 50}","headsign":"{}","duration_avg":120,"n_vehicles":50,"d":1200,"route_I_counts":"{\"2\": 50}","source":41,"target":42,"layer":"L","from":"厦门蔡塘(地铁站)","to":"厦门古地石(地铁站)"},"geometry":{"type":"LineString","coordinates":[[118.148594,24.489859],[118.158783,24.488365]]}},{"type":"Feature","properties":{"shape_id":"{}","direction_id":"{\"1\": 50}","headsign":"{}","duration_avg":120,"n_vehicles":50,"d":1200,"route_I_counts":"{\"2\": 50}","source":42,"target":41,"layer":"L","from":"厦门古地石(地铁站)","to":"厦门蔡塘(地铁站)"},"geometry":{"type":"LineString","coordinates":[[118.158783,24.488365],[118.148594,24.489859]]}},{"type":"Feature","properties":{"shape_id":"{}","direction_id":"{\"0\": 50}","headsign":"{}","duration_avg":120,"n_vehicles":50,"d":1200,"route_I_counts":"{\"2\": 50}","source":42,"target":43,"layer":"L","from":"厦门古地石(地铁站)","to":"厦门岭兜(地铁站)"},"geometry":{"type":"LineString","coordinates":[[118.158783,24.488365],[118.169023,24.487044]]}},{"type":"Feature","properties":{"shape_id":"{}","direction_id":"{\"1\": 50}","headsign":"{}","duration_avg":120,"n_vehicles":50,"d":1200,"route_I_counts":"{\"2\": 50}","source":43,"target":42,"layer":"L","from":"厦门岭兜(地铁站)","to":"厦门古地石(地铁站)"},"geometry":{"type":"LineString","coordinates":[[118.169023,24.487044],[118.158783,24.488365]]}},{"type":"Feature","properties":{"shape_id":"{}","direction_id":"{\"0\": 50}","headsign":"{}","duration_avg":120,"n_vehicles":50,"d":1200,"route_I_counts":"{\"2\": 50}","source":43,"target":44,"layer":"L","from":"厦门岭兜(地铁站)","to":"厦门软件园二期(地铁站)"},"geometry":{"type":"LineString","coordinates":[[118.169023,24.487044],[118.180355,24.483283]]}},{"type":"Feature","properties":{"shape_id":"{}","direction_id":"{\"1\": 50}","headsign":"{}","duration_avg":120,"n_vehicles":50,"d":1200,"route_I_counts":"{\"2\": 50}","source":44,"target":43,"layer":"L","from":"厦门软件园二期(地铁站)","to":"厦门岭兜(地铁站)"},"geometry":{"type":"LineString","coordinates":[[118.180355,24.483283],[118.169023,24.487044]]}},{"type":"Feature","properties":{"shape_id":"{}","direction_id":"{\"0\": 50}","headsign":"{}","duration_avg":120,"n_vehicles":50,"d":1200,"route_I_counts":"{\"2\": 50}","source":44,"target":45,"layer":"L","from":"厦门软件园二期(地铁站)","to":"厦门何厝(地铁站)"},"geometry":{"type":"LineString","coordinates":[[118.180355,24.483283],[118.187879,24.487975]]}},{"type":"Feature","properties":{"shape_id":"{}","direction_id":"{\"1\": 50}","headsign":"{}","duration_avg":120,"n_vehicles":50,"d":1200,"route_I_counts":"{\"2\": 50}","source":45,"target":44,"layer":"L","from":"厦门何厝(地铁站)","to":"厦门软件园二期(地铁站)"},"geometry":{"type":"LineString","coordinates":[[118.187879,24.487975],[118.180355,24.483283]]}},{"type":"Feature","properties":{"shape_id":"{}","direction_id":"{\"0\": 50}","headsign":"{}","duration_avg":120,"n_vehicles":50,"d":1200,"route_I_counts":"{\"2\": 50}","source":45,"target":46,"layer":"L","from":"厦门何厝(地铁站)","to":"厦门观音山(地铁站)"},"geometry":{"type":"LineString","coordinates":[[118.187879,24.487975],[118.187998,24.496317]]}},{"type":"Feature","properties":{"shape_id":"{}","direction_id":"{\"1\": 50}","headsign":"{}","duration_avg":120,"n_vehicles":50,"d":1200,"route_I_counts":"{\"2\": 50}","source":46,"target":45,"layer":"L","from":"厦门观音山(地铁站)","to":"厦门何厝(地铁站)"},"geometry":{"type":"LineString","coordinates":[[118.187998,24.496317],[118.187879,24.487975]]}},{"type":"Feature","properties":{"shape_id":"{}","direction_id":"{\"0\": 50}","headsign":"{}","duration_avg":120,"n_vehicles":50,"d":1200,"route_I_counts":"{\"2\": 50}","source":46,"target":47,"layer":"L","from":"厦门观音山(地铁站)","to":"厦门东宅(地铁站)"},"geometry":{"type":"LineString","coordinates":[[118.187998,24.496317],[118.188113,24.50205]]}},{"type":"Feature","properties":{"shape_id":"{}","direction_id":"{\"1\": 50}","headsign":"{}","duration_avg":120,"n_vehicles":50,"d":1200,"route_I_counts":"{\"2\": 50}","source":47,"target":46,"layer":"L","from":"厦门东宅(地铁站)","to":"厦门观音山(地铁站)"},"geometry":{"type":"LineString","coordinates":[[118.188113,24.50205],[118.187998,24.496317]]}},{"type":"Feature","properties":{"shape_id":"{}","direction_id":"{\"0\": 50}","headsign":"{}","duration_avg":60,"n_vehicles":50,"d":600,"route_I_counts":"{\"2\": 50}","source":47,"target":48,"layer":"L","from":"厦门东宅(地铁站)","to":"厦门两岸金融中心(地铁站)"},"geometry":{"type":"LineString","coordinates":[[118.188113,24.50205],[118.189202,24.508235]]}},{"type":"Feature","properties":{"shape_id":"{}","direction_id":"{\"1\": 50}","headsign":"{}","duration_avg":60,"n_vehicles":50,"d":600,"route_I_counts":"{\"2\": 50}","source":48,"target":47,"layer":"L","from":"厦门两岸金融中心(地铁站)","to":"厦门东宅(地铁站)"},"geometry":{"type":"LineString","coordinates":[[118.189202,24.508235],[118.188113,24.50205]]}},{"type":"Feature","properties":{"shape_id":"{}","direction_id":"{\"0\": 50}","headsign":"{}","duration_avg":120,"n_vehicles":50,"d":1200,"route_I_counts":"{\"2\": 50}","source":48,"target":49,"layer":"L","from":"厦门两岸金融中心(地铁站)","to":"厦门五通(地铁站)"},"geometry":{"type":"LineString","coordinates":[[118.189202,24.508235],[118.184763,24.514388]]}},{"type":"Feature","properties":{"shape_id":"{}","direction_id":"{\"1\": 50}","headsign":"{}","duration_avg":120,"n_vehicles":50,"d":1200,"route_I_counts":"{\"2\": 50}","source":49,"target":48,"layer":"L","from":"厦门五通(地铁站)","to":"厦门两岸金融中心(地铁站)"},"geometry":{"type":"LineString","coordinates":[[118.184763,24.514388],[118.189202,24.508235]]}},{"type":"Feature","properties":{"shape_id":"{}","direction_id":"{\"0\": 50}","headsign":"{}","duration_avg":120,"n_vehicles":50,"d":1200,"route_I_counts":"{\"2\": 50}","source":49,"target":50,"layer":"L","from":"厦门五通(地铁站)","to":"厦门湿地公园(地铁站)"},"geometry":{"type":"LineString","coordinates":[[118.184763,24.514388],[118.178762,24.519238]]}},{"type":"Feature","properties":{"shape_id":"{}","direction_id":"{\"1\": 50}","headsign":"{}","duration_avg":120,"n_vehicles":50,"d":1200,"route_I_counts":"{\"2\": 50}","source":50,"target":49,"layer":"L","from":"厦门湿地公园(地铁站)","to":"厦门五通(地铁站)"},"geometry":{"type":"LineString","coordinates":[[118.178762,24.519238],[118.184763,24.514388]]}},{"type":"Feature","properties":{"shape_id":"{}","direction_id":"{\"0\": 50}","headsign":"{}","duration_avg":120,"n_vehicles":50,"d":1200,"route_I_counts":"{\"2\": 50}","source":50,"target":51,"layer":"L","from":"厦门湿地公园(地铁站)","to":"厦门钟宅(地铁站)"},"geometry":{"type":"LineString","coordinates":[[118.178762,24.519238],[118.168192,24.52667]]}},{"type":"Feature","properties":{"shape_id":"{}","direction_id":"{\"1\": 50}","headsign":"{}","duration_avg":120,"n_vehicles":50,"d":1200,"route_I_counts":"{\"2\": 50}","source":51,"target":50,"layer":"L","from":"厦门钟宅(地铁站)","to":"厦门湿地公园(地铁站)"},"geometry":{"type":"LineString","coordinates":[[118.168192,24.52667],[118.178762,24.519238]]}},{"type":"Feature","properties":{"shape_id":"{}","direction_id":"{\"0\": 50}","headsign":"{}","duration_avg":120,"n_vehicles":50,"d":1200,"route_I_counts":"{\"2\": 50}","source":51,"target":52,"layer":"L","from":"厦门钟宅(地铁站)","to":"厦门五缘湾(地铁站)"},"geometry":{"type":"LineString","coordinates":[[118.168192,24.52667],[118.162209,24.535211]]}},{"type":"Feature","properties":{"shape_id":"{}","direction_id":"{\"1\": 50}","headsign":"{}","duration_avg":120,"n_vehicles":50,"d":1200,"route_I_counts":"{\"2\": 50}","source":52,"target":51,"layer":"L","from":"厦门五缘湾(地铁站)","to":"厦门钟宅(地铁站)"},"geometry":{"type":"LineString","coordinates":[[118.162209,24.535211],[118.168192,24.52667]]}},{"type":"Feature","properties":{"shape_id":"{}","direction_id":"{\"0\": 50}","headsign":"{}","duration_avg":120,"n_vehicles":50,"d":1200,"route_I_counts":"{\"2\": 50}","source":27,"target":53,"layer":"L","from":"厦门新阳大道(地铁站)","to":"厦门马銮中心(地铁站)"},"geometry":{"type":"LineString","coordinates":[[117.990503,24.540037],[117.982918,24.548917]]}},{"type":"Feature","properties":{"shape_id":"{}","direction_id":"{\"1\": 50}","headsign":"{}","duration_avg":120,"n_vehicles":50,"d":1200,"route_I_counts":"{\"2\": 50}","source":53,"target":27,"layer":"L","from":"厦门马銮中心(地铁站)","to":"厦门新阳大道(地铁站)"},"geometry":{"type":"LineString","coordinates":[[117.982918,24.548917],[117.990503,24.540037]]}},{"type":"Feature","properties":{"shape_id":"{}","direction_id":"{\"0\": 50}","headsign":"{}","duration_avg":120,"n_vehicles":50,"d":1200,"route_I_counts":"{\"2\": 50}","source":53,"target":54,"layer":"L","from":"厦门马銮中心(地铁站)","to":"厦门鼎美(地铁站)"},"geometry":{"type":"LineString","coordinates":[[117.982918,24.548917],[117.96954,24.54995]]}},{"type":"Feature","properties":{"shape_id":"{}","direction_id":"{\"1\": 50}","headsign":"{}","duration_avg":120,"n_vehicles":50,"d":1200,"route_I_counts":"{\"2\": 50}","source":54,"target":53,"layer":"L","from":"厦门鼎美(地铁站)","to":"厦门马銮中心(地铁站)"},"geometry":{"type":"LineString","coordinates":[[117.96954,24.54995],[117.982918,24.548917]]}},{"type":"Feature","properties":{"shape_id":"{}","direction_id":"{\"0\": 50}","headsign":"{}","duration_avg":120,"n_vehicles":50,"d":1200,"route_I_counts":"{\"2\": 50}","source":54,"target":26,"layer":"L","from":"厦门鼎美(地铁站)","to":"厦门东瑶(地铁站)"},"geometry":{"type":"LineString","coordinates":[[117.96954,24.54995],[117.957054,24.552576]]}},{"type":"Feature","properties":{"shape_id":"{}","direction_id":"{\"1\": 50}","headsign":"{}","duration_avg":120,"n_vehicles":50,"d":1200,"route_I_counts":"{\"2\": 50}","source":26,"target":54,"layer":"L","from":"厦门东瑶(地铁站)","to":"厦门鼎美(地铁站)"},"geometry":{"type":"LineString","coordinates":[[117.957054,24.552576],[117.96954,24.54995]]}},{"type":"Feature","properties":{"shape_id":"{}","direction_id":"{\"0\": 50}","headsign":"{}","duration_avg":120,"n_vehicles":50,"d":1200,"route_I_counts":"{\"3\": 50}","source":55,"target":56,"layer":"L","from":"厦门蔡厝(地铁站)","to":"厦门后村(地铁站)"},"geometry":{"type":"LineString","coordinates":[[118.274405,24.575449],[118.266834,24.58299]]}},{"type":"Feature","properties":{"shape_id":"{}","direction_id":"{\"1\": 50}","headsign":"{}","duration_avg":120,"n_vehicles":50,"d":1200,"route_I_counts":"{\"3\": 50}","source":56,"target":55,"layer":"L","from":"厦门后村(地铁站)","to":"厦门蔡厝(地铁站)"},"geometry":{"type":"LineString","coordinates":[[118.266834,24.58299],[118.274405,24.575449]]}},{"type":"Feature","properties":{"shape_id":"{}","direction_id":"{\"0\": 50}","headsign":"{}","duration_avg":60,"n_vehicles":50,"d":600,"route_I_counts":"{\"3\": 50}","source":56,"target":57,"layer":"L","from":"厦门后村(地铁站)","to":"厦门浦边(地铁站)"},"geometry":{"type":"LineString","coordinates":[[118.266834,24.58299],[118.258538,24.583082]]}},{"type":"Feature","properties":{"shape_id":"{}","direction_id":"{\"1\": 50}","headsign":"{}","duration_avg":60,"n_vehicles":50,"d":600,"route_I_counts":"{\"3\": 50}","source":57,"target":56,"layer":"L","from":"厦门浦边(地铁站)","to":"厦门后村(地铁站)"},"geometry":{"type":"LineString","coordinates":[[118.258538,24.583082],[118.266834,24.58299]]}},{"type":"Feature","properties":{"shape_id":"{}","direction_id":"{\"0\": 50}","headsign":"{}","duration_avg":120,"n_vehicles":50,"d":1200,"route_I_counts":"{\"3\": 50}","source":57,"target":58,"layer":"L","from":"厦门浦边(地铁站)","to":"厦门翔安市民公园(地铁站)"},"geometry":{"type":"LineString","coordinates":[[118.258538,24.583082],[118.248809,24.581608]]}},{"type":"Feature","properties":{"shape_id":"{}","direction_id":"{\"1\": 50}","headsign":"{}","duration_avg":120,"n_vehicles":50,"d":1200,"route_I_counts":"{\"3\": 50}","source":58,"target":57,"layer":"L","from":"厦门翔安市民公园(地铁站)","to":"厦门浦边(地铁站)"},"geometry":{"type":"LineString","coordinates":[[118.248809,24.581608],[118.258538,24.583082]]}},{"type":"Feature","properties":{"shape_id":"{}","direction_id":"{\"0\": 50}","headsign":"{}","duration_avg":120,"n_vehicles":50,"d":1200,"route_I_counts":"{\"3\": 50}","source":58,"target":59,"layer":"L","from":"厦门翔安市民公园(地铁站)","to":"厦门鼓锣(地铁站)"},"geometry":{"type":"LineString","coordinates":[[118.248809,24.581608],[118.239455,24.581313]]}},{"type":"Feature","properties":{"shape_id":"{}","direction_id":"{\"1\": 50}","headsign":"{}","duration_avg":120,"n_vehicles":50,"d":1200,"route_I_counts":"{\"3\": 50}","source":59,"target":58,"layer":"L","from":"厦门鼓锣(地铁站)","to":"厦门翔安市民公园(地铁站)"},"geometry":{"type":"LineString","coordinates":[[118.239455,24.581313],[118.248809,24.581608]]}},{"type":"Feature","properties":{"shape_id":"{}","direction_id":"{\"0\": 50}","headsign":"{}","duration_avg":120,"n_vehicles":50,"d":1200,"route_I_counts":"{\"3\": 50}","source":59,"target":60,"layer":"L","from":"厦门鼓锣(地铁站)","to":"厦门林前(地铁站)"},"geometry":{"type":"LineString","coordinates":[[118.239455,24.581313],[118.227242,24.578882]]}},{"type":"Feature","properties":{"shape_id":"{}","direction_id":"{\"1\": 50}","headsign":"{}","duration_avg":120,"n_vehicles":50,"d":1200,"route_I_counts":"{\"3\": 50}","source":60,"target":59,"layer":"L","from":"厦门林前(地铁站)","to":"厦门鼓锣(地铁站)"},"geometry":{"type":"LineString","coordinates":[[118.227242,24.578882],[118.239455,24.581313]]}},{"type":"Feature","properties":{"shape_id":"{}","direction_id":"{\"0\": 50}","headsign":"{}","duration_avg":120,"n_vehicles":50,"d":1200,"route_I_counts":"{\"3\": 50}","source":60,"target":61,"layer":"L","from":"厦门林前(地铁站)","to":"厦门洪坑(地铁站)"},"geometry":{"type":"LineString","coordinates":[[118.227242,24.578882],[118.221433,24.573898]]}},{"type":"Feature","properties":{"shape_id":"{}","direction_id":"{\"1\": 50}","headsign":"{}","duration_avg":120,"n_vehicles":50,"d":1200,"route_I_counts":"{\"3\": 50}","source":61,"target":60,"layer":"L","from":"厦门洪坑(地铁站)","to":"厦门林前(地铁站)"},"geometry":{"type":"LineString","coordinates":[[118.221433,24.573898],[118.227242,24.578882]]}},{"type":"Feature","properties":{"shape_id":"{}","direction_id":"{\"0\": 50}","headsign":"{}","duration_avg":120,"n_vehicles":50,"d":1200,"route_I_counts":"{\"3\": 50}","source":61,"target":62,"layer":"L","from":"厦门洪坑(地铁站)","to":"厦门东界(地铁站)"},"geometry":{"type":"LineString","coordinates":[[118.221433,24.573898],[118.214708,24.567665]]}},{"type":"Feature","properties":{"shape_id":"{}","direction_id":"{\"1\": 50}","headsign":"{}","duration_avg":120,"n_vehicles":50,"d":1200,"route_I_counts":"{\"3\": 50}","source":62,"target":61,"layer":"L","from":"厦门东界(地铁站)","to":"厦门洪坑(地铁站)"},"geometry":{"type":"LineString","coordinates":[[118.214708,24.567665],[118.221433,24.573898]]}},{"type":"Feature","properties":{"shape_id":"{}","direction_id":"{\"0\": 50}","headsign":"{}","duration_avg":120,"n_vehicles":50,"d":1200,"route_I_counts":"{\"3\": 50}","source":62,"target":63,"layer":"L","from":"厦门东界(地铁站)","to":"厦门国际博览中心(地铁站)"},"geometry":{"type":"LineString","coordinates":[[118.214708,24.567665],[118.203668,24.559188]]}},{"type":"Feature","properties":{"shape_id":"{}","direction_id":"{\"1\": 50}","headsign":"{}","duration_avg":120,"n_vehicles":50,"d":1200,"route_I_counts":"{\"3\": 50}","source":63,"target":62,"layer":"L","from":"厦门国际博览中心(地铁站)","to":"厦门东界(地铁站)"},"geometry":{"type":"LineString","coordinates":[[118.203668,24.559188],[118.214708,24.567665]]}},{"type":"Feature","properties":{"shape_id":"{}","direction_id":"{\"0\": 50}","headsign":"{}","duration_avg":300,"n_vehicles":50,"d":3000,"route_I_counts":"{\"3\": 50}","source":63,"target":52,"layer":"L","from":"厦门国际博览中心(地铁站)","to":"厦门五缘湾(地铁站)"},"geometry":{"type":"LineString","coordinates":[[118.203668,24.559188],[118.162209,24.535211]]}},{"type":"Feature","properties":{"shape_id":"{}","direction_id":"{\"1\": 50}","headsign":"{}","duration_avg":300,"n_vehicles":50,"d":3000,"route_I_counts":"{\"3\": 50}","source":52,"target":63,"layer":"L","from":"厦门五缘湾(地铁站)","to":"厦门国际博览中心(地铁站)"},"geometry":{"type":"LineString","coordinates":[[118.162209,24.535211],[118.203668,24.559188]]}},{"type":"Feature","properties":{"shape_id":"{}","direction_id":"{\"0\": 50}","headsign":"{}","duration_avg":120,"n_vehicles":50,"d":1200,"route_I_counts":"{\"3\": 50}","source":52,"target":64,"layer":"L","from":"厦门五缘湾(地铁站)","to":"厦门湖里创新园(地铁站)"},"geometry":{"type":"LineString","coordinates":[[118.162209,24.535211],[118.151264,24.525652]]}},{"type":"Feature","properties":{"shape_id":"{}","direction_id":"{\"1\": 50}","headsign":"{}","duration_avg":120,"n_vehicles":50,"d":1200,"route_I_counts":"{\"3\": 50}","source":64,"target":52,"layer":"L","from":"厦门湖里创新园(地铁站)","to":"厦门五缘湾(地铁站)"},"geometry":{"type":"LineString","coordinates":[[118.151264,24.525652],[118.162209,24.535211]]}},{"type":"Feature","properties":{"shape_id":"{}","direction_id":"{\"0\": 50}","headsign":"{}","duration_avg":120,"n_vehicles":50,"d":1200,"route_I_counts":"{\"3\": 50}","source":64,"target":65,"layer":"L","from":"厦门湖里创新园(地铁站)","to":"厦门坂尚(地铁站)"},"geometry":{"type":"LineString","coordinates":[[118.151264,24.525652],[118.141836,24.521902]]}},{"type":"Feature","properties":{"shape_id":"{}","direction_id":"{\"1\": 50}","headsign":"{}","duration_avg":120,"n_vehicles":50,"d":1200,"route_I_counts":"{\"3\": 50}","source":65,"target":64,"layer":"L","from":"厦门坂尚(地铁站)","to":"厦门湖里创新园(地铁站)"},"geometry":{"type":"LineString","coordinates":[[118.141836,24.521902],[118.151264,24.525652]]}},{"type":"Feature","properties":{"shape_id":"{}","direction_id":"{\"0\": 50}","headsign":"{}","duration_avg":180,"n_vehicles":50,"d":1800,"route_I_counts":"{\"3\": 50}","source":65,"target":66,"layer":"L","from":"厦门坂尚(地铁站)","to":"厦门安兜(地铁站)"},"geometry":{"type":"LineString","coordinates":[[118.141836,24.521902],[118.13346,24.520483]]}},{"type":"Feature","properties":{"shape_id":"{}","direction_id":"{\"1\": 50}","headsign":"{}","duration_avg":180,"n_vehicles":50,"d":1800,"route_I_counts":"{\"3\": 50}","source":66,"target":65,"layer":"L","from":"厦门安兜(地铁站)","to":"厦门坂尚(地铁站)"},"geometry":{"type":"LineString","coordinates":[[118.13346,24.520483],[118.141836,24.521902]]}},{"type":"Feature","properties":{"shape_id":"{}","direction_id":"{\"0\": 50}","headsign":"{}","duration_avg":120,"n_vehicles":50,"d":1200,"route_I_counts":"{\"3\": 50}","source":66,"target":67,"layer":"L","from":"厦门安兜(地铁站)","to":"厦门小东山(地铁站)"},"geometry":{"type":"LineString","coordinates":[[118.13346,24.520483],[118.121018,24.516782]]}},{"type":"Feature","properties":{"shape_id":"{}","direction_id":"{\"1\": 50}","headsign":"{}","duration_avg":120,"n_vehicles":50,"d":1200,"route_I_counts":"{\"3\": 50}","source":67,"target":66,"layer":"L","from":"厦门小东山(地铁站)","to":"厦门安兜(地铁站)"},"geometry":{"type":"LineString","coordinates":[[118.121018,24.516782],[118.13346,24.520483]]}},{"type":"Feature","properties":{"shape_id":"{}","direction_id":"{\"0\": 50}","headsign":"{}","duration_avg":60,"n_vehicles":50,"d":600,"route_I_counts":"{\"3\": 50}","source":67,"target":10,"layer":"L","from":"厦门小东山(地铁站)","to":"厦门火炬园(地铁站)"},"geometry":{"type":"LineString","coordinates":[[118.121018,24.516782],[118.11382,24.514537]]}},{"type":"Feature","properties":{"shape_id":"{}","direction_id":"{\"1\": 50}","headsign":"{}","duration_avg":60,"n_vehicles":50,"d":600,"route_I_counts":"{\"3\": 50}","source":10,"target":67,"layer":"L","from":"厦门火炬园(地铁站)","to":"厦门小东山(地铁站)"},"geometry":{"type":"LineString","coordinates":[[118.11382,24.514537],[118.121018,24.516782]]}},{"type":"Feature","properties":{"shape_id":"{}","direction_id":"{\"0\": 50}","headsign":"{}","duration_avg":120,"n_vehicles":50,"d":1200,"route_I_counts":"{\"3\": 50}","source":10,"target":68,"layer":"L","from":"厦门火炬园(地铁站)","to":"厦门华荣路(地铁站)"},"geometry":{"type":"LineString","coordinates":[[118.11382,24.514537],[118.104319,24.514168]]}},{"type":"Feature","properties":{"shape_id":"{}","direction_id":"{\"1\": 50}","headsign":"{}","duration_avg":120,"n_vehicles":50,"d":1200,"route_I_counts":"{\"3\": 50}","source":68,"target":10,"layer":"L","from":"厦门华荣路(地铁站)","to":"厦门火炬园(地铁站)"},"geometry":{"type":"LineString","coordinates":[[118.104319,24.514168],[118.11382,24.514537]]}},{"type":"Feature","properties":{"shape_id":"{}","direction_id":"{\"0\": 50}","headsign":"{}","duration_avg":120,"n_vehicles":50,"d":1200,"route_I_counts":"{\"3\": 50}","source":68,"target":69,"layer":"L","from":"厦门华荣路(地铁站)","to":"厦门湖里公园(地铁站)"},"geometry":{"type":"LineString","coordinates":[[118.104319,24.514168],[118.100545,24.509382]]}},{"type":"Feature","properties":{"shape_id":"{}","direction_id":"{\"1\": 50}","headsign":"{}","duration_avg":120,"n_vehicles":50,"d":1200,"route_I_counts":"{\"3\": 50}","source":69,"target":68,"layer":"L","from":"厦门湖里公园(地铁站)","to":"厦门华荣路(地铁站)"},"geometry":{"type":"LineString","coordinates":[[118.100545,24.509382],[118.104319,24.514168]]}},{"type":"Feature","properties":{"shape_id":"{}","direction_id":"{\"0\": 50}","headsign":"{}","duration_avg":180,"n_vehicles":50,"d":1800,"route_I_counts":"{\"3\": 50}","source":69,"target":70,"layer":"L","from":"厦门湖里公园(地铁站)","to":"厦门人才中心(地铁站)"},"geometry":{"type":"LineString","coordinates":[[118.100545,24.509382],[118.098305,24.491843]]}},{"type":"Feature","properties":{"shape_id":"{}","direction_id":"{\"1\": 50}","headsign":"{}","duration_avg":180,"n_vehicles":50,"d":1800,"route_I_counts":"{\"3\": 50}","source":70,"target":69,"layer":"L","from":"厦门人才中心(地铁站)","to":"厦门湖里公园(地铁站)"},"geometry":{"type":"LineString","coordinates":[[118.098305,24.491843],[118.100545,24.509382]]}},{"type":"Feature","properties":{"shape_id":"{}","direction_id":"{\"0\": 50}","headsign":"{}","duration_avg":120,"n_vehicles":50,"d":1200,"route_I_counts":"{\"3\": 50}","source":70,"target":37,"layer":"L","from":"厦门人才中心(地铁站)","to":"厦门体育中心(地铁站)"},"geometry":{"type":"LineString","coordinates":[[118.098305,24.491843],[118.101212,24.486377]]}},{"type":"Feature","properties":{"shape_id":"{}","direction_id":"{\"1\": 50}","headsign":"{}","duration_avg":120,"n_vehicles":50,"d":1200,"route_I_counts":"{\"3\": 50}","source":37,"target":70,"layer":"L","from":"厦门体育中心(地铁站)","to":"厦门人才中心(地铁站)"},"geometry":{"type":"LineString","coordinates":[[118.101212,24.486377],[118.098305,24.491843]]}},{"type":"Feature","properties":{"shape_id":"{}","direction_id":"{\"0\": 50}","headsign":"{}","duration_avg":120,"n_vehicles":50,"d":1200,"route_I_counts":"{\"3\": 50}","source":37,"target":4,"layer":"L","from":"厦门体育中心(地铁站)","to":"厦门湖滨东路(地铁站)"},"geometry":{"type":"LineString","coordinates":[[118.101212,24.486377],[118.105692,24.476675]]}},{"type":"Feature","properties":{"shape_id":"{}","direction_id":"{\"1\": 50}","headsign":"{}","duration_avg":120,"n_vehicles":50,"d":1200,"route_I_counts":"{\"3\": 50}","source":4,"target":37,"layer":"L","from":"厦门湖滨东路(地铁站)","to":"厦门体育中心(地铁站)"},"geometry":{"type":"LineString","coordinates":[[118.105692,24.476675],[118.101212,24.486377]]}},{"type":"Feature","properties":{"shape_id":"{}","direction_id":"{\"0\": 50}","headsign":"{}","duration_avg":60,"n_vehicles":50,"d":600,"route_I_counts":"{\"3\": 50}","source":4,"target":71,"layer":"L","from":"厦门湖滨东路(地铁站)","to":"厦门厦门火车站(地铁站)"},"geometry":{"type":"LineString","coordinates":[[118.105692,24.476675],[118.109715,24.471907]]}},{"type":"Feature","properties":{"shape_id":"{}","direction_id":"{\"1\": 50}","headsign":"{}","duration_avg":60,"n_vehicles":50,"d":600,"route_I_counts":"{\"3\": 50}","source":71,"target":4,"layer":"L","from":"厦门厦门火车站(地铁站)","to":"厦门湖滨东路(地铁站)"},"geometry":{"type":"LineString","coordinates":[[118.109715,24.471907],[118.105692,24.476675]]}}]}