{"type":"FeatureCollection","features":[{"type":"Feature","geometry":{"type":"Point","coordinates":[117.095197,34.242704]},"properties":{"name":"徐州路窝(地铁站)","original_ids":"[1]","id":0,"layer":"stop"}},{"type":"Feature","geometry":{"type":"Point","coordinates":[117.114181,34.249916]},"properties":{"name":"徐州杏山子(地铁站)","original_ids":"[2]","id":1,"layer":"stop"}},{"type":"Feature","geometry":{"type":"Point","coordinates":[117.135884,34.256682]},"properties":{"name":"徐州韩山(地铁站)","original_ids":"[3]","id":2,"layer":"stop"}},{"type":"Feature","geometry":{"type":"Point","coordinates":[117.144999,34.260131]},"properties":{"name":"徐州工农路(地铁站)","original_ids":"[4]","id":3,"layer":"stop"}},{"type":"Feature","geometry":{"type":"Point","coordinates":[117.152281,34.263136]},"properties":{"name":"徐州人民广场(地铁站)","original_ids":"[5]","id":4,"layer":"stop"}},{"type":"Feature","geometry":{"type":"Point","coordinates":[117.162574,34.264575]},"properties":{"name":"徐州苏堤路(地铁站)","original_ids":"[6]","id":5,"layer":"stop"}},{"type":"Feature","geometry":{"type":"Point","coordinates":[117.173089,34.264775]},"properties":{"name":"徐州徐医附院(地铁站)","original_ids":"[7]","id":6,"layer":"stop"}},{"type":"Feature","geometry":{"type":"Point","coordinates":[117.181524,34.264924]},"properties":{"name":"徐州彭城广场(地铁站)","original_ids":"[8]","id":7,"layer":"stop"}},{"type":"Feature","geometry":{"type":"Point","coordinates":[117.190749,34.266596]},"properties":{"name":"徐州民主北路(地铁站)","original_ids":"[9]","id":8,"layer":"stop"}},{"type":"Feature","geometry":{"type":"Point","coordinates":[117.197573,34.267553]},"properties":{"name":"徐州徐州火车站(地铁站)","original_ids":"[10]","id":9,"layer":"stop"}},{"type":"Feature","geometry":{"type":"Point","coordinates":[117.205223,34.267526]},"properties":{"name":"徐州子房山(地铁站)","original_ids":"[11]","id":10,"layer":"stop"}},{"type":"Feature","geometry":{"type":"Point","coordinates":[117.221277,34.263813]},"properties":{"name":"徐州铜山路(地铁站)","original_ids":"[12]","id":11,"layer":"stop"}},{"type":"Feature","geometry":{"type":"Point","coordinates":[117.228639,34.253222]},"properties":{"name":"徐州黄山垅(地铁站)","original_ids":"[13]","id":12,"layer":"stop"}},{"type":"Feature","geometry":{"type":"Point","coordinates":[117.240344,34.253469]},"properties":{"name":"徐州庆丰路(地铁站)","original_ids":"[14]","id":13,"layer":"stop"}},{"type":"Feature","geometry":{"type":"Point","coordinates":[117.253895,34.254602]},"properties":{"name":"徐州医科大学(地铁站)","original_ids":"[15]","id":14,"layer":"stop"}},{"type":"Feature","geometry":{"type":"Point","coordinates":[117.264527,34.2555]},"properties":{"name":"徐州乔家湖(地铁站)","original_ids":"[16]","id":15,"layer":"stop"}},{"type":"Feature","geometry":{"type":"Point","coordinates":[117.284502,34.26391]},"properties":{"name":"徐州金龙湖(地铁站)","original_ids":"[17]","id":16,"layer":"stop"}},{"type":"Feature","geometry":{"type":"Point","coordinates":[117.300525,34.26786]},"properties":{"name":"徐州徐州东站(地铁站)","original_ids":"[18]","id":17,"layer":"stop"}},{"type":"Feature","geometry":{"type":"Point","coordinates":[117.182731,34.332673]},"properties":{"name":"徐州客运北站(地铁站)","original_ids":"[19]","id":18,"layer":"stop"}},{"type":"Feature","geometry":{"type":"Point","coordinates":[117.186596,34.320086]},"properties":{"name":"徐州李沃(地铁站)","original_ids":"[20]","id":19,"layer":"stop"}},{"type":"Feature","geometry":{"type":"Point","coordinates":[117.186457,34.305614]},"properties":{"name":"徐州九里山(地铁站)","original_ids":"[21]","id":20,"layer":"stop"}},{"type":"Feature","geometry":{"type":"Point","coordinates":[117.185606,34.297023]},"properties":{"name":"徐州奔腾大道(地铁站)","original_ids":"[22]","id":21,"layer":"stop"}},{"type":"Feature","geometry":{"type":"Point","coordinates":[117.182216,34.286568]},"properties":{"name":"徐州九龙湖(地铁站)","original_ids":"[23]","id":22,"layer":"stop"}},{"type":"Feature","geometry":{"type":"Point","coordinates":[117.179819,34.274659]},"properties":{"name":"徐州庆云桥(地铁站)","original_ids":"[24]","id":23,"layer":"stop"}},{"type":"Feature","geometry":{"type":"Point","coordinates":[117.185802,34.258419]},"properties":{"name":"徐州户部山(地铁站)","original_ids":"[25]","id":24,"layer":"stop"}},{"type":"Feature","geometry":{"type":"Point","coordinates":[117.187321,34.251545]},"properties":{"name":"徐州师大云龙校区(地铁站)","original_ids":"[26]","id":25,"layer":"stop"}},{"type":"Feature","geometry":{"type":"Point","coordinates":[117.187743,34.24292]},"properties":{"name":"徐州中心医院(地铁站)","original_ids":"[27]","id":26,"layer":"stop"}},{"type":"Feature","geometry":{"type":"Point","coordinates":[117.194824,34.236117]},"properties":{"name":"徐州淮塔(地铁站)","original_ids":"[28]","id":27,"layer":"stop"}},{"type":"Feature","geometry":{"type":"Point","coordinates":[117.201302,34.228574]},"properties":{"name":"徐州科技城(地铁站)","original_ids":"[29]","id":28,"layer":"stop"}},{"type":"Feature","geometry":{"type":"Point","coordinates":[117.210844,34.221096]},"properties":{"name":"徐州七里沟(地铁站)","original_ids":"[30]","id":29,"layer":"stop"}},{"type":"Feature","geometry":{"type":"Point","coordinates":[117.220743,34.214599]},"properties":{"name":"徐州百果园(地铁站)","original_ids":"[31]","id":30,"layer":"stop"}},{"type":"Feature","geometry":{"type":"Point","coordinates":[117.23696,34.213122]},"properties":{"name":"徐州拖龙山(地铁站)","original_ids":"[32]","id":31,"layer":"stop"}},{"type":"Feature","geometry":{"type":"Point","coordinates":[117.258476,34.21151]},"properties":{"name":"徐州大龙湖(地铁站)","original_ids":"[33]","id":32,"layer":"stop"}},{"type":"Feature","geometry":{"type":"Point","coordinates":[117.274628,34.208787]},"properties":{"name":"徐州市行政中心(地铁站)","original_ids":"[34]","id":33,"layer":"stop"}},{"type":"Feature","geometry":{"type":"Point","coordinates":[117.285755,34.208629]},"properties":{"name":"徐州汉源大道(地铁站)","original_ids":"[35]","id":34,"layer":"stop"}},{"type":"Feature","geometry":{"type":"Point","coordinates":[117.296361,34.208476]},"properties":{"name":"徐州新元大道(地铁站)","original_ids":"[36]","id":35,"layer":"stop"}},{"type":"Feature","geometry":{"type":"Point","coordinates":[117.309631,34.208444]},"properties":{"name":"徐州新城区东(地铁站)","original_ids":"[37]","id":36,"layer":"stop"}},{"type":"Feature","geometry":{"type":"Point","coordinates":[117.145984,34.141955]},"properties":{"name":"徐州银山(地铁站)","original_ids":"[38]","id":37,"layer":"stop"}},{"type":"Feature","geometry":{"type":"Point","coordinates":[117.154691,34.150531]},"properties":{"name":"徐州高新区南(地铁站)","original_ids":"[39]","id":38,"layer":"stop"}},{"type":"Feature","geometry":{"type":"Point","coordinates":[117.156212,34.158849]},"properties":{"name":"徐州钱江路(地铁站)","original_ids":"[40]","id":39,"layer":"stop"}},{"type":"Feature","geometry":{"type":"Point","coordinates":[117.15736,34.165976]},"properties":{"name":"徐州焦山(地铁站)","original_ids":"[41]","id":40,"layer":"stop"}},{"type":"Feature","geometry":{"type":"Point","coordinates":[117.165946,34.172957]},"properties":{"name":"徐州浦江路(地铁站)","original_ids":"[42]","id":41,"layer":"stop"}},{"type":"Feature","geometry":{"type":"Point","coordinates":[117.168967,34.180215]},"properties":{"name":"徐州无名山公园(地铁站)","original_ids":"[43]","id":42,"layer":"stop"}},{"type":"Feature","geometry":{"type":"Point","coordinates":[117.181884,34.187176]},"properties":{"name":"徐州玉泉河(地铁站)","original_ids":"[44]","id":43,"layer":"stop"}},{"type":"Feature","geometry":{"type":"Point","coordinates":[117.18411,34.195393]},"properties":{"name":"徐州师范大学(地铁站)","original_ids":"[45]","id":44,"layer":"stop"}},{"type":"Feature","geometry":{"type":"Point","coordinates":[117.18842,34.203323]},"properties":{"name":"徐州翟山(地铁站)","original_ids":"[46]","id":45,"layer":"stop"}},{"type":"Feature","geometry":{"type":"Point","coordinates":[117.188443,34.215411]},"properties":{"name":"徐州南三环路(地铁站)","original_ids":"[47]","id":46,"layer":"stop"}},{"type":"Feature","geometry":{"type":"Point","coordinates":[117.190238,34.225373]},"properties":{"name":"徐州矿大文昌校区(地铁站)","original_ids":"[48]","id":47,"layer":"stop"}},{"type":"Feature","geometry":{"type":"Point","coordinates":[117.200245,34.251223]},"properties":{"name":"徐州和平大桥(地铁站)","original_ids":"[49]","id":48,"layer":"stop"}},{"type":"Feature","geometry":{"type":"Point","coordinates":[117.199306,34.259709]},"properties":{"name":"徐州天桥(地铁站)","original_ids":"[50]","id":49,"layer":"stop"}},{"type":"Feature","geometry":{"type":"Point","coordinates":[117.206062,34.278532]},"properties":{"name":"徐州白云山(地铁站)","original_ids":"[51]","id":50,"layer":"stop"}},{"type":"Feature","geometry":{"type":"Point","coordinates":[117.210246,34.284304]},"properties":{"name":"徐州下淀(地铁站)","original_ids":"[52]","id":51,"layer":"stop"}},{"type":"Feature","geometry":{"type":"Point","coordinates":[117.223856,34.29022]},"properties":{"name":"徐州杨庄(地铁站)","original_ids":"[53]","id":52,"layer":"stop"}},{"type":"Feature","geometry":{"type":"Point","coordinates":[117.233889,34.29468]},"properties":{"name":"徐州金山桥(地铁站)","original_ids":"[54]","id":53,"layer":"stop"}},{"type":"Feature","geometry":{"type":"Point","coordinates":[117.243451,34.300583]},"properties":{"name":"徐州经贸学校(地铁站)","original_ids":"[55]","id":54,"layer":"stop"}},{"type":"Feature","geometry":{"type":"Point","coordinates":[117.265864,34.301255]},"properties":{"name":"徐州蟠桃(地铁站)","original_ids":"[56]","id":55,"layer":"stop"}},{"type":"Feature","geometry":{"type":"Point","coordinates":[117.276209,34.301215]},"properties":{"name":"徐州振兴大道(地铁站)","original_ids":"[57]","id":56,"layer":"stop"}},{"type":"Feature","properties":{"shape_id":"{}","direction_id":"{\"0\": 50}","headsign":"{}","duration_avg":180,"n_vehicles":50,"d":1800,"route_I_counts":"{\"1\": 50}","source":0,"target":1,"layer":"L","from":"徐州路窝(地铁站)","to":"徐州杏山子(地铁站)"},"geometry":{"type":"LineString","coordinates":[[117.095197,34.242704],[117.114181,34.249916]]}},{"type":"Feature","properties":{"shape_id":"{}","direction_id":"{\"1\": 50}","headsign":"{}","duration_avg":180,"n_vehicles":50,"d":1800,"route_I_counts":"{\"1\": 50}","source":1,"target":0,"layer":"L","from":"徐州杏山子(地铁站)","to":"徐州路窝(地铁站)"},"geometry":{"type":"LineString","coordinates":[[117.114181,34.249916],[117.095197,34.242704]]}},{"type":"Feature","properties":{"shape_id":"{}","direction_id":"{\"0\": 50}","headsign":"{}","duration_avg":180,"n_vehicles":50,"d":1800,"route_I_counts":"{\"1\": 50}","source":1,"target":2,"layer":"L","from":"徐州杏山子(地铁站)","to":"徐州韩山(地铁站)"},"geometry":{"type":"LineString","coordinates":[[117.114181,34.249916],[117.135884,34.256682]]}},{"type":"Feature","properties":{"shape_id":"{}","direction_id":"{\"1\": 50}","headsign":"{}","duration_avg":180,"n_vehicles":50,"d":1800,"route_I_counts":"{\"1\": 50}","source":2,"target":1,"layer":"L","from":"徐州韩山(地铁站)","to":"徐州杏山子(地铁站)"},"geometry":{"type":"LineString","coordinates":[[117.135884,34.256682],[117.114181,34.249916]]}},{"type":"Feature","properties":{"shape_id":"{}","direction_id":"{\"0\": 50}","headsign":"{}","duration_avg":120,"n_vehicles":50,"d":1200,"route_I_counts":"{\"1\": 50}","source":2,"target":3,"layer":"L","from":"徐州韩山(地铁站)","to":"徐州工农路(地铁站)"},"geometry":{"type":"LineString","coordinates":[[117.135884,34.256682],[117.144999,34.260131]]}},{"type":"Feature","properties":{"shape_id":"{}","direction_id":"{\"1\": 50}","headsign":"{}","duration_avg":120,"n_vehicles":50,"d":1200,"route_I_counts":"{\"1\": 50}","source":3,"target":2,"layer":"L","from":"徐州工农路(地铁站)","to":"徐州韩山(地铁站)"},"geometry":{"type":"LineString","coordinates":[[117.144999,34.260131],[117.135884,34.256682]]}},{"type":"Feature","properties":{"shape_id":"{}","direction_id":"{\"0\": 50}","headsign":"{}","duration_avg":120,"n_vehicles":50,"d":1200,"route_I_counts":"{\"1\": 50}","source":3,"target":4,"layer":"L","from":"徐州工农路(地铁站)","to":"徐州人民广场(地铁站)"},"geometry":{"type":"LineString","coordinates":[[117.144999,34.260131],[117.152281,34.263136]]}},{"type":"Feature","properties":{"shape_id":"{}","direction_id":"{\"1\": 50}","headsign":"{}","duration_avg":120,"n_vehicles":50,"d":1200,"route_I_counts":"{\"1\": 50}","source":4,"target":3,"layer":"L","from":"徐州人民广场(地铁站)","to":"徐州工农路(地铁站)"},"geometry":{"type":"LineString","coordinates":[[117.152281,34.263136],[117.144999,34.260131]]}},{"type":"Feature","properties":{"shape_id":"{}","direction_id":"{\"0\": 50}","headsign":"{}","duration_avg":120,"n_vehicles":50,"d":1200,"route_I_counts":"{\"1\": 50}","source":4,"target":5,"layer":"L","from":"徐州人民广场(地铁站)","to":"徐州苏堤路(地铁站)"},"geometry":{"type":"LineString","coordinates":[[117.152281,34.263136],[117.162574,34.264575]]}},{"type":"Feature","properties":{"shape_id":"{}","direction_id":"{\"1\": 50}","headsign":"{}","duration_avg":120,"n_vehicles":50,"d":1200,"route_I_counts":"{\"1\": 50}","source":5,"target":4,"layer":"L","from":"徐州苏堤路(地铁站)","to":"徐州人民广场(地铁站)"},"geometry":{"type":"LineString","coordinates":[[117.162574,34.264575],[117.152281,34.263136]]}},{"type":"Feature","properties":{"shape_id":"{}","direction_id":"{\"0\": 50}","headsign":"{}","duration_avg":120,"n_vehicles":50,"d":1200,"route_I_counts":"{\"1\": 50}","source":5,"target":6,"layer":"L","from":"徐州苏堤路(地铁站)","to":"徐州徐医附院(地铁站)"},"geometry":{"type":"LineString","coordinates":[[117.162574,34.264575],[117.173089,34.264775]]}},{"type":"Feature","properties":{"shape_id":"{}","direction_id":"{\"1\": 50}","headsign":"{}","duration_avg":120,"n_vehicles":50,"d":1200,"route_I_counts":"{\"1\": 50}","source":6,"target":5,"layer":"L","from":"徐州徐医附院(地铁站)","to":"徐州苏堤路(地铁站)"},"geometry":{"type":"LineString","coordinates":[[117.173089,34.264775],[117.162574,34.264575]]}},{"type":"Feature","properties":{"shape_id":"{}","direction_id":"{\"0\": 50}","headsign":"{}","duration_avg":120,"n_vehicles":50,"d":1200,"route_I_counts":"{\"1\": 50}","source":6,"target":7,"layer":"L","from":"徐州徐医附院(地铁站)","to":"徐州彭城广场(地铁站)"},"geometry":{"type":"LineString","coordinates":[[117.173089,34.264775],[117.181524,34.264924]]}},{"type":"Feature","properties":{"shape_id":"{}","direction_id":"{\"1\": 50}","headsign":"{}","duration_avg":120,"n_vehicles":50,"d":1200,"route_I_counts":"{\"1\": 50}","source":7,"target":6,"layer":"L","from":"徐州彭城广场(地铁站)","to":"徐州徐医附院(地铁站)"},"geometry":{"type":"LineString","coordinates":[[117.181524,34.264924],[117.173089,34.264775]]}},{"type":"Feature","properties":{"shape_id":"{}","direction_id":"{\"0\": 50}","headsign":"{}","duration_avg":120,"n_vehicles":50,"d":1200,"route_I_counts":"{\"1\": 50}","source":7,"target":8,"layer":"L","from":"徐州彭城广场(地铁站)","to":"徐州民主北路(地铁站)"},"geometry":{"type":"LineString","coordinates":[[117.181524,34.264924],[117.190749,34.266596]]}},{"type":"Feature","properties":{"shape_id":"{}","direction_id":"{\"1\": 50}","headsign":"{}","duration_avg":120,"n_vehicles":50,"d":1200,"route_I_counts":"{\"1\": 50}","source":8,"target":7,"layer":"L","from":"徐州民主北路(地铁站)","to":"徐州彭城广场(地铁站)"},"geometry":{"type":"LineString","coordinates":[[117.190749,34.266596],[117.181524,34.264924]]}},{"type":"Feature","properties":{"shape_id":"{}","direction_id":"{\"0\": 50}","headsign":"{}","duration_avg":120,"n_vehicles":50,"d":1200,"route_I_counts":"{\"1\": 50}","source":8,"target":9,"layer":"L","from":"徐州民主北路(地铁站)","to":"徐州徐州火车站(地铁站)"},"geometry":{"type":"LineString","coordinates":[[117.190749,34.266596],[117.197573,34.267553]]}},{"type":"Feature","properties":{"shape_id":"{}","direction_id":"{\"1\": 50}","headsign":"{}","duration_avg":120,"n_vehicles":50,"d":1200,"route_I_counts":"{\"1\": 50}","source":9,"target":8,"layer":"L","from":"徐州徐州火车站(地铁站)","to":"徐州民主北路(地铁站)"},"geometry":{"type":"LineString","coordinates":[[117.197573,34.267553],[117.190749,34.266596]]}},{"type":"Feature","properties":{"shape_id":"{}","direction_id":"{\"0\": 50}","headsign":"{}","duration_avg":120,"n_vehicles":50,"d":1200,"route_I_counts":"{\"1\": 50}","source":9,"target":10,"layer":"L","from":"徐州徐州火车站(地铁站)","to":"徐州子房山(地铁站)"},"geometry":{"type":"LineString","coordinates":[[117.197573,34.267553],[117.205223,34.267526]]}},{"type":"Feature","properties":{"shape_id":"{}","direction_id":"{\"1\": 50}","headsign":"{}","duration_avg":120,"n_vehicles":50,"d":1200,"route_I_counts":"{\"1\": 50}","source":10,"target":9,"layer":"L","from":"徐州子房山(地铁站)","to":"徐州徐州火车站(地铁站)"},"geometry":{"type":"LineString","coordinates":[[117.205223,34.267526],[117.197573,34.267553]]}},{"type":"Feature","properties":{"shape_id":"{}","direction_id":"{\"0\": 50}","headsign":"{}","duration_avg":180,"n_vehicles":50,"d":1800,"route_I_counts":"{\"1\": 50}","source":10,"target":11,"layer":"L","from":"徐州子房山(地铁站)","to":"徐州铜山路(地铁站)"},"geometry":{"type":"LineString","coordinates":[[117.205223,34.267526],[117.221277,34.263813]]}},{"type":"Feature","properties":{"shape_id":"{}","direction_id":"{\"1\": 50}","headsign":"{}","duration_avg":180,"n_vehicles":50,"d":1800,"route_I_counts":"{\"1\": 50}","source":11,"target":10,"layer":"L","from":"徐州铜山路(地铁站)","to":"徐州子房山(地铁站)"},"geometry":{"type":"LineString","coordinates":[[117.221277,34.263813],[117.205223,34.267526]]}},{"type":"Feature","properties":{"shape_id":"{}","direction_id":"{\"0\": 50}","headsign":"{}","duration_avg":120,"n_vehicles":50,"d":1200,"route_I_counts":"{\"1\": 50}","source":11,"target":12,"layer":"L","from":"徐州铜山路(地铁站)","to":"徐州黄山垅(地铁站)"},"geometry":{"type":"LineString","coordinates":[[117.221277,34.263813],[117.228639,34.253222]]}},{"type":"Feature","properties":{"shape_id":"{}","direction_id":"{\"1\": 50}","headsign":"{}","duration_avg":120,"n_vehicles":50,"d":1200,"route_I_counts":"{\"1\": 50}","source":12,"target":11,"layer":"L","from":"徐州黄山垅(地铁站)","to":"徐州铜山路(地铁站)"},"geometry":{"type":"LineString","coordinates":[[117.228639,34.253222],[117.221277,34.263813]]}},{"type":"Feature","properties":{"shape_id":"{}","direction_id":"{\"0\": 50}","headsign":"{}","duration_avg":120,"n_vehicles":50,"d":1200,"route_I_counts":"{\"1\": 50}","source":12,"target":13,"layer":"L","from":"徐州黄山垅(地铁站)","to":"徐州庆丰路(地铁站)"},"geometry":{"type":"LineString","coordinates":[[117.228639,34.253222],[117.240344,34.253469]]}},{"type":"Feature","properties":{"shape_id":"{}","direction_id":"{\"1\": 50}","headsign":"{}","duration_avg":120,"n_vehicles":50,"d":1200,"route_I_counts":"{\"1\": 50}","source":13,"target":12,"layer":"L","from":"徐州庆丰路(地铁站)","to":"徐州黄山垅(地铁站)"},"geometry":{"type":"LineString","coordinates":[[117.240344,34.253469],[117.228639,34.253222]]}},{"type":"Feature","properties":{"shape_id":"{}","direction_id":"{\"0\": 50}","headsign":"{}","duration_avg":180,"n_vehicles":50,"d":1800,"route_I_counts":"{\"1\": 50}","source":13,"target":14,"layer":"L","from":"徐州庆丰路(地铁站)","to":"徐州医科大学(地铁站)"},"geometry":{"type":"LineString","coordinates":[[117.240344,34.253469],[117.253895,34.254602]]}},{"type":"Feature","properties":{"shape_id":"{}","direction_id":"{\"1\": 50}","headsign":"{}","duration_avg":180,"n_vehicles":50,"d":1800,"route_I_counts":"{\"1\": 50}","source":14,"target":13,"layer":"L","from":"徐州医科大学(地铁站)","to":"徐州庆丰路(地铁站)"},"geometry":{"type":"LineString","coordinates":[[117.253895,34.254602],[117.240344,34.253469]]}},{"type":"Feature","properties":{"shape_id":"{}","direction_id":"{\"0\": 50}","headsign":"{}","duration_avg":120,"n_vehicles":50,"d":1200,"route_I_counts":"{\"1\": 50}","source":14,"target":15,"layer":"L","from":"徐州医科大学(地铁站)","to":"徐州乔家湖(地铁站)"},"geometry":{"type":"LineString","coordinates":[[117.253895,34.254602],[117.264527,34.2555]]}},{"type":"Feature","properties":{"shape_id":"{}","direction_id":"{\"1\": 50}","headsign":"{}","duration_avg":120,"n_vehicles":50,"d":1200,"route_I_counts":"{\"1\": 50}","source":15,"target":14,"layer":"L","from":"徐州乔家湖(地铁站)","to":"徐州医科大学(地铁站)"},"geometry":{"type":"LineString","coordinates":[[117.264527,34.2555],[117.253895,34.254602]]}},{"type":"Feature","properties":{"shape_id":"{}","direction_id":"{\"0\": 50}","headsign":"{}","duration_avg":180,"n_vehicles":50,"d":1800,"route_I_counts":"{\"1\": 50}","source":15,"target":16,"layer":"L","from":"徐州乔家湖(地铁站)","to":"徐州金龙湖(地铁站)"},"geometry":{"type":"LineString","coordinates":[[117.264527,34.2555],[117.284502,34.26391]]}},{"type":"Feature","properties":{"shape_id":"{}","direction_id":"{\"1\": 50}","headsign":"{}","duration_avg":180,"n_vehicles":50,"d":1800,"route_I_counts":"{\"1\": 50}","source":16,"target":15,"layer":"L","from":"徐州金龙湖(地铁站)","to":"徐州乔家湖(地铁站)"},"geometry":{"type":"LineString","coordinates":[[117.284502,34.26391],[117.264527,34.2555]]}},{"type":"Feature","properties":{"shape_id":"{}","direction_id":"{\"0\": 50}","headsign":"{}","duration_avg":120,"n_vehicles":50,"d":1200,"route_I_counts":"{\"1\": 50}","source":16,"target":17,"layer":"L","from":"徐州金龙湖(地铁站)","to":"徐州徐州东站(地铁站)"},"geometry":{"type":"LineString","coordinates":[[117.284502,34.26391],[117.300525,34.26786]]}},{"type":"Feature","properties":{"shape_id":"{}","direction_id":"{\"1\": 50}","headsign":"{}","duration_avg":120,"n_vehicles":50,"d":1200,"route_I_counts":"{\"1\": 50}","source":17,"target":16,"layer":"L","from":"徐州徐州东站(地铁站)","to":"徐州金龙湖(地铁站)"},"geometry":{"type":"LineString","coordinates":[[117.300525,34.26786],[117.284502,34.26391]]}},{"type":"Feature","properties":{"shape_id":"{}","direction_id":"{\"0\": 50}","headsign":"{}","duration_avg":120,"n_vehicles":50,"d":1200,"route_I_counts":"{\"2\": 50}","source":18,"target":19,"layer":"L","from":"徐州客运北站(地铁站)","to":"徐州李沃(地铁站)"},"geometry":{"type":"LineString","coordinates":[[117.182731,34.332673],[117.186596,34.320086]]}},{"type":"Feature","properties":{"shape_id":"{}","direction_id":"{\"1\": 50}","headsign":"{}","duration_avg":120,"n_vehicles":50,"d":1200,"route_I_counts":"{\"2\": 50}","source":19,"target":18,"layer":"L","from":"徐州李沃(地铁站)","to":"徐州客运北站(地铁站)"},"geometry":{"type":"LineString","coordinates":[[117.186596,34.320086],[117.182731,34.332673]]}},{"type":"Feature","properties":{"shape_id":"{}","direction_id":"{\"0\": 50}","headsign":"{}","duration_avg":120,"n_vehicles":50,"d":1200,"route_I_counts":"{\"2\": 50}","source":19,"target":20,"layer":"L","from":"徐州李沃(地铁站)","to":"徐州九里山(地铁站)"},"geometry":{"type":"LineString","coordinates":[[117.186596,34.320086],[117.186457,34.305614]]}},{"type":"Feature","properties":{"shape_id":"{}","direction_id":"{\"1\": 50}","headsign":"{}","duration_avg":120,"n_vehicles":50,"d":1200,"route_I_counts":"{\"2\": 50}","source":20,"target":19,"layer":"L","from":"徐州九里山(地铁站)","to":"徐州李沃(地铁站)"},"geometry":{"type":"LineString","coordinates":[[117.186457,34.305614],[117.186596,34.320086]]}},{"type":"Feature","properties":{"shape_id":"{}","direction_id":"{\"0\": 50}","headsign":"{}","duration_avg":120,"n_vehicles":50,"d":1200,"route_I_counts":"{\"2\": 50}","source":20,"target":21,"layer":"L","from":"徐州九里山(地铁站)","to":"徐州奔腾大道(地铁站)"},"geometry":{"type":"LineString","coordinates":[[117.186457,34.305614],[117.185606,34.297023]]}},{"type":"Feature","properties":{"shape_id":"{}","direction_id":"{\"1\": 50}","headsign":"{}","duration_avg":120,"n_vehicles":50,"d":1200,"route_I_counts":"{\"2\": 50}","source":21,"target":20,"layer":"L","from":"徐州奔腾大道(地铁站)","to":"徐州九里山(地铁站)"},"geometry":{"type":"LineString","coordinates":[[117.185606,34.297023],[117.186457,34.305614]]}},{"type":"Feature","properties":{"shape_id":"{}","direction_id":"{\"0\": 50}","headsign":"{}","duration_avg":120,"n_vehicles":50,"d":1200,"route_I_counts":"{\"2\": 50}","source":21,"target":22,"layer":"L","from":"徐州奔腾大道(地铁站)","to":"徐州九龙湖(地铁站)"},"geometry":{"type":"LineString","coordinates":[[117.185606,34.297023],[117.182216,34.286568]]}},{"type":"Feature","properties":{"shape_id":"{}","direction_id":"{\"1\": 50}","headsign":"{}","duration_avg":120,"n_vehicles":50,"d":1200,"route_I_counts":"{\"2\": 50}","source":22,"target":21,"layer":"L","from":"徐州九龙湖(地铁站)","to":"徐州奔腾大道(地铁站)"},"geometry":{"type":"LineString","coordinates":[[117.182216,34.286568],[117.185606,34.297023]]}},{"type":"Feature","properties":{"shape_id":"{}","direction_id":"{\"0\": 50}","headsign":"{}","duration_avg":180,"n_vehicles":50,"d":1800,"route_I_counts":"{\"2\": 50}","source":22,"target":23,"layer":"L","from":"徐州九龙湖(地铁站)","to":"徐州庆云桥(地铁站)"},"geometry":{"type":"LineString","coordinates":[[117.182216,34.286568],[117.179819,34.274659]]}},{"type":"Feature","properties":{"shape_id":"{}","direction_id":"{\"1\": 50}","headsign":"{}","duration_avg":180,"n_vehicles":50,"d":1800,"route_I_counts":"{\"2\": 50}","source":23,"target":22,"layer":"L","from":"徐州庆云桥(地铁站)","to":"徐州九龙湖(地铁站)"},"geometry":{"type":"LineString","coordinates":[[117.179819,34.274659],[117.182216,34.286568]]}},{"type":"Feature","properties":{"shape_id":"{}","direction_id":"{\"0\": 50}","headsign":"{}","duration_avg":120,"n_vehicles":50,"d":1200,"route_I_counts":"{\"2\": 50}","source":23,"target":7,"layer":"L","from":"徐州庆云桥(地铁站)","to":"徐州彭城广场(地铁站)"},"geometry":{"type":"LineString","coordinates":[[117.179819,34.274659],[117.181524,34.264924]]}},{"type":"Feature","properties":{"shape_id":"{}","direction_id":"{\"1\": 50}","headsign":"{}","duration_avg":120,"n_vehicles":50,"d":1200,"route_I_counts":"{\"2\": 50}","source":7,"target":23,"layer":"L","from":"徐州彭城广场(地铁站)","to":"徐州庆云桥(地铁站)"},"geometry":{"type":"LineString","coordinates":[[117.181524,34.264924],[117.179819,34.274659]]}},{"type":"Feature","properties":{"shape_id":"{}","direction_id":"{\"0\": 50}","headsign":"{}","duration_avg":120,"n_vehicles":50,"d":1200,"route_I_counts":"{\"2\": 50}","source":7,"target":24,"layer":"L","from":"徐州彭城广场(地铁站)","to":"徐州户部山(地铁站)"},"geometry":{"type":"LineString","coordinates":[[117.181524,34.264924],[117.185802,34.258419]]}},{"type":"Feature","properties":{"shape_id":"{}","direction_id":"{\"1\": 50}","headsign":"{}","duration_avg":120,"n_vehicles":50,"d":1200,"route_I_counts":"{\"2\": 50}","source":24,"target":7,"layer":"L","from":"徐州户部山(地铁站)","to":"徐州彭城广场(地铁站)"},"geometry":{"type":"LineString","coordinates":[[117.185802,34.258419],[117.181524,34.264924]]}},{"type":"Feature","properties":{"shape_id":"{}","direction_id":"{\"0\": 50}","headsign":"{}","duration_avg":120,"n_vehicles":50,"d":1200,"route_I_counts":"{\"2\": 50}","source":24,"target":25,"layer":"L","from":"徐州户部山(地铁站)","to":"徐州师大云龙校区(地铁站)"},"geometry":{"type":"LineString","coordinates":[[117.185802,34.258419],[117.187321,34.251545]]}},{"type":"Feature","properties":{"shape_id":"{}","direction_id":"{\"1\": 50}","headsign":"{}","duration_avg":120,"n_vehicles":50,"d":1200,"route_I_counts":"{\"2\": 50}","source":25,"target":24,"layer":"L","from":"徐州师大云龙校区(地铁站)","to":"徐州户部山(地铁站)"},"geometry":{"type":"LineString","coordinates":[[117.187321,34.251545],[117.185802,34.258419]]}},{"type":"Feature","properties":{"shape_id":"{}","direction_id":"{\"0\": 50}","headsign":"{}","duration_avg":120,"n_vehicles":50,"d":1200,"route_I_counts":"{\"2\": 50}","source":25,"target":26,"layer":"L","from":"徐州师大云龙校区(地铁站)","to":"徐州中心医院(地铁站)"},"geometry":{"type":"LineString","coordinates":[[117.187321,34.251545],[117.187743,34.24292]]}},{"type":"Feature","properties":{"shape_id":"{}","direction_id":"{\"1\": 50}","headsign":"{}","duration_avg":120,"n_vehicles":50,"d":1200,"route_I_counts":"{\"2\": 50}","source":26,"target":25,"layer":"L","from":"徐州中心医院(地铁站)","to":"徐州师大云龙校区(地铁站)"},"geometry":{"type":"LineString","coordinates":[[117.187743,34.24292],[117.187321,34.251545]]}},{"type":"Feature","properties":{"shape_id":"{}","direction_id":"{\"0\": 50}","headsign":"{}","duration_avg":120,"n_vehicles":50,"d":1200,"route_I_counts":"{\"2\": 50}","source":26,"target":27,"layer":"L","from":"徐州中心医院(地铁站)","to":"徐州淮塔(地铁站)"},"geometry":{"type":"LineString","coordinates":[[117.187743,34.24292],[117.194824,34.236117]]}},{"type":"Feature","properties":{"shape_id":"{}","direction_id":"{\"1\": 50}","headsign":"{}","duration_avg":120,"n_vehicles":50,"d":1200,"route_I_counts":"{\"2\": 50}","source":27,"target":26,"layer":"L","from":"徐州淮塔(地铁站)","to":"徐州中心医院(地铁站)"},"geometry":{"type":"LineString","coordinates":[[117.194824,34.236117],[117.187743,34.24292]]}},{"type":"Feature","properties":{"shape_id":"{}","direction_id":"{\"0\": 50}","headsign":"{}","duration_avg":120,"n_vehicles":50,"d":1200,"route_I_counts":"{\"2\": 50}","source":27,"target":28,"layer":"L","from":"徐州淮塔(地铁站)","to":"徐州科技城(地铁站)"},"geometry":{"type":"LineString","coordinates":[[117.194824,34.236117],[117.201302,34.228574]]}},{"type":"Feature","properties":{"shape_id":"{}","direction_id":"{\"1\": 50}","headsign":"{}","duration_avg":120,"n_vehicles":50,"d":1200,"route_I_counts":"{\"2\": 50}","source":28,"target":27,"layer":"L","from":"徐州科技城(地铁站)","to":"徐州淮塔(地铁站)"},"geometry":{"type":"LineString","coordinates":[[117.201302,34.228574],[117.194824,34.236117]]}},{"type":"Feature","properties":{"shape_id":"{}","direction_id":"{\"0\": 50}","headsign":"{}","duration_avg":120,"n_vehicles":50,"d":1200,"route_I_counts":"{\"2\": 50}","source":28,"target":29,"layer":"L","from":"徐州科技城(地铁站)","to":"徐州七里沟(地铁站)"},"geometry":{"type":"LineString","coordinates":[[117.201302,34.228574],[117.210844,34.221096]]}},{"type":"Feature","properties":{"shape_id":"{}","direction_id":"{\"1\": 50}","headsign":"{}","duration_avg":120,"n_vehicles":50,"d":1200,"route_I_counts":"{\"2\": 50}","source":29,"target":28,"layer":"L","from":"徐州七里沟(地铁站)","to":"徐州科技城(地铁站)"},"geometry":{"type":"LineString","coordinates":[[117.210844,34.221096],[117.201302,34.228574]]}},{"type":"Feature","properties":{"shape_id":"{}","direction_id":"{\"0\": 50}","headsign":"{}","duration_avg":180,"n_vehicles":50,"d":1800,"route_I_counts":"{\"2\": 50}","source":29,"target":30,"layer":"L","from":"徐州七里沟(地铁站)","to":"徐州百果园(地铁站)"},"geometry":{"type":"LineString","coordinates":[[117.210844,34.221096],[117.220743,34.214599]]}},{"type":"Feature","properties":{"shape_id":"{}","direction_id":"{\"1\": 50}","headsign":"{}","duration_avg":180,"n_vehicles":50,"d":1800,"route_I_counts":"{\"2\": 50}","source":30,"target":29,"layer":"L","from":"徐州百果园(地铁站)","to":"徐州七里沟(地铁站)"},"geometry":{"type":"LineString","coordinates":[[117.220743,34.214599],[117.210844,34.221096]]}},{"type":"Feature","properties":{"shape_id":"{}","direction_id":"{\"0\": 50}","headsign":"{}","duration_avg":120,"n_vehicles":50,"d":1200,"route_I_counts":"{\"2\": 50}","source":30,"target":31,"layer":"L","from":"徐州百果园(地铁站)","to":"徐州拖龙山(地铁站)"},"geometry":{"type":"LineString","coordinates":[[117.220743,34.214599],[117.23696,34.213122]]}},{"type":"Feature","properties":{"shape_id":"{}","direction_id":"{\"1\": 50}","headsign":"{}","duration_avg":120,"n_vehicles":50,"d":1200,"route_I_counts":"{\"2\": 50}","source":31,"target":30,"layer":"L","from":"徐州拖龙山(地铁站)","to":"徐州百果园(地铁站)"},"geometry":{"type":"LineString","coordinates":[[117.23696,34.213122],[117.220743,34.214599]]}},{"type":"Feature","properties":{"shape_id":"{}","direction_id":"{\"0\": 50}","headsign":"{}","duration_avg":120,"n_vehicles":50,"d":1200,"route_I_counts":"{\"2\": 50}","source":31,"target":32,"layer":"L","from":"徐州拖龙山(地铁站)","to":"徐州大龙湖(地铁站)"},"geometry":{"type":"LineString","coordinates":[[117.23696,34.213122],[117.258476,34.21151]]}},{"type":"Feature","properties":{"shape_id":"{}","direction_id":"{\"1\": 50}","headsign":"{}","duration_avg":120,"n_vehicles":50,"d":1200,"route_I_counts":"{\"2\": 50}","source":32,"target":31,"layer":"L","from":"徐州大龙湖(地铁站)","to":"徐州拖龙山(地铁站)"},"geometry":{"type":"LineString","coordinates":[[117.258476,34.21151],[117.23696,34.213122]]}},{"type":"Feature","properties":{"shape_id":"{}","direction_id":"{\"0\": 50}","headsign":"{}","duration_avg":120,"n_vehicles":50,"d":1200,"route_I_counts":"{\"2\": 50}","source":32,"target":33,"layer":"L","from":"徐州大龙湖(地铁站)","to":"徐州市行政中心(地铁站)"},"geometry":{"type":"LineString","coordinates":[[117.258476,34.21151],[117.274628,34.208787]]}},{"type":"Feature","properties":{"shape_id":"{}","direction_id":"{\"1\": 50}","headsign":"{}","duration_avg":120,"n_vehicles":50,"d":1200,"route_I_counts":"{\"2\": 50}","source":33,"target":32,"layer":"L","from":"徐州市行政中心(地铁站)","to":"徐州大龙湖(地铁站)"},"geometry":{"type":"LineString","coordinates":[[117.274628,34.208787],[117.258476,34.21151]]}},{"type":"Feature","properties":{"shape_id":"{}","direction_id":"{\"0\": 50}","headsign":"{}","duration_avg":120,"n_vehicles":50,"d":1200,"route_I_counts":"{\"2\": 50}","source":33,"target":34,"layer":"L","from":"徐州市行政中心(地铁站)","to":"徐州汉源大道(地铁站)"},"geometry":{"type":"LineString","coordinates":[[117.274628,34.208787],[117.285755,34.208629]]}},{"type":"Feature","properties":{"shape_id":"{}","direction_id":"{\"1\": 50}","headsign":"{}","duration_avg":120,"n_vehicles":50,"d":1200,"route_I_counts":"{\"2\": 50}","source":34,"target":33,"layer":"L","from":"徐州汉源大道(地铁站)","to":"徐州市行政中心(地铁站)"},"geometry":{"type":"LineString","coordinates":[[117.285755,34.208629],[117.274628,34.208787]]}},{"type":"Feature","properties":{"shape_id":"{}","direction_id":"{\"0\": 50}","headsign":"{}","duration_avg":120,"n_vehicles":50,"d":1200,"route_I_counts":"{\"2\": 50}","source":34,"target":35,"layer":"L","from":"徐州汉源大道(地铁站)","to":"徐州新元大道(地铁站)"},"geometry":{"type":"LineString","coordinates":[[117.285755,34.208629],[117.296361,34.208476]]}},{"type":"Feature","properties":{"shape_id":"{}","direction_id":"{\"1\": 50}","headsign":"{}","duration_avg":120,"n_vehicles":50,"d":1200,"route_I_counts":"{\"2\": 50}","source":35,"target":34,"layer":"L","from":"徐州新元大道(地铁站)","to":"徐州汉源大道(地铁站)"},"geometry":{"type":"LineString","coordinates":[[117.296361,34.208476],[117.285755,34.208629]]}},{"type":"Feature","properties":{"shape_id":"{}","direction_id":"{\"0\": 50}","headsign":"{}","duration_avg":120,"n_vehicles":50,"d":1200,"route_I_counts":"{\"2\": 50}","source":35,"target":36,"layer":"L","from":"徐州新元大道(地铁站)","to":"徐州新城区东(地铁站)"},"geometry":{"type":"LineString","coordinates":[[117.296361,34.208476],[117.309631,34.208444]]}},{"type":"Feature","properties":{"shape_id":"{}","direction_id":"{\"1\": 50}","headsign":"{}","duration_avg":120,"n_vehicles":50,"d":1200,"route_I_counts":"{\"2\": 50}","source":36,"target":35,"layer":"L","from":"徐州新城区东(地铁站)","to":"徐州新元大道(地铁站)"},"geometry":{"type":"LineString","coordinates":[[117.309631,34.208444],[117.296361,34.208476]]}},{"type":"Feature","properties":{"shape_id":"{}","direction_id":"{\"0\": 50}","headsign":"{}","duration_avg":120,"n_vehicles":50,"d":1200,"route_I_counts":"{\"3\": 50}","source":37,"target":38,"layer":"L","from":"徐州银山(地铁站)","to":"徐州高新区南(地铁站)"},"geometry":{"type":"LineString","coordinates":[[117.145984,34.141955],[117.154691,34.150531]]}},{"type":"Feature","properties":{"shape_id":"{}","direction_id":"{\"1\": 50}","headsign":"{}","duration_avg":120,"n_vehicles":50,"d":1200,"route_I_counts":"{\"3\": 50}","source":38,"target":37,"layer":"L","from":"徐州高新区南(地铁站)","to":"徐州银山(地铁站)"},"geometry":{"type":"LineString","coordinates":[[117.154691,34.150531],[117.145984,34.141955]]}},{"type":"Feature","properties":{"shape_id":"{}","direction_id":"{\"0\": 50}","headsign":"{}","duration_avg":120,"n_vehicles":50,"d":1200,"route_I_counts":"{\"3\": 50}","source":38,"target":39,"layer":"L","from":"徐州高新区南(地铁站)","to":"徐州钱江路(地铁站)"},"geometry":{"type":"LineString","coordinates":[[117.154691,34.150531],[117.156212,34.158849]]}},{"type":"Feature","properties":{"shape_id":"{}","direction_id":"{\"1\": 50}","headsign":"{}","duration_avg":120,"n_vehicles":50,"d":1200,"route_I_counts":"{\"3\": 50}","source":39,"target":38,"layer":"L","from":"徐州钱江路(地铁站)","to":"徐州高新区南(地铁站)"},"geometry":{"type":"LineString","coordinates":[[117.156212,34.158849],[117.154691,34.150531]]}},{"type":"Feature","properties":{"shape_id":"{}","direction_id":"{\"0\": 50}","headsign":"{}","duration_avg":120,"n_vehicles":50,"d":1200,"route_I_counts":"{\"3\": 50}","source":39,"target":40,"layer":"L","from":"徐州钱江路(地铁站)","to":"徐州焦山(地铁站)"},"geometry":{"type":"LineString","coordinates":[[117.156212,34.158849],[117.15736,34.165976]]}},{"type":"Feature","properties":{"shape_id":"{}","direction_id":"{\"1\": 50}","headsign":"{}","duration_avg":120,"n_vehicles":50,"d":1200,"route_I_counts":"{\"3\": 50}","source":40,"target":39,"layer":"L","from":"徐州焦山(地铁站)","to":"徐州钱江路(地铁站)"},"geometry":{"type":"LineString","coordinates":[[117.15736,34.165976],[117.156212,34.158849]]}},{"type":"Feature","properties":{"shape_id":"{}","direction_id":"{\"0\": 50}","headsign":"{}","duration_avg":120,"n_vehicles":50,"d":1200,"route_I_counts":"{\"3\": 50}","source":40,"target":41,"layer":"L","from":"徐州焦山(地铁站)","to":"徐州浦江路(地铁站)"},"geometry":{"type":"LineString","coordinates":[[117.15736,34.165976],[117.165946,34.172957]]}},{"type":"Feature","properties":{"shape_id":"{}","direction_id":"{\"1\": 50}","headsign":"{}","duration_avg":120,"n_vehicles":50,"d":1200,"route_I_counts":"{\"3\": 50}","source":41,"target":40,"layer":"L","from":"徐州浦江路(地铁站)","to":"徐州焦山(地铁站)"},"geometry":{"type":"LineString","coordinates":[[117.165946,34.172957],[117.15736,34.165976]]}},{"type":"Feature","properties":{"shape_id":"{}","direction_id":"{\"0\": 50}","headsign":"{}","duration_avg":120,"n_vehicles":50,"d":1200,"route_I_counts":"{\"3\": 50}","source":41,"target":42,"layer":"L","from":"徐州浦江路(地铁站)","to":"徐州无名山公园(地铁站)"},"geometry":{"type":"LineString","coordinates":[[117.165946,34.172957],[117.168967,34.180215]]}},{"type":"Feature","properties":{"shape_id":"{}","direction_id":"{\"1\": 50}","headsign":"{}","duration_avg":120,"n_vehicles":50,"d":1200,"route_I_counts":"{\"3\": 50}","source":42,"target":41,"layer":"L","from":"徐州无名山公园(地铁站)","to":"徐州浦江路(地铁站)"},"geometry":{"type":"LineString","coordinates":[[117.168967,34.180215],[117.165946,34.172957]]}},{"type":"Feature","properties":{"shape_id":"{}","direction_id":"{\"0\": 50}","headsign":"{}","duration_avg":180,"n_vehicles":50,"d":1800,"route_I_counts":"{\"3\": 50}","source":42,"target":43,"layer":"L","from":"徐州无名山公园(地铁站)","to":"徐州玉泉河(地铁站)"},"geometry":{"type":"LineString","coordinates":[[117.168967,34.180215],[117.181884,34.187176]]}},{"type":"Feature","properties":{"shape_id":"{}","direction_id":"{\"1\": 50}","headsign":"{}","duration_avg":180,"n_vehicles":50,"d":1800,"route_I_counts":"{\"3\": 50}","source":43,"target":42,"layer":"L","from":"徐州玉泉河(地铁站)","to":"徐州无名山公园(地铁站)"},"geometry":{"type":"LineString","coordinates":[[117.181884,34.187176],[117.168967,34.180215]]}},{"type":"Feature","properties":{"shape_id":"{}","direction_id":"{\"0\": 50}","headsign":"{}","duration_avg":120,"n_vehicles":50,"d":1200,"route_I_counts":"{\"3\": 50}","source":43,"target":44,"layer":"L","from":"徐州玉泉河(地铁站)","to":"徐州师范大学(地铁站)"},"geometry":{"type":"LineString","coordinates":[[117.181884,34.187176],[117.18411,34.195393]]}},{"type":"Feature","properties":{"shape_id":"{}","direction_id":"{\"1\": 50}","headsign":"{}","duration_avg":120,"n_vehicles":50,"d":1200,"route_I_counts":"{\"3\": 50}","source":44,"target":43,"layer":"L","from":"徐州师范大学(地铁站)","to":"徐州玉泉河(地铁站)"},"geometry":{"type":"LineString","coordinates":[[117.18411,34.195393],[117.181884,34.187176]]}},{"type":"Feature","properties":{"shape_id":"{}","direction_id":"{\"0\": 50}","headsign":"{}","duration_avg":120,"n_vehicles":50,"d":1200,"route_I_counts":"{\"3\": 50}","source":44,"target":45,"layer":"L","from":"徐州师范大学(地铁站)","to":"徐州翟山(地铁站)"},"geometry":{"type":"LineString","coordinates":[[117.18411,34.195393],[117.18842,34.203323]]}},{"type":"Feature","properties":{"shape_id":"{}","direction_id":"{\"1\": 50}","headsign":"{}","duration_avg":120,"n_vehicles":50,"d":1200,"route_I_counts":"{\"3\": 50}","source":45,"target":44,"layer":"L","from":"徐州翟山(地铁站)","to":"徐州师范大学(地铁站)"},"geometry":{"type":"LineString","coordinates":[[117.18842,34.203323],[117.18411,34.195393]]}},{"type":"Feature","properties":{"shape_id":"{}","direction_id":"{\"0\": 50}","headsign":"{}","duration_avg":120,"n_vehicles":50,"d":1200,"route_I_counts":"{\"3\": 50}","source":45,"target":46,"layer":"L","from":"徐州翟山(地铁站)","to":"徐州南三环路(地铁站)"},"geometry":{"type":"LineString","coordinates":[[117.18842,34.203323],[117.188443,34.215411]]}},{"type":"Feature","properties":{"shape_id":"{}","direction_id":"{\"1\": 50}","headsign":"{}","duration_avg":120,"n_vehicles":50,"d":1200,"route_I_counts":"{\"3\": 50}","source":46,"target":45,"layer":"L","from":"徐州南三环路(地铁站)","to":"徐州翟山(地铁站)"},"geometry":{"type":"LineString","coordinates":[[117.188443,34.215411],[117.18842,34.203323]]}},{"type":"Feature","properties":{"shape_id":"{}","direction_id":"{\"0\": 50}","headsign":"{}","duration_avg":120,"n_vehicles":50,"d":1200,"route_I_counts":"{\"3\": 50}","source":46,"target":47,"layer":"L","from":"徐州南三环路(地铁站)","to":"徐州矿大文昌校区(地铁站)"},"geometry":{"type":"LineString","coordinates":[[117.188443,34.215411],[117.190238,34.225373]]}},{"type":"Feature","properties":{"shape_id":"{}","direction_id":"{\"1\": 50}","headsign":"{}","duration_avg":120,"n_vehicles":50,"d":1200,"route_I_counts":"{\"3\": 50}","source":47,"target":46,"layer":"L","from":"徐州矿大文昌校区(地铁站)","to":"徐州南三环路(地铁站)"},"geometry":{"type":"LineString","coordinates":[[117.190238,34.225373],[117.188443,34.215411]]}},{"type":"Feature","properties":{"shape_id":"{}","direction_id":"{\"0\": 50}","headsign":"{}","duration_avg":180,"n_vehicles":50,"d":1800,"route_I_counts":"{\"3\": 50}","source":47,"target":27,"layer":"L","from":"徐州矿大文昌校区(地铁站)","to":"徐州淮塔(地铁站)"},"geometry":{"type":"LineString","coordinates":[[117.190238,34.225373],[117.194824,34.236117]]}},{"type":"Feature","properties":{"shape_id":"{}","direction_id":"{\"1\": 50}","headsign":"{}","duration_avg":180,"n_vehicles":50,"d":1800,"route_I_counts":"{\"3\": 50}","source":27,"target":47,"layer":"L","from":"徐州淮塔(地铁站)","to":"徐州矿大文昌校区(地铁站)"},"geometry":{"type":"LineString","coordinates":[[117.194824,34.236117],[117.190238,34.225373]]}},{"type":"Feature","properties":{"shape_id":"{}","direction_id":"{\"0\": 50}","headsign":"{}","duration_avg":180,"n_vehicles":50,"d":1800,"route_I_counts":"{\"3\": 50}","source":27,"target":48,"layer":"L","from":"徐州淮塔(地铁站)","to":"徐州和平大桥(地铁站)"},"geometry":{"type":"LineString","coordinates":[[117.194824,34.236117],[117.200245,34.251223]]}},{"type":"Feature","properties":{"shape_id":"{}","direction_id":"{\"1\": 50}","headsign":"{}","duration_avg":180,"n_vehicles":50,"d":1800,"route_I_counts":"{\"3\": 50}","source":48,"target":27,"layer":"L","from":"徐州和平大桥(地铁站)","to":"徐州淮塔(地铁站)"},"geometry":{"type":"LineString","coordinates":[[117.200245,34.251223],[117.194824,34.236117]]}},{"type":"Feature","properties":{"shape_id":"{}","direction_id":"{\"0\": 50}","headsign":"{}","duration_avg":120,"n_vehicles":50,"d":1200,"route_I_counts":"{\"3\": 50}","source":48,"target":49,"layer":"L","from":"徐州和平大桥(地铁站)","to":"徐州天桥(地铁站)"},"geometry":{"type":"LineString","coordinates":[[117.200245,34.251223],[117.199306,34.259709]]}},{"type":"Feature","properties":{"shape_id":"{}","direction_id":"{\"1\": 50}","headsign":"{}","duration_avg":120,"n_vehicles":50,"d":1200,"route_I_counts":"{\"3\": 50}","source":49,"target":48,"layer":"L","from":"徐州天桥(地铁站)","to":"徐州和平大桥(地铁站)"},"geometry":{"type":"LineString","coordinates":[[117.199306,34.259709],[117.200245,34.251223]]}},{"type":"Feature","properties":{"shape_id":"{}","direction_id":"{\"0\": 50}","headsign":"{}","duration_avg":120,"n_vehicles":50,"d":1200,"route_I_counts":"{\"3\": 50}","source":49,"target":9,"layer":"L","from":"徐州天桥(地铁站)","to":"徐州徐州火车站(地铁站)"},"geometry":{"type":"LineString","coordinates":[[117.199306,34.259709],[117.197573,34.267553]]}},{"type":"Feature","properties":{"shape_id":"{}","direction_id":"{\"1\": 50}","headsign":"{}","duration_avg":120,"n_vehicles":50,"d":1200,"route_I_counts":"{\"3\": 50}","source":9,"target":49,"layer":"L","from":"徐州徐州火车站(地铁站)","to":"徐州天桥(地铁站)"},"geometry":{"type":"LineString","coordinates":[[117.197573,34.267553],[117.199306,34.259709]]}},{"type":"Feature","properties":{"shape_id":"{}","direction_id":"{\"0\": 50}","headsign":"{}","duration_avg":180,"n_vehicles":50,"d":1800,"route_I_counts":"{\"3\": 50}","source":9,"target":50,"layer":"L","from":"徐州徐州火车站(地铁站)","to":"徐州白云山(地铁站)"},"geometry":{"type":"LineString","coordinates":[[117.197573,34.267553],[117.206062,34.278532]]}},{"type":"Feature","properties":{"shape_id":"{}","direction_id":"{\"1\": 50}","headsign":"{}","duration_avg":180,"n_vehicles":50,"d":1800,"route_I_counts":"{\"3\": 50}","source":50,"target":9,"layer":"L","from":"徐州白云山(地铁站)","to":"徐州徐州火车站(地铁站)"},"geometry":{"type":"LineString","coordinates":[[117.206062,34.278532],[117.197573,34.267553]]}},{"type":"Feature","properties":{"shape_id":"{}","direction_id":"{\"0\": 50}","headsign":"{}","duration_avg":120,"n_vehicles":50,"d":1200,"route_I_counts":"{\"3\": 50}","source":50,"target":51,"layer":"L","from":"徐州白云山(地铁站)","to":"徐州下淀(地铁站)"},"geometry":{"type":"LineString","coordinates":[[117.206062,34.278532],[117.210246,34.284304]]}},{"type":"Feature","properties":{"shape_id":"{}","direction_id":"{\"1\": 50}","headsign":"{}","duration_avg":120,"n_vehicles":50,"d":1200,"route_I_counts":"{\"3\": 50}","source":51,"target":50,"layer":"L","from":"徐州下淀(地铁站)","to":"徐州白云山(地铁站)"},"geometry":{"type":"LineString","coordinates":[[117.210246,34.284304],[117.206062,34.278532]]}},{"type":"Feature","properties":{"shape_id":"{}","direction_id":"{\"0\": 50}","headsign":"{}","duration_avg":120,"n_vehicles":50,"d":1200,"route_I_counts":"{\"3\": 50}","source":51,"target":52,"layer":"L","from":"徐州下淀(地铁站)","to":"徐州杨庄(地铁站)"},"geometry":{"type":"LineString","coordinates":[[117.210246,34.284304],[117.223856,34.29022]]}},{"type":"Feature","properties":{"shape_id":"{}","direction_id":"{\"1\": 50}","headsign":"{}","duration_avg":120,"n_vehicles":50,"d":1200,"route_I_counts":"{\"3\": 50}","source":52,"target":51,"layer":"L","from":"徐州杨庄(地铁站)","to":"徐州下淀(地铁站)"},"geometry":{"type":"LineString","coordinates":[[117.223856,34.29022],[117.210246,34.284304]]}},{"type":"Feature","properties":{"shape_id":"{}","direction_id":"{\"0\": 50}","headsign":"{}","duration_avg":120,"n_vehicles":50,"d":1200,"route_I_counts":"{\"3\": 50}","source":52,"target":53,"layer":"L","from":"徐州杨庄(地铁站)","to":"徐州金山桥(地铁站)"},"geometry":{"type":"LineString","coordinates":[[117.223856,34.29022],[117.233889,34.29468]]}},{"type":"Feature","properties":{"shape_id":"{}","direction_id":"{\"1\": 50}","headsign":"{}","duration_avg":120,"n_vehicles":50,"d":1200,"route_I_counts":"{\"3\": 50}","source":53,"target":52,"layer":"L","from":"徐州金山桥(地铁站)","to":"徐州杨庄(地铁站)"},"geometry":{"type":"LineString","coordinates":[[117.233889,34.29468],[117.223856,34.29022]]}},{"type":"Feature","properties":{"shape_id":"{}","direction_id":"{\"0\": 50}","headsign":"{}","duration_avg":180,"n_vehicles":50,"d":1800,"route_I_counts":"{\"3\": 50}","source":53,"target":54,"layer":"L","from":"徐州金山桥(地铁站)","to":"徐州经贸学校(地铁站)"},"geometry":{"type":"LineString","coordinates":[[117.233889,34.29468],[117.243451,34.300583]]}},{"type":"Feature","properties":{"shape_id":"{}","direction_id":"{\"1\": 50}","headsign":"{}","duration_avg":180,"n_vehicles":50,"d":1800,"route_I_counts":"{\"3\": 50}","source":54,"target":53,"layer":"L","from":"徐州经贸学校(地铁站)","to":"徐州金山桥(地铁站)"},"geometry":{"type":"LineString","coordinates":[[117.243451,34.300583],[117.233889,34.29468]]}},{"type":"Feature","properties":{"shape_id":"{}","direction_id":"{\"0\": 50}","headsign":"{}","duration_avg":180,"n_vehicles":50,"d":1800,"route_I_counts":"{\"3\": 50}","source":54,"target":55,"layer":"L","from":"徐州经贸学校(地铁站)","to":"徐州蟠桃(地铁站)"},"geometry":{"type":"LineString","coordinates":[[117.243451,34.300583],[117.265864,34.301255]]}},{"type":"Feature","properties":{"shape_id":"{}","direction_id":"{\"1\": 50}","headsign":"{}","duration_avg":180,"n_vehicles":50,"d":1800,"route_I_counts":"{\"3\": 50}","source":55,"target":54,"layer":"L","from":"徐州蟠桃(地铁站)","to":"徐州经贸学校(地铁站)"},"geometry":{"type":"LineString","coordinates":[[117.265864,34.301255],[117.243451,34.300583]]}},{"type":"Feature","properties":{"shape_id":"{}","direction_id":"{\"0\": 50}","headsign":"{}","duration_avg":120,"n_vehicles":50,"d":1200,"route_I_counts":"{\"3\": 50}","source":55,"target":56,"layer":"L","from":"徐州蟠桃(地铁站)","to":"徐州振兴大道(地铁站)"},"geometry":{"type":"LineString","coordinates":[[117.265864,34.301255],[117.276209,34.301215]]}},{"type":"Feature","properties":{"shape_id":"{}","direction_id":"{\"1\": 50}","headsign":"{}","duration_avg":120,"n_vehicles":50,"d":1200,"route_I_counts":"{\"3\": 50}","source":56,"target":55,"layer":"L","from":"徐州振兴大道(地铁站)","to":"徐州蟠桃(地铁站)"},"geometry":{"type":"LineString","coordinates":[[117.276209,34.301215],[117.265864,34.301255]]}}]}