{"type":"FeatureCollection","features":[{"type":"Feature","geometry":{"type":"Point","coordinates":[139.466502,35.396565]},"properties":{"name":"湘南台","original_ids":"[1]","id":0,"layer":"stop"}},{"type":"Feature","geometry":{"type":"Point","coordinates":[139.482969,35.403362]},"properties":{"name":"下飯田","original_ids":"[2]","id":1,"layer":"stop"}},{"type":"Feature","geometry":{"type":"Point","coordinates":[139.50028,35.41423]},"properties":{"name":"立場","original_ids":"[3]","id":2,"layer":"stop"}},{"type":"Feature","geometry":{"type":"Point","coordinates":[139.511324,35.411199]},"properties":{"name":"中田","original_ids":"[4]","id":3,"layer":"stop"}},{"type":"Feature","geometry":{"type":"Point","coordinates":[139.518501,35.405704]},"properties":{"name":"踊場","original_ids":"[5]","id":4,"layer":"stop"}},{"type":"Feature","geometry":{"type":"Point","coordinates":[139.535125,35.401142]},"properties":{"name":"戸塚","original_ids":"[6]","id":5,"layer":"stop"}},{"type":"Feature","geometry":{"type":"Point","coordinates":[139.551498,35.402538]},"properties":{"name":"舞岡","original_ids":"[7]","id":6,"layer":"stop"}},{"type":"Feature","geometry":{"type":"Point","coordinates":[139.559275,35.402844]},"properties":{"name":"下永谷","original_ids":"[8]","id":7,"layer":"stop"}},{"type":"Feature","geometry":{"type":"Point","coordinates":[139.573079,35.401456]},"properties":{"name":"上永谷","original_ids":"[9]","id":8,"layer":"stop"}},{"type":"Feature","geometry":{"type":"Point","coordinates":[139.591578,35.401317]},"properties":{"name":"港南中央","original_ids":"[10]","id":9,"layer":"stop"}},{"type":"Feature","geometry":{"type":"Point","coordinates":[139.595875,35.408451]},"properties":{"name":"上大岡","original_ids":"[11]","id":10,"layer":"stop"}},{"type":"Feature","geometry":{"type":"Point","coordinates":[139.602039,35.423152]},"properties":{"name":"弘明寺","original_ids":"[12]","id":11,"layer":"stop"}},{"type":"Feature","geometry":{"type":"Point","coordinates":[139.610464,35.430203]},"properties":{"name":"蒔田","original_ids":"[13]","id":12,"layer":"stop"}},{"type":"Feature","geometry":{"type":"Point","coordinates":[139.61888,35.435424]},"properties":{"name":"吉野町","original_ids":"[14]","id":13,"layer":"stop"}},{"type":"Feature","geometry":{"type":"Point","coordinates":[139.625296,35.437646]},"properties":{"name":"阪東橋","original_ids":"[15]","id":14,"layer":"stop"}},{"type":"Feature","geometry":{"type":"Point","coordinates":[139.632601,35.441008]},"properties":{"name":"伊勢佐木長者町","original_ids":"[16]","id":15,"layer":"stop"}},{"type":"Feature","geometry":{"type":"Point","coordinates":[139.635978,35.445714]},"properties":{"name":"関内","original_ids":"[17]","id":16,"layer":"stop"}},{"type":"Feature","geometry":{"type":"Point","coordinates":[139.630626,35.449761]},"properties":{"name":"桜木町","original_ids":"[18]","id":17,"layer":"stop"}},{"type":"Feature","geometry":{"type":"Point","coordinates":[139.623477,35.458945]},"properties":{"name":"高島町","original_ids":"[19]","id":18,"layer":"stop"}},{"type":"Feature","geometry":{"type":"Point","coordinates":[139.619948,35.465624]},"properties":{"name":"横浜","original_ids":"[20]","id":19,"layer":"stop"}},{"type":"Feature","geometry":{"type":"Point","coordinates":[139.615042,35.476517]},"properties":{"name":"三ツ沢下町","original_ids":"[21]","id":20,"layer":"stop"}},{"type":"Feature","geometry":{"type":"Point","coordinates":[139.605408,35.47642]},"properties":{"name":"三ツ沢上町","original_ids":"[22]","id":21,"layer":"stop"}},{"type":"Feature","geometry":{"type":"Point","coordinates":[139.606518,35.489974]},"properties":{"name":"片倉町","original_ids":"[23]","id":22,"layer":"stop"}},{"type":"Feature","geometry":{"type":"Point","coordinates":[139.616656,35.495556]},"properties":{"name":"岸根公園","original_ids":"[24]","id":23,"layer":"stop"}},{"type":"Feature","geometry":{"type":"Point","coordinates":[139.617318,35.508876]},"properties":{"name":"新横浜","original_ids":"[25]","id":24,"layer":"stop"}},{"type":"Feature","geometry":{"type":"Point","coordinates":[139.612816,35.519237]},"properties":{"name":"北新横浜","original_ids":"[26]","id":25,"layer":"stop"}},{"type":"Feature","geometry":{"type":"Point","coordinates":[139.612377,35.527081]},"properties":{"name":"新羽","original_ids":"[27]","id":26,"layer":"stop"}},{"type":"Feature","geometry":{"type":"Point","coordinates":[139.589828,35.53523]},"properties":{"name":"仲町台","original_ids":"[28]","id":27,"layer":"stop"}},{"type":"Feature","geometry":{"type":"Point","coordinates":[139.574713,35.545633]},"properties":{"name":"センター南","original_ids":"[29]","id":28,"layer":"stop"}},{"type":"Feature","geometry":{"type":"Point","coordinates":[139.579045,35.553383]},"properties":{"name":"センター北","original_ids":"[30]","id":29,"layer":"stop"}},{"type":"Feature","geometry":{"type":"Point","coordinates":[139.570296,35.562659]},"properties":{"name":"中川","original_ids":"[31]","id":30,"layer":"stop"}},{"type":"Feature","geometry":{"type":"Point","coordinates":[139.553876,35.568022]},"properties":{"name":"あざみ野","original_ids":"[32]","id":31,"layer":"stop"}},{"type":"Feature","geometry":{"type":"Point","coordinates":[139.540439,35.515143]},"properties":{"name":"中山","original_ids":"[33]","id":32,"layer":"stop"}},{"type":"Feature","geometry":{"type":"Point","coordinates":[139.549265,35.528382]},"properties":{"name":"川和町","original_ids":"[34]","id":33,"layer":"stop"}},{"type":"Feature","geometry":{"type":"Point","coordinates":[139.561611,35.536637]},"properties":{"name":"都筑ふれあいの丘","original_ids":"[35]","id":34,"layer":"stop"}},{"type":"Feature","geometry":{"type":"Point","coordinates":[139.592827,35.56095]},"properties":{"name":"北山田","original_ids":"[36]","id":35,"layer":"stop"}},{"type":"Feature","geometry":{"type":"Point","coordinates":[139.604928,35.554184]},"properties":{"name":"東山田","original_ids":"[37]","id":36,"layer":"stop"}},{"type":"Feature","geometry":{"type":"Point","coordinates":[139.620231,35.549594]},"properties":{"name":"高田","original_ids":"[38]","id":37,"layer":"stop"}},{"type":"Feature","geometry":{"type":"Point","coordinates":[139.633413,35.549961]},"properties":{"name":"日吉本町","original_ids":"[39]","id":38,"layer":"stop"}},{"type":"Feature","geometry":{"type":"Point","coordinates":[139.647449,35.553207]},"properties":{"name":"日吉","original_ids":"[40]","id":39,"layer":"stop"}},{"type":"Feature","properties":{"shape_id":"{}","direction_id":"{\"0\": 50}","headsign":"{}","duration_avg":183,"n_vehicles":50,"d":1830,"route_I_counts":"{\"1\": 50}","source":0,"target":1,"layer":"L","from":"湘南台","to":"下飯田"},"geometry":{"type":"LineString","coordinates":[[139.466502,35.396565],[139.482969,35.403362]]}},{"type":"Feature","properties":{"shape_id":"{}","direction_id":"{\"1\": 50}","headsign":"{}","duration_avg":183,"n_vehicles":50,"d":1830,"route_I_counts":"{\"1\": 50}","source":1,"target":0,"layer":"L","from":"下飯田","to":"湘南台"},"geometry":{"type":"LineString","coordinates":[[139.482969,35.403362],[139.466502,35.396565]]}},{"type":"Feature","properties":{"shape_id":"{}","direction_id":"{\"0\": 50}","headsign":"{}","duration_avg":216,"n_vehicles":50,"d":2160,"route_I_counts":"{\"1\": 50}","source":1,"target":2,"layer":"L","from":"下飯田","to":"立場"},"geometry":{"type":"LineString","coordinates":[[139.482969,35.403362],[139.50028,35.41423]]}},{"type":"Feature","properties":{"shape_id":"{}","direction_id":"{\"1\": 50}","headsign":"{}","duration_avg":216,"n_vehicles":50,"d":2160,"route_I_counts":"{\"1\": 50}","source":2,"target":1,"layer":"L","from":"立場","to":"下飯田"},"geometry":{"type":"LineString","coordinates":[[139.50028,35.41423],[139.482969,35.403362]]}},{"type":"Feature","properties":{"shape_id":"{}","direction_id":"{\"0\": 50}","headsign":"{}","duration_avg":115,"n_vehicles":50,"d":1150,"route_I_counts":"{\"1\": 50}","source":2,"target":3,"layer":"L","from":"立場","to":"中田"},"geometry":{"type":"LineString","coordinates":[[139.50028,35.41423],[139.511324,35.411199]]}},{"type":"Feature","properties":{"shape_id":"{}","direction_id":"{\"1\": 50}","headsign":"{}","duration_avg":115,"n_vehicles":50,"d":1150,"route_I_counts":"{\"1\": 50}","source":3,"target":2,"layer":"L","from":"中田","to":"立場"},"geometry":{"type":"LineString","coordinates":[[139.511324,35.411199],[139.50028,35.41423]]}},{"type":"Feature","properties":{"shape_id":"{}","direction_id":"{\"0\": 50}","headsign":"{}","duration_avg":97,"n_vehicles":50,"d":970,"route_I_counts":"{\"1\": 50}","source":3,"target":4,"layer":"L","from":"中田","to":"踊場"},"geometry":{"type":"LineString","coordinates":[[139.511324,35.411199],[139.518501,35.405704]]}},{"type":"Feature","properties":{"shape_id":"{}","direction_id":"{\"1\": 50}","headsign":"{}","duration_avg":97,"n_vehicles":50,"d":970,"route_I_counts":"{\"1\": 50}","source":4,"target":3,"layer":"L","from":"踊場","to":"中田"},"geometry":{"type":"LineString","coordinates":[[139.518501,35.405704],[139.511324,35.411199]]}},{"type":"Feature","properties":{"shape_id":"{}","direction_id":"{\"0\": 50}","headsign":"{}","duration_avg":173,"n_vehicles":50,"d":1730,"route_I_counts":"{\"1\": 50}","source":4,"target":5,"layer":"L","from":"踊場","to":"戸塚"},"geometry":{"type":"LineString","coordinates":[[139.518501,35.405704],[139.535125,35.401142]]}},{"type":"Feature","properties":{"shape_id":"{}","direction_id":"{\"1\": 50}","headsign":"{}","duration_avg":173,"n_vehicles":50,"d":1730,"route_I_counts":"{\"1\": 50}","source":5,"target":4,"layer":"L","from":"戸塚","to":"踊場"},"geometry":{"type":"LineString","coordinates":[[139.535125,35.401142],[139.518501,35.405704]]}},{"type":"Feature","properties":{"shape_id":"{}","direction_id":"{\"0\": 50}","headsign":"{}","duration_avg":163,"n_vehicles":50,"d":1630,"route_I_counts":"{\"1\": 50}","source":5,"target":6,"layer":"L","from":"戸塚","to":"舞岡"},"geometry":{"type":"LineString","coordinates":[[139.535125,35.401142],[139.551498,35.402538]]}},{"type":"Feature","properties":{"shape_id":"{}","direction_id":"{\"1\": 50}","headsign":"{}","duration_avg":163,"n_vehicles":50,"d":1630,"route_I_counts":"{\"1\": 50}","source":6,"target":5,"layer":"L","from":"舞岡","to":"戸塚"},"geometry":{"type":"LineString","coordinates":[[139.551498,35.402538],[139.535125,35.401142]]}},{"type":"Feature","properties":{"shape_id":"{}","direction_id":"{\"0\": 50}","headsign":"{}","duration_avg":77,"n_vehicles":50,"d":770,"route_I_counts":"{\"1\": 50}","source":6,"target":7,"layer":"L","from":"舞岡","to":"下永谷"},"geometry":{"type":"LineString","coordinates":[[139.551498,35.402538],[139.559275,35.402844]]}},{"type":"Feature","properties":{"shape_id":"{}","direction_id":"{\"1\": 50}","headsign":"{}","duration_avg":77,"n_vehicles":50,"d":770,"route_I_counts":"{\"1\": 50}","source":7,"target":6,"layer":"L","from":"下永谷","to":"舞岡"},"geometry":{"type":"LineString","coordinates":[[139.559275,35.402844],[139.551498,35.402538]]}},{"type":"Feature","properties":{"shape_id":"{}","direction_id":"{\"0\": 50}","headsign":"{}","duration_avg":138,"n_vehicles":50,"d":1380,"route_I_counts":"{\"1\": 50}","source":7,"target":8,"layer":"L","from":"下永谷","to":"上永谷"},"geometry":{"type":"LineString","coordinates":[[139.559275,35.402844],[139.573079,35.401456]]}},{"type":"Feature","properties":{"shape_id":"{}","direction_id":"{\"1\": 50}","headsign":"{}","duration_avg":138,"n_vehicles":50,"d":1380,"route_I_counts":"{\"1\": 50}","source":8,"target":7,"layer":"L","from":"上永谷","to":"下永谷"},"geometry":{"type":"LineString","coordinates":[[139.573079,35.401456],[139.559275,35.402844]]}},{"type":"Feature","properties":{"shape_id":"{}","direction_id":"{\"0\": 50}","headsign":"{}","duration_avg":183,"n_vehicles":50,"d":1830,"route_I_counts":"{\"1\": 50}","source":8,"target":9,"layer":"L","from":"上永谷","to":"港南中央"},"geometry":{"type":"LineString","coordinates":[[139.573079,35.401456],[139.591578,35.401317]]}},{"type":"Feature","properties":{"shape_id":"{}","direction_id":"{\"1\": 50}","headsign":"{}","duration_avg":183,"n_vehicles":50,"d":1830,"route_I_counts":"{\"1\": 50}","source":9,"target":8,"layer":"L","from":"港南中央","to":"上永谷"},"geometry":{"type":"LineString","coordinates":[[139.591578,35.401317],[139.573079,35.401456]]}},{"type":"Feature","properties":{"shape_id":"{}","direction_id":"{\"0\": 50}","headsign":"{}","duration_avg":96,"n_vehicles":50,"d":960,"route_I_counts":"{\"1\": 50}","source":9,"target":10,"layer":"L","from":"港南中央","to":"上大岡"},"geometry":{"type":"LineString","coordinates":[[139.591578,35.401317],[139.595875,35.408451]]}},{"type":"Feature","properties":{"shape_id":"{}","direction_id":"{\"1\": 50}","headsign":"{}","duration_avg":96,"n_vehicles":50,"d":960,"route_I_counts":"{\"1\": 50}","source":10,"target":9,"layer":"L","from":"上大岡","to":"港南中央"},"geometry":{"type":"LineString","coordinates":[[139.595875,35.408451],[139.591578,35.401317]]}},{"type":"Feature","properties":{"shape_id":"{}","direction_id":"{\"0\": 50}","headsign":"{}","duration_avg":188,"n_vehicles":50,"d":1880,"route_I_counts":"{\"1\": 50}","source":10,"target":11,"layer":"L","from":"上大岡","to":"弘明寺"},"geometry":{"type":"LineString","coordinates":[[139.595875,35.408451],[139.602039,35.423152]]}},{"type":"Feature","properties":{"shape_id":"{}","direction_id":"{\"1\": 50}","headsign":"{}","duration_avg":188,"n_vehicles":50,"d":1880,"route_I_counts":"{\"1\": 50}","source":11,"target":10,"layer":"L","from":"弘明寺","to":"上大岡"},"geometry":{"type":"LineString","coordinates":[[139.602039,35.423152],[139.595875,35.408451]]}},{"type":"Feature","properties":{"shape_id":"{}","direction_id":"{\"0\": 50}","headsign":"{}","duration_avg":119,"n_vehicles":50,"d":1190,"route_I_counts":"{\"1\": 50}","source":11,"target":12,"layer":"L","from":"弘明寺","to":"蒔田"},"geometry":{"type":"LineString","coordinates":[[139.602039,35.423152],[139.610464,35.430203]]}},{"type":"Feature","properties":{"shape_id":"{}","direction_id":"{\"1\": 50}","headsign":"{}","duration_avg":119,"n_vehicles":50,"d":1190,"route_I_counts":"{\"1\": 50}","source":12,"target":11,"layer":"L","from":"蒔田","to":"弘明寺"},"geometry":{"type":"LineString","coordinates":[[139.610464,35.430203],[139.602039,35.423152]]}},{"type":"Feature","properties":{"shape_id":"{}","direction_id":"{\"0\": 50}","headsign":"{}","duration_avg":105,"n_vehicles":50,"d":1050,"route_I_counts":"{\"1\": 50}","source":12,"target":13,"layer":"L","from":"蒔田","to":"吉野町"},"geometry":{"type":"LineString","coordinates":[[139.610464,35.430203],[139.61888,35.435424]]}},{"type":"Feature","properties":{"shape_id":"{}","direction_id":"{\"1\": 50}","headsign":"{}","duration_avg":105,"n_vehicles":50,"d":1050,"route_I_counts":"{\"1\": 50}","source":13,"target":12,"layer":"L","from":"吉野町","to":"蒔田"},"geometry":{"type":"LineString","coordinates":[[139.61888,35.435424],[139.610464,35.430203]]}},{"type":"Feature","properties":{"shape_id":"{}","direction_id":"{\"0\": 50}","headsign":"{}","duration_avg":69,"n_vehicles":50,"d":690,"route_I_counts":"{\"1\": 50}","source":13,"target":14,"layer":"L","from":"吉野町","to":"阪東橋"},"geometry":{"type":"LineString","coordinates":[[139.61888,35.435424],[139.625296,35.437646]]}},{"type":"Feature","properties":{"shape_id":"{}","direction_id":"{\"1\": 50}","headsign":"{}","duration_avg":69,"n_vehicles":50,"d":690,"route_I_counts":"{\"1\": 50}","source":14,"target":13,"layer":"L","from":"阪東橋","to":"吉野町"},"geometry":{"type":"LineString","coordinates":[[139.625296,35.437646],[139.61888,35.435424]]}},{"type":"Feature","properties":{"shape_id":"{}","direction_id":"{\"0\": 50}","headsign":"{}","duration_avg":83,"n_vehicles":50,"d":830,"route_I_counts":"{\"1\": 50}","source":14,"target":15,"layer":"L","from":"阪東橋","to":"伊勢佐木長者町"},"geometry":{"type":"LineString","coordinates":[[139.625296,35.437646],[139.632601,35.441008]]}},{"type":"Feature","properties":{"shape_id":"{}","direction_id":"{\"1\": 50}","headsign":"{}","duration_avg":83,"n_vehicles":50,"d":830,"route_I_counts":"{\"1\": 50}","source":15,"target":14,"layer":"L","from":"伊勢佐木長者町","to":"阪東橋"},"geometry":{"type":"LineString","coordinates":[[139.632601,35.441008],[139.625296,35.437646]]}},{"type":"Feature","properties":{"shape_id":"{}","direction_id":"{\"0\": 50}","headsign":"{}","duration_avg":66,"n_vehicles":50,"d":660,"route_I_counts":"{\"1\": 50}","source":15,"target":16,"layer":"L","from":"伊勢佐木長者町","to":"関内"},"geometry":{"type":"LineString","coordinates":[[139.632601,35.441008],[139.635978,35.445714]]}},{"type":"Feature","properties":{"shape_id":"{}","direction_id":"{\"1\": 50}","headsign":"{}","duration_avg":66,"n_vehicles":50,"d":660,"route_I_counts":"{\"1\": 50}","source":16,"target":15,"layer":"L","from":"関内","to":"伊勢佐木長者町"},"geometry":{"type":"LineString","coordinates":[[139.635978,35.445714],[139.632601,35.441008]]}},{"type":"Feature","properties":{"shape_id":"{}","direction_id":"{\"0\": 50}","headsign":"{}","duration_avg":72,"n_vehicles":50,"d":720,"route_I_counts":"{\"1\": 50}","source":16,"target":17,"layer":"L","from":"関内","to":"桜木町"},"geometry":{"type":"LineString","coordinates":[[139.635978,35.445714],[139.630626,35.449761]]}},{"type":"Feature","properties":{"shape_id":"{}","direction_id":"{\"1\": 50}","headsign":"{}","duration_avg":72,"n_vehicles":50,"d":720,"route_I_counts":"{\"1\": 50}","source":17,"target":16,"layer":"L","from":"桜木町","to":"関内"},"geometry":{"type":"LineString","coordinates":[[139.630626,35.449761],[139.635978,35.445714]]}},{"type":"Feature","properties":{"shape_id":"{}","direction_id":"{\"0\": 50}","headsign":"{}","duration_avg":132,"n_vehicles":50,"d":1320,"route_I_counts":"{\"1\": 50}","source":17,"target":18,"layer":"L","from":"桜木町","to":"高島町"},"geometry":{"type":"LineString","coordinates":[[139.630626,35.449761],[139.623477,35.458945]]}},{"type":"Feature","properties":{"shape_id":"{}","direction_id":"{\"1\": 50}","headsign":"{}","duration_avg":132,"n_vehicles":50,"d":1320,"route_I_counts":"{\"1\": 50}","source":18,"target":17,"layer":"L","from":"高島町","to":"桜木町"},"geometry":{"type":"LineString","coordinates":[[139.623477,35.458945],[139.630626,35.449761]]}},{"type":"Feature","properties":{"shape_id":"{}","direction_id":"{\"0\": 50}","headsign":"{}","duration_avg":88,"n_vehicles":50,"d":880,"route_I_counts":"{\"1\": 50}","source":18,"target":19,"layer":"L","from":"高島町","to":"横浜"},"geometry":{"type":"LineString","coordinates":[[139.623477,35.458945],[139.619948,35.465624]]}},{"type":"Feature","properties":{"shape_id":"{}","direction_id":"{\"1\": 50}","headsign":"{}","duration_avg":88,"n_vehicles":50,"d":880,"route_I_counts":"{\"1\": 50}","source":19,"target":18,"layer":"L","from":"横浜","to":"高島町"},"geometry":{"type":"LineString","coordinates":[[139.619948,35.465624],[139.623477,35.458945]]}},{"type":"Feature","properties":{"shape_id":"{}","direction_id":"{\"0\": 50}","headsign":"{}","duration_avg":141,"n_vehicles":50,"d":1410,"route_I_counts":"{\"1\": 50}","source":19,"target":20,"layer":"L","from":"横浜","to":"三ツ沢下町"},"geometry":{"type":"LineString","coordinates":[[139.619948,35.465624],[139.615042,35.476517]]}},{"type":"Feature","properties":{"shape_id":"{}","direction_id":"{\"1\": 50}","headsign":"{}","duration_avg":141,"n_vehicles":50,"d":1410,"route_I_counts":"{\"1\": 50}","source":20,"target":19,"layer":"L","from":"三ツ沢下町","to":"横浜"},"geometry":{"type":"LineString","coordinates":[[139.615042,35.476517],[139.619948,35.465624]]}},{"type":"Feature","properties":{"shape_id":"{}","direction_id":"{\"0\": 50}","headsign":"{}","duration_avg":95,"n_vehicles":50,"d":950,"route_I_counts":"{\"1\": 50}","source":20,"target":21,"layer":"L","from":"三ツ沢下町","to":"三ツ沢上町"},"geometry":{"type":"LineString","coordinates":[[139.615042,35.476517],[139.605408,35.47642]]}},{"type":"Feature","properties":{"shape_id":"{}","direction_id":"{\"1\": 50}","headsign":"{}","duration_avg":95,"n_vehicles":50,"d":950,"route_I_counts":"{\"1\": 50}","source":21,"target":20,"layer":"L","from":"三ツ沢上町","to":"三ツ沢下町"},"geometry":{"type":"LineString","coordinates":[[139.605408,35.47642],[139.615042,35.476517]]}},{"type":"Feature","properties":{"shape_id":"{}","direction_id":"{\"0\": 50}","headsign":"{}","duration_avg":165,"n_vehicles":50,"d":1650,"route_I_counts":"{\"1\": 50}","source":21,"target":22,"layer":"L","from":"三ツ沢上町","to":"片倉町"},"geometry":{"type":"LineString","coordinates":[[139.605408,35.47642],[139.606518,35.489974]]}},{"type":"Feature","properties":{"shape_id":"{}","direction_id":"{\"1\": 50}","headsign":"{}","duration_avg":165,"n_vehicles":50,"d":1650,"route_I_counts":"{\"1\": 50}","source":22,"target":21,"layer":"L","from":"片倉町","to":"三ツ沢上町"},"geometry":{"type":"LineString","coordinates":[[139.606518,35.489974],[139.605408,35.47642]]}},{"type":"Feature","properties":{"shape_id":"{}","direction_id":"{\"0\": 50}","headsign":"{}","duration_avg":121,"n_vehicles":50,"d":1210,"route_I_counts":"{\"1\": 50}","source":22,"target":23,"layer":"L","from":"片倉町","to":"岸根公園"},"geometry":{"type":"LineString","coordinates":[[139.606518,35.489974],[139.616656,35.495556]]}},{"type":"Feature","properties":{"shape_id":"{}","direction_id":"{\"1\": 50}","headsign":"{}","duration_avg":121,"n_vehicles":50,"d":1210,"route_I_counts":"{\"1\": 50}","source":23,"target":22,"layer":"L","from":"岸根公園","to":"片倉町"},"geometry":{"type":"LineString","coordinates":[[139.616656,35.495556],[139.606518,35.489974]]}},{"type":"Feature","properties":{"shape_id":"{}","direction_id":"{\"0\": 50}","headsign":"{}","duration_avg":162,"n_vehicles":50,"d":1620,"route_I_counts":"{\"1\": 50}","source":23,"target":24,"layer":"L","from":"岸根公園","to":"新横浜"},"geometry":{"type":"LineString","coordinates":[[139.616656,35.495556],[139.617318,35.508876]]}},{"type":"Feature","properties":{"shape_id":"{}","direction_id":"{\"1\": 50}","headsign":"{}","duration_avg":162,"n_vehicles":50,"d":1620,"route_I_counts":"{\"1\": 50}","source":24,"target":23,"layer":"L","from":"新横浜","to":"岸根公園"},"geometry":{"type":"LineString","coordinates":[[139.617318,35.508876],[139.616656,35.495556]]}},{"type":"Feature","properties":{"shape_id":"{}","direction_id":"{\"0\": 50}","headsign":"{}","duration_avg":133,"n_vehicles":50,"d":1330,"route_I_counts":"{\"1\": 50}","source":24,"target":25,"layer":"L","from":"新横浜","to":"北新横浜"},"geometry":{"type":"LineString","coordinates":[[139.617318,35.508876],[139.612816,35.519237]]}},{"type":"Feature","properties":{"shape_id":"{}","direction_id":"{\"1\": 50}","headsign":"{}","duration_avg":133,"n_vehicles":50,"d":1330,"route_I_counts":"{\"1\": 50}","source":25,"target":24,"layer":"L","from":"北新横浜","to":"新横浜"},"geometry":{"type":"LineString","coordinates":[[139.612816,35.519237],[139.617318,35.508876]]}},{"type":"Feature","properties":{"shape_id":"{}","direction_id":"{\"0\": 50}","headsign":"{}","duration_avg":95,"n_vehicles":50,"d":950,"route_I_counts":"{\"1\": 50}","source":25,"target":26,"layer":"L","from":"北新横浜","to":"新羽"},"geometry":{"type":"LineString","coordinates":[[139.612816,35.519237],[139.612377,35.527081]]}},{"type":"Feature","properties":{"shape_id":"{}","direction_id":"{\"1\": 50}","headsign":"{}","duration_avg":95,"n_vehicles":50,"d":950,"route_I_counts":"{\"1\": 50}","source":26,"target":25,"layer":"L","from":"新羽","to":"北新横浜"},"geometry":{"type":"LineString","coordinates":[[139.612377,35.527081],[139.612816,35.519237]]}},{"type":"Feature","properties":{"shape_id":"{}","direction_id":"{\"0\": 50}","headsign":"{}","duration_avg":244,"n_vehicles":50,"d":2440,"route_I_counts":"{\"1\": 50}","source":26,"target":27,"layer":"L","from":"新羽","to":"仲町台"},"geometry":{"type":"LineString","coordinates":[[139.612377,35.527081],[139.589828,35.53523]]}},{"type":"Feature","properties":{"shape_id":"{}","direction_id":"{\"1\": 50}","headsign":"{}","duration_avg":244,"n_vehicles":50,"d":2440,"route_I_counts":"{\"1\": 50}","source":27,"target":26,"layer":"L","from":"仲町台","to":"新羽"},"geometry":{"type":"LineString","coordinates":[[139.589828,35.53523],[139.612377,35.527081]]}},{"type":"Feature","properties":{"shape_id":"{}","direction_id":"{\"0\": 50}","headsign":"{}","duration_avg":195,"n_vehicles":50,"d":1950,"route_I_counts":"{\"1\": 50}","source":27,"target":28,"layer":"L","from":"仲町台","to":"センター南"},"geometry":{"type":"LineString","coordinates":[[139.589828,35.53523],[139.574713,35.545633]]}},{"type":"Feature","properties":{"shape_id":"{}","direction_id":"{\"1\": 50}","headsign":"{}","duration_avg":195,"n_vehicles":50,"d":1950,"route_I_counts":"{\"1\": 50}","source":28,"target":27,"layer":"L","from":"センター南","to":"仲町台"},"geometry":{"type":"LineString","coordinates":[[139.574713,35.545633],[139.589828,35.53523]]}},{"type":"Feature","properties":{"shape_id":"{}","direction_id":"{\"0\": 50}","headsign":"{}","duration_avg":103,"n_vehicles":50,"d":1030,"route_I_counts":"{\"1\": 50, \"2\": 50}","source":28,"target":29,"layer":"L","from":"センター南","to":"センター北"},"geometry":{"type":"LineString","coordinates":[[139.574713,35.545633],[139.579045,35.553383]]}},{"type":"Feature","properties":{"shape_id":"{}","direction_id":"{\"1\": 50}","headsign":"{}","duration_avg":103,"n_vehicles":50,"d":1030,"route_I_counts":"{\"1\": 50, \"2\": 50}","source":29,"target":28,"layer":"L","from":"センター北","to":"センター南"},"geometry":{"type":"LineString","coordinates":[[139.579045,35.553383],[139.574713,35.545633]]}},{"type":"Feature","properties":{"shape_id":"{}","direction_id":"{\"0\": 50}","headsign":"{}","duration_avg":142,"n_vehicles":50,"d":1420,"route_I_counts":"{\"1\": 50}","source":29,"target":30,"layer":"L","from":"センター北","to":"中川"},"geometry":{"type":"LineString","coordinates":[[139.579045,35.553383],[139.570296,35.562659]]}},{"type":"Feature","properties":{"shape_id":"{}","direction_id":"{\"1\": 50}","headsign":"{}","duration_avg":142,"n_vehicles":50,"d":1420,"route_I_counts":"{\"1\": 50}","source":30,"target":29,"layer":"L","from":"中川","to":"センター北"},"geometry":{"type":"LineString","coordinates":[[139.570296,35.562659],[139.579045,35.553383]]}},{"type":"Feature","properties":{"shape_id":"{}","direction_id":"{\"0\": 50}","headsign":"{}","duration_avg":175,"n_vehicles":50,"d":1750,"route_I_counts":"{\"1\": 50}","source":30,"target":31,"layer":"L","from":"中川","to":"あざみ野"},"geometry":{"type":"LineString","coordinates":[[139.570296,35.562659],[139.553876,35.568022]]}},{"type":"Feature","properties":{"shape_id":"{}","direction_id":"{\"1\": 50}","headsign":"{}","duration_avg":175,"n_vehicles":50,"d":1750,"route_I_counts":"{\"1\": 50}","source":31,"target":30,"layer":"L","from":"あざみ野","to":"中川"},"geometry":{"type":"LineString","coordinates":[[139.553876,35.568022],[139.570296,35.562659]]}},{"type":"Feature","properties":{"shape_id":"{}","direction_id":"{\"0\": 50}","headsign":"{}","duration_avg":183,"n_vehicles":50,"d":1830,"route_I_counts":"{\"2\": 50}","source":32,"target":33,"layer":"L","from":"中山","to":"川和町"},"geometry":{"type":"LineString","coordinates":[[139.540439,35.515143],[139.549265,35.528382]]}},{"type":"Feature","properties":{"shape_id":"{}","direction_id":"{\"1\": 50}","headsign":"{}","duration_avg":183,"n_vehicles":50,"d":1830,"route_I_counts":"{\"2\": 50}","source":33,"target":32,"layer":"L","from":"川和町","to":"中山"},"geometry":{"type":"LineString","coordinates":[[139.549265,35.528382],[139.540439,35.515143]]}},{"type":"Feature","properties":{"shape_id":"{}","direction_id":"{\"0\": 50}","headsign":"{}","duration_avg":158,"n_vehicles":50,"d":1580,"route_I_counts":"{\"2\": 50}","source":33,"target":34,"layer":"L","from":"川和町","to":"都筑ふれあいの丘"},"geometry":{"type":"LineString","coordinates":[[139.549265,35.528382],[139.561611,35.536637]]}},{"type":"Feature","properties":{"shape_id":"{}","direction_id":"{\"1\": 50}","headsign":"{}","duration_avg":158,"n_vehicles":50,"d":1580,"route_I_counts":"{\"2\": 50}","source":34,"target":33,"layer":"L","from":"都筑ふれあいの丘","to":"川和町"},"geometry":{"type":"LineString","coordinates":[[139.561611,35.536637],[139.549265,35.528382]]}},{"type":"Feature","properties":{"shape_id":"{}","direction_id":"{\"0\": 50}","headsign":"{}","duration_avg":169,"n_vehicles":50,"d":1690,"route_I_counts":"{\"2\": 50}","source":34,"target":28,"layer":"L","from":"都筑ふれあいの丘","to":"センター南"},"geometry":{"type":"LineString","coordinates":[[139.561611,35.536637],[139.574713,35.545633]]}},{"type":"Feature","properties":{"shape_id":"{}","direction_id":"{\"1\": 50}","headsign":"{}","duration_avg":169,"n_vehicles":50,"d":1690,"route_I_counts":"{\"2\": 50}","source":28,"target":34,"layer":"L","from":"センター南","to":"都筑ふれあいの丘"},"geometry":{"type":"LineString","coordinates":[[139.574713,35.545633],[139.561611,35.536637]]}},{"type":"Feature","properties":{"shape_id":"{}","direction_id":"{\"0\": 50}","headsign":"{}","duration_avg":164,"n_vehicles":50,"d":1640,"route_I_counts":"{\"2\": 50}","source":29,"target":35,"layer":"L","from":"センター北","to":"北山田"},"geometry":{"type":"LineString","coordinates":[[139.579045,35.553383],[139.592827,35.56095]]}},{"type":"Feature","properties":{"shape_id":"{}","direction_id":"{\"1\": 50}","headsign":"{}","duration_avg":164,"n_vehicles":50,"d":1640,"route_I_counts":"{\"2\": 50}","source":35,"target":29,"layer":"L","from":"北山田","to":"センター北"},"geometry":{"type":"LineString","coordinates":[[139.592827,35.56095],[139.579045,35.553383]]}},{"type":"Feature","properties":{"shape_id":"{}","direction_id":"{\"0\": 50}","headsign":"{}","duration_avg":145,"n_vehicles":50,"d":1450,"route_I_counts":"{\"2\": 50}","source":35,"target":36,"layer":"L","from":"北山田","to":"東山田"},"geometry":{"type":"LineString","coordinates":[[139.592827,35.56095],[139.604928,35.554184]]}},{"type":"Feature","properties":{"shape_id":"{}","direction_id":"{\"1\": 50}","headsign":"{}","duration_avg":145,"n_vehicles":50,"d":1450,"route_I_counts":"{\"2\": 50}","source":36,"target":35,"layer":"L","from":"東山田","to":"北山田"},"geometry":{"type":"LineString","coordinates":[[139.604928,35.554184],[139.592827,35.56095]]}},{"type":"Feature","properties":{"shape_id":"{}","direction_id":"{\"0\": 50}","headsign":"{}","duration_avg":161,"n_vehicles":50,"d":1610,"route_I_counts":"{\"2\": 50}","source":36,"target":37,"layer":"L","from":"東山田","to":"高田"},"geometry":{"type":"LineString","coordinates":[[139.604928,35.554184],[139.620231,35.549594]]}},{"type":"Feature","properties":{"shape_id":"{}","direction_id":"{\"1\": 50}","headsign":"{}","duration_avg":161,"n_vehicles":50,"d":1610,"route_I_counts":"{\"2\": 50}","source":37,"target":36,"layer":"L","from":"高田","to":"東山田"},"geometry":{"type":"LineString","coordinates":[[139.620231,35.549594],[139.604928,35.554184]]}},{"type":"Feature","properties":{"shape_id":"{}","direction_id":"{\"0\": 50}","headsign":"{}","duration_avg":130,"n_vehicles":50,"d":1300,"route_I_counts":"{\"2\": 50}","source":37,"target":38,"layer":"L","from":"高田","to":"日吉本町"},"geometry":{"type":"LineString","coordinates":[[139.620231,35.549594],[139.633413,35.549961]]}},{"type":"Feature","properties":{"shape_id":"{}","direction_id":"{\"1\": 50}","headsign":"{}","duration_avg":130,"n_vehicles":50,"d":1300,"route_I_counts":"{\"2\": 50}","source":38,"target":37,"layer":"L","from":"日吉本町","to":"高田"},"geometry":{"type":"LineString","coordinates":[[139.633413,35.549961],[139.620231,35.549594]]}},{"type":"Feature","properties":{"shape_id":"{}","direction_id":"{\"0\": 50}","headsign":"{}","duration_avg":144,"n_vehicles":50,"d":1440,"route_I_counts":"{\"2\": 50}","source":38,"target":39,"layer":"L","from":"日吉本町","to":"日吉"},"geometry":{"type":"LineString","coordinates":[[139.633413,35.549961],[139.647449,35.553207]]}},{"type":"Feature","properties":{"shape_id":"{}","direction_id":"{\"1\": 50}","headsign":"{}","duration_avg":144,"n_vehicles":50,"d":1440,"route_I_counts":"{\"2\": 50}","source":39,"target":38,"layer":"L","from":"日吉","to":"日吉本町"},"geometry":{"type":"LineString","coordinates":[[139.647449,35.553207],[139.633413,35.549961]]}}]}