{"type":"FeatureCollection","features":[{"type":"Feature","geometry":{"type":"Point","coordinates":[87.471316,43.899581]},"properties":{"name":"乌鲁木齐国际机场(地铁站)","original_ids":"[1]","id":0,"layer":"stop"}},{"type":"Feature","geometry":{"type":"Point","coordinates":[87.493429,43.895218]},"properties":{"name":"乌鲁木齐大地窝堡(地铁站)","original_ids":"[2]","id":1,"layer":"stop"}},{"type":"Feature","geometry":{"type":"Point","coordinates":[87.519446,43.913404]},"properties":{"name":"乌鲁木齐宣仁墩(地铁站)","original_ids":"[3]","id":2,"layer":"stop"}},{"type":"Feature","geometry":{"type":"Point","coordinates":[87.532013,43.908897]},"properties":{"name":"乌鲁木齐三工(地铁站)","original_ids":"[4]","id":3,"layer":"stop"}},{"type":"Feature","geometry":{"type":"Point","coordinates":[87.538904,43.898889]},"properties":{"name":"乌鲁木齐迎宾路口(地铁站)","original_ids":"[5]","id":4,"layer":"stop"}},{"type":"Feature","geometry":{"type":"Point","coordinates":[87.545216,43.889651]},"properties":{"name":"乌鲁木齐植物园(地铁站)","original_ids":"[6]","id":5,"layer":"stop"}},{"type":"Feature","geometry":{"type":"Point","coordinates":[87.552261,43.879294]},"properties":{"name":"乌鲁木齐体育中心(地铁站)","original_ids":"[7]","id":6,"layer":"stop"}},{"type":"Feature","geometry":{"type":"Point","coordinates":[87.559348,43.86897]},"properties":{"name":"乌鲁木齐铁路局(地铁站)","original_ids":"[8]","id":7,"layer":"stop"}},{"type":"Feature","geometry":{"type":"Point","coordinates":[87.56338,43.85905]},"properties":{"name":"乌鲁木齐小西沟(地铁站)","original_ids":"[9]","id":8,"layer":"stop"}},{"type":"Feature","geometry":{"type":"Point","coordinates":[87.568771,43.846556]},"properties":{"name":"乌鲁木齐中营工(地铁站)","original_ids":"[10]","id":9,"layer":"stop"}},{"type":"Feature","geometry":{"type":"Point","coordinates":[87.571768,43.839477]},"properties":{"name":"乌鲁木齐新疆图书馆(地铁站)","original_ids":"[11]","id":10,"layer":"stop"}},{"type":"Feature","geometry":{"type":"Point","coordinates":[87.581669,43.833501]},"properties":{"name":"乌鲁木齐八楼(地铁站)","original_ids":"[12]","id":11,"layer":"stop"}},{"type":"Feature","geometry":{"type":"Point","coordinates":[87.600354,43.835809]},"properties":{"name":"乌鲁木齐王家梁(地铁站)","original_ids":"[13]","id":12,"layer":"stop"}},{"type":"Feature","geometry":{"type":"Point","coordinates":[87.60963,43.83163]},"properties":{"name":"乌鲁木齐南湖北路(地铁站)","original_ids":"[14]","id":13,"layer":"stop"}},{"type":"Feature","geometry":{"type":"Point","coordinates":[87.610625,43.820723]},"properties":{"name":"乌鲁木齐南湖广场(地铁站)","original_ids":"[15]","id":14,"layer":"stop"}},{"type":"Feature","geometry":{"type":"Point","coordinates":[87.612147,43.81241]},"properties":{"name":"乌鲁木齐新兴街(地铁站)","original_ids":"[16]","id":15,"layer":"stop"}},{"type":"Feature","geometry":{"type":"Point","coordinates":[87.618219,43.800311]},"properties":{"name":"乌鲁木齐北门(地铁站)","original_ids":"[17]","id":16,"layer":"stop"}},{"type":"Feature","geometry":{"type":"Point","coordinates":[87.617778,43.790261]},"properties":{"name":"乌鲁木齐南门(地铁站)","original_ids":"[18]","id":17,"layer":"stop"}},{"type":"Feature","geometry":{"type":"Point","coordinates":[87.614032,43.778681]},"properties":{"name":"乌鲁木齐二道桥(地铁站)","original_ids":"[19]","id":18,"layer":"stop"}},{"type":"Feature","geometry":{"type":"Point","coordinates":[87.611219,43.768269]},"properties":{"name":"乌鲁木齐新疆大学(地铁站)","original_ids":"[20]","id":19,"layer":"stop"}},{"type":"Feature","geometry":{"type":"Point","coordinates":[87.607908,43.760211]},"properties":{"name":"乌鲁木齐三屯碑(地铁站)","original_ids":"[21]","id":20,"layer":"stop"}},{"type":"Feature","geometry":{"type":"Point","coordinates":[87.480336,43.916714]},"properties":{"name":"国际机场北","original_ids":"[22]","id":21,"layer":"stop"}},{"type":"Feature","properties":{"shape_id":"{}","direction_id":"{\"0\": 50}","headsign":"{}","duration_avg":180,"n_vehicles":50,"d":1800,"route_I_counts":"{\"1\": 50}","source":0,"target":1,"layer":"L","from":"乌鲁木齐国际机场(地铁站)","to":"乌鲁木齐大地窝堡(地铁站)"},"geometry":{"type":"LineString","coordinates":[[87.471316,43.899581],[87.493429,43.895218]]}},{"type":"Feature","properties":{"shape_id":"{}","direction_id":"{\"1\": 50}","headsign":"{}","duration_avg":180,"n_vehicles":50,"d":1800,"route_I_counts":"{\"1\": 50}","source":1,"target":0,"layer":"L","from":"乌鲁木齐大地窝堡(地铁站)","to":"乌鲁木齐国际机场(地铁站)"},"geometry":{"type":"LineString","coordinates":[[87.493429,43.895218],[87.471316,43.899581]]}},{"type":"Feature","properties":{"shape_id":"{}","direction_id":"{\"0\": 50}","headsign":"{}","duration_avg":180,"n_vehicles":50,"d":1800,"route_I_counts":"{\"1\": 50}","source":1,"target":2,"layer":"L","from":"乌鲁木齐大地窝堡(地铁站)","to":"乌鲁木齐宣仁墩(地铁站)"},"geometry":{"type":"LineString","coordinates":[[87.493429,43.895218],[87.519446,43.913404]]}},{"type":"Feature","properties":{"shape_id":"{}","direction_id":"{\"1\": 50}","headsign":"{}","duration_avg":180,"n_vehicles":50,"d":1800,"route_I_counts":"{\"1\": 50}","source":2,"target":1,"layer":"L","from":"乌鲁木齐宣仁墩(地铁站)","to":"乌鲁木齐大地窝堡(地铁站)"},"geometry":{"type":"LineString","coordinates":[[87.519446,43.913404],[87.493429,43.895218]]}},{"type":"Feature","properties":{"shape_id":"{}","direction_id":"{\"0\": 50}","headsign":"{}","duration_avg":180,"n_vehicles":50,"d":1800,"route_I_counts":"{\"1\": 50}","source":2,"target":3,"layer":"L","from":"乌鲁木齐宣仁墩(地铁站)","to":"乌鲁木齐三工(地铁站)"},"geometry":{"type":"LineString","coordinates":[[87.519446,43.913404],[87.532013,43.908897]]}},{"type":"Feature","properties":{"shape_id":"{}","direction_id":"{\"1\": 50}","headsign":"{}","duration_avg":180,"n_vehicles":50,"d":1800,"route_I_counts":"{\"1\": 50}","source":3,"target":2,"layer":"L","from":"乌鲁木齐三工(地铁站)","to":"乌鲁木齐宣仁墩(地铁站)"},"geometry":{"type":"LineString","coordinates":[[87.532013,43.908897],[87.519446,43.913404]]}},{"type":"Feature","properties":{"shape_id":"{}","direction_id":"{\"0\": 50}","headsign":"{}","duration_avg":120,"n_vehicles":50,"d":1200,"route_I_counts":"{\"1\": 50}","source":3,"target":4,"layer":"L","from":"乌鲁木齐三工(地铁站)","to":"乌鲁木齐迎宾路口(地铁站)"},"geometry":{"type":"LineString","coordinates":[[87.532013,43.908897],[87.538904,43.898889]]}},{"type":"Feature","properties":{"shape_id":"{}","direction_id":"{\"1\": 50}","headsign":"{}","duration_avg":120,"n_vehicles":50,"d":1200,"route_I_counts":"{\"1\": 50}","source":4,"target":3,"layer":"L","from":"乌鲁木齐迎宾路口(地铁站)","to":"乌鲁木齐三工(地铁站)"},"geometry":{"type":"LineString","coordinates":[[87.538904,43.898889],[87.532013,43.908897]]}},{"type":"Feature","properties":{"shape_id":"{}","direction_id":"{\"0\": 50}","headsign":"{}","duration_avg":120,"n_vehicles":50,"d":1200,"route_I_counts":"{\"1\": 50}","source":4,"target":5,"layer":"L","from":"乌鲁木齐迎宾路口(地铁站)","to":"乌鲁木齐植物园(地铁站)"},"geometry":{"type":"LineString","coordinates":[[87.538904,43.898889],[87.545216,43.889651]]}},{"type":"Feature","properties":{"shape_id":"{}","direction_id":"{\"1\": 50}","headsign":"{}","duration_avg":120,"n_vehicles":50,"d":1200,"route_I_counts":"{\"1\": 50}","source":5,"target":4,"layer":"L","from":"乌鲁木齐植物园(地铁站)","to":"乌鲁木齐迎宾路口(地铁站)"},"geometry":{"type":"LineString","coordinates":[[87.545216,43.889651],[87.538904,43.898889]]}},{"type":"Feature","properties":{"shape_id":"{}","direction_id":"{\"0\": 50}","headsign":"{}","duration_avg":180,"n_vehicles":50,"d":1800,"route_I_counts":"{\"1\": 50}","source":5,"target":6,"layer":"L","from":"乌鲁木齐植物园(地铁站)","to":"乌鲁木齐体育中心(地铁站)"},"geometry":{"type":"LineString","coordinates":[[87.545216,43.889651],[87.552261,43.879294]]}},{"type":"Feature","properties":{"shape_id":"{}","direction_id":"{\"1\": 50}","headsign":"{}","duration_avg":180,"n_vehicles":50,"d":1800,"route_I_counts":"{\"1\": 50}","source":6,"target":5,"layer":"L","from":"乌鲁木齐体育中心(地铁站)","to":"乌鲁木齐植物园(地铁站)"},"geometry":{"type":"LineString","coordinates":[[87.552261,43.879294],[87.545216,43.889651]]}},{"type":"Feature","properties":{"shape_id":"{}","direction_id":"{\"0\": 50}","headsign":"{}","duration_avg":120,"n_vehicles":50,"d":1200,"route_I_counts":"{\"1\": 50}","source":6,"target":7,"layer":"L","from":"乌鲁木齐体育中心(地铁站)","to":"乌鲁木齐铁路局(地铁站)"},"geometry":{"type":"LineString","coordinates":[[87.552261,43.879294],[87.559348,43.86897]]}},{"type":"Feature","properties":{"shape_id":"{}","direction_id":"{\"1\": 50}","headsign":"{}","duration_avg":120,"n_vehicles":50,"d":1200,"route_I_counts":"{\"1\": 50}","source":7,"target":6,"layer":"L","from":"乌鲁木齐铁路局(地铁站)","to":"乌鲁木齐体育中心(地铁站)"},"geometry":{"type":"LineString","coordinates":[[87.559348,43.86897],[87.552261,43.879294]]}},{"type":"Feature","properties":{"shape_id":"{}","direction_id":"{\"0\": 50}","headsign":"{}","duration_avg":180,"n_vehicles":50,"d":1800,"route_I_counts":"{\"1\": 50}","source":7,"target":8,"layer":"L","from":"乌鲁木齐铁路局(地铁站)","to":"乌鲁木齐小西沟(地铁站)"},"geometry":{"type":"LineString","coordinates":[[87.559348,43.86897],[87.56338,43.85905]]}},{"type":"Feature","properties":{"shape_id":"{}","direction_id":"{\"1\": 50}","headsign":"{}","duration_avg":180,"n_vehicles":50,"d":1800,"route_I_counts":"{\"1\": 50}","source":8,"target":7,"layer":"L","from":"乌鲁木齐小西沟(地铁站)","to":"乌鲁木齐铁路局(地铁站)"},"geometry":{"type":"LineString","coordinates":[[87.56338,43.85905],[87.559348,43.86897]]}},{"type":"Feature","properties":{"shape_id":"{}","direction_id":"{\"0\": 50}","headsign":"{}","duration_avg":120,"n_vehicles":50,"d":1200,"route_I_counts":"{\"1\": 50}","source":8,"target":9,"layer":"L","from":"乌鲁木齐小西沟(地铁站)","to":"乌鲁木齐中营工(地铁站)"},"geometry":{"type":"LineString","coordinates":[[87.56338,43.85905],[87.568771,43.846556]]}},{"type":"Feature","properties":{"shape_id":"{}","direction_id":"{\"1\": 50}","headsign":"{}","duration_avg":120,"n_vehicles":50,"d":1200,"route_I_counts":"{\"1\": 50}","source":9,"target":8,"layer":"L","from":"乌鲁木齐中营工(地铁站)","to":"乌鲁木齐小西沟(地铁站)"},"geometry":{"type":"LineString","coordinates":[[87.568771,43.846556],[87.56338,43.85905]]}},{"type":"Feature","properties":{"shape_id":"{}","direction_id":"{\"0\": 50}","headsign":"{}","duration_avg":120,"n_vehicles":50,"d":1200,"route_I_counts":"{\"1\": 50}","source":9,"target":10,"layer":"L","from":"乌鲁木齐中营工(地铁站)","to":"乌鲁木齐新疆图书馆(地铁站)"},"geometry":{"type":"LineString","coordinates":[[87.568771,43.846556],[87.571768,43.839477]]}},{"type":"Feature","properties":{"shape_id":"{}","direction_id":"{\"1\": 50}","headsign":"{}","duration_avg":120,"n_vehicles":50,"d":1200,"route_I_counts":"{\"1\": 50}","source":10,"target":9,"layer":"L","from":"乌鲁木齐新疆图书馆(地铁站)","to":"乌鲁木齐中营工(地铁站)"},"geometry":{"type":"LineString","coordinates":[[87.571768,43.839477],[87.568771,43.846556]]}},{"type":"Feature","properties":{"shape_id":"{}","direction_id":"{\"0\": 50}","headsign":"{}","duration_avg":180,"n_vehicles":50,"d":1800,"route_I_counts":"{\"1\": 50}","source":10,"target":11,"layer":"L","from":"乌鲁木齐新疆图书馆(地铁站)","to":"乌鲁木齐八楼(地铁站)"},"geometry":{"type":"LineString","coordinates":[[87.571768,43.839477],[87.581669,43.833501]]}},{"type":"Feature","properties":{"shape_id":"{}","direction_id":"{\"1\": 50}","headsign":"{}","duration_avg":180,"n_vehicles":50,"d":1800,"route_I_counts":"{\"1\": 50}","source":11,"target":10,"layer":"L","from":"乌鲁木齐八楼(地铁站)","to":"乌鲁木齐新疆图书馆(地铁站)"},"geometry":{"type":"LineString","coordinates":[[87.581669,43.833501],[87.571768,43.839477]]}},{"type":"Feature","properties":{"shape_id":"{}","direction_id":"{\"0\": 50}","headsign":"{}","duration_avg":120,"n_vehicles":50,"d":1200,"route_I_counts":"{\"1\": 50}","source":11,"target":12,"layer":"L","from":"乌鲁木齐八楼(地铁站)","to":"乌鲁木齐王家梁(地铁站)"},"geometry":{"type":"LineString","coordinates":[[87.581669,43.833501],[87.600354,43.835809]]}},{"type":"Feature","properties":{"shape_id":"{}","direction_id":"{\"1\": 50}","headsign":"{}","duration_avg":120,"n_vehicles":50,"d":1200,"route_I_counts":"{\"1\": 50}","source":12,"target":11,"layer":"L","from":"乌鲁木齐王家梁(地铁站)","to":"乌鲁木齐八楼(地铁站)"},"geometry":{"type":"LineString","coordinates":[[87.600354,43.835809],[87.581669,43.833501]]}},{"type":"Feature","properties":{"shape_id":"{}","direction_id":"{\"0\": 50}","headsign":"{}","duration_avg":120,"n_vehicles":50,"d":1200,"route_I_counts":"{\"1\": 50}","source":12,"target":13,"layer":"L","from":"乌鲁木齐王家梁(地铁站)","to":"乌鲁木齐南湖北路(地铁站)"},"geometry":{"type":"LineString","coordinates":[[87.600354,43.835809],[87.60963,43.83163]]}},{"type":"Feature","properties":{"shape_id":"{}","direction_id":"{\"1\": 50}","headsign":"{}","duration_avg":120,"n_vehicles":50,"d":1200,"route_I_counts":"{\"1\": 50}","source":13,"target":12,"layer":"L","from":"乌鲁木齐南湖北路(地铁站)","to":"乌鲁木齐王家梁(地铁站)"},"geometry":{"type":"LineString","coordinates":[[87.60963,43.83163],[87.600354,43.835809]]}},{"type":"Feature","properties":{"shape_id":"{}","direction_id":"{\"0\": 50}","headsign":"{}","duration_avg":120,"n_vehicles":50,"d":1200,"route_I_counts":"{\"1\": 50}","source":13,"target":14,"layer":"L","from":"乌鲁木齐南湖北路(地铁站)","to":"乌鲁木齐南湖广场(地铁站)"},"geometry":{"type":"LineString","coordinates":[[87.60963,43.83163],[87.610625,43.820723]]}},{"type":"Feature","properties":{"shape_id":"{}","direction_id":"{\"1\": 50}","headsign":"{}","duration_avg":120,"n_vehicles":50,"d":1200,"route_I_counts":"{\"1\": 50}","source":14,"target":13,"layer":"L","from":"乌鲁木齐南湖广场(地铁站)","to":"乌鲁木齐南湖北路(地铁站)"},"geometry":{"type":"LineString","coordinates":[[87.610625,43.820723],[87.60963,43.83163]]}},{"type":"Feature","properties":{"shape_id":"{}","direction_id":"{\"0\": 50}","headsign":"{}","duration_avg":120,"n_vehicles":50,"d":1200,"route_I_counts":"{\"1\": 50}","source":14,"target":15,"layer":"L","from":"乌鲁木齐南湖广场(地铁站)","to":"乌鲁木齐新兴街(地铁站)"},"geometry":{"type":"LineString","coordinates":[[87.610625,43.820723],[87.612147,43.81241]]}},{"type":"Feature","properties":{"shape_id":"{}","direction_id":"{\"1\": 50}","headsign":"{}","duration_avg":120,"n_vehicles":50,"d":1200,"route_I_counts":"{\"1\": 50}","source":15,"target":14,"layer":"L","from":"乌鲁木齐新兴街(地铁站)","to":"乌鲁木齐南湖广场(地铁站)"},"geometry":{"type":"LineString","coordinates":[[87.612147,43.81241],[87.610625,43.820723]]}},{"type":"Feature","properties":{"shape_id":"{}","direction_id":"{\"0\": 50}","headsign":"{}","duration_avg":180,"n_vehicles":50,"d":1800,"route_I_counts":"{\"1\": 50}","source":15,"target":16,"layer":"L","from":"乌鲁木齐新兴街(地铁站)","to":"乌鲁木齐北门(地铁站)"},"geometry":{"type":"LineString","coordinates":[[87.612147,43.81241],[87.618219,43.800311]]}},{"type":"Feature","properties":{"shape_id":"{}","direction_id":"{\"1\": 50}","headsign":"{}","duration_avg":180,"n_vehicles":50,"d":1800,"route_I_counts":"{\"1\": 50}","source":16,"target":15,"layer":"L","from":"乌鲁木齐北门(地铁站)","to":"乌鲁木齐新兴街(地铁站)"},"geometry":{"type":"LineString","coordinates":[[87.618219,43.800311],[87.612147,43.81241]]}},{"type":"Feature","properties":{"shape_id":"{}","direction_id":"{\"0\": 50}","headsign":"{}","duration_avg":120,"n_vehicles":50,"d":1200,"route_I_counts":"{\"1\": 50}","source":16,"target":17,"layer":"L","from":"乌鲁木齐北门(地铁站)","to":"乌鲁木齐南门(地铁站)"},"geometry":{"type":"LineString","coordinates":[[87.618219,43.800311],[87.617778,43.790261]]}},{"type":"Feature","properties":{"shape_id":"{}","direction_id":"{\"1\": 50}","headsign":"{}","duration_avg":120,"n_vehicles":50,"d":1200,"route_I_counts":"{\"1\": 50}","source":17,"target":16,"layer":"L","from":"乌鲁木齐南门(地铁站)","to":"乌鲁木齐北门(地铁站)"},"geometry":{"type":"LineString","coordinates":[[87.617778,43.790261],[87.618219,43.800311]]}},{"type":"Feature","properties":{"shape_id":"{}","direction_id":"{\"0\": 50}","headsign":"{}","duration_avg":120,"n_vehicles":50,"d":1200,"route_I_counts":"{\"1\": 50}","source":17,"target":18,"layer":"L","from":"乌鲁木齐南门(地铁站)","to":"乌鲁木齐二道桥(地铁站)"},"geometry":{"type":"LineString","coordinates":[[87.617778,43.790261],[87.614032,43.778681]]}},{"type":"Feature","properties":{"shape_id":"{}","direction_id":"{\"1\": 50}","headsign":"{}","duration_avg":120,"n_vehicles":50,"d":1200,"route_I_counts":"{\"1\": 50}","source":18,"target":17,"layer":"L","from":"乌鲁木齐二道桥(地铁站)","to":"乌鲁木齐南门(地铁站)"},"geometry":{"type":"LineString","coordinates":[[87.614032,43.778681],[87.617778,43.790261]]}},{"type":"Feature","properties":{"shape_id":"{}","direction_id":"{\"0\": 50}","headsign":"{}","duration_avg":180,"n_vehicles":50,"d":1800,"route_I_counts":"{\"1\": 50}","source":18,"target":19,"layer":"L","from":"乌鲁木齐二道桥(地铁站)","to":"乌鲁木齐新疆大学(地铁站)"},"geometry":{"type":"LineString","coordinates":[[87.614032,43.778681],[87.611219,43.768269]]}},{"type":"Feature","properties":{"shape_id":"{}","direction_id":"{\"1\": 50}","headsign":"{}","duration_avg":180,"n_vehicles":50,"d":1800,"route_I_counts":"{\"1\": 50}","source":19,"target":18,"layer":"L","from":"乌鲁木齐新疆大学(地铁站)","to":"乌鲁木齐二道桥(地铁站)"},"geometry":{"type":"LineString","coordinates":[[87.611219,43.768269],[87.614032,43.778681]]}},{"type":"Feature","properties":{"shape_id":"{}","direction_id":"{\"0\": 50}","headsign":"{}","duration_avg":120,"n_vehicles":50,"d":1200,"route_I_counts":"{\"1\": 50}","source":19,"target":20,"layer":"L","from":"乌鲁木齐新疆大学(地铁站)","to":"乌鲁木齐三屯碑(地铁站)"},"geometry":{"type":"LineString","coordinates":[[87.611219,43.768269],[87.607908,43.760211]]}},{"type":"Feature","properties":{"shape_id":"{}","direction_id":"{\"1\": 50}","headsign":"{}","duration_avg":120,"n_vehicles":50,"d":1200,"route_I_counts":"{\"1\": 50}","source":20,"target":19,"layer":"L","from":"乌鲁木齐三屯碑(地铁站)","to":"乌鲁木齐新疆大学(地铁站)"},"geometry":{"type":"LineString","coordinates":[[87.607908,43.760211],[87.611219,43.768269]]}},{"type":"Feature","properties":{"shape_id":"{}","direction_id":"{\"0\": 50}","headsign":"{}","duration_avg":300,"n_vehicles":50,"d":3000,"route_I_counts":"{\"2\": 50}","source":0,"target":21,"layer":"L","from":"乌鲁木齐国际机场(地铁站)","to":"国际机场北"},"geometry":{"type":"LineString","coordinates":[[87.471316,43.899581],[87.480336,43.916714]]}},{"type":"Feature","properties":{"shape_id":"{}","direction_id":"{\"1\": 50}","headsign":"{}","duration_avg":300,"n_vehicles":50,"d":3000,"route_I_counts":"{\"2\": 50}","source":21,"target":0,"layer":"L","from":"国际机场北","to":"乌鲁木齐国际机场(地铁站)"},"geometry":{"type":"LineString","coordinates":[[87.480336,43.916714],[87.471316,43.899581]]}}]}